[
 {
  "id": 1101031001,
  "districtId": 1101031,
  "districtName": "TELUK DALAM",
  "name": "KUALA BAKTI",
  "postalCode": "23891"
 },
 {
  "id": 1101031002,
  "districtId": 1101031,
  "districtName": "TELUK DALAM",
  "name": "LUGU SEBAHAK",
  "postalCode": ""
 },
 {
  "id": 1101031003,
  "districtId": 1101031,
  "districtName": "TELUK DALAM",
  "name": "GUNUNG PUTIH",
  "postalCode": "23891"
 },
 {
  "id": 1101031004,
  "districtId": 1101031,
  "districtName": "TELUK DALAM",
  "name": "BABUSSALAM",
  "postalCode": "24392"
 },
 {
  "id": 1101031005,
  "districtId": 1101031,
  "districtName": "TELUK DALAM",
  "name": "MUARA AMAN",
  "postalCode": "23891"
 },
 {
  "id": 1101031006,
  "districtId": 1101031,
  "districtName": "TELUK DALAM",
  "name": "LUAN BALU",
  "postalCode": "23891"
 },
 {
  "id": 1101031007,
  "districtId": 1101031,
  "districtName": "TELUK DALAM",
  "name": "SAMBAI",
  "postalCode": ""
 },
 {
  "id": 1101031008,
  "districtId": 1101031,
  "districtName": "TELUK DALAM",
  "name": "KUALA BARU",
  "postalCode": "23891"
 },
 {
  "id": 1101031009,
  "districtId": 1101031,
  "districtName": "TELUK DALAM",
  "name": "TANJUNG RAYA",
  "postalCode": "23891"
 },
 {
  "id": 1101031010,
  "districtId": 1101031,
  "districtName": "TELUK DALAM",
  "name": "BULU HADIK",
  "postalCode": "23891"
 }
]