[
 {
  "id": 1101032001,
  "districtId": 1101032,
  "districtName": "SIMEULUE CUT",
  "name": "BUBUHAN",
  "postalCode": "23894"
 },
 {
  "id": 1101032002,
  "districtId": 1101032,
  "districtName": "SIMEULUE CUT",
  "name": "AMARABU",
  "postalCode": "23894"
 },
 {
  "id": 1101032003,
  "districtId": 1101032,
  "districtName": "SIMEULUE CUT",
  "name": "KUTA INANG",
  "postalCode": "23894"
 },
 {
  "id": 1101032004,
  "districtId": 1101032,
  "districtName": "SIMEULUE CUT",
  "name": "KUTA PADANG",
  "postalCode": "23652"
 },
 {
  "id": 1101032005,
  "districtId": 1101032,
  "districtName": "SIMEULUE CUT",
  "name": "LATAK AYAH",
  "postalCode": "23894"
 },
 {
  "id": 1101032006,
  "districtId": 1101032,
  "districtName": "SIMEULUE CUT",
  "name": "SIBULUH",
  "postalCode": "23894"
 },
 {
  "id": 1101032007,
  "districtId": 1101032,
  "districtName": "SIMEULUE CUT",
  "name": "BORENGAN",
  "postalCode": "23894"
 },
 {
  "id": 1101032008,
  "districtId": 1101032,
  "districtName": "SIMEULUE CUT",
  "name": "UJUNG PADANG",
  "postalCode": "23773"
 }
]