[
 {
  "id": 1102033001,
  "districtId": 1102033,
  "districtName": "SURO",
  "name": "MANDUMPANG",
  "postalCode": "24784"
 },
 {
  "id": 1102033002,
  "districtId": 1102033,
  "districtName": "SURO",
  "name": "ALUR LINCI",
  "postalCode": "24784"
 },
 {
  "id": 1102033003,
  "districtId": 1102033,
  "districtName": "SURO",
  "name": "SIRIMO MUNGKUR",
  "postalCode": "24784"
 },
 {
  "id": 1102033004,
  "districtId": 1102033,
  "districtName": "SURO",
  "name": "KERAS",
  "postalCode": "24784"
 },
 {
  "id": 1102033005,
  "districtId": 1102033,
  "districtName": "SURO",
  "name": "KETANGKUHAN",
  "postalCode": ""
 },
 {
  "id": 1102033006,
  "districtId": 1102033,
  "districtName": "SURO",
  "name": "SIOMPIN",
  "postalCode": "24784"
 },
 {
  "id": 1102033007,
  "districtId": 1102033,
  "districtName": "SURO",
  "name": "BULU ARA",
  "postalCode": "24784"
 },
 {
  "id": 1102033008,
  "districtId": 1102033,
  "districtName": "SURO",
  "name": "LAE BANGUN",
  "postalCode": "24784"
 },
 {
  "id": 1102033009,
  "districtId": 1102033,
  "districtName": "SURO",
  "name": "BULU SEMA",
  "postalCode": "24784"
 },
 {
  "id": 1102033010,
  "districtId": 1102033,
  "districtName": "SURO",
  "name": "PANGKALAN SULAMPI",
  "postalCode": "24784"
 },
 {
  "id": 1102033011,
  "districtId": 1102033,
  "districtName": "SURO",
  "name": "SURO BARU",
  "postalCode": "24784"
 }
]