[
 {
  "id": 1102030017,
  "districtId": 1102030,
  "districtName": "SIMPANG KANAN",
  "name": "PANGI",
  "postalCode": "24783"
 },
 {
  "id": 1102030026,
  "districtId": 1102030,
  "districtName": "SIMPANG KANAN",
  "name": "TUGAN",
  "postalCode": "24783"
 },
 {
  "id": 1102030027,
  "districtId": 1102030,
  "districtName": "SIMPANG KANAN",
  "name": "CIBUBUKAN",
  "postalCode": "24783"
 },
 {
  "id": 1102030028,
  "districtId": 1102030,
  "districtName": "SIMPANG KANAN",
  "name": "KAIN GOLONG",
  "postalCode": "24783"
 },
 {
  "id": 1102030029,
  "districtId": 1102030,
  "districtName": "SIMPANG KANAN",
  "name": "SUKAREJO",
  "postalCode": "24411"
 },
 {
  "id": 1102030030,
  "districtId": 1102030,
  "districtName": "SIMPANG KANAN",
  "name": "TUH TUHAN",
  "postalCode": "24783"
 },
 {
  "id": 1102030031,
  "districtId": 1102030,
  "districtName": "SIMPANG KANAN",
  "name": "LAE GECIH",
  "postalCode": "24783"
 },
 {
  "id": 1102030032,
  "districtId": 1102030,
  "districtName": "SIMPANG KANAN",
  "name": "SIATAS",
  "postalCode": "24783"
 },
 {
  "id": 1102030033,
  "districtId": 1102030,
  "districtName": "SIMPANG KANAN",
  "name": "KUTA KERANGAN",
  "postalCode": ""
 },
 {
  "id": 1102030034,
  "districtId": 1102030,
  "districtName": "SIMPANG KANAN",
  "name": "LIPAT KAJANG",
  "postalCode": "24783"
 },
 {
  "id": 1102030035,
  "districtId": 1102030,
  "districtName": "SIMPANG KANAN",
  "name": "TANJUNG MAS",
  "postalCode": "24783"
 },
 {
  "id": 1102030036,
  "districtId": 1102030,
  "districtName": "SIMPANG KANAN",
  "name": "SERASAH",
  "postalCode": "24783"
 },
 {
  "id": 1102030038,
  "districtId": 1102030,
  "districtName": "SIMPANG KANAN",
  "name": "UJUNG LIMUS",
  "postalCode": "24783"
 },
 {
  "id": 1102030039,
  "districtId": 1102030,
  "districtName": "SIMPANG KANAN",
  "name": "SILATONG",
  "postalCode": "24783"
 },
 {
  "id": 1102030040,
  "districtId": 1102030,
  "districtName": "SIMPANG KANAN",
  "name": "LAE RIMAN",
  "postalCode": "24783"
 },
 {
  "id": 1102030041,
  "districtId": 1102030,
  "districtName": "SIMPANG KANAN",
  "name": "PERTABAS",
  "postalCode": "24783"
 },
 {
  "id": 1102030042,
  "districtId": 1102030,
  "districtName": "SIMPANG KANAN",
  "name": "KUTA TINGGI",
  "postalCode": "23764"
 },
 {
  "id": 1102030043,
  "districtId": 1102030,
  "districtName": "SIMPANG KANAN",
  "name": "LAE NIPE",
  "postalCode": "24783"
 },
 {
  "id": 1102030044,
  "districtId": 1102030,
  "districtName": "SIMPANG KANAN",
  "name": "PAKIRAMAN",
  "postalCode": "24783"
 },
 {
  "id": 1102030048,
  "districtId": 1102030,
  "districtName": "SIMPANG KANAN",
  "name": "LAE GAMBIR",
  "postalCode": "24783"
 },
 {
  "id": 1102030049,
  "districtId": 1102030,
  "districtName": "SIMPANG KANAN",
  "name": "KUTA BATU",
  "postalCode": "23894"
 },
 {
  "id": 1102030050,
  "districtId": 1102030,
  "districtName": "SIMPANG KANAN",
  "name": "GUHA",
  "postalCode": "24783"
 },
 {
  "id": 1102030051,
  "districtId": 1102030,
  "districtName": "SIMPANG KANAN",
  "name": "LIPAT KAJANG ATAS",
  "postalCode": "24783"
 },
 {
  "id": 1102030052,
  "districtId": 1102030,
  "districtName": "SIMPANG KANAN",
  "name": "SIDODADI",
  "postalCode": "24582"
 },
 {
  "id": 1102030053,
  "districtId": 1102030,
  "districtName": "SIMPANG KANAN",
  "name": "PANDAN SARI",
  "postalCode": "24784"
 }
]