[
 {
  "id": 1103070001,
  "districtId": 1103070,
  "districtName": "SAWANG",
  "name": "SAWANG BAU",
  "postalCode": "23753"
 },
 {
  "id": 1103070002,
  "districtId": 1103070,
  "districtName": "SAWANG",
  "name": "UJUNG PADANG",
  "postalCode": "23773"
 },
 {
  "id": 1103070003,
  "districtId": 1103070,
  "districtName": "SAWANG",
  "name": "KUTA BARO",
  "postalCode": "24261"
 },
 {
  "id": 1103070004,
  "districtId": 1103070,
  "districtName": "SAWANG",
  "name": "SIMPANG III",
  "postalCode": ""
 },
 {
  "id": 1103070005,
  "districtId": 1103070,
  "districtName": "SAWANG",
  "name": "BLANG GELINGGANG",
  "postalCode": ""
 },
 {
  "id": 1103070006,
  "districtId": 1103070,
  "districtName": "SAWANG",
  "name": "MEULIGO",
  "postalCode": "23753"
 },
 {
  "id": 1103070007,
  "districtId": 1103070,
  "districtName": "SAWANG",
  "name": "SAWANG I",
  "postalCode": "23753"
 },
 {
  "id": 1103070008,
  "districtId": 1103070,
  "districtName": "SAWANG",
  "name": "SAWANG II",
  "postalCode": "23753"
 },
 {
  "id": 1103070009,
  "districtId": 1103070,
  "districtName": "SAWANG",
  "name": "UJUNG KARANG",
  "postalCode": "23753"
 },
 {
  "id": 1103070010,
  "districtId": 1103070,
  "districtName": "SAWANG",
  "name": "LHOK PAWOH",
  "postalCode": "23762"
 },
 {
  "id": 1103070011,
  "districtId": 1103070,
  "districtName": "SAWANG",
  "name": "PANTON LUAS",
  "postalCode": "23753"
 },
 {
  "id": 1103070012,
  "districtId": 1103070,
  "districtName": "SAWANG",
  "name": "TRIENG MEUDURO TUNONG",
  "postalCode": "23753"
 },
 {
  "id": 1103070013,
  "districtId": 1103070,
  "districtName": "SAWANG",
  "name": "TRIENG MEUDURO BAROH",
  "postalCode": "23753"
 },
 {
  "id": 1103070014,
  "districtId": 1103070,
  "districtName": "SAWANG",
  "name": "SIKULAT",
  "postalCode": "23753"
 },
 {
  "id": 1103070015,
  "districtId": 1103070,
  "districtName": "SAWANG",
  "name": "MUTIARA",
  "postalCode": "24582"
 }
]