[
 {
  "id": 1104050002,
  "districtId": 1104050,
  "districtName": "BADAR",
  "name": "KAMPUNG BARU",
  "postalCode": "24652"
 },
 {
  "id": 1104050003,
  "districtId": 1104050,
  "districtName": "BADAR",
  "name": "PURWODADI",
  "postalCode": "24652"
 },
 {
  "id": 1104050004,
  "districtId": 1104050,
  "districtName": "BADAR",
  "name": "LAWE BEKUNG",
  "postalCode": "24652"
 },
 {
  "id": 1104050005,
  "districtId": 1104050,
  "districtName": "BADAR",
  "name": "SALANG ALAS",
  "postalCode": "24652"
 },
 {
  "id": 1104050006,
  "districtId": 1104050,
  "districtName": "BADAR",
  "name": "KUTA TINGGI",
  "postalCode": "23764"
 },
 {
  "id": 1104050014,
  "districtId": 1104050,
  "districtName": "BADAR",
  "name": "PERANGINAN",
  "postalCode": "24652"
 },
 {
  "id": 1104050015,
  "districtId": 1104050,
  "districtName": "BADAR",
  "name": "KUTA PASIR",
  "postalCode": ""
 },
 {
  "id": 1104050022,
  "districtId": 1104050,
  "districtName": "BADAR",
  "name": "NATAM",
  "postalCode": "24652"
 },
 {
  "id": 1104050034,
  "districtId": 1104050,
  "districtName": "BADAR",
  "name": "KUMBANG JAYA",
  "postalCode": "24652"
 },
 {
  "id": 1104050035,
  "districtId": 1104050,
  "districtName": "BADAR",
  "name": "KUMBANG INDAH",
  "postalCode": "24652"
 },
 {
  "id": 1104050036,
  "districtId": 1104050,
  "districtName": "BADAR",
  "name": "DELENG MEGAKHE",
  "postalCode": "24652"
 },
 {
  "id": 1104050037,
  "districtId": 1104050,
  "districtName": "BADAR",
  "name": "LAWE BEKUNG TEMPAHAN",
  "postalCode": ""
 },
 {
  "id": 1104050038,
  "districtId": 1104050,
  "districtName": "BADAR",
  "name": "BADAR INDAH",
  "postalCode": "24652"
 },
 {
  "id": 1104050040,
  "districtId": 1104050,
  "districtName": "BADAR",
  "name": "NATAM BARU",
  "postalCode": "24652"
 },
 {
  "id": 1104050041,
  "districtId": 1104050,
  "districtName": "BADAR",
  "name": "TANAH MERAH",
  "postalCode": "24652"
 },
 {
  "id": 1104050042,
  "districtId": 1104050,
  "districtName": "BADAR",
  "name": "BATU MBERONG",
  "postalCode": "24652"
 },
 {
  "id": 1104050043,
  "districtId": 1104050,
  "districtName": "BADAR",
  "name": "LAWE SEKERAH",
  "postalCode": ""
 },
 {
  "id": 1104050044,
  "districtId": 1104050,
  "districtName": "BADAR",
  "name": "TANOH MEGAKHE",
  "postalCode": "24652"
 }
]