[
 {
  "id": 1104051001,
  "districtId": 1104051,
  "districtName": "DARUL HASANAH",
  "name": "GULO",
  "postalCode": "24653"
 },
 {
  "id": 1104051002,
  "districtId": 1104051,
  "districtName": "DARUL HASANAH",
  "name": "LAWE STUL",
  "postalCode": ""
 },
 {
  "id": 1104051003,
  "districtId": 1104051,
  "districtName": "DARUL HASANAH",
  "name": "KITE MERANGGUN",
  "postalCode": ""
 },
 {
  "id": 1104051004,
  "districtId": 1104051,
  "districtName": "DARUL HASANAH",
  "name": "PULO PIKU",
  "postalCode": "24653"
 },
 {
  "id": 1104051005,
  "districtId": 1104051,
  "districtName": "DARUL HASANAH",
  "name": "TERUTUNG KUTE",
  "postalCode": "24653"
 },
 {
  "id": 1104051006,
  "districtId": 1104051,
  "districtName": "DARUL HASANAH",
  "name": "KUTA UJUNG",
  "postalCode": "24655"
 },
 {
  "id": 1104051007,
  "districtId": 1104051,
  "districtName": "DARUL HASANAH",
  "name": "MAMAS",
  "postalCode": "24653"
 },
 {
  "id": 1104051008,
  "districtId": 1104051,
  "districtName": "DARUL HASANAH",
  "name": "TANJUNG LAMA",
  "postalCode": "24653"
 },
 {
  "id": 1104051009,
  "districtId": 1104051,
  "districtName": "DARUL HASANAH",
  "name": "TANJUNG MUDA",
  "postalCode": "24653"
 },
 {
  "id": 1104051010,
  "districtId": 1104051,
  "districtName": "DARUL HASANAH",
  "name": "TANJUNG AMAN",
  "postalCode": "24653"
 },
 {
  "id": 1104051011,
  "districtId": 1104051,
  "districtName": "DARUL HASANAH",
  "name": "RAMBUNG TELDAK",
  "postalCode": "24653"
 },
 {
  "id": 1104051012,
  "districtId": 1104051,
  "districtName": "DARUL HASANAH",
  "name": "SERIMUDA",
  "postalCode": "24653"
 },
 {
  "id": 1104051013,
  "districtId": 1104051,
  "districtName": "DARUL HASANAH",
  "name": "DARUL MAKMUR",
  "postalCode": "24653"
 },
 {
  "id": 1104051014,
  "districtId": 1104051,
  "districtName": "DARUL HASANAH",
  "name": "KUTE RAMBE",
  "postalCode": "24653"
 },
 {
  "id": 1104051015,
  "districtId": 1104051,
  "districtName": "DARUL HASANAH",
  "name": "UJUNG BARU",
  "postalCode": "24653"
 },
 {
  "id": 1104051016,
  "districtId": 1104051,
  "districtName": "DARUL HASANAH",
  "name": "MAMAS BARU",
  "postalCode": "24653"
 },
 {
  "id": 1104051017,
  "districtId": 1104051,
  "districtName": "DARUL HASANAH",
  "name": "RAMBUNG JAYA",
  "postalCode": "24653"
 },
 {
  "id": 1104051018,
  "districtId": 1104051,
  "districtName": "DARUL HASANAH",
  "name": "MAKMUR JAYA",
  "postalCode": "24653"
 },
 {
  "id": 1104051019,
  "districtId": 1104051,
  "districtName": "DARUL HASANAH",
  "name": "PULO GADUNG",
  "postalCode": "24653"
 },
 {
  "id": 1104051020,
  "districtId": 1104051,
  "districtName": "DARUL HASANAH",
  "name": "ISTIQOMAH",
  "postalCode": "24653"
 },
 {
  "id": 1104051021,
  "districtId": 1104051,
  "districtName": "DARUL HASANAH",
  "name": "KHOTAN JAYA",
  "postalCode": ""
 },
 {
  "id": 1104051022,
  "districtId": 1104051,
  "districtName": "DARUL HASANAH",
  "name": "LAWE MAMAS INDAH",
  "postalCode": "24653"
 },
 {
  "id": 1104051023,
  "districtId": 1104051,
  "districtName": "DARUL HASANAH",
  "name": "TANJUNG BARU",
  "postalCode": "22742"
 },
 {
  "id": 1104051024,
  "districtId": 1104051,
  "districtName": "DARUL HASANAH",
  "name": "SIMPANG IV TANJUNG",
  "postalCode": ""
 },
 {
  "id": 1104051025,
  "districtId": 1104051,
  "districtName": "DARUL HASANAH",
  "name": "TANJUNG LEUSER",
  "postalCode": "24653"
 },
 {
  "id": 1104051026,
  "districtId": 1104051,
  "districtName": "DARUL HASANAH",
  "name": "LAWE PINIS",
  "postalCode": "24653"
 },
 {
  "id": 1104051027,
  "districtId": 1104051,
  "districtName": "DARUL HASANAH",
  "name": "KUNING ABADI",
  "postalCode": "24653"
 },
 {
  "id": 1104051028,
  "districtId": 1104051,
  "districtName": "DARUL HASANAH",
  "name": "BUNTUL KENDAWI",
  "postalCode": "24653"
 }
]