[
 {
  "id": 1104022001,
  "districtId": 1104022,
  "districtName": "SEMADAM",
  "name": "LAWE KINGA T TINGGI",
  "postalCode": ""
 },
 {
  "id": 1104022002,
  "districtId": 1104022,
  "districtName": "SEMADAM",
  "name": "LAWE BERINGIN HORAS",
  "postalCode": "24678"
 },
 {
  "id": 1104022003,
  "districtId": 1104022,
  "districtName": "SEMADAM",
  "name": "LAWE BERINGIN GAYO",
  "postalCode": "24678"
 },
 {
  "id": 1104022004,
  "districtId": 1104022,
  "districtName": "SEMADAM",
  "name": "SUKA MAKMUR",
  "postalCode": "24784"
 },
 {
  "id": 1104022005,
  "districtId": 1104022,
  "districtName": "SEMADAM",
  "name": "NGK ALUR BULUH",
  "postalCode": ""
 },
 {
  "id": 1104022006,
  "districtId": 1104022,
  "districtName": "SEMADAM",
  "name": "SIMPANG SEMADAM",
  "postalCode": "24678"
 },
 {
  "id": 1104022007,
  "districtId": 1104022,
  "districtName": "SEMADAM",
  "name": "SEMADAM AWAL",
  "postalCode": "24678"
 },
 {
  "id": 1104022008,
  "districtId": 1104022,
  "districtName": "SEMADAM",
  "name": "KEBUN SERE",
  "postalCode": "24678"
 },
 {
  "id": 1104022009,
  "districtId": 1104022,
  "districtName": "SEMADAM",
  "name": "SEMADAM ASAL",
  "postalCode": "24678"
 },
 {
  "id": 1104022010,
  "districtId": 1104022,
  "districtName": "SEMADAM",
  "name": "LAWE KINGA GAB",
  "postalCode": ""
 },
 {
  "id": 1104022011,
  "districtId": 1104022,
  "districtName": "SEMADAM",
  "name": "TITI PASIR",
  "postalCode": "24678"
 },
 {
  "id": 1104022012,
  "districtId": 1104022,
  "districtName": "SEMADAM",
  "name": "PASAR PUNTUNG",
  "postalCode": ""
 },
 {
  "id": 1104022013,
  "districtId": 1104022,
  "districtName": "SEMADAM",
  "name": "LAWE PETANDUK",
  "postalCode": "24678"
 },
 {
  "id": 1104022014,
  "districtId": 1104022,
  "districtName": "SEMADAM",
  "name": "SEPAKAT SEGENEP",
  "postalCode": "24678"
 },
 {
  "id": 1104022015,
  "districtId": 1104022,
  "districtName": "SEMADAM",
  "name": "KAMPUNG BARU",
  "postalCode": "24652"
 },
 {
  "id": 1104022016,
  "districtId": 1104022,
  "districtName": "SEMADAM",
  "name": "SELAMAT INDAH",
  "postalCode": "24678"
 },
 {
  "id": 1104022017,
  "districtId": 1104022,
  "districtName": "SEMADAM",
  "name": "LAWE MEJILE",
  "postalCode": ""
 },
 {
  "id": 1104022018,
  "districtId": 1104022,
  "districtName": "SEMADAM",
  "name": "LAWE KINGA LAPTER",
  "postalCode": "24678"
 },
 {
  "id": 1104022019,
  "districtId": 1104022,
  "districtName": "SEMADAM",
  "name": "LAWE PETANDUK I",
  "postalCode": "24678"
 }
]