[
 {
  "id": 1104031001,
  "districtId": 1104031,
  "districtName": "BUKIT TUSAM",
  "name": "MAHA SINGKIL",
  "postalCode": "24671"
 },
 {
  "id": 1104031002,
  "districtId": 1104031,
  "districtName": "BUKIT TUSAM",
  "name": "TENEMBAK BINTANG",
  "postalCode": "24671"
 },
 {
  "id": 1104031003,
  "districtId": 1104031,
  "districtName": "BUKIT TUSAM",
  "name": "ALUR BULUH",
  "postalCode": ""
 },
 {
  "id": 1104031004,
  "districtId": 1104031,
  "districtName": "BUKIT TUSAM",
  "name": "TUALANG BARU",
  "postalCode": "24671"
 },
 {
  "id": 1104031005,
  "districtId": 1104031,
  "districtName": "BUKIT TUSAM",
  "name": "KUTA LENGAT PAGAN",
  "postalCode": "24671"
 },
 {
  "id": 1104031006,
  "districtId": 1104031,
  "districtName": "BUKIT TUSAM",
  "name": "KUTA LENGAT SELIAN",
  "postalCode": "24671"
 },
 {
  "id": 1104031007,
  "districtId": 1104031,
  "districtName": "BUKIT TUSAM",
  "name": "KUTA LINGGA",
  "postalCode": "24671"
 },
 {
  "id": 1104031008,
  "districtId": 1104031,
  "districtName": "BUKIT TUSAM",
  "name": "REMA",
  "postalCode": "24671"
 },
 {
  "id": 1104031009,
  "districtId": 1104031,
  "districtName": "BUKIT TUSAM",
  "name": "LAWE DUA GAB",
  "postalCode": ""
 },
 {
  "id": 1104031010,
  "districtId": 1104031,
  "districtName": "BUKIT TUSAM",
  "name": "KERUKUNAN",
  "postalCode": "24671"
 },
 {
  "id": 1104031012,
  "districtId": 1104031,
  "districtName": "BUKIT TUSAM",
  "name": "RIKIT BUR",
  "postalCode": "24671"
 },
 {
  "id": 1104031013,
  "districtId": 1104031,
  "districtName": "BUKIT TUSAM",
  "name": "AMALIAH",
  "postalCode": "24671"
 },
 {
  "id": 1104031014,
  "districtId": 1104031,
  "districtName": "BUKIT TUSAM",
  "name": "GUMPANG",
  "postalCode": "24671"
 },
 {
  "id": 1104031015,
  "districtId": 1104031,
  "districtName": "BUKIT TUSAM",
  "name": "PEJUANG",
  "postalCode": "24671"
 },
 {
  "id": 1104031016,
  "districtId": 1104031,
  "districtName": "BUKIT TUSAM",
  "name": "SEBUDI JAYA",
  "postalCode": "24671"
 },
 {
  "id": 1104031017,
  "districtId": 1104031,
  "districtName": "BUKIT TUSAM",
  "name": "BAMBEL BARU",
  "postalCode": "24671"
 },
 {
  "id": 1104031018,
  "districtId": 1104031,
  "districtName": "BUKIT TUSAM",
  "name": "DARUSSALAM",
  "postalCode": "24671"
 },
 {
  "id": 1104031019,
  "districtId": 1104031,
  "districtName": "BUKIT TUSAM",
  "name": "KUTE GEKHAT",
  "postalCode": "24671"
 },
 {
  "id": 1104031020,
  "districtId": 1104031,
  "districtName": "BUKIT TUSAM",
  "name": "MBAK SAKO",
  "postalCode": "24671"
 },
 {
  "id": 1104031021,
  "districtId": 1104031,
  "districtName": "BUKIT TUSAM",
  "name": "PAYE RAMBUNG",
  "postalCode": ""
 },
 {
  "id": 1104031022,
  "districtId": 1104031,
  "districtName": "BUKIT TUSAM",
  "name": "DARUL IMAMI",
  "postalCode": "24671"
 },
 {
  "id": 1104031023,
  "districtId": 1104031,
  "districtName": "BUKIT TUSAM",
  "name": "RIKIT BUR II",
  "postalCode": "24671"
 },
 {
  "id": 1104031024,
  "districtId": 1104031,
  "districtName": "BUKIT TUSAM",
  "name": "EMPAT LIMA",
  "postalCode": "24671"
 }
]