[
 {
  "id": 1105090001,
  "districtId": 1105090,
  "districtName": "BIREM BAYEUN",
  "name": "BUKET TIGA",
  "postalCode": "24452"
 },
 {
  "id": 1105090002,
  "districtId": 1105090,
  "districtName": "BIREM BAYEUN",
  "name": "BENTENG",
  "postalCode": "24452"
 },
 {
  "id": 1105090003,
  "districtId": 1105090,
  "districtName": "BIREM BAYEUN",
  "name": "AFD.II BUKET",
  "postalCode": ""
 },
 {
  "id": 1105090004,
  "districtId": 1105090,
  "districtName": "BIREM BAYEUN",
  "name": "ALUE DRIEN",
  "postalCode": "24452"
 },
 {
  "id": 1105090005,
  "districtId": 1105090,
  "districtName": "BIREM BAYEUN",
  "name": "ALUE CANANG",
  "postalCode": "24452"
 },
 {
  "id": 1105090006,
  "districtId": 1105090,
  "districtName": "BIREM BAYEUN",
  "name": "JAMBUR LABU",
  "postalCode": ""
 },
 {
  "id": 1105090007,
  "districtId": 1105090,
  "districtName": "BIREM BAYEUN",
  "name": "ALUE BULOH",
  "postalCode": "23671"
 },
 {
  "id": 1105090008,
  "districtId": 1105090,
  "districtName": "BIREM BAYEUN",
  "name": "PEUTOW",
  "postalCode": "24452"
 },
 {
  "id": 1105090009,
  "districtId": 1105090,
  "districtName": "BIREM BAYEUN",
  "name": "KEMUNING HULU",
  "postalCode": ""
 },
 {
  "id": 1105090010,
  "districtId": 1105090,
  "districtName": "BIREM BAYEUN",
  "name": "ALUE TEH",
  "postalCode": "24452"
 },
 {
  "id": 1105090011,
  "districtId": 1105090,
  "districtName": "BIREM BAYEUN",
  "name": "PAYA TAMPAH",
  "postalCode": "24452"
 },
 {
  "id": 1105090012,
  "districtId": 1105090,
  "districtName": "BIREM BAYEUN",
  "name": "PAYA BILI II",
  "postalCode": ""
 },
 {
  "id": 1105090013,
  "districtId": 1105090,
  "districtName": "BIREM BAYEUN",
  "name": "PAYA RAMBONG",
  "postalCode": "24452"
 },
 {
  "id": 1105090014,
  "districtId": 1105090,
  "districtName": "BIREM BAYEUN",
  "name": "ALUE GADENG SATU",
  "postalCode": "24452"
 },
 {
  "id": 1105090015,
  "districtId": 1105090,
  "districtName": "BIREM BAYEUN",
  "name": "BIREM RAYEUK",
  "postalCode": "24452"
 },
 {
  "id": 1105090016,
  "districtId": 1105090,
  "districtName": "BIREM BAYEUN",
  "name": "KEUDE BIREM",
  "postalCode": "24452"
 },
 {
  "id": 1105090017,
  "districtId": 1105090,
  "districtName": "BIREM BAYEUN",
  "name": "ARAMIYAH",
  "postalCode": "24452"
 },
 {
  "id": 1105090018,
  "districtId": 1105090,
  "districtName": "BIREM BAYEUN",
  "name": "PAYA BILI I",
  "postalCode": "24454"
 },
 {
  "id": 1105090019,
  "districtId": 1105090,
  "districtName": "BIREM BAYEUN",
  "name": "MERBAU II",
  "postalCode": ""
 },
 {
  "id": 1105090020,
  "districtId": 1105090,
  "districtName": "BIREM BAYEUN",
  "name": "PAYA PEULAWI",
  "postalCode": "24452"
 },
 {
  "id": 1105090021,
  "districtId": 1105090,
  "districtName": "BIREM BAYEUN",
  "name": "BAYEUN",
  "postalCode": "24452"
 },
 {
  "id": 1105090022,
  "districtId": 1105090,
  "districtName": "BIREM BAYEUN",
  "name": "ALUE GADENG",
  "postalCode": "24452"
 },
 {
  "id": 1105090023,
  "districtId": 1105090,
  "districtName": "BIREM BAYEUN",
  "name": "PERK. ALUE GADENG DUA",
  "postalCode": ""
 },
 {
  "id": 1105090024,
  "districtId": 1105090,
  "districtName": "BIREM BAYEUN",
  "name": "BUKIT SEULEMAK",
  "postalCode": ""
 },
 {
  "id": 1105090025,
  "districtId": 1105090,
  "districtName": "BIREM BAYEUN",
  "name": "BLANG TUALANG",
  "postalCode": "24452"
 },
 {
  "id": 1105090026,
  "districtId": 1105090,
  "districtName": "BIREM BAYEUN",
  "name": "ALUE SENTANG",
  "postalCode": "24452"
 },
 {
  "id": 1105090027,
  "districtId": 1105090,
  "districtName": "BIREM BAYEUN",
  "name": "ALUE NYAMUK",
  "postalCode": "24452"
 }
]