[
 {
  "id": 1105134001,
  "districtId": 1105134,
  "districtName": "DARUL IHSAN",
  "name": "SEUNEUBOK ACEH BARO",
  "postalCode": "24455"
 },
 {
  "id": 1105134002,
  "districtId": 1105134,
  "districtName": "DARUL IHSAN",
  "name": "LHOK LEUMAK",
  "postalCode": "24455"
 },
 {
  "id": 1105134003,
  "districtId": 1105134,
  "districtName": "DARUL IHSAN",
  "name": "SEUNEUBOK TEUNGOH (KD II)",
  "postalCode": ""
 },
 {
  "id": 1105134004,
  "districtId": 1105134,
  "districtName": "DARUL IHSAN",
  "name": "MEUNASAH ARON",
  "postalCode": "24355"
 },
 {
  "id": 1105134005,
  "districtId": 1105134,
  "districtName": "DARUL IHSAN",
  "name": "LHOK DALAM",
  "postalCode": "23893"
 },
 {
  "id": 1105134006,
  "districtId": 1105134,
  "districtName": "DARUL IHSAN",
  "name": "LHOK MEUREU",
  "postalCode": "24455"
 },
 {
  "id": 1105134007,
  "districtId": 1105134,
  "districtName": "DARUL IHSAN",
  "name": "PT. MEUREUBO",
  "postalCode": ""
 },
 {
  "id": 1105134008,
  "districtId": 1105134,
  "districtName": "DARUL IHSAN",
  "name": "KHOK PANJOU",
  "postalCode": ""
 },
 {
  "id": 1105134009,
  "districtId": 1105134,
  "districtName": "DARUL IHSAN",
  "name": "ALUE JANGAT",
  "postalCode": "24455"
 },
 {
  "id": 1105134010,
  "districtId": 1105134,
  "districtName": "DARUL IHSAN",
  "name": "MEDANG ARA",
  "postalCode": "24476"
 },
 {
  "id": 1105134011,
  "districtId": 1105134,
  "districtName": "DARUL IHSAN",
  "name": "SEUNEUBOK KULAM",
  "postalCode": "24455"
 },
 {
  "id": 1105134012,
  "districtId": 1105134,
  "districtName": "DARUL IHSAN",
  "name": "GUNONG PUTOH",
  "postalCode": "24455"
 },
 {
  "id": 1105134013,
  "districtId": 1105134,
  "districtName": "DARUL IHSAN",
  "name": "SEUNEUBOK LAPANG",
  "postalCode": "24455"
 },
 {
  "id": 1105134014,
  "districtId": 1105134,
  "districtName": "DARUL IHSAN",
  "name": "KEUDE DUA",
  "postalCode": "24455"
 },
 {
  "id": 1105134015,
  "districtId": 1105134,
  "districtName": "DARUL IHSAN",
  "name": "BUKET PEULAWI",
  "postalCode": "24455"
 },
 {
  "id": 1105134016,
  "districtId": 1105134,
  "districtName": "DARUL IHSAN",
  "name": "PULO BLANG",
  "postalCode": "24455"
 }
]