[
 {
  "id": 1105135001,
  "districtId": 1105135,
  "districtName": "IDI TIMUR",
  "name": "KETAPANG DUA",
  "postalCode": ""
 },
 {
  "id": 1105135002,
  "districtId": 1105135,
  "districtName": "IDI TIMUR",
  "name": "MATANG RAYEUK (SMK)",
  "postalCode": "24456"
 },
 {
  "id": 1105135003,
  "districtId": 1105135,
  "districtName": "IDI TIMUR",
  "name": "MENUNASAH JEUMPA",
  "postalCode": ""
 },
 {
  "id": 1105135004,
  "districtId": 1105135,
  "districtName": "IDI TIMUR",
  "name": "LHOK ASAHAN",
  "postalCode": "24456"
 },
 {
  "id": 1105135005,
  "districtId": 1105135,
  "districtName": "IDI TIMUR",
  "name": "TUALANG DALAM",
  "postalCode": "24456"
 },
 {
  "id": 1105135006,
  "districtId": 1105135,
  "districtName": "IDI TIMUR",
  "name": "SEUNEUBOK KUYUN",
  "postalCode": "24456"
 },
 {
  "id": 1105135007,
  "districtId": 1105135,
  "districtName": "IDI TIMUR",
  "name": "ULEE GLE",
  "postalCode": "24357"
 },
 {
  "id": 1105135008,
  "districtId": 1105135,
  "districtName": "IDI TIMUR",
  "name": "SEUNEUBOK BARAT",
  "postalCode": "24456"
 },
 {
  "id": 1105135009,
  "districtId": 1105135,
  "districtName": "IDI TIMUR",
  "name": "SEUNEUBOK TEUNGOH (SMK)",
  "postalCode": ""
 },
 {
  "id": 1105135010,
  "districtId": 1105135,
  "districtName": "IDI TIMUR",
  "name": "SEUNEUBOK TIMUR",
  "postalCode": "24456"
 },
 {
  "id": 1105135011,
  "districtId": 1105135,
  "districtName": "IDI TIMUR",
  "name": "MATANG BUNGONG",
  "postalCode": "24456"
 },
 {
  "id": 1105135012,
  "districtId": 1105135,
  "districtName": "IDI TIMUR",
  "name": "MATANG RAYEUK (PR)",
  "postalCode": ""
 },
 {
  "id": 1105135013,
  "districtId": 1105135,
  "districtName": "IDI TIMUR",
  "name": "SEUNEUBOK DALAM (SMK)",
  "postalCode": ""
 }
]