[
 {
  "id": 1105150001,
  "districtId": 1105150,
  "districtName": "NURUSSALAM",
  "name": "ALUE SIWAH SERDANG",
  "postalCode": "24456"
 },
 {
  "id": 1105150002,
  "districtId": 1105150,
  "districtName": "NURUSSALAM",
  "name": "GAMPONG LHEE",
  "postalCode": "24456"
 },
 {
  "id": 1105150003,
  "districtId": 1105150,
  "districtName": "NURUSSALAM",
  "name": "BEURANDANG",
  "postalCode": "24456"
 },
 {
  "id": 1105150005,
  "districtId": 1105150,
  "districtName": "NURUSSALAM",
  "name": "SEUNEUBOK RAMBONG",
  "postalCode": "24454"
 },
 {
  "id": 1105150006,
  "districtId": 1105150,
  "districtName": "NURUSSALAM",
  "name": "GAMPUNG JALAN",
  "postalCode": ""
 },
 {
  "id": 1105150008,
  "districtId": 1105150,
  "districtName": "NURUSSALAM",
  "name": "BUKET MEURAK",
  "postalCode": "24456"
 },
 {
  "id": 1105150009,
  "districtId": 1105150,
  "districtName": "NURUSSALAM",
  "name": "SEUNEUBOK DALAM",
  "postalCode": "24456"
 },
 {
  "id": 1105150010,
  "districtId": 1105150,
  "districtName": "NURUSSALAM",
  "name": "KAMPUNG MESJID",
  "postalCode": "21474"
 },
 {
  "id": 1105150011,
  "districtId": 1105150,
  "districtName": "NURUSSALAM",
  "name": "PAYA ENJEE",
  "postalCode": "24456"
 },
 {
  "id": 1105150012,
  "districtId": 1105150,
  "districtName": "NURUSSALAM",
  "name": "SEULEUMAK MUDA",
  "postalCode": "24456"
 },
 {
  "id": 1105150013,
  "districtId": 1105150,
  "districtName": "NURUSSALAM",
  "name": "COT ASAN",
  "postalCode": "24382"
 },
 {
  "id": 1105150014,
  "districtId": 1105150,
  "districtName": "NURUSSALAM",
  "name": "BUKET PANYANG",
  "postalCode": "24457"
 },
 {
  "id": 1105150023,
  "districtId": 1105150,
  "districtName": "NURUSSALAM",
  "name": "BUKET PANJOU",
  "postalCode": "24456"
 },
 {
  "id": 1105150024,
  "districtId": 1105150,
  "districtName": "NURUSSALAM",
  "name": "MATANG PANYANG",
  "postalCode": "24392"
 },
 {
  "id": 1105150025,
  "districtId": 1105150,
  "districtName": "NURUSSALAM",
  "name": "MEUNASAH HAGU",
  "postalCode": "24392"
 },
 {
  "id": 1105150026,
  "districtId": 1105150,
  "districtName": "NURUSSALAM",
  "name": "MATANG KUNYET",
  "postalCode": "24456"
 },
 {
  "id": 1105150027,
  "districtId": 1105150,
  "districtName": "NURUSSALAM",
  "name": "MATANG NEUHEUN",
  "postalCode": "24456"
 },
 {
  "id": 1105150028,
  "districtId": 1105150,
  "districtName": "NURUSSALAM",
  "name": "TEUPIN PUKAT",
  "postalCode": "24456"
 },
 {
  "id": 1105150029,
  "districtId": 1105150,
  "districtName": "NURUSSALAM",
  "name": "PULO-U",
  "postalCode": ""
 },
 {
  "id": 1105150030,
  "districtId": 1105150,
  "districtName": "NURUSSALAM",
  "name": "MATANG SEULEUMAK",
  "postalCode": "24456"
 },
 {
  "id": 1105150031,
  "districtId": 1105150,
  "districtName": "NURUSSALAM",
  "name": "BANTAYAN",
  "postalCode": "24394"
 },
 {
  "id": 1105150032,
  "districtId": 1105150,
  "districtName": "NURUSSALAM",
  "name": "BLANG PANJOU",
  "postalCode": "24456"
 },
 {
  "id": 1105150034,
  "districtId": 1105150,
  "districtName": "NURUSSALAM",
  "name": "SEUMATANG ARON",
  "postalCode": "24456"
 },
 {
  "id": 1105150035,
  "districtId": 1105150,
  "districtName": "NURUSSALAM",
  "name": "MEUDANG ARA",
  "postalCode": "24392"
 },
 {
  "id": 1105150036,
  "districtId": 1105150,
  "districtName": "NURUSSALAM",
  "name": "MEUNASAH TEUNGOH",
  "postalCode": "23672"
 },
 {
  "id": 1105150037,
  "districtId": 1105150,
  "districtName": "NURUSSALAM",
  "name": "KAMPUNG KEUDE BAGOK DUA",
  "postalCode": ""
 },
 {
  "id": 1105150038,
  "districtId": 1105150,
  "districtName": "NURUSSALAM",
  "name": "KAMPUNG KEUDE BAGOK SA",
  "postalCode": ""
 },
 {
  "id": 1105150039,
  "districtId": 1105150,
  "districtName": "NURUSSALAM",
  "name": "KUALA BAGOK",
  "postalCode": "24456"
 },
 {
  "id": 1105150040,
  "districtId": 1105150,
  "districtName": "NURUSSALAM",
  "name": "ASAN TANJUNG",
  "postalCode": ""
 },
 {
  "id": 1105150041,
  "districtId": 1105150,
  "districtName": "NURUSSALAM",
  "name": "BAROH BUGENG",
  "postalCode": "24456"
 },
 {
  "id": 1105150042,
  "districtId": 1105150,
  "districtName": "NURUSSALAM",
  "name": "PEULAWI",
  "postalCode": "24456"
 }
]