[
 {
  "id": 1105181001,
  "districtId": 1105181,
  "districtName": "MADAT",
  "name": "PAYA DEUMAM PEUT",
  "postalCode": ""
 },
 {
  "id": 1105181002,
  "districtId": 1105181,
  "districtName": "MADAT",
  "name": "PAYA NADEN",
  "postalCode": "24458"
 },
 {
  "id": 1105181003,
  "districtId": 1105181,
  "districtName": "MADAT",
  "name": "TANJUNG ARA",
  "postalCode": "24458"
 },
 {
  "id": 1105181004,
  "districtId": 1105181,
  "districtName": "MADAT",
  "name": "TANJUNG MINJEI",
  "postalCode": "24458"
 },
 {
  "id": 1105181005,
  "districtId": 1105181,
  "districtName": "MADAT",
  "name": "SEUNEUBOK PIDIE",
  "postalCode": "24458"
 },
 {
  "id": 1105181006,
  "districtId": 1105181,
  "districtName": "MADAT",
  "name": "RAMBONG LOP",
  "postalCode": "24458"
 },
 {
  "id": 1105181007,
  "districtId": 1105181,
  "districtName": "MADAT",
  "name": "MATANG JROK",
  "postalCode": "24458"
 },
 {
  "id": 1105181008,
  "districtId": 1105181,
  "districtName": "MADAT",
  "name": "MATANG NIBONG",
  "postalCode": "24263"
 },
 {
  "id": 1105181009,
  "districtId": 1105181,
  "districtName": "MADAT",
  "name": "MADAT",
  "postalCode": "24458"
 },
 {
  "id": 1105181010,
  "districtId": 1105181,
  "districtName": "MADAT",
  "name": "ABEUK GEULANTEU",
  "postalCode": "24458"
 },
 {
  "id": 1105181011,
  "districtId": 1105181,
  "districtName": "MADAT",
  "name": "MATANG KEUPULA SATU",
  "postalCode": ""
 },
 {
  "id": 1105181012,
  "districtId": 1105181,
  "districtName": "MADAT",
  "name": "ULEE ATEUNG",
  "postalCode": "24457"
 },
 {
  "id": 1105181013,
  "districtId": 1105181,
  "districtName": "MADAT",
  "name": "BLANG ANDAM",
  "postalCode": "24458"
 },
 {
  "id": 1105181014,
  "districtId": 1105181,
  "districtName": "MADAT",
  "name": "BINTAH",
  "postalCode": "24458"
 },
 {
  "id": 1105181015,
  "districtId": 1105181,
  "districtName": "MADAT",
  "name": "BLANG AWE",
  "postalCode": "24458"
 },
 {
  "id": 1105181016,
  "districtId": 1105181,
  "districtName": "MADAT",
  "name": "PANTE MEUREUBO",
  "postalCode": ""
 },
 {
  "id": 1105181017,
  "districtId": 1105181,
  "districtName": "MADAT",
  "name": "LUENG SATU",
  "postalCode": "24458"
 },
 {
  "id": 1105181018,
  "districtId": 1105181,
  "districtName": "MADAT",
  "name": "MATANG KEUPULA LHEE",
  "postalCode": ""
 },
 {
  "id": 1105181019,
  "districtId": 1105181,
  "districtName": "MADAT",
  "name": "MATANG KEUPULA DUA",
  "postalCode": ""
 },
 {
  "id": 1105181020,
  "districtId": 1105181,
  "districtName": "MADAT",
  "name": "BLANG UBIT",
  "postalCode": "24458"
 },
 {
  "id": 1105181021,
  "districtId": 1105181,
  "districtName": "MADAT",
  "name": "LUENG PEUT",
  "postalCode": "24458"
 },
 {
  "id": 1105181022,
  "districtId": 1105181,
  "districtName": "MADAT",
  "name": "LUENG DUA",
  "postalCode": "24458"
 },
 {
  "id": 1105181023,
  "districtId": 1105181,
  "districtName": "MADAT",
  "name": "MATANG GURU",
  "postalCode": "24458"
 },
 {
  "id": 1105181024,
  "districtId": 1105181,
  "districtName": "MADAT",
  "name": "PANTE BAYAM",
  "postalCode": "24458"
 },
 {
  "id": 1105181025,
  "districtId": 1105181,
  "districtName": "MADAT",
  "name": "MEUNASAH TINGKEUM",
  "postalCode": "24458"
 },
 {
  "id": 1105181026,
  "districtId": 1105181,
  "districtName": "MADAT",
  "name": "MEUNASAH ASAN",
  "postalCode": "24458"
 }
]