[
 {
  "id": 1105133001,
  "districtId": 1105133,
  "districtName": "IDI TUNONG",
  "name": "ALUE LHOK",
  "postalCode": "23652"
 },
 {
  "id": 1105133002,
  "districtId": 1105133,
  "districtName": "IDI TUNONG",
  "name": "PADANG KASAH",
  "postalCode": "24454"
 },
 {
  "id": 1105133003,
  "districtId": 1105133,
  "districtName": "IDI TUNONG",
  "name": "SEUNEUBOK BUYA",
  "postalCode": "24454"
 },
 {
  "id": 1105133004,
  "districtId": 1105133,
  "districtName": "IDI TUNONG",
  "name": "PAYA AWE",
  "postalCode": "24476"
 },
 {
  "id": 1105133005,
  "districtId": 1105133,
  "districtName": "IDI TUNONG",
  "name": "PAYA GABOH",
  "postalCode": "24454"
 },
 {
  "id": 1105133006,
  "districtId": 1105133,
  "districtName": "IDI TUNONG",
  "name": "SEUNEUBOK DRIEN",
  "postalCode": "24454"
 },
 {
  "id": 1105133007,
  "districtId": 1105133,
  "districtName": "IDI TUNONG",
  "name": "KEUDE KEUMUNENG",
  "postalCode": "24454"
 },
 {
  "id": 1105133008,
  "districtId": 1105133,
  "districtName": "IDI TUNONG",
  "name": "GAMPONG KEUMUNING",
  "postalCode": ""
 },
 {
  "id": 1105133009,
  "districtId": 1105133,
  "districtName": "IDI TUNONG",
  "name": "SEUNEUBOK MEURUDU",
  "postalCode": ""
 },
 {
  "id": 1105133010,
  "districtId": 1105133,
  "districtName": "IDI TUNONG",
  "name": "SEUNEUBOK PUNTI",
  "postalCode": "24454"
 },
 {
  "id": 1105133011,
  "districtId": 1105133,
  "districtName": "IDI TUNONG",
  "name": "SEUNEUBOK DALAM",
  "postalCode": "24456"
 },
 {
  "id": 1105133012,
  "districtId": 1105133,
  "districtName": "IDI TUNONG",
  "name": "SEUNEUBOK JALAN",
  "postalCode": "24454"
 },
 {
  "id": 1105133013,
  "districtId": 1105133,
  "districtName": "IDI TUNONG",
  "name": "BUKET TEUKUH",
  "postalCode": "24454"
 },
 {
  "id": 1105133014,
  "districtId": 1105133,
  "districtName": "IDI TUNONG",
  "name": "KEUMUNING LHOK",
  "postalCode": ""
 },
 {
  "id": 1105133015,
  "districtId": 1105133,
  "districtName": "IDI TUNONG",
  "name": "BUKET RUMIYA",
  "postalCode": "24454"
 },
 {
  "id": 1105133016,
  "districtId": 1105133,
  "districtName": "IDI TUNONG",
  "name": "ALUE KUMBANG M",
  "postalCode": "24454"
 },
 {
  "id": 1105133017,
  "districtId": 1105133,
  "districtName": "IDI TUNONG",
  "name": "ALUE KUMBANG A",
  "postalCode": "24454"
 },
 {
  "id": 1105133018,
  "districtId": 1105133,
  "districtName": "IDI TUNONG",
  "name": "SEUNEUBOK BARO",
  "postalCode": "24352"
 },
 {
  "id": 1105133019,
  "districtId": 1105133,
  "districtName": "IDI TUNONG",
  "name": "BUKET PUUK",
  "postalCode": "24454"
 },
 {
  "id": 1105133020,
  "districtId": 1105133,
  "districtName": "IDI TUNONG",
  "name": "SEUNEUBOK BULOH",
  "postalCode": "24455"
 },
 {
  "id": 1105133021,
  "districtId": 1105133,
  "districtName": "IDI TUNONG",
  "name": "BLANG MINJEI",
  "postalCode": "24454"
 },
 {
  "id": 1105133022,
  "districtId": 1105133,
  "districtName": "IDI TUNONG",
  "name": "BLANG SEGUCI",
  "postalCode": ""
 },
 {
  "id": 1105133023,
  "districtId": 1105133,
  "districtName": "IDI TUNONG",
  "name": "BANTAYAN BARAT",
  "postalCode": "24454"
 },
 {
  "id": 1105133024,
  "districtId": 1105133,
  "districtName": "IDI TUNONG",
  "name": "SEUNEUBOK TEUPIN PANAH",
  "postalCode": "24454"
 },
 {
  "id": 1105133025,
  "districtId": 1105133,
  "districtName": "IDI TUNONG",
  "name": "TEUPIN PANAH",
  "postalCode": "23681"
 }
]