[
 {
  "id": 1105160006,
  "districtId": 1105160,
  "districtName": "JULOK",
  "name": "KEUMUNENG",
  "postalCode": "24457"
 },
 {
  "id": 1105160007,
  "districtId": 1105160,
  "districtName": "JULOK",
  "name": "LADANG BARO",
  "postalCode": "23662"
 },
 {
  "id": 1105160008,
  "districtId": 1105160,
  "districtName": "JULOK",
  "name": "SEUNEUBOK BARO",
  "postalCode": "24352"
 },
 {
  "id": 1105160009,
  "districtId": 1105160,
  "districtName": "JULOK",
  "name": "SEUNEUBOK RAMBONG",
  "postalCode": "24454"
 },
 {
  "id": 1105160010,
  "districtId": 1105160,
  "districtName": "JULOK",
  "name": "TEUPIN RAYA",
  "postalCode": "24152"
 },
 {
  "id": 1105160011,
  "districtId": 1105160,
  "districtName": "JULOK",
  "name": "BUKET PANYANG",
  "postalCode": "24457"
 },
 {
  "id": 1105160012,
  "districtId": 1105160,
  "districtName": "JULOK",
  "name": "BLANG KEUMUHANG",
  "postalCode": "24457"
 },
 {
  "id": 1105160013,
  "districtId": 1105160,
  "districtName": "JULOK",
  "name": "BUKIT MAKMUR",
  "postalCode": "24457"
 },
 {
  "id": 1105160014,
  "districtId": 1105160,
  "districtName": "JULOK",
  "name": "BUKET DINDENG",
  "postalCode": ""
 },
 {
  "id": 1105160015,
  "districtId": 1105160,
  "districtName": "JULOK",
  "name": "LHOK RAMBONG",
  "postalCode": "24457"
 },
 {
  "id": 1105160016,
  "districtId": 1105160,
  "districtName": "JULOK",
  "name": "BLANG MIDEUN",
  "postalCode": "24457"
 },
 {
  "id": 1105160017,
  "districtId": 1105160,
  "districtName": "JULOK",
  "name": "BLANG JAMBEE",
  "postalCode": "24457"
 },
 {
  "id": 1105160018,
  "districtId": 1105160,
  "districtName": "JULOK",
  "name": "PAYA BAKONG",
  "postalCode": "24457"
 },
 {
  "id": 1105160019,
  "districtId": 1105160,
  "districtName": "JULOK",
  "name": "BUKET SERAJA",
  "postalCode": ""
 },
 {
  "id": 1105160020,
  "districtId": 1105160,
  "districtName": "JULOK",
  "name": "BLANG PAOH SATU",
  "postalCode": ""
 },
 {
  "id": 1105160021,
  "districtId": 1105160,
  "districtName": "JULOK",
  "name": "ULEE ATEUNG",
  "postalCode": "24457"
 },
 {
  "id": 1105160022,
  "districtId": 1105160,
  "districtName": "JULOK",
  "name": "MANE RAMPAK",
  "postalCode": "24457"
 },
 {
  "id": 1105160023,
  "districtId": 1105160,
  "districtName": "JULOK",
  "name": "UJONG TUNONG",
  "postalCode": "24457"
 },
 {
  "id": 1105160024,
  "districtId": 1105160,
  "districtName": "JULOK",
  "name": "PAYA PASI",
  "postalCode": "24457"
 },
 {
  "id": 1105160025,
  "districtId": 1105160,
  "districtName": "JULOK",
  "name": "BLANG GLEUM",
  "postalCode": "24457"
 },
 {
  "id": 1105160026,
  "districtId": 1105160,
  "districtName": "JULOK",
  "name": "ALUE CEK DOY",
  "postalCode": ""
 },
 {
  "id": 1105160027,
  "districtId": 1105160,
  "districtName": "JULOK",
  "name": "TUMPOK TEUNGOH",
  "postalCode": "24311"
 },
 {
  "id": 1105160028,
  "districtId": 1105160,
  "districtName": "JULOK",
  "name": "MATANG",
  "postalCode": "24457"
 },
 {
  "id": 1105160029,
  "districtId": 1105160,
  "districtName": "JULOK",
  "name": "JULOK TUNONG",
  "postalCode": "24457"
 },
 {
  "id": 1105160030,
  "districtId": 1105160,
  "districtName": "JULOK",
  "name": "BLANG PAOH DUA",
  "postalCode": ""
 },
 {
  "id": 1105160031,
  "districtId": 1105160,
  "districtName": "JULOK",
  "name": "KEUDE KUTA BINJAI",
  "postalCode": ""
 },
 {
  "id": 1105160032,
  "districtId": 1105160,
  "districtName": "JULOK",
  "name": "ULEE TANOH",
  "postalCode": "24457"
 },
 {
  "id": 1105160033,
  "districtId": 1105160,
  "districtName": "JULOK",
  "name": "KUALA GEULUMPANG",
  "postalCode": "24457"
 },
 {
  "id": 1105160034,
  "districtId": 1105160,
  "districtName": "JULOK",
  "name": "BLANG UYOK",
  "postalCode": "24457"
 },
 {
  "id": 1105160035,
  "districtId": 1105160,
  "districtName": "JULOK",
  "name": "ULEE BLANG",
  "postalCode": "23652"
 },
 {
  "id": 1105160036,
  "districtId": 1105160,
  "districtName": "JULOK",
  "name": "NALEUNG",
  "postalCode": "24457"
 },
 {
  "id": 1105160037,
  "districtId": 1105160,
  "districtName": "JULOK",
  "name": "LABOHAN",
  "postalCode": ""
 },
 {
  "id": 1105160038,
  "districtId": 1105160,
  "districtName": "JULOK",
  "name": "GAMPONG BARO",
  "postalCode": "24454"
 },
 {
  "id": 1105160039,
  "districtId": 1105160,
  "districtName": "JULOK",
  "name": "SEUMATANG",
  "postalCode": "24457"
 },
 {
  "id": 1105160040,
  "districtId": 1105160,
  "districtName": "JULOK",
  "name": "TANJONG TOK BLANG",
  "postalCode": "24457"
 },
 {
  "id": 1105160041,
  "districtId": 1105160,
  "districtName": "JULOK",
  "name": "SIMPANG LHEE",
  "postalCode": "24457"
 },
 {
  "id": 1105160042,
  "districtId": 1105160,
  "districtName": "JULOK",
  "name": "LHOK SEUNTANG",
  "postalCode": "24457"
 }
]