[
 {
  "id": 1105112001,
  "districtId": 1105112,
  "districtName": "PEUREULAK BARAT",
  "name": "KABU",
  "postalCode": "24453"
 },
 {
  "id": 1105112002,
  "districtId": 1105112,
  "districtName": "PEUREULAK BARAT",
  "name": "BEURINGIN",
  "postalCode": "24386"
 },
 {
  "id": 1105112003,
  "districtId": 1105112,
  "districtName": "PEUREULAK BARAT",
  "name": "TEUMPEUN",
  "postalCode": "24182"
 },
 {
  "id": 1105112004,
  "districtId": 1105112,
  "districtName": "PEUREULAK BARAT",
  "name": "KEBUN TEUMPEUN",
  "postalCode": "24453"
 },
 {
  "id": 1105112005,
  "districtId": 1105112,
  "districtName": "PEUREULAK BARAT",
  "name": "PAYA SEUNGAT",
  "postalCode": "24453"
 },
 {
  "id": 1105112006,
  "districtId": 1105112,
  "districtName": "PEUREULAK BARAT",
  "name": "TANJUNG TUALANG",
  "postalCode": "24453"
 },
 {
  "id": 1105112007,
  "districtId": 1105112,
  "districtName": "PEUREULAK BARAT",
  "name": "BEUSA SEBERANG",
  "postalCode": "24453"
 },
 {
  "id": 1105112008,
  "districtId": 1105112,
  "districtName": "PEUREULAK BARAT",
  "name": "PAYA GAJAH",
  "postalCode": "24581"
 },
 {
  "id": 1105112009,
  "districtId": 1105112,
  "districtName": "PEUREULAK BARAT",
  "name": "MON GEUDONG",
  "postalCode": "24351"
 },
 {
  "id": 1105112010,
  "districtId": 1105112,
  "districtName": "PEUREULAK BARAT",
  "name": "ALUE BU TUHA",
  "postalCode": "24453"
 },
 {
  "id": 1105112011,
  "districtId": 1105112,
  "districtName": "PEUREULAK BARAT",
  "name": "ALUE BU JALAN",
  "postalCode": "24453"
 },
 {
  "id": 1105112012,
  "districtId": 1105112,
  "districtName": "PEUREULAK BARAT",
  "name": "PAYA BIEK",
  "postalCode": "24453"
 },
 {
  "id": 1105112013,
  "districtId": 1105112,
  "districtName": "PEUREULAK BARAT",
  "name": "BEUSA BAROH",
  "postalCode": "24453"
 },
 {
  "id": 1105112014,
  "districtId": 1105112,
  "districtName": "PEUREULAK BARAT",
  "name": "ALUE BU TUNONG",
  "postalCode": "24453"
 },
 {
  "id": 1105112015,
  "districtId": 1105112,
  "districtName": "PEUREULAK BARAT",
  "name": "ALUE BU JALAN BAROH",
  "postalCode": "24453"
 }
]