[
 {
  "id": 1106062001,
  "districtId": 1106062,
  "districtName": "CELALA",
  "name": "PAYA KOLAK",
  "postalCode": "24562"
 },
 {
  "id": 1106062002,
  "districtId": 1106062,
  "districtName": "CELALA",
  "name": "ARUL GADING",
  "postalCode": "24562"
 },
 {
  "id": 1106062003,
  "districtId": 1106062,
  "districtName": "CELALA",
  "name": "TANOH DEPET",
  "postalCode": "24562"
 },
 {
  "id": 1106062004,
  "districtId": 1106062,
  "districtName": "CELALA",
  "name": "KUYUN UKEN",
  "postalCode": "24562"
 },
 {
  "id": 1106062005,
  "districtId": 1106062,
  "districtName": "CELALA",
  "name": "KUYUN TOA",
  "postalCode": "24562"
 },
 {
  "id": 1106062006,
  "districtId": 1106062,
  "districtName": "CELALA",
  "name": "UNING BERAWANG RAMUNG",
  "postalCode": "24562"
 },
 {
  "id": 1106062007,
  "districtId": 1106062,
  "districtName": "CELALA",
  "name": "CIBRO",
  "postalCode": "24562"
 },
 {
  "id": 1106062008,
  "districtId": 1106062,
  "districtName": "CELALA",
  "name": "BERAWANG GADING",
  "postalCode": "24562"
 },
 {
  "id": 1106062009,
  "districtId": 1106062,
  "districtName": "CELALA",
  "name": "MELALA",
  "postalCode": "24562"
 },
 {
  "id": 1106062010,
  "districtId": 1106062,
  "districtName": "CELALA",
  "name": "BLANG KEKUMUR",
  "postalCode": "24562"
 },
 {
  "id": 1106062011,
  "districtId": 1106062,
  "districtName": "CELALA",
  "name": "MAKMUR",
  "postalCode": "24562"
 },
 {
  "id": 1106062012,
  "districtId": 1106062,
  "districtName": "CELALA",
  "name": "CELALA",
  "postalCode": "24562"
 },
 {
  "id": 1106062013,
  "districtId": 1106062,
  "districtName": "CELALA",
  "name": "RAMUNG ARA",
  "postalCode": "24562"
 },
 {
  "id": 1106062014,
  "districtId": 1106062,
  "districtName": "CELALA",
  "name": "SEPAKAT",
  "postalCode": "24562"
 },
 {
  "id": 1106062015,
  "districtId": 1106062,
  "districtName": "CELALA",
  "name": "KUYUN",
  "postalCode": "24562"
 },
 {
  "id": 1106062016,
  "districtId": 1106062,
  "districtName": "CELALA",
  "name": "BLANG DELEM",
  "postalCode": "24562"
 },
 {
  "id": 1106062017,
  "districtId": 1106062,
  "districtName": "CELALA",
  "name": "DEPET INDAH",
  "postalCode": "24562"
 }
]