[
 {
  "id": 1106063001,
  "districtId": 1106063,
  "districtName": "RUSIP ANTARA",
  "name": "MERANDEH PAYA",
  "postalCode": ""
 },
 {
  "id": 1106063002,
  "districtId": 1106063,
  "districtName": "RUSIP ANTARA",
  "name": "TANJUNG",
  "postalCode": "24562"
 },
 {
  "id": 1106063003,
  "districtId": 1106063,
  "districtName": "RUSIP ANTARA",
  "name": "RUSIP",
  "postalCode": "24562"
 },
 {
  "id": 1106063004,
  "districtId": 1106063,
  "districtName": "RUSIP ANTARA",
  "name": "PAYA TAMPU",
  "postalCode": ""
 },
 {
  "id": 1106063005,
  "districtId": 1106063,
  "districtName": "RUSIP ANTARA",
  "name": "KUALA RAWA",
  "postalCode": "24562"
 },
 {
  "id": 1106063006,
  "districtId": 1106063,
  "districtName": "RUSIP ANTARA",
  "name": "PANTAN TENGAH",
  "postalCode": "24562"
 },
 {
  "id": 1106063007,
  "districtId": 1106063,
  "districtName": "RUSIP ANTARA",
  "name": "PILAR",
  "postalCode": "24562"
 },
 {
  "id": 1106063008,
  "districtId": 1106063,
  "districtName": "RUSIP ANTARA",
  "name": "ARUL PERTIK",
  "postalCode": "24562"
 },
 {
  "id": 1106063009,
  "districtId": 1106063,
  "districtName": "RUSIP ANTARA",
  "name": "ATU SINGKIH",
  "postalCode": "24562"
 },
 {
  "id": 1106063010,
  "districtId": 1106063,
  "districtName": "RUSIP ANTARA",
  "name": "PANTAN BENER",
  "postalCode": "24562"
 },
 {
  "id": 1106063011,
  "districtId": 1106063,
  "districtName": "RUSIP ANTARA",
  "name": "KERAWANG",
  "postalCode": "24562"
 },
 {
  "id": 1106063012,
  "districtId": 1106063,
  "districtName": "RUSIP ANTARA",
  "name": "PILAR JAYA",
  "postalCode": "24581"
 },
 {
  "id": 1106063013,
  "districtId": 1106063,
  "districtName": "RUSIP ANTARA",
  "name": "TIRMI ARA",
  "postalCode": "24562"
 },
 {
  "id": 1106063014,
  "districtId": 1106063,
  "districtName": "RUSIP ANTARA",
  "name": "MEKAR MAJU",
  "postalCode": "24562"
 },
 {
  "id": 1106063015,
  "districtId": 1106063,
  "districtName": "RUSIP ANTARA",
  "name": "PILAR WIH KIRI",
  "postalCode": "24562"
 },
 {
  "id": 1106063016,
  "districtId": 1106063,
  "districtName": "RUSIP ANTARA",
  "name": "LAUT JAYA",
  "postalCode": ""
 }
]