[
 {
  "id": 1106050001,
  "districtId": 1106050,
  "districtName": "BEBESEN",
  "name": "BLANG GELE",
  "postalCode": "24552"
 },
 {
  "id": 1106050002,
  "districtId": 1106050,
  "districtName": "BEBESEN",
  "name": "TANSARIL",
  "postalCode": ""
 },
 {
  "id": 1106050003,
  "districtId": 1106050,
  "districtName": "BEBESEN",
  "name": "BLANG KOLAK II",
  "postalCode": "24552"
 },
 {
  "id": 1106050004,
  "districtId": 1106050,
  "districtName": "BEBESEN",
  "name": "BLANG KOLAK I",
  "postalCode": "24552"
 },
 {
  "id": 1106050005,
  "districtId": 1106050,
  "districtName": "BEBESEN",
  "name": "KEMILI",
  "postalCode": "24552"
 },
 {
  "id": 1106050006,
  "districtId": 1106050,
  "districtName": "BEBESEN",
  "name": "SIMPANG EMPAT",
  "postalCode": "24313"
 },
 {
  "id": 1106050007,
  "districtId": 1106050,
  "districtName": "BEBESEN",
  "name": "BEBESEN",
  "postalCode": "24552"
 },
 {
  "id": 1106050008,
  "districtId": 1106050,
  "districtName": "BEBESEN",
  "name": "MONGAL",
  "postalCode": "24552"
 },
 {
  "id": 1106050009,
  "districtId": 1106050,
  "districtName": "BEBESEN",
  "name": "DALING",
  "postalCode": "24552"
 },
 {
  "id": 1106050010,
  "districtId": 1106050,
  "districtName": "BEBESEN",
  "name": "TENSAREN",
  "postalCode": "24552"
 },
 {
  "id": 1106050011,
  "districtId": 1106050,
  "districtName": "BEBESEN",
  "name": "LELABU",
  "postalCode": "24552"
 },
 {
  "id": 1106050012,
  "districtId": 1106050,
  "districtName": "BEBESEN",
  "name": "UMANG",
  "postalCode": "24552"
 },
 {
  "id": 1106050019,
  "districtId": 1106050,
  "districtName": "BEBESEN",
  "name": "ATU TULU",
  "postalCode": "24552"
 },
 {
  "id": 1106050020,
  "districtId": 1106050,
  "districtName": "BEBESEN",
  "name": "GELE LAH",
  "postalCode": "24552"
 },
 {
  "id": 1106050021,
  "districtId": 1106050,
  "districtName": "BEBESEN",
  "name": "ATU GAJAH REJE GURU",
  "postalCode": "24552"
 },
 {
  "id": 1106050022,
  "districtId": 1106050,
  "districtName": "BEBESEN",
  "name": "PENDERE SARIL",
  "postalCode": "24552"
 },
 {
  "id": 1106050023,
  "districtId": 1106050,
  "districtName": "BEBESEN",
  "name": "SADONG JURU MUDI",
  "postalCode": "24552"
 },
 {
  "id": 1106050024,
  "districtId": 1106050,
  "districtName": "BEBESEN",
  "name": "KERAMAT MUPAKAT",
  "postalCode": "24552"
 },
 {
  "id": 1106050025,
  "districtId": 1106050,
  "districtName": "BEBESEN",
  "name": "NUNANG ANTARA",
  "postalCode": "24552"
 },
 {
  "id": 1106050026,
  "districtId": 1106050,
  "districtName": "BEBESEN",
  "name": "KEBET",
  "postalCode": "24552"
 },
 {
  "id": 1106050027,
  "districtId": 1106050,
  "districtName": "BEBESEN",
  "name": "EMPUS TALU",
  "postalCode": "24552"
 },
 {
  "id": 1106050028,
  "districtId": 1106050,
  "districtName": "BEBESEN",
  "name": "LEMAH BURBANA",
  "postalCode": "24552"
 },
 {
  "id": 1106050029,
  "districtId": 1106050,
  "districtName": "BEBESEN",
  "name": "BAHGIE",
  "postalCode": "24552"
 },
 {
  "id": 1106050030,
  "districtId": 1106050,
  "districtName": "BEBESEN",
  "name": "BUR BIAH",
  "postalCode": "24552"
 },
 {
  "id": 1106050031,
  "districtId": 1106050,
  "districtName": "BEBESEN",
  "name": "ULU NUIH",
  "postalCode": ""
 },
 {
  "id": 1106050032,
  "districtId": 1106050,
  "districtName": "BEBESEN",
  "name": "MAH BENGI",
  "postalCode": "24552"
 },
 {
  "id": 1106050033,
  "districtId": 1106050,
  "districtName": "BEBESEN",
  "name": "CALO BLANG GELE",
  "postalCode": "24552"
 },
 {
  "id": 1106050034,
  "districtId": 1106050,
  "districtName": "BEBESEN",
  "name": "KALA KEMILI",
  "postalCode": "24552"
 }
]