[
 {
  "id": 1106011001,
  "districtId": 1106011,
  "districtName": "ATU LINTANG",
  "name": "ATU LINTANG",
  "postalCode": "24563"
 },
 {
  "id": 1106011002,
  "districtId": 1106011,
  "districtName": "ATU LINTANG",
  "name": "MERAH MEGE",
  "postalCode": "24563"
 },
 {
  "id": 1106011003,
  "districtId": 1106011,
  "districtName": "ATU LINTANG",
  "name": "TANOH ABU",
  "postalCode": "24563"
 },
 {
  "id": 1106011004,
  "districtId": 1106011,
  "districtName": "ATU LINTANG",
  "name": "MERAH MUYANG",
  "postalCode": ""
 },
 {
  "id": 1106011005,
  "districtId": 1106011,
  "districtName": "ATU LINTANG",
  "name": "MERAH PUPUK",
  "postalCode": "24563"
 },
 {
  "id": 1106011006,
  "districtId": 1106011,
  "districtName": "ATU LINTANG",
  "name": "BINTANG KEKELIP",
  "postalCode": "24563"
 },
 {
  "id": 1106011007,
  "districtId": 1106011,
  "districtName": "ATU LINTANG",
  "name": "MERAH JERNANG",
  "postalCode": "24563"
 },
 {
  "id": 1106011008,
  "districtId": 1106011,
  "districtName": "ATU LINTANG",
  "name": "KEPALA AKAL",
  "postalCode": "24563"
 },
 {
  "id": 1106011009,
  "districtId": 1106011,
  "districtName": "ATU LINTANG",
  "name": "GAYO MURNI",
  "postalCode": "24563"
 },
 {
  "id": 1106011010,
  "districtId": 1106011,
  "districtName": "ATU LINTANG",
  "name": "PANTAN DAMAR",
  "postalCode": "24563"
 },
 {
  "id": 1106011011,
  "districtId": 1106011,
  "districtName": "ATU LINTANG",
  "name": "DAMAR MULYO",
  "postalCode": ""
 }
]