[
 {
  "id": 1106012001,
  "districtId": 1106012,
  "districtName": "JAGONG JEGET",
  "name": "GEGARANG",
  "postalCode": "24571"
 },
 {
  "id": 1106012002,
  "districtId": 1106012,
  "districtName": "JAGONG JEGET",
  "name": "BERAWANG DEWAL",
  "postalCode": "24563"
 },
 {
  "id": 1106012003,
  "districtId": 1106012,
  "districtName": "JAGONG JEGET",
  "name": "JAGONG",
  "postalCode": "58255"
 },
 {
  "id": 1106012004,
  "districtId": 1106012,
  "districtName": "JAGONG JEGET",
  "name": "MERAH SAID",
  "postalCode": "24563"
 },
 {
  "id": 1106012005,
  "districtId": 1106012,
  "districtName": "JAGONG JEGET",
  "name": "JEGET AYU",
  "postalCode": "24563"
 },
 {
  "id": 1106012006,
  "districtId": 1106012,
  "districtName": "JAGONG JEGET",
  "name": "PAYA TUNGEL",
  "postalCode": ""
 },
 {
  "id": 1106012007,
  "districtId": 1106012,
  "districtName": "JAGONG JEGET",
  "name": "TELEGE SARI",
  "postalCode": "24563"
 },
 {
  "id": 1106012008,
  "districtId": 1106012,
  "districtName": "JAGONG JEGET",
  "name": "PAYA DEDEP",
  "postalCode": "24563"
 },
 {
  "id": 1106012009,
  "districtId": 1106012,
  "districtName": "JAGONG JEGET",
  "name": "BUKIT KEMUNING",
  "postalCode": "24563"
 },
 {
  "id": 1106012010,
  "districtId": 1106012,
  "districtName": "JAGONG JEGET",
  "name": "BUKIT SARI",
  "postalCode": "24563"
 }
]