[
 {
  "id": 1107060007,
  "districtId": 1107060,
  "districtName": "SAMATIGA",
  "name": "SUAK SEUMASEH",
  "postalCode": "23652"
 },
 {
  "id": 1107060008,
  "districtId": 1107060,
  "districtName": "SAMATIGA",
  "name": "SUAK GEUDUBANG",
  "postalCode": "23652"
 },
 {
  "id": 1107060009,
  "districtId": 1107060,
  "districtName": "SAMATIGA",
  "name": "SUAK PANTE BREUH",
  "postalCode": "23652"
 },
 {
  "id": 1107060010,
  "districtId": 1107060,
  "districtName": "SAMATIGA",
  "name": "SUAK SEUKEE",
  "postalCode": "23652"
 },
 {
  "id": 1107060011,
  "districtId": 1107060,
  "districtName": "SAMATIGA",
  "name": "SUAK PANDAN",
  "postalCode": "23652"
 },
 {
  "id": 1107060012,
  "districtId": 1107060,
  "districtName": "SAMATIGA",
  "name": "LHOK BUBON",
  "postalCode": "23652"
 },
 {
  "id": 1107060013,
  "districtId": 1107060,
  "districtName": "SAMATIGA",
  "name": "GAMPONG COT",
  "postalCode": "23373"
 },
 {
  "id": 1107060014,
  "districtId": 1107060,
  "districtName": "SAMATIGA",
  "name": "GAMPONG TEUNGOH",
  "postalCode": "24416"
 },
 {
  "id": 1107060015,
  "districtId": 1107060,
  "districtName": "SAMATIGA",
  "name": "KUALA BUBON",
  "postalCode": "23652"
 },
 {
  "id": 1107060016,
  "districtId": 1107060,
  "districtName": "SAMATIGA",
  "name": "SUAK TIMAH",
  "postalCode": "23652"
 },
 {
  "id": 1107060017,
  "districtId": 1107060,
  "districtName": "SAMATIGA",
  "name": "COT DARAT",
  "postalCode": "23652"
 },
 {
  "id": 1107060018,
  "districtId": 1107060,
  "districtName": "SAMATIGA",
  "name": "PUCOK LUENG",
  "postalCode": "23652"
 },
 {
  "id": 1107060019,
  "districtId": 1107060,
  "districtName": "SAMATIGA",
  "name": "ALUE RAYA",
  "postalCode": "23662"
 },
 {
  "id": 1107060020,
  "districtId": 1107060,
  "districtName": "SAMATIGA",
  "name": "COT PLUH",
  "postalCode": "23652"
 },
 {
  "id": 1107060021,
  "districtId": 1107060,
  "districtName": "SAMATIGA",
  "name": "COT MESJID",
  "postalCode": "23246"
 },
 {
  "id": 1107060022,
  "districtId": 1107060,
  "districtName": "SAMATIGA",
  "name": "COT SEULAMAT",
  "postalCode": "23652"
 },
 {
  "id": 1107060023,
  "districtId": 1107060,
  "districtName": "SAMATIGA",
  "name": "COT SEUMEURENG",
  "postalCode": "23652"
 },
 {
  "id": 1107060024,
  "districtId": 1107060,
  "districtName": "SAMATIGA",
  "name": "PAYA LUMPAT",
  "postalCode": "23652"
 },
 {
  "id": 1107060025,
  "districtId": 1107060,
  "districtName": "SAMATIGA",
  "name": "UJONG NGA",
  "postalCode": "23652"
 },
 {
  "id": 1107060026,
  "districtId": 1107060,
  "districtName": "SAMATIGA",
  "name": "GAMPONG LADANG",
  "postalCode": "23652"
 },
 {
  "id": 1107060027,
  "districtId": 1107060,
  "districtName": "SAMATIGA",
  "name": "COT LAMPISE",
  "postalCode": "23652"
 },
 {
  "id": 1107060028,
  "districtId": 1107060,
  "districtName": "SAMATIGA",
  "name": "PINEM",
  "postalCode": "23652"
 },
 {
  "id": 1107060029,
  "districtId": 1107060,
  "districtName": "SAMATIGA",
  "name": "RANGKILEH",
  "postalCode": "24372"
 },
 {
  "id": 1107060030,
  "districtId": 1107060,
  "districtName": "SAMATIGA",
  "name": "COT AMUN",
  "postalCode": "23652"
 },
 {
  "id": 1107060031,
  "districtId": 1107060,
  "districtName": "SAMATIGA",
  "name": "REUSAK",
  "postalCode": "23652"
 },
 {
  "id": 1107060032,
  "districtId": 1107060,
  "districtName": "SAMATIGA",
  "name": "DEUAH",
  "postalCode": "23652"
 },
 {
  "id": 1107060033,
  "districtId": 1107060,
  "districtName": "SAMATIGA",
  "name": "MESJID BARO",
  "postalCode": "24171"
 },
 {
  "id": 1107060034,
  "districtId": 1107060,
  "districtName": "SAMATIGA",
  "name": "LEUKEUN",
  "postalCode": "23652"
 },
 {
  "id": 1107060035,
  "districtId": 1107060,
  "districtName": "SAMATIGA",
  "name": "LUBOK",
  "postalCode": "23652"
 },
 {
  "id": 1107060036,
  "districtId": 1107060,
  "districtName": "SAMATIGA",
  "name": "KRUENG TINGGAI",
  "postalCode": "23652"
 },
 {
  "id": 1107060037,
  "districtId": 1107060,
  "districtName": "SAMATIGA",
  "name": "PANGE",
  "postalCode": "23652"
 },
 {
  "id": 1107060038,
  "districtId": 1107060,
  "districtName": "SAMATIGA",
  "name": "KEUREUSENG",
  "postalCode": "23652"
 }
]