[
 {
  "id": 1107081001,
  "districtId": 1107081,
  "districtName": "MEUREUBO",
  "name": "PEUNAGA CUT UJONG",
  "postalCode": "23615"
 },
 {
  "id": 1107081002,
  "districtId": 1107081,
  "districtName": "MEUREUBO",
  "name": "GUNONG KLENG",
  "postalCode": "23615"
 },
 {
  "id": 1107081003,
  "districtId": 1107081,
  "districtName": "MEUREUBO",
  "name": "PEUNAGA PASI",
  "postalCode": "23615"
 },
 {
  "id": 1107081004,
  "districtId": 1107081,
  "districtName": "MEUREUBO",
  "name": "PEUNAGA RAYEUK",
  "postalCode": "23615"
 },
 {
  "id": 1107081005,
  "districtId": 1107081,
  "districtName": "MEUREUBO",
  "name": "PAYA PEUNAGA",
  "postalCode": "23615"
 },
 {
  "id": 1107081006,
  "districtId": 1107081,
  "districtName": "MEUREUBO",
  "name": "LANGUNG",
  "postalCode": "23615"
 },
 {
  "id": 1107081007,
  "districtId": 1107081,
  "districtName": "MEUREUBO",
  "name": "MEUREUBO",
  "postalCode": "24357"
 },
 {
  "id": 1107081008,
  "districtId": 1107081,
  "districtName": "MEUREUBO",
  "name": "UJONG DRIEN",
  "postalCode": "23615"
 },
 {
  "id": 1107081009,
  "districtId": 1107081,
  "districtName": "MEUREUBO",
  "name": "PASI PINANG",
  "postalCode": "23615"
 },
 {
  "id": 1107081010,
  "districtId": 1107081,
  "districtName": "MEUREUBO",
  "name": "UJONG TANJONG",
  "postalCode": "23662"
 },
 {
  "id": 1107081011,
  "districtId": 1107081,
  "districtName": "MEUREUBO",
  "name": "BUKIT JAYA",
  "postalCode": "23615"
 },
 {
  "id": 1107081012,
  "districtId": 1107081,
  "districtName": "MEUREUBO",
  "name": "BULOH",
  "postalCode": "24162"
 },
 {
  "id": 1107081013,
  "districtId": 1107081,
  "districtName": "MEUREUBO",
  "name": "RANTO PANYANG TIMUR",
  "postalCode": "23615"
 },
 {
  "id": 1107081014,
  "districtId": 1107081,
  "districtName": "MEUREUBO",
  "name": "RANTO PANYANG BARAT",
  "postalCode": "23615"
 },
 {
  "id": 1107081015,
  "districtId": 1107081,
  "districtName": "MEUREUBO",
  "name": "MESJID TUHA",
  "postalCode": "23615"
 },
 {
  "id": 1107081016,
  "districtId": 1107081,
  "districtName": "MEUREUBO",
  "name": "UJONG TANOH DARAT",
  "postalCode": "23615"
 },
 {
  "id": 1107081017,
  "districtId": 1107081,
  "districtName": "MEUREUBO",
  "name": "RANUB DONG",
  "postalCode": "23615"
 },
 {
  "id": 1107081018,
  "districtId": 1107081,
  "districtName": "MEUREUBO",
  "name": "PASI MESJID",
  "postalCode": "23615"
 },
 {
  "id": 1107081019,
  "districtId": 1107081,
  "districtName": "MEUREUBO",
  "name": "PULO TEUNGOH RANTO",
  "postalCode": "23615"
 },
 {
  "id": 1107081020,
  "districtId": 1107081,
  "districtName": "MEUREUBO",
  "name": "BALEE",
  "postalCode": "24184"
 },
 {
  "id": 1107081021,
  "districtId": 1107081,
  "districtName": "MEUREUBO",
  "name": "SUMBER BATU",
  "postalCode": "23615"
 },
 {
  "id": 1107081022,
  "districtId": 1107081,
  "districtName": "MEUREUBO",
  "name": "PASI ACEH BAROH",
  "postalCode": "23615"
 },
 {
  "id": 1107081023,
  "districtId": 1107081,
  "districtName": "MEUREUBO",
  "name": "PASI ACEH TUNONG",
  "postalCode": "23615"
 },
 {
  "id": 1107081024,
  "districtId": 1107081,
  "districtName": "MEUREUBO",
  "name": "REUDEUP",
  "postalCode": "23362"
 },
 {
  "id": 1107081025,
  "districtId": 1107081,
  "districtName": "MEUREUBO",
  "name": "PUCOK REUDEUP",
  "postalCode": "23615"
 },
 {
  "id": 1107081026,
  "districtId": 1107081,
  "districtName": "MEUREUBO",
  "name": "PAYA BARO RANTO PANJANG",
  "postalCode": ""
 }
]