[
 {
  "id": 1108100001,
  "districtId": 1108100,
  "districtName": "SUKA MAKMUR",
  "name": "LUTHU LAMWEU",
  "postalCode": "23361"
 },
 {
  "id": 1108100002,
  "districtId": 1108100,
  "districtName": "SUKA MAKMUR",
  "name": "BAET MASJID",
  "postalCode": ""
 },
 {
  "id": 1108100003,
  "districtId": 1108100,
  "districtName": "SUKA MAKMUR",
  "name": "BAET LAMPHUOT",
  "postalCode": ""
 },
 {
  "id": 1108100004,
  "districtId": 1108100,
  "districtName": "SUKA MAKMUR",
  "name": "BAET MEESAGO",
  "postalCode": ""
 },
 {
  "id": 1108100005,
  "districtId": 1108100,
  "districtName": "SUKA MAKMUR",
  "name": "PANTEE RAWA",
  "postalCode": ""
 },
 {
  "id": 1108100021,
  "districtId": 1108100,
  "districtName": "SUKA MAKMUR",
  "name": "SIBREH KEUMUDEE",
  "postalCode": "23361"
 },
 {
  "id": 1108100022,
  "districtId": 1108100,
  "districtName": "SUKA MAKMUR",
  "name": "DILIP LAMTEUNGOH",
  "postalCode": ""
 },
 {
  "id": 1108100023,
  "districtId": 1108100,
  "districtName": "SUKA MAKMUR",
  "name": "DILIP BUKTI",
  "postalCode": ""
 },
 {
  "id": 1108100024,
  "districtId": 1108100,
  "districtName": "SUKA MAKMUR",
  "name": "REUHAT TUHA",
  "postalCode": "23361"
 },
 {
  "id": 1108100025,
  "districtId": 1108100,
  "districtName": "SUKA MAKMUR",
  "name": "SEUMEUREUNG",
  "postalCode": "23361"
 },
 {
  "id": 1108100026,
  "districtId": 1108100,
  "districtName": "SUKA MAKMUR",
  "name": "LUTHU DAYAH KRUENG",
  "postalCode": "23361"
 },
 {
  "id": 1108100027,
  "districtId": 1108100,
  "districtName": "SUKA MAKMUR",
  "name": "LAMTANJONG",
  "postalCode": ""
 },
 {
  "id": 1108100028,
  "districtId": 1108100,
  "districtName": "SUKA MAKMUR",
  "name": "LAMBIRAH",
  "postalCode": "23361"
 },
 {
  "id": 1108100029,
  "districtId": 1108100,
  "districtName": "SUKA MAKMUR",
  "name": "KAYEE ADANG",
  "postalCode": "23951"
 },
 {
  "id": 1108100031,
  "districtId": 1108100,
  "districtName": "SUKA MAKMUR",
  "name": "TAMPOK BLANG",
  "postalCode": "23361"
 },
 {
  "id": 1108100049,
  "districtId": 1108100,
  "districtName": "SUKA MAKMUR",
  "name": "LAMGEU BARO",
  "postalCode": "23361"
 },
 {
  "id": 1108100050,
  "districtId": 1108100,
  "districtName": "SUKA MAKMUR",
  "name": "LAMGEU TUHA",
  "postalCode": "23361"
 },
 {
  "id": 1108100051,
  "districtId": 1108100,
  "districtName": "SUKA MAKMUR",
  "name": "LAMLHEU",
  "postalCode": ""
 },
 {
  "id": 1108100052,
  "districtId": 1108100,
  "districtName": "SUKA MAKMUR",
  "name": "LAMTEH DAYAH",
  "postalCode": "23361"
 },
 {
  "id": 1108100053,
  "districtId": 1108100,
  "districtName": "SUKA MAKMUR",
  "name": "TAMPOK JEURAT RAYA",
  "postalCode": "23361"
 },
 {
  "id": 1108100054,
  "districtId": 1108100,
  "districtName": "SUKA MAKMUR",
  "name": "LAMPANAH INEU",
  "postalCode": "23361"
 },
 {
  "id": 1108100055,
  "districtId": 1108100,
  "districtName": "SUKA MAKMUR",
  "name": "KLING MANYANG",
  "postalCode": ""
 },
 {
  "id": 1108100056,
  "districtId": 1108100,
  "districtName": "SUKA MAKMUR",
  "name": "LAMPISANG",
  "postalCode": "23351"
 },
 {
  "id": 1108100057,
  "districtId": 1108100,
  "districtName": "SUKA MAKMUR",
  "name": "LAMBARO SIBREH",
  "postalCode": "23361"
 },
 {
  "id": 1108100058,
  "districtId": 1108100,
  "districtName": "SUKA MAKMUR",
  "name": "WEUSITEH",
  "postalCode": "23361"
 },
 {
  "id": 1108100059,
  "districtId": 1108100,
  "districtName": "SUKA MAKMUR",
  "name": "ANEUK GALONG TITI",
  "postalCode": "23361"
 },
 {
  "id": 1108100060,
  "districtId": 1108100,
  "districtName": "SUKA MAKMUR",
  "name": "ANEUK GALONG BARO",
  "postalCode": "23361"
 },
 {
  "id": 1108100061,
  "districtId": 1108100,
  "districtName": "SUKA MAKMUR",
  "name": "MEUNASAH BAKTHU",
  "postalCode": "23361"
 },
 {
  "id": 1108100062,
  "districtId": 1108100,
  "districtName": "SUKA MAKMUR",
  "name": "BLANG CUT",
  "postalCode": "24375"
 },
 {
  "id": 1108100063,
  "districtId": 1108100,
  "districtName": "SUKA MAKMUR",
  "name": "MEUNASAH TUHA",
  "postalCode": "24382"
 },
 {
  "id": 1108100064,
  "districtId": 1108100,
  "districtName": "SUKA MAKMUR",
  "name": "ANEUK BATEE",
  "postalCode": "23361"
 },
 {
  "id": 1108100065,
  "districtId": 1108100,
  "districtName": "SUKA MAKMUR",
  "name": "NIRON",
  "postalCode": "23361"
 },
 {
  "id": 1108100066,
  "districtId": 1108100,
  "districtName": "SUKA MAKMUR",
  "name": "BUKLOH",
  "postalCode": "23361"
 },
 {
  "id": 1108100067,
  "districtId": 1108100,
  "districtName": "SUKA MAKMUR",
  "name": "LAMBARIH JURONG RAYA",
  "postalCode": "23361"
 },
 {
  "id": 1108100068,
  "districtId": 1108100,
  "districtName": "SUKA MAKMUR",
  "name": "LAMBARIH BAKMEE",
  "postalCode": ""
 }
]