[
 {
  "id": 1108030001,
  "districtId": 1108030,
  "districtName": "INDRAPURI",
  "name": "ANEUK GLEE",
  "postalCode": "23363"
 },
 {
  "id": 1108030002,
  "districtId": 1108030,
  "districtName": "INDRAPURI",
  "name": "LAM ILIE GANTO",
  "postalCode": "23363"
 },
 {
  "id": 1108030003,
  "districtId": 1108030,
  "districtName": "INDRAPURI",
  "name": "LAM ILIE TEUNGOH",
  "postalCode": "23363"
 },
 {
  "id": 1108030004,
  "districtId": 1108030,
  "districtName": "INDRAPURI",
  "name": "REUKIH DAYAH",
  "postalCode": "23363"
 },
 {
  "id": 1108030005,
  "districtId": 1108030,
  "districtName": "INDRAPURI",
  "name": "KRUENG LAMKAREUNG",
  "postalCode": "23363"
 },
 {
  "id": 1108030006,
  "districtId": 1108030,
  "districtName": "INDRAPURI",
  "name": "RITING",
  "postalCode": "23363"
 },
 {
  "id": 1108030028,
  "districtId": 1108030,
  "districtName": "INDRAPURI",
  "name": "LAMPANAH TUNONG",
  "postalCode": "23363"
 },
 {
  "id": 1108030029,
  "districtId": 1108030,
  "districtName": "INDRAPURI",
  "name": "LAMPANAH BARO",
  "postalCode": "23363"
 },
 {
  "id": 1108030030,
  "districtId": 1108030,
  "districtName": "INDRAPURI",
  "name": "LAMPANAH TEUNGOH",
  "postalCode": "23363"
 },
 {
  "id": 1108030031,
  "districtId": 1108030,
  "districtName": "INDRAPURI",
  "name": "LAMPANAH DAYAH",
  "postalCode": "23363"
 },
 {
  "id": 1108030032,
  "districtId": 1108030,
  "districtName": "INDRAPURI",
  "name": "LAMPANAH RANJO",
  "postalCode": "23363"
 },
 {
  "id": 1108030033,
  "districtId": 1108030,
  "districtName": "INDRAPURI",
  "name": "SEUOT TUNONG",
  "postalCode": ""
 },
 {
  "id": 1108030034,
  "districtId": 1108030,
  "districtName": "INDRAPURI",
  "name": "SIHOM COT",
  "postalCode": "23363"
 },
 {
  "id": 1108030035,
  "districtId": 1108030,
  "districtName": "INDRAPURI",
  "name": "SIHOM LHOK",
  "postalCode": "23363"
 },
 {
  "id": 1108030036,
  "districtId": 1108030,
  "districtName": "INDRAPURI",
  "name": "SINYEU",
  "postalCode": "23363"
 },
 {
  "id": 1108030037,
  "districtId": 1108030,
  "districtName": "INDRAPURI",
  "name": "SEUOT BAROH",
  "postalCode": ""
 },
 {
  "id": 1108030038,
  "districtId": 1108030,
  "districtName": "INDRAPURI",
  "name": "PASAR INDRAPURI",
  "postalCode": "23363"
 },
 {
  "id": 1108030039,
  "districtId": 1108030,
  "districtName": "INDRAPURI",
  "name": "INDRA PURI",
  "postalCode": ""
 },
 {
  "id": 1108030040,
  "districtId": 1108030,
  "districtName": "INDRAPURI",
  "name": "REUKIH KEUPULA",
  "postalCode": "23363"
 },
 {
  "id": 1108030041,
  "districtId": 1108030,
  "districtName": "INDRAPURI",
  "name": "LAMLEUBOK",
  "postalCode": "23363"
 },
 {
  "id": 1108030042,
  "districtId": 1108030,
  "districtName": "INDRAPURI",
  "name": "LAM ILIE MESJID",
  "postalCode": "23363"
 },
 {
  "id": 1108030043,
  "districtId": 1108030,
  "districtName": "INDRAPURI",
  "name": "EMPE ARA",
  "postalCode": ""
 },
 {
  "id": 1108030044,
  "districtId": 1108030,
  "districtName": "INDRAPURI",
  "name": "ULEE KAREUNG",
  "postalCode": "23363"
 },
 {
  "id": 1108030045,
  "districtId": 1108030,
  "districtName": "INDRAPURI",
  "name": "SEUREMO",
  "postalCode": ""
 },
 {
  "id": 1108030046,
  "districtId": 1108030,
  "districtName": "INDRAPURI",
  "name": "MEUNARA",
  "postalCode": "23363"
 },
 {
  "id": 1108030047,
  "districtId": 1108030,
  "districtName": "INDRAPURI",
  "name": "LINGOM",
  "postalCode": "23363"
 },
 {
  "id": 1108030048,
  "districtId": 1108030,
  "districtName": "INDRAPURI",
  "name": "LAMBUNOT",
  "postalCode": "23363"
 },
 {
  "id": 1108030049,
  "districtId": 1108030,
  "districtName": "INDRAPURI",
  "name": "LAMSIOT",
  "postalCode": ""
 },
 {
  "id": 1108030050,
  "districtId": 1108030,
  "districtName": "INDRAPURI",
  "name": "ULEE UE",
  "postalCode": "24264"
 },
 {
  "id": 1108030051,
  "districtId": 1108030,
  "districtName": "INDRAPURI",
  "name": "JRUEK BAK KREH",
  "postalCode": "23363"
 },
 {
  "id": 1108030052,
  "districtId": 1108030,
  "districtName": "INDRAPURI",
  "name": "JRUEK BALEE",
  "postalCode": "23363"
 },
 {
  "id": 1108030053,
  "districtId": 1108030,
  "districtName": "INDRAPURI",
  "name": "GROT MANYANG",
  "postalCode": ""
 },
 {
  "id": 1108030054,
  "districtId": 1108030,
  "districtName": "INDRAPURI",
  "name": "GROT BARO",
  "postalCode": ""
 },
 {
  "id": 1108030055,
  "districtId": 1108030,
  "districtName": "INDRAPURI",
  "name": "MON ALUE",
  "postalCode": "23363"
 },
 {
  "id": 1108030056,
  "districtId": 1108030,
  "districtName": "INDRAPURI",
  "name": "GROT BLANG",
  "postalCode": ""
 },
 {
  "id": 1108030057,
  "districtId": 1108030,
  "districtName": "INDRAPURI",
  "name": "SEULANGAI",
  "postalCode": "23363"
 },
 {
  "id": 1108030058,
  "districtId": 1108030,
  "districtName": "INDRAPURI",
  "name": "LAMPUPOK BARO",
  "postalCode": "23363"
 },
 {
  "id": 1108030059,
  "districtId": 1108030,
  "districtName": "INDRAPURI",
  "name": "LAMPUPOK RAYA",
  "postalCode": "23363"
 },
 {
  "id": 1108030060,
  "districtId": 1108030,
  "districtName": "INDRAPURI",
  "name": "LAMBEUTONG",
  "postalCode": ""
 },
 {
  "id": 1108030061,
  "districtId": 1108030,
  "districtName": "INDRAPURI",
  "name": "LIMO LAMLUWEUNG",
  "postalCode": ""
 },
 {
  "id": 1108030062,
  "districtId": 1108030,
  "districtName": "INDRAPURI",
  "name": "LIMO MESJID",
  "postalCode": "23363"
 },
 {
  "id": 1108030063,
  "districtId": 1108030,
  "districtName": "INDRAPURI",
  "name": "LIMO BLANG",
  "postalCode": "23363"
 },
 {
  "id": 1108030064,
  "districtId": 1108030,
  "districtName": "INDRAPURI",
  "name": "COT KAREUNG",
  "postalCode": "23363"
 },
 {
  "id": 1108030065,
  "districtId": 1108030,
  "districtName": "INDRAPURI",
  "name": "CUREH",
  "postalCode": "23363"
 },
 {
  "id": 1108030066,
  "districtId": 1108030,
  "districtName": "INDRAPURI",
  "name": "LHEUE",
  "postalCode": "24181"
 },
 {
  "id": 1108030067,
  "districtId": 1108030,
  "districtName": "INDRAPURI",
  "name": "MESALEE",
  "postalCode": ""
 },
 {
  "id": 1108030068,
  "districtId": 1108030,
  "districtName": "INDRAPURI",
  "name": "LAMLUNG",
  "postalCode": ""
 },
 {
  "id": 1108030069,
  "districtId": 1108030,
  "districtName": "INDRAPURI",
  "name": "MUREU ULE TITIE",
  "postalCode": ""
 },
 {
  "id": 1108030070,
  "districtId": 1108030,
  "districtName": "INDRAPURI",
  "name": "MUREU BUNG U",
  "postalCode": ""
 },
 {
  "id": 1108030071,
  "districtId": 1108030,
  "districtName": "INDRAPURI",
  "name": "MUREU BARO",
  "postalCode": "23363"
 },
 {
  "id": 1108030072,
  "districtId": 1108030,
  "districtName": "INDRAPURI",
  "name": "MUREU LAMGLUMPANG",
  "postalCode": ""
 },
 {
  "id": 1108030073,
  "districtId": 1108030,
  "districtName": "INDRAPURI",
  "name": "MANGGRA",
  "postalCode": "23363"
 }
]