[
 {
  "id": 1108060001,
  "districtId": 1108060,
  "districtName": "DARUSSALAM",
  "name": "LAMPUJA",
  "postalCode": ""
 },
 {
  "id": 1108060002,
  "districtId": 1108060,
  "districtName": "DARUSSALAM",
  "name": "LAM UJONG",
  "postalCode": "23373"
 },
 {
  "id": 1108060003,
  "districtId": 1108060,
  "districtName": "DARUSSALAM",
  "name": "LAM GAWEE",
  "postalCode": "23373"
 },
 {
  "id": 1108060004,
  "districtId": 1108060,
  "districtName": "DARUSSALAM",
  "name": "LAM ASAN",
  "postalCode": "23373"
 },
 {
  "id": 1108060005,
  "districtId": 1108060,
  "districtName": "DARUSSALAM",
  "name": "LAM REH",
  "postalCode": "23373"
 },
 {
  "id": 1108060006,
  "districtId": 1108060,
  "districtName": "DARUSSALAM",
  "name": "SIEM",
  "postalCode": "23373"
 },
 {
  "id": 1108060007,
  "districtId": 1108060,
  "districtName": "DARUSSALAM",
  "name": "KRUENG KALEE",
  "postalCode": "23373"
 },
 {
  "id": 1108060008,
  "districtId": 1108060,
  "districtName": "DARUSSALAM",
  "name": "LAMBARO SUKON",
  "postalCode": "23373"
 },
 {
  "id": 1108060009,
  "districtId": 1108060,
  "districtName": "DARUSSALAM",
  "name": "LAMBIHEU LAMBARO ANGAN",
  "postalCode": ""
 },
 {
  "id": 1108060010,
  "districtId": 1108060,
  "districtName": "DARUSSALAM",
  "name": "LAMBIHEU SIEM",
  "postalCode": "23373"
 },
 {
  "id": 1108060011,
  "districtId": 1108060,
  "districtName": "DARUSSALAM",
  "name": "LAM KLAT",
  "postalCode": "23373"
 },
 {
  "id": 1108060012,
  "districtId": 1108060,
  "districtName": "DARUSSALAM",
  "name": "LAMKEUNEUNG",
  "postalCode": ""
 },
 {
  "id": 1108060013,
  "districtId": 1108060,
  "districtName": "DARUSSALAM",
  "name": "LAMPUUK",
  "postalCode": "23372"
 },
 {
  "id": 1108060014,
  "districtId": 1108060,
  "districtName": "DARUSSALAM",
  "name": "LAMTIMPEUNG",
  "postalCode": ""
 },
 {
  "id": 1108060015,
  "districtId": 1108060,
  "districtName": "DARUSSALAM",
  "name": "LIMPOK",
  "postalCode": "23373"
 },
 {
  "id": 1108060016,
  "districtId": 1108060,
  "districtName": "DARUSSALAM",
  "name": "BARABUNG",
  "postalCode": ""
 },
 {
  "id": 1108060017,
  "districtId": 1108060,
  "districtName": "DARUSSALAM",
  "name": "TUNGKOB",
  "postalCode": ""
 },
 {
  "id": 1108060018,
  "districtId": 1108060,
  "districtName": "DARUSSALAM",
  "name": "LAM DURO",
  "postalCode": ""
 },
 {
  "id": 1108060019,
  "districtId": 1108060,
  "districtName": "DARUSSALAM",
  "name": "LAMBITRA",
  "postalCode": ""
 },
 {
  "id": 1108060020,
  "districtId": 1108060,
  "districtName": "DARUSSALAM",
  "name": "LIEUE",
  "postalCode": ""
 },
 {
  "id": 1108060021,
  "districtId": 1108060,
  "districtName": "DARUSSALAM",
  "name": "LAMBADA PEUKAN",
  "postalCode": "23373"
 },
 {
  "id": 1108060022,
  "districtId": 1108060,
  "districtName": "DARUSSALAM",
  "name": "BLANG",
  "postalCode": "24385"
 },
 {
  "id": 1108060023,
  "districtId": 1108060,
  "districtName": "DARUSSALAM",
  "name": "COT",
  "postalCode": "23354"
 },
 {
  "id": 1108060024,
  "districtId": 1108060,
  "districtName": "DARUSSALAM",
  "name": "ANGAN",
  "postalCode": "23373"
 },
 {
  "id": 1108060026,
  "districtId": 1108060,
  "districtName": "DARUSSALAM",
  "name": "MIRUEK TAMAN",
  "postalCode": "23373"
 },
 {
  "id": 1108060027,
  "districtId": 1108060,
  "districtName": "DARUSSALAM",
  "name": "LAMPEUDAYA",
  "postalCode": ""
 },
 {
  "id": 1108060028,
  "districtId": 1108060,
  "districtName": "DARUSSALAM",
  "name": "SULEUE",
  "postalCode": ""
 },
 {
  "id": 1108060029,
  "districtId": 1108060,
  "districtName": "DARUSSALAM",
  "name": "TANJONG DEAH",
  "postalCode": ""
 },
 {
  "id": 1108060030,
  "districtId": 1108060,
  "districtName": "DARUSSALAM",
  "name": "TANJUNG SELAMAT",
  "postalCode": "21463"
 }
]