[
 {
  "id": 1108120001,
  "districtId": 1108120,
  "districtName": "PEUKAN BADA",
  "name": "BERADEUN",
  "postalCode": ""
 },
 {
  "id": 1108120002,
  "districtId": 1108120,
  "districtName": "PEUKAN BADA",
  "name": "KEUNEUEU",
  "postalCode": ""
 },
 {
  "id": 1108120003,
  "districtId": 1108120,
  "districtName": "PEUKAN BADA",
  "name": "LAMPISANG",
  "postalCode": "23351"
 },
 {
  "id": 1108120004,
  "districtId": 1108120,
  "districtName": "PEUKAN BADA",
  "name": "RIMA JEUNE",
  "postalCode": ""
 },
 {
  "id": 1108120005,
  "districtId": 1108120,
  "districtName": "PEUKAN BADA",
  "name": "RIMA KEUNERUM",
  "postalCode": ""
 },
 {
  "id": 1108120006,
  "districtId": 1108120,
  "districtName": "PEUKAN BADA",
  "name": "AJUEN",
  "postalCode": "23351"
 },
 {
  "id": 1108120007,
  "districtId": 1108120,
  "districtName": "PEUKAN BADA",
  "name": "LAM HASAN",
  "postalCode": "23351"
 },
 {
  "id": 1108120008,
  "districtId": 1108120,
  "districtName": "PEUKAN BADA",
  "name": "PAYATIENG",
  "postalCode": ""
 },
 {
  "id": 1108120009,
  "districtId": 1108120,
  "districtName": "PEUKAN BADA",
  "name": "LAMGEU-EU",
  "postalCode": ""
 },
 {
  "id": 1108120010,
  "districtId": 1108120,
  "districtName": "PEUKAN BADA",
  "name": "LAM RUKAM",
  "postalCode": "23351"
 },
 {
  "id": 1108120011,
  "districtId": 1108120,
  "districtName": "PEUKAN BADA",
  "name": "GURAH",
  "postalCode": "23351"
 },
 {
  "id": 1108120012,
  "districtId": 1108120,
  "districtName": "PEUKAN BADA",
  "name": "LAM ISEK",
  "postalCode": "23351"
 },
 {
  "id": 1108120013,
  "districtId": 1108120,
  "districtName": "PEUKAN BADA",
  "name": "LAM KEUMOK",
  "postalCode": ""
 },
 {
  "id": 1108120014,
  "districtId": 1108120,
  "districtName": "PEUKAN BADA",
  "name": "LAMLUMPU",
  "postalCode": ""
 },
 {
  "id": 1108120015,
  "districtId": 1108120,
  "districtName": "PEUKAN BADA",
  "name": "LAM TEEH",
  "postalCode": ""
 },
 {
  "id": 1108120016,
  "districtId": 1108120,
  "districtName": "PEUKAN BADA",
  "name": "BARO",
  "postalCode": "24386"
 },
 {
  "id": 1108120017,
  "districtId": 1108120,
  "districtName": "PEUKAN BADA",
  "name": "LAM MANYANG",
  "postalCode": "23351"
 },
 {
  "id": 1108120018,
  "districtId": 1108120,
  "districtName": "PEUKAN BADA",
  "name": "LAM AWEE",
  "postalCode": ""
 },
 {
  "id": 1108120019,
  "districtId": 1108120,
  "districtName": "PEUKAN BADA",
  "name": "MEUNASAH TUHA",
  "postalCode": "24382"
 },
 {
  "id": 1108120020,
  "districtId": 1108120,
  "districtName": "PEUKAN BADA",
  "name": "LAM TEUNGOH",
  "postalCode": "23656"
 },
 {
  "id": 1108120021,
  "districtId": 1108120,
  "districtName": "PEUKAN BADA",
  "name": "LAM TUTUI",
  "postalCode": ""
 },
 {
  "id": 1108120022,
  "districtId": 1108120,
  "districtName": "PEUKAN BADA",
  "name": "LAM GURON",
  "postalCode": ""
 },
 {
  "id": 1108120023,
  "districtId": 1108120,
  "districtName": "PEUKAN BADA",
  "name": "LAM BADEUK",
  "postalCode": ""
 },
 {
  "id": 1108120024,
  "districtId": 1108120,
  "districtName": "PEUKAN BADA",
  "name": "LAMBARO NEUJID",
  "postalCode": ""
 },
 {
  "id": 1108120025,
  "districtId": 1108120,
  "districtName": "PEUKAN BADA",
  "name": "LAM PAGEU",
  "postalCode": ""
 },
 {
  "id": 1108120026,
  "districtId": 1108120,
  "districtName": "PEUKAN BADA",
  "name": "PULO BUNTA",
  "postalCode": "23351"
 }
]