[
 {
  "id": 1108102001,
  "districtId": 1108102,
  "districtName": "SIMPANG TIGA",
  "name": "TAN TUHA",
  "postalCode": ""
 },
 {
  "id": 1108102002,
  "districtId": 1108102,
  "districtName": "SIMPANG TIGA",
  "name": "BLANG PREH",
  "postalCode": "23671"
 },
 {
  "id": 1108102003,
  "districtId": 1108102,
  "districtName": "SIMPANG TIGA",
  "name": "BLANG MIRO",
  "postalCode": "23371"
 },
 {
  "id": 1108102004,
  "districtId": 1108102,
  "districtName": "SIMPANG TIGA",
  "name": "BHA ULEE TUTU",
  "postalCode": "23371"
 },
 {
  "id": 1108102005,
  "districtId": 1108102,
  "districtName": "SIMPANG TIGA",
  "name": "LAMBUNOT",
  "postalCode": "23363"
 },
 {
  "id": 1108102006,
  "districtId": 1108102,
  "districtName": "SIMPANG TIGA",
  "name": "LAMBATEE",
  "postalCode": "23352"
 },
 {
  "id": 1108102007,
  "districtId": 1108102,
  "districtName": "SIMPANG TIGA",
  "name": "NYA",
  "postalCode": "23371"
 },
 {
  "id": 1108102008,
  "districtId": 1108102,
  "districtName": "SIMPANG TIGA",
  "name": "KRUENG MAK",
  "postalCode": "23371"
 },
 {
  "id": 1108102009,
  "districtId": 1108102,
  "districtName": "SIMPANG TIGA",
  "name": "BATEE LINTEUNG",
  "postalCode": ""
 },
 {
  "id": 1108102010,
  "districtId": 1108102,
  "districtName": "SIMPANG TIGA",
  "name": "ATEUK LAMPHANG",
  "postalCode": "23371"
 },
 {
  "id": 1108102011,
  "districtId": 1108102,
  "districtName": "SIMPANG TIGA",
  "name": "ATEUK CUT",
  "postalCode": "23371"
 },
 {
  "id": 1108102012,
  "districtId": 1108102,
  "districtName": "SIMPANG TIGA",
  "name": "ATEUK BLANG ASAN",
  "postalCode": "23371"
 },
 {
  "id": 1108102013,
  "districtId": 1108102,
  "districtName": "SIMPANG TIGA",
  "name": "ATEUK MON PANAH",
  "postalCode": "23371"
 },
 {
  "id": 1108102014,
  "districtId": 1108102,
  "districtName": "SIMPANG TIGA",
  "name": "ATEUK LAM URA",
  "postalCode": "23371"
 },
 {
  "id": 1108102015,
  "districtId": 1108102,
  "districtName": "SIMPANG TIGA",
  "name": "ATEUK LAMPEUOT",
  "postalCode": ""
 },
 {
  "id": 1108102016,
  "districtId": 1108102,
  "districtName": "SIMPANG TIGA",
  "name": "LAMJAMEE DAYAH",
  "postalCode": "23371"
 },
 {
  "id": 1108102017,
  "districtId": 1108102,
  "districtName": "SIMPANG TIGA",
  "name": "LAMJAMEE LAMKRAK",
  "postalCode": "23371"
 },
 {
  "id": 1108102018,
  "districtId": 1108102,
  "districtName": "SIMPANG TIGA",
  "name": "LAM URIT",
  "postalCode": "23371"
 }
]