[
 {
  "id": 1108080001,
  "districtId": 1108080,
  "districtName": "MONTASIK",
  "name": "WEU BADA",
  "postalCode": "23362"
 },
 {
  "id": 1108080002,
  "districtId": 1108080,
  "districtName": "MONTASIK",
  "name": "PIYEUNG LHANG",
  "postalCode": "23362"
 },
 {
  "id": 1108080003,
  "districtId": 1108080,
  "districtName": "MONTASIK",
  "name": "PIYEUNG DATU",
  "postalCode": ""
 },
 {
  "id": 1108080004,
  "districtId": 1108080,
  "districtName": "MONTASIK",
  "name": "PIYEUNG MANE",
  "postalCode": ""
 },
 {
  "id": 1108080005,
  "districtId": 1108080,
  "districtName": "MONTASIK",
  "name": "KUWEU",
  "postalCode": ""
 },
 {
  "id": 1108080006,
  "districtId": 1108080,
  "districtName": "MONTASIK",
  "name": "BUENG DAROH",
  "postalCode": ""
 },
 {
  "id": 1108080007,
  "districtId": 1108080,
  "districtName": "MONTASIK",
  "name": "COT LAMPOH SOH",
  "postalCode": "23362"
 },
 {
  "id": 1108080008,
  "districtId": 1108080,
  "districtName": "MONTASIK",
  "name": "MON ARA",
  "postalCode": "24357"
 },
 {
  "id": 1108080009,
  "districtId": 1108080,
  "districtName": "MONTASIK",
  "name": "COT LHOK",
  "postalCode": "23362"
 },
 {
  "id": 1108080010,
  "districtId": 1108080,
  "districtName": "MONTASIK",
  "name": "BUENG RAYA",
  "postalCode": ""
 },
 {
  "id": 1108080011,
  "districtId": 1108080,
  "districtName": "MONTASIK",
  "name": "ATONG",
  "postalCode": "23362"
 },
 {
  "id": 1108080012,
  "districtId": 1108080,
  "districtName": "MONTASIK",
  "name": "TEUBANG PHUI MESJID",
  "postalCode": "23362"
 },
 {
  "id": 1108080013,
  "districtId": 1108080,
  "districtName": "MONTASIK",
  "name": "LAMME GAROT",
  "postalCode": "23362"
 },
 {
  "id": 1108080014,
  "districtId": 1108080,
  "districtName": "MONTASIK",
  "name": "REUDEUP",
  "postalCode": "23362"
 },
 {
  "id": 1108080015,
  "districtId": 1108080,
  "districtName": "MONTASIK",
  "name": "BAKCIRIH",
  "postalCode": ""
 },
 {
  "id": 1108080016,
  "districtId": 1108080,
  "districtName": "MONTASIK",
  "name": "MEUNASAH TUTONG",
  "postalCode": "23657"
 },
 {
  "id": 1108080017,
  "districtId": 1108080,
  "districtName": "MONTASIK",
  "name": "EMPEE TANONG",
  "postalCode": ""
 },
 {
  "id": 1108080018,
  "districtId": 1108080,
  "districtName": "MONTASIK",
  "name": "DAYAH DABOH",
  "postalCode": "23362"
 },
 {
  "id": 1108080019,
  "districtId": 1108080,
  "districtName": "MONTASIK",
  "name": "LAMPASEH KRUENG",
  "postalCode": "23362"
 },
 {
  "id": 1108080020,
  "districtId": 1108080,
  "districtName": "MONTASIK",
  "name": "LAMNGA",
  "postalCode": "23381"
 },
 {
  "id": 1108080021,
  "districtId": 1108080,
  "districtName": "MONTASIK",
  "name": "LAMPASEH LHOK",
  "postalCode": "23362"
 },
 {
  "id": 1108080022,
  "districtId": 1108080,
  "districtName": "MONTASIK",
  "name": "BAROH",
  "postalCode": "24152"
 },
 {
  "id": 1108080023,
  "districtId": 1108080,
  "districtName": "MONTASIK",
  "name": "MATA IE",
  "postalCode": "23764"
 },
 {
  "id": 1108080024,
  "districtId": 1108080,
  "districtName": "MONTASIK",
  "name": "WEU KRUENG",
  "postalCode": "23362"
 },
 {
  "id": 1108080025,
  "districtId": 1108080,
  "districtName": "MONTASIK",
  "name": "ALUE",
  "postalCode": "24184"
 },
 {
  "id": 1108080026,
  "districtId": 1108080,
  "districtName": "MONTASIK",
  "name": "WEU LHOK",
  "postalCode": ""
 },
 {
  "id": 1108080027,
  "districtId": 1108080,
  "districtName": "MONTASIK",
  "name": "WARABO",
  "postalCode": "23362"
 },
 {
  "id": 1108080028,
  "districtId": 1108080,
  "districtName": "MONTASIK",
  "name": "TEUBANG PHUI BARO",
  "postalCode": "23362"
 },
 {
  "id": 1108080029,
  "districtId": 1108080,
  "districtName": "MONTASIK",
  "name": "BUENG TUJOH",
  "postalCode": ""
 },
 {
  "id": 1108080030,
  "districtId": 1108080,
  "districtName": "MONTASIK",
  "name": "BIRA LHOK",
  "postalCode": "23362"
 },
 {
  "id": 1108080031,
  "districtId": 1108080,
  "districtName": "MONTASIK",
  "name": "BIRA COT",
  "postalCode": "23362"
 },
 {
  "id": 1108080032,
  "districtId": 1108080,
  "districtName": "MONTASIK",
  "name": "PEURUMPING",
  "postalCode": "23362"
 },
 {
  "id": 1108080035,
  "districtId": 1108080,
  "districtName": "MONTASIK",
  "name": "BAK DILIP",
  "postalCode": ""
 },
 {
  "id": 1108080036,
  "districtId": 1108080,
  "districtName": "MONTASIK",
  "name": "ULEE LHAT",
  "postalCode": "23362"
 },
 {
  "id": 1108080037,
  "districtId": 1108080,
  "districtName": "MONTASIK",
  "name": "SEUBAM LHOK",
  "postalCode": ""
 },
 {
  "id": 1108080038,
  "districtId": 1108080,
  "districtName": "MONTASIK",
  "name": "LAM RAYA",
  "postalCode": "23372"
 },
 {
  "id": 1108080039,
  "districtId": 1108080,
  "districtName": "MONTASIK",
  "name": "COT SEUNONG",
  "postalCode": "23362"
 },
 {
  "id": 1108080042,
  "districtId": 1108080,
  "districtName": "MONTASIK",
  "name": "SEUBAM COT",
  "postalCode": ""
 },
 {
  "id": 1108080043,
  "districtId": 1108080,
  "districtName": "MONTASIK",
  "name": "SEUMET",
  "postalCode": ""
 }
]