[
 {
  "id": 1108091001,
  "districtId": 1108091,
  "districtName": "KRUENG BARONA JAYA",
  "name": "LAMPERMAI",
  "postalCode": ""
 },
 {
  "id": 1108091002,
  "districtId": 1108091,
  "districtName": "KRUENG BARONA JAYA",
  "name": "MIRUK",
  "postalCode": "23371"
 },
 {
  "id": 1108091003,
  "districtId": 1108091,
  "districtName": "KRUENG BARONA JAYA",
  "name": "GLA DEYAH",
  "postalCode": "23371"
 },
 {
  "id": 1108091004,
  "districtId": 1108091,
  "districtName": "KRUENG BARONA JAYA",
  "name": "GLA MEUNASAH BARO",
  "postalCode": "23371"
 },
 {
  "id": 1108091005,
  "districtId": 1108091,
  "districtName": "KRUENG BARONA JAYA",
  "name": "MEUNASAH INTAN",
  "postalCode": "23371"
 },
 {
  "id": 1108091006,
  "districtId": 1108091,
  "districtName": "KRUENG BARONA JAYA",
  "name": "MEUNASAH BAET",
  "postalCode": "23371"
 },
 {
  "id": 1108091007,
  "districtId": 1108091,
  "districtName": "KRUENG BARONA JAYA",
  "name": "MEUNASAH MANYANG",
  "postalCode": "23371"
 },
 {
  "id": 1108091008,
  "districtId": 1108091,
  "districtName": "KRUENG BARONA JAYA",
  "name": "LAMGAPANG",
  "postalCode": ""
 },
 {
  "id": 1108091009,
  "districtId": 1108091,
  "districtName": "KRUENG BARONA JAYA",
  "name": "RUMPET",
  "postalCode": "23657"
 },
 {
  "id": 1108091010,
  "districtId": 1108091,
  "districtName": "KRUENG BARONA JAYA",
  "name": "BAK TRIENG",
  "postalCode": ""
 },
 {
  "id": 1108091011,
  "districtId": 1108091,
  "districtName": "KRUENG BARONA JAYA",
  "name": "LUENG IE",
  "postalCode": "23371"
 },
 {
  "id": 1108091012,
  "districtId": 1108091,
  "districtName": "KRUENG BARONA JAYA",
  "name": "MEUNASAH PAPEUN",
  "postalCode": "23371"
 }
]