[
 {
  "id": 1109100001,
  "districtId": 1109100,
  "districtName": "TANGSE",
  "name": "PULO SEJAHTRA",
  "postalCode": ""
 },
 {
  "id": 1109100002,
  "districtId": 1109100,
  "districtName": "TANGSE",
  "name": "KRUENG MEURIAM",
  "postalCode": ""
 },
 {
  "id": 1109100003,
  "districtId": 1109100,
  "districtName": "TANGSE",
  "name": "PEUNALOM II",
  "postalCode": ""
 },
 {
  "id": 1109100004,
  "districtId": 1109100,
  "districtName": "TANGSE",
  "name": "PEUNALOM I",
  "postalCode": ""
 },
 {
  "id": 1109100005,
  "districtId": 1109100,
  "districtName": "TANGSE",
  "name": "PULO BARO",
  "postalCode": "24165"
 },
 {
  "id": 1109100006,
  "districtId": 1109100,
  "districtName": "TANGSE",
  "name": "KEUDE TANGSE",
  "postalCode": ""
 },
 {
  "id": 1109100007,
  "districtId": 1109100,
  "districtName": "TANGSE",
  "name": "PULO MESJID I",
  "postalCode": "24166"
 },
 {
  "id": 1109100008,
  "districtId": 1109100,
  "districtName": "TANGSE",
  "name": "PULO MESJID II",
  "postalCode": "24166"
 },
 {
  "id": 1109100009,
  "districtId": 1109100,
  "districtName": "TANGSE",
  "name": "BLANG JEURAT",
  "postalCode": "24166"
 },
 {
  "id": 1109100010,
  "districtId": 1109100,
  "districtName": "TANGSE",
  "name": "LAYAN",
  "postalCode": "24166"
 },
 {
  "id": 1109100011,
  "districtId": 1109100,
  "districtName": "TANGSE",
  "name": "BLANG DALAM",
  "postalCode": "23767"
 },
 {
  "id": 1109100012,
  "districtId": 1109100,
  "districtName": "TANGSE",
  "name": "RANTO PANYANG",
  "postalCode": "24251"
 },
 {
  "id": 1109100013,
  "districtId": 1109100,
  "districtName": "TANGSE",
  "name": "BLANG TEUNGOH",
  "postalCode": "23661"
 },
 {
  "id": 1109100014,
  "districtId": 1109100,
  "districtName": "TANGSE",
  "name": "BLANG BUNGONG",
  "postalCode": "24166"
 },
 {
  "id": 1109100015,
  "districtId": 1109100,
  "districtName": "TANGSE",
  "name": "BLANG DHOD",
  "postalCode": ""
 },
 {
  "id": 1109100016,
  "districtId": 1109100,
  "districtName": "TANGSE",
  "name": "PAYA GUCI",
  "postalCode": "24166"
 },
 {
  "id": 1109100017,
  "districtId": 1109100,
  "districtName": "TANGSE",
  "name": "ULEE GUNONG",
  "postalCode": "24382"
 },
 {
  "id": 1109100018,
  "districtId": 1109100,
  "districtName": "TANGSE",
  "name": "KEUBON NILAM",
  "postalCode": "24166"
 },
 {
  "id": 1109100019,
  "districtId": 1109100,
  "districtName": "TANGSE",
  "name": "PULO SEUNONG",
  "postalCode": "24166"
 },
 {
  "id": 1109100020,
  "districtId": 1109100,
  "districtName": "TANGSE",
  "name": "PULO KAWA",
  "postalCode": "24166"
 },
 {
  "id": 1109100021,
  "districtId": 1109100,
  "districtName": "TANGSE",
  "name": "NEUBOK BADEUK",
  "postalCode": ""
 },
 {
  "id": 1109100022,
  "districtId": 1109100,
  "districtName": "TANGSE",
  "name": "BLANG MALO",
  "postalCode": "24166"
 },
 {
  "id": 1109100023,
  "districtId": 1109100,
  "districtName": "TANGSE",
  "name": "KRUENG SEUKEUK",
  "postalCode": ""
 },
 {
  "id": 1109100024,
  "districtId": 1109100,
  "districtName": "TANGSE",
  "name": "BEUNGGA",
  "postalCode": "24166"
 },
 {
  "id": 1109100025,
  "districtId": 1109100,
  "districtName": "TANGSE",
  "name": "PULO IEE",
  "postalCode": ""
 },
 {
  "id": 1109100026,
  "districtId": 1109100,
  "districtName": "TANGSE",
  "name": "ALUE CALONG",
  "postalCode": "24166"
 },
 {
  "id": 1109100027,
  "districtId": 1109100,
  "districtName": "TANGSE",
  "name": "LHOK KEUTAPANG",
  "postalCode": "24151"
 },
 {
  "id": 1109100029,
  "districtId": 1109100,
  "districtName": "TANGSE",
  "name": "BLANG PANDAK",
  "postalCode": ""
 }
]