[
 {
  "id": 1109071001,
  "districtId": 1109071,
  "districtName": "GLUMPANG BARO",
  "name": "MANYANG",
  "postalCode": "24184"
 },
 {
  "id": 1109071002,
  "districtId": 1109071,
  "districtName": "GLUMPANG BARO",
  "name": "MEUNASAH SAGOE",
  "postalCode": ""
 },
 {
  "id": 1109071003,
  "districtId": 1109071,
  "districtName": "GLUMPANG BARO",
  "name": "PULO IBOIH",
  "postalCode": "24183"
 },
 {
  "id": 1109071004,
  "districtId": 1109071,
  "districtName": "GLUMPANG BARO",
  "name": "JURONG BARO",
  "postalCode": "24183"
 },
 {
  "id": 1109071005,
  "districtId": 1109071,
  "districtName": "GLUMPANG BARO",
  "name": "GEUNTENG",
  "postalCode": "24183"
 },
 {
  "id": 1109071006,
  "districtId": 1109071,
  "districtName": "GLUMPANG BARO",
  "name": "SUKON PAKU",
  "postalCode": "24183"
 },
 {
  "id": 1109071007,
  "districtId": 1109071,
  "districtName": "GLUMPANG BARO",
  "name": "BLANG BAROH",
  "postalCode": "24183"
 },
 {
  "id": 1109071008,
  "districtId": 1109071,
  "districtName": "GLUMPANG BARO",
  "name": "MEUNASAH SANGGET",
  "postalCode": ""
 },
 {
  "id": 1109071009,
  "districtId": 1109071,
  "districtName": "GLUMPANG BARO",
  "name": "MEUNASAH BUNGONG",
  "postalCode": ""
 },
 {
  "id": 1109071010,
  "districtId": 1109071,
  "districtName": "GLUMPANG BARO",
  "name": "MEUNASAH SEUKEE",
  "postalCode": ""
 },
 {
  "id": 1109071011,
  "districtId": 1109071,
  "districtName": "GLUMPANG BARO",
  "name": "PULO PANJOU",
  "postalCode": ""
 },
 {
  "id": 1109071012,
  "districtId": 1109071,
  "districtName": "GLUMPANG BARO",
  "name": "SEUREUKUI/CEBREK",
  "postalCode": ""
 },
 {
  "id": 1109071013,
  "districtId": 1109071,
  "districtName": "GLUMPANG BARO",
  "name": "MEUNASAH DABOIH",
  "postalCode": ""
 },
 {
  "id": 1109071014,
  "districtId": 1109071,
  "districtName": "GLUMPANG BARO",
  "name": "BALE GANTUNG",
  "postalCode": ""
 },
 {
  "id": 1109071015,
  "districtId": 1109071,
  "districtName": "GLUMPANG BARO",
  "name": "ME TEUMPEUN",
  "postalCode": ""
 },
 {
  "id": 1109071016,
  "districtId": 1109071,
  "districtName": "GLUMPANG BARO",
  "name": "U BUNGKOK",
  "postalCode": ""
 },
 {
  "id": 1109071017,
  "districtId": 1109071,
  "districtName": "GLUMPANG BARO",
  "name": "KUMBANG UNOE",
  "postalCode": "24183"
 },
 {
  "id": 1109071018,
  "districtId": 1109071,
  "districtName": "GLUMPANG BARO",
  "name": "GLUMPANG BUNGKOK",
  "postalCode": "24183"
 },
 {
  "id": 1109071019,
  "districtId": 1109071,
  "districtName": "GLUMPANG BARO",
  "name": "MEUNASAH KUMPANG",
  "postalCode": ""
 },
 {
  "id": 1109071020,
  "districtId": 1109071,
  "districtName": "GLUMPANG BARO",
  "name": "MEUNASAH UKEE",
  "postalCode": ""
 },
 {
  "id": 1109071021,
  "districtId": 1109071,
  "districtName": "GLUMPANG BARO",
  "name": "PALONG",
  "postalCode": "24183"
 }
]