[
 {
  "id": 1109070001,
  "districtId": 1109070,
  "districtName": "GLUMPANG TIGA",
  "name": "KUMBANG KEUPULA",
  "postalCode": "24183"
 },
 {
  "id": 1109070002,
  "districtId": 1109070,
  "districtName": "GLUMPANG TIGA",
  "name": "TUFAH JEULATANG",
  "postalCode": "24183"
 },
 {
  "id": 1109070003,
  "districtId": 1109070,
  "districtName": "GLUMPANG TIGA",
  "name": "KEUTAPANG MESJID",
  "postalCode": "24183"
 },
 {
  "id": 1109070004,
  "districtId": 1109070,
  "districtName": "GLUMPANG TIGA",
  "name": "AMUD MESJID",
  "postalCode": ""
 },
 {
  "id": 1109070005,
  "districtId": 1109070,
  "districtName": "GLUMPANG TIGA",
  "name": "COT TUNONG",
  "postalCode": "24356"
 },
 {
  "id": 1109070006,
  "districtId": 1109070,
  "districtName": "GLUMPANG TIGA",
  "name": "COT BAROH",
  "postalCode": "24183"
 },
 {
  "id": 1109070007,
  "districtId": 1109070,
  "districtName": "GLUMPANG TIGA",
  "name": "KRUENG NYONG",
  "postalCode": "24183"
 },
 {
  "id": 1109070008,
  "districtId": 1109070,
  "districtName": "GLUMPANG TIGA",
  "name": "KRUENG JANGKO",
  "postalCode": "24183"
 },
 {
  "id": 1109070009,
  "districtId": 1109070,
  "districtName": "GLUMPANG TIGA",
  "name": "REUDEUP MEULAYU",
  "postalCode": "24183"
 },
 {
  "id": 1109070010,
  "districtId": 1109070,
  "districtName": "GLUMPANG TIGA",
  "name": "PANJOE",
  "postalCode": ""
 },
 {
  "id": 1109070011,
  "districtId": 1109070,
  "districtName": "GLUMPANG TIGA",
  "name": "PULO GAJAH MATEE",
  "postalCode": ""
 },
 {
  "id": 1109070012,
  "districtId": 1109070,
  "districtName": "GLUMPANG TIGA",
  "name": "MENJE",
  "postalCode": ""
 },
 {
  "id": 1109070013,
  "districtId": 1109070,
  "districtName": "GLUMPANG TIGA",
  "name": "JURONG PANDEE",
  "postalCode": ""
 },
 {
  "id": 1109070014,
  "districtId": 1109070,
  "districtName": "GLUMPANG TIGA",
  "name": "PULO LON/P.DAYAH",
  "postalCode": ""
 },
 {
  "id": 1109070015,
  "districtId": 1109070,
  "districtName": "GLUMPANG TIGA",
  "name": "KAMPUNG JUMPA",
  "postalCode": ""
 },
 {
  "id": 1109070016,
  "districtId": 1109070,
  "districtName": "GLUMPANG TIGA",
  "name": "BILI",
  "postalCode": "24183"
 },
 {
  "id": 1109070017,
  "districtId": 1109070,
  "districtName": "GLUMPANG TIGA",
  "name": "DAYAH TANOH",
  "postalCode": "24183"
 },
 {
  "id": 1109070018,
  "districtId": 1109070,
  "districtName": "GLUMPANG TIGA",
  "name": "SIMPANG",
  "postalCode": "23773"
 },
 {
  "id": 1109070019,
  "districtId": 1109070,
  "districtName": "GLUMPANG TIGA",
  "name": "KAYEE JATOE",
  "postalCode": "24184"
 },
 {
  "id": 1109070020,
  "districtId": 1109070,
  "districtName": "GLUMPANG TIGA",
  "name": "KRUET TEUMPEUN",
  "postalCode": "24183"
 },
 {
  "id": 1109070021,
  "districtId": 1109070,
  "districtName": "GLUMPANG TIGA",
  "name": "SUKON BAROH",
  "postalCode": "24183"
 },
 {
  "id": 1109070022,
  "districtId": 1109070,
  "districtName": "GLUMPANG TIGA",
  "name": "BLANG DRANG",
  "postalCode": "24183"
 },
 {
  "id": 1109070023,
  "districtId": 1109070,
  "districtName": "GLUMPANG TIGA",
  "name": "MAMPLAM",
  "postalCode": "24183"
 },
 {
  "id": 1109070024,
  "districtId": 1109070,
  "districtName": "GLUMPANG TIGA",
  "name": "SUKON MESJID",
  "postalCode": "24183"
 },
 {
  "id": 1109070025,
  "districtId": 1109070,
  "districtName": "GLUMPANG TIGA",
  "name": "PULO BATEE",
  "postalCode": "24183"
 },
 {
  "id": 1109070026,
  "districtId": 1109070,
  "districtName": "GLUMPANG TIGA",
  "name": "NEUROK",
  "postalCode": "24183"
 },
 {
  "id": 1109070027,
  "districtId": 1109070,
  "districtName": "GLUMPANG TIGA",
  "name": "LAMBARO",
  "postalCode": "24183"
 },
 {
  "id": 1109070028,
  "districtId": 1109070,
  "districtName": "GLUMPANG TIGA",
  "name": "BLANG PUEB",
  "postalCode": "24183"
 },
 {
  "id": 1109070029,
  "districtId": 1109070,
  "districtName": "GLUMPANG TIGA",
  "name": "BLANG TUNONG",
  "postalCode": "24183"
 },
 {
  "id": 1109070030,
  "districtId": 1109070,
  "districtName": "GLUMPANG TIGA",
  "name": "DAYAH KP. PISANG",
  "postalCode": ""
 },
 {
  "id": 1109070031,
  "districtId": 1109070,
  "districtName": "GLUMPANG TIGA",
  "name": "BALEE",
  "postalCode": "24184"
 },
 {
  "id": 1109070032,
  "districtId": 1109070,
  "districtName": "GLUMPANG TIGA",
  "name": "UDE GAMPONG",
  "postalCode": "24183"
 },
 {
  "id": 1109070033,
  "districtId": 1109070,
  "districtName": "GLUMPANG TIGA",
  "name": "KUPULA",
  "postalCode": "24181"
 },
 {
  "id": 1109070039,
  "districtId": 1109070,
  "districtName": "GLUMPANG TIGA",
  "name": "PULO LEUNG TEUGA",
  "postalCode": ""
 }
]