[
 {
  "id": 1109150001,
  "districtId": 1109150,
  "districtName": "DELIMA",
  "name": "KRUENG COT",
  "postalCode": "24162"
 },
 {
  "id": 1109150002,
  "districtId": 1109150,
  "districtName": "DELIMA",
  "name": "DAYAH BARO",
  "postalCode": "24162"
 },
 {
  "id": 1109150003,
  "districtId": 1109150,
  "districtName": "DELIMA",
  "name": "DAYAH BEUAH",
  "postalCode": "24162"
 },
 {
  "id": 1109150004,
  "districtId": 1109150,
  "districtName": "DELIMA",
  "name": "MESJID BEUAH",
  "postalCode": "24162"
 },
 {
  "id": 1109150005,
  "districtId": 1109150,
  "districtName": "DELIMA",
  "name": "SUKON LHONG",
  "postalCode": "24162"
 },
 {
  "id": 1109150006,
  "districtId": 1109150,
  "districtName": "DELIMA",
  "name": "SEUPEUNG",
  "postalCode": "24162"
 },
 {
  "id": 1109150007,
  "districtId": 1109150,
  "districtName": "DELIMA",
  "name": "LHEE MEUNASAH",
  "postalCode": "24162"
 },
 {
  "id": 1109150008,
  "districtId": 1109150,
  "districtName": "DELIMA",
  "name": "PUUK",
  "postalCode": "24162"
 },
 {
  "id": 1109150009,
  "districtId": 1109150,
  "districtName": "DELIMA",
  "name": "ULEE TUTUE RAYA",
  "postalCode": "24162"
 },
 {
  "id": 1109150010,
  "districtId": 1109150,
  "districtName": "DELIMA",
  "name": "MESJID AREE",
  "postalCode": "24162"
 },
 {
  "id": 1109150011,
  "districtId": 1109150,
  "districtName": "DELIMA",
  "name": "KEURUMBOK",
  "postalCode": "24356"
 },
 {
  "id": 1109150012,
  "districtId": 1109150,
  "districtName": "DELIMA",
  "name": "PULO TUNONG",
  "postalCode": "24162"
 },
 {
  "id": 1109150013,
  "districtId": 1109150,
  "districtName": "DELIMA",
  "name": "TUNONG",
  "postalCode": "24375"
 },
 {
  "id": 1109150014,
  "districtId": 1109150,
  "districtName": "DELIMA",
  "name": "RAYA",
  "postalCode": "24162"
 },
 {
  "id": 1109150015,
  "districtId": 1109150,
  "districtName": "DELIMA",
  "name": "DABOH",
  "postalCode": "24162"
 },
 {
  "id": 1109150016,
  "districtId": 1109150,
  "districtName": "DELIMA",
  "name": "CUT",
  "postalCode": "24161"
 },
 {
  "id": 1109150017,
  "districtId": 1109150,
  "districtName": "DELIMA",
  "name": "TANJUNG",
  "postalCode": "24562"
 },
 {
  "id": 1109150018,
  "districtId": 1109150,
  "districtName": "DELIMA",
  "name": "BULOH",
  "postalCode": "24162"
 },
 {
  "id": 1109150019,
  "districtId": 1109150,
  "districtName": "DELIMA",
  "name": "DAYAH REUBEE",
  "postalCode": "24162"
 },
 {
  "id": 1109150020,
  "districtId": 1109150,
  "districtName": "DELIMA",
  "name": "BUNGO",
  "postalCode": "24162"
 },
 {
  "id": 1109150021,
  "districtId": 1109150,
  "districtName": "DELIMA",
  "name": "KUMBANG",
  "postalCode": "24162"
 },
 {
  "id": 1109150022,
  "districtId": 1109150,
  "districtName": "DELIMA",
  "name": "REUBA",
  "postalCode": "24162"
 },
 {
  "id": 1109150023,
  "districtId": 1109150,
  "districtName": "DELIMA",
  "name": "KRUENG",
  "postalCode": "24162"
 },
 {
  "id": 1109150024,
  "districtId": 1109150,
  "districtName": "DELIMA",
  "name": "NEULOP",
  "postalCode": "24162"
 },
 {
  "id": 1109150025,
  "districtId": 1109150,
  "districtName": "DELIMA",
  "name": "GEUDONG",
  "postalCode": "24162"
 },
 {
  "id": 1109150026,
  "districtId": 1109150,
  "districtName": "DELIMA",
  "name": "MESJID REUBEE",
  "postalCode": "24162"
 },
 {
  "id": 1109150027,
  "districtId": 1109150,
  "districtName": "DELIMA",
  "name": "CEURIH KEUPULA",
  "postalCode": "24162"
 },
 {
  "id": 1109150028,
  "districtId": 1109150,
  "districtName": "DELIMA",
  "name": "PULO BAROH",
  "postalCode": "24162"
 },
 {
  "id": 1109150029,
  "districtId": 1109150,
  "districtName": "DELIMA",
  "name": "KEUTAPANG AREE",
  "postalCode": "24162"
 },
 {
  "id": 1109150030,
  "districtId": 1109150,
  "districtName": "DELIMA",
  "name": "PANTEE",
  "postalCode": "23371"
 },
 {
  "id": 1109150031,
  "districtId": 1109150,
  "districtName": "DELIMA",
  "name": "CEURIH BLANG MEE",
  "postalCode": "24162"
 },
 {
  "id": 1109150032,
  "districtId": 1109150,
  "districtName": "DELIMA",
  "name": "CEURIH COT",
  "postalCode": "24162"
 },
 {
  "id": 1109150033,
  "districtId": 1109150,
  "districtName": "DELIMA",
  "name": "CEURIH ALUE",
  "postalCode": "24162"
 },
 {
  "id": 1109150034,
  "districtId": 1109150,
  "districtName": "DELIMA",
  "name": "REUNTOH",
  "postalCode": ""
 },
 {
  "id": 1109150035,
  "districtId": 1109150,
  "districtName": "DELIMA",
  "name": "JAMBEE",
  "postalCode": "24162"
 },
 {
  "id": 1109150036,
  "districtId": 1109150,
  "districtName": "DELIMA",
  "name": "GLEE",
  "postalCode": "24162"
 },
 {
  "id": 1109150039,
  "districtId": 1109150,
  "districtName": "DELIMA",
  "name": "KEUTAPANG BAMBONG",
  "postalCode": "24162"
 },
 {
  "id": 1109150040,
  "districtId": 1109150,
  "districtName": "DELIMA",
  "name": "PANGOE",
  "postalCode": "24162"
 },
 {
  "id": 1109150041,
  "districtId": 1109150,
  "districtName": "DELIMA",
  "name": "METAREUM",
  "postalCode": "24162"
 },
 {
  "id": 1109150042,
  "districtId": 1109150,
  "districtName": "DELIMA",
  "name": "LUENG DAMA",
  "postalCode": "24162"
 },
 {
  "id": 1109150043,
  "districtId": 1109150,
  "districtName": "DELIMA",
  "name": "RUSEP",
  "postalCode": ""
 },
 {
  "id": 1109150044,
  "districtId": 1109150,
  "districtName": "DELIMA",
  "name": "MESJID BAMBONG",
  "postalCode": "24162"
 },
 {
  "id": 1109150045,
  "districtId": 1109150,
  "districtName": "DELIMA",
  "name": "SAGOE",
  "postalCode": "24184"
 },
 {
  "id": 1109150046,
  "districtId": 1109150,
  "districtName": "DELIMA",
  "name": "SEUKEUM",
  "postalCode": "24162"
 }
]