[
 {
  "id": 1109230001,
  "districtId": 1109230,
  "districtName": "MUARA TIGA",
  "name": "PAPEUN",
  "postalCode": "24153"
 },
 {
  "id": 1109230002,
  "districtId": 1109230,
  "districtName": "MUARA TIGA",
  "name": "TUHA BIHEUE",
  "postalCode": "24153"
 },
 {
  "id": 1109230003,
  "districtId": 1109230,
  "districtName": "MUARA TIGA",
  "name": "BATEE",
  "postalCode": "24153"
 },
 {
  "id": 1109230004,
  "districtId": 1109230,
  "districtName": "MUARA TIGA",
  "name": "INGIN JAYA",
  "postalCode": "24153"
 },
 {
  "id": 1109230005,
  "districtId": 1109230,
  "districtName": "MUARA TIGA",
  "name": "BLANG RAYA",
  "postalCode": "24153"
 },
 {
  "id": 1109230006,
  "districtId": 1109230,
  "districtName": "MUARA TIGA",
  "name": "UJONG PIE",
  "postalCode": "24153"
 },
 {
  "id": 1109230007,
  "districtId": 1109230,
  "districtName": "MUARA TIGA",
  "name": "SAGOE",
  "postalCode": "24184"
 },
 {
  "id": 1109230008,
  "districtId": 1109230,
  "districtName": "MUARA TIGA",
  "name": "IE MASEN",
  "postalCode": "24153"
 },
 {
  "id": 1109230009,
  "districtId": 1109230,
  "districtName": "MUARA TIGA",
  "name": "KRUENG",
  "postalCode": "24162"
 },
 {
  "id": 1109230010,
  "districtId": 1109230,
  "districtName": "MUARA TIGA",
  "name": "GLE CUT",
  "postalCode": "24153"
 },
 {
  "id": 1109230011,
  "districtId": 1109230,
  "districtName": "MUARA TIGA",
  "name": "DEYAH",
  "postalCode": "23372"
 },
 {
  "id": 1109230012,
  "districtId": 1109230,
  "districtName": "MUARA TIGA",
  "name": "PAWOD",
  "postalCode": "24153"
 },
 {
  "id": 1109230013,
  "districtId": 1109230,
  "districtName": "MUARA TIGA",
  "name": "SUKAJAYA",
  "postalCode": "30756"
 },
 {
  "id": 1109230014,
  "districtId": 1109230,
  "districtName": "MUARA TIGA",
  "name": "KEUPULA",
  "postalCode": "24183"
 },
 {
  "id": 1109230015,
  "districtId": 1109230,
  "districtName": "MUARA TIGA",
  "name": "MESJID",
  "postalCode": "23681"
 },
 {
  "id": 1109230016,
  "districtId": 1109230,
  "districtName": "MUARA TIGA",
  "name": "TGK. DI LAWEUNG",
  "postalCode": ""
 },
 {
  "id": 1109230017,
  "districtId": 1109230,
  "districtName": "MUARA TIGA",
  "name": "COT",
  "postalCode": "23354"
 },
 {
  "id": 1109230018,
  "districtId": 1109230,
  "districtName": "MUARA TIGA",
  "name": "SIMPANG BEUTUONG",
  "postalCode": ""
 }
]