[
 {
  "id": 1109081001,
  "districtId": 1109081,
  "districtName": "MUTIARA TIMUR",
  "name": "TONG PERIA",
  "postalCode": ""
 },
 {
  "id": 1109081002,
  "districtId": 1109081,
  "districtName": "MUTIARA TIMUR",
  "name": "TONG WENG",
  "postalCode": "24173"
 },
 {
  "id": 1109081003,
  "districtId": 1109081,
  "districtName": "MUTIARA TIMUR",
  "name": "BARIEH",
  "postalCode": "24173"
 },
 {
  "id": 1109081004,
  "districtId": 1109081,
  "districtName": "MUTIARA TIMUR",
  "name": "BLANGONG BASAH",
  "postalCode": "24173"
 },
 {
  "id": 1109081005,
  "districtId": 1109081,
  "districtName": "MUTIARA TIMUR",
  "name": "KULAM ARA",
  "postalCode": "24173"
 },
 {
  "id": 1109081006,
  "districtId": 1109081,
  "districtName": "MUTIARA TIMUR",
  "name": "DIDOH",
  "postalCode": "24173"
 },
 {
  "id": 1109081007,
  "districtId": 1109081,
  "districtName": "MUTIARA TIMUR",
  "name": "RINTI",
  "postalCode": "24173"
 },
 {
  "id": 1109081008,
  "districtId": 1109081,
  "districtName": "MUTIARA TIMUR",
  "name": "BALEE UJONG RIMBA",
  "postalCode": ""
 },
 {
  "id": 1109081009,
  "districtId": 1109081,
  "districtName": "MUTIARA TIMUR",
  "name": "MEUGIT",
  "postalCode": "24173"
 },
 {
  "id": 1109081010,
  "districtId": 1109081,
  "districtName": "MUTIARA TIMUR",
  "name": "EMPEH",
  "postalCode": "24173"
 },
 {
  "id": 1109081011,
  "districtId": 1109081,
  "districtName": "MUTIARA TIMUR",
  "name": "MESJID GUMPUENG",
  "postalCode": "24173"
 },
 {
  "id": 1109081012,
  "districtId": 1109081,
  "districtName": "MUTIARA TIMUR",
  "name": "PULO DRIEN",
  "postalCode": "24173"
 },
 {
  "id": 1109081013,
  "districtId": 1109081,
  "districtName": "MUTIARA TIMUR",
  "name": "SIMBE",
  "postalCode": ""
 },
 {
  "id": 1109081014,
  "districtId": 1109081,
  "districtName": "MUTIARA TIMUR",
  "name": "ULEE GAMPONG",
  "postalCode": "24352"
 },
 {
  "id": 1109081015,
  "districtId": 1109081,
  "districtName": "MUTIARA TIMUR",
  "name": "MON ARA",
  "postalCode": "24357"
 },
 {
  "id": 1109081016,
  "districtId": 1109081,
  "districtName": "MUTIARA TIMUR",
  "name": "BAROH",
  "postalCode": "24152"
 },
 {
  "id": 1109081017,
  "districtId": 1109081,
  "districtName": "MUTIARA TIMUR",
  "name": "BARO UJONG RIMBA",
  "postalCode": "24173"
 },
 {
  "id": 1109081018,
  "districtId": 1109081,
  "districtName": "MUTIARA TIMUR",
  "name": "BLANG RIEK",
  "postalCode": "24371"
 },
 {
  "id": 1109081019,
  "districtId": 1109081,
  "districtName": "MUTIARA TIMUR",
  "name": "PALOH RAYA",
  "postalCode": "24356"
 },
 {
  "id": 1109081020,
  "districtId": 1109081,
  "districtName": "MUTIARA TIMUR",
  "name": "NIBONG",
  "postalCode": "24372"
 },
 {
  "id": 1109081021,
  "districtId": 1109081,
  "districtName": "MUTIARA TIMUR",
  "name": "PALOH LHOK USI",
  "postalCode": "24173"
 },
 {
  "id": 1109081022,
  "districtId": 1109081,
  "districtName": "MUTIARA TIMUR",
  "name": "CAMPLI USI",
  "postalCode": "24173"
 },
 {
  "id": 1109081023,
  "districtId": 1109081,
  "districtName": "MUTIARA TIMUR",
  "name": "DAYAH USI",
  "postalCode": "24173"
 },
 {
  "id": 1109081024,
  "districtId": 1109081,
  "districtName": "MUTIARA TIMUR",
  "name": "PALOH TINGGI",
  "postalCode": "24173"
 },
 {
  "id": 1109081025,
  "districtId": 1109081,
  "districtName": "MUTIARA TIMUR",
  "name": "RAMBONG",
  "postalCode": "23652"
 },
 {
  "id": 1109081026,
  "districtId": 1109081,
  "districtName": "MUTIARA TIMUR",
  "name": "MEE TANJONG USI",
  "postalCode": ""
 },
 {
  "id": 1109081027,
  "districtId": 1109081,
  "districtName": "MUTIARA TIMUR",
  "name": "MESJID USI",
  "postalCode": "24173"
 },
 {
  "id": 1109081028,
  "districtId": 1109081,
  "districtName": "MUTIARA TIMUR",
  "name": "GAMPONG COT USI",
  "postalCode": "24173"
 },
 {
  "id": 1109081029,
  "districtId": 1109081,
  "districtName": "MUTIARA TIMUR",
  "name": "REUBAT",
  "postalCode": "24173"
 },
 {
  "id": 1109081030,
  "districtId": 1109081,
  "districtName": "MUTIARA TIMUR",
  "name": "TIBA RAYA",
  "postalCode": "24173"
 },
 {
  "id": 1109081031,
  "districtId": 1109081,
  "districtName": "MUTIARA TIMUR",
  "name": "MESJID TIBA",
  "postalCode": "24173"
 },
 {
  "id": 1109081032,
  "districtId": 1109081,
  "districtName": "MUTIARA TIMUR",
  "name": "JOJO",
  "postalCode": "24173"
 },
 {
  "id": 1109081033,
  "districtId": 1109081,
  "districtName": "MUTIARA TIMUR",
  "name": "GAMPONG LADA",
  "postalCode": "24173"
 },
 {
  "id": 1109081034,
  "districtId": 1109081,
  "districtName": "MUTIARA TIMUR",
  "name": "DAYAH KUMBA",
  "postalCode": "24173"
 },
 {
  "id": 1109081035,
  "districtId": 1109081,
  "districtName": "MUTIARA TIMUR",
  "name": "COT KUTHANG",
  "postalCode": "24173"
 },
 {
  "id": 1109081036,
  "districtId": 1109081,
  "districtName": "MUTIARA TIMUR",
  "name": "MESJID JEURAT MANYANG",
  "postalCode": "24173"
 },
 {
  "id": 1109081037,
  "districtId": 1109081,
  "districtName": "MUTIARA TIMUR",
  "name": "SAGOE TEUMPEUN",
  "postalCode": "24173"
 },
 {
  "id": 1109081038,
  "districtId": 1109081,
  "districtName": "MUTIARA TIMUR",
  "name": "DAYAH TANOH",
  "postalCode": "24183"
 },
 {
  "id": 1109081039,
  "districtId": 1109081,
  "districtName": "MUTIARA TIMUR",
  "name": "BEUREU EH II",
  "postalCode": ""
 },
 {
  "id": 1109081040,
  "districtId": 1109081,
  "districtName": "MUTIARA TIMUR",
  "name": "JIEM",
  "postalCode": "24173"
 },
 {
  "id": 1109081041,
  "districtId": 1109081,
  "districtName": "MUTIARA TIMUR",
  "name": "ULEE TUTUE",
  "postalCode": "24173"
 },
 {
  "id": 1109081042,
  "districtId": 1109081,
  "districtName": "MUTIARA TIMUR",
  "name": "MECAT ADAN",
  "postalCode": ""
 },
 {
  "id": 1109081043,
  "districtId": 1109081,
  "districtName": "MUTIARA TIMUR",
  "name": "KARIENG",
  "postalCode": "24152"
 },
 {
  "id": 1109081044,
  "districtId": 1109081,
  "districtName": "MUTIARA TIMUR",
  "name": "RAMBOT ADAN",
  "postalCode": "24173"
 },
 {
  "id": 1109081045,
  "districtId": 1109081,
  "districtName": "MUTIARA TIMUR",
  "name": "ALUE ADAN",
  "postalCode": "24173"
 },
 {
  "id": 1109081046,
  "districtId": 1109081,
  "districtName": "MUTIARA TIMUR",
  "name": "DAYAH ADAN",
  "postalCode": "24173"
 },
 {
  "id": 1109081047,
  "districtId": 1109081,
  "districtName": "MUTIARA TIMUR",
  "name": "MEE ADAN",
  "postalCode": ""
 },
 {
  "id": 1109081048,
  "districtId": 1109081,
  "districtName": "MUTIARA TIMUR",
  "name": "JUMPHOIH ADAN",
  "postalCode": ""
 }
]