[
 {
  "id": 1110030001,
  "districtId": 1110030,
  "districtName": "JEUNIEB",
  "name": "JEUMPA SIKUREUNG",
  "postalCode": "24263"
 },
 {
  "id": 1110030002,
  "districtId": 1110030,
  "districtName": "JEUNIEB",
  "name": "BLANG POROH",
  "postalCode": "24263"
 },
 {
  "id": 1110030003,
  "districtId": 1110030,
  "districtName": "JEUNIEB",
  "name": "LHOK KULAM",
  "postalCode": "24263"
 },
 {
  "id": 1110030010,
  "districtId": 1110030,
  "districtName": "JEUNIEB",
  "name": "SAMPOI AJAD",
  "postalCode": ""
 },
 {
  "id": 1110030011,
  "districtId": 1110030,
  "districtName": "JEUNIEB",
  "name": "ULEE BLANG",
  "postalCode": "23652"
 },
 {
  "id": 1110030012,
  "districtId": 1110030,
  "districtName": "JEUNIEB",
  "name": "ALUE SEUTUI",
  "postalCode": "24263"
 },
 {
  "id": 1110030013,
  "districtId": 1110030,
  "districtName": "JEUNIEB",
  "name": "BLANG NEUBOK",
  "postalCode": "24263"
 },
 {
  "id": 1110030014,
  "districtId": 1110030,
  "districtName": "JEUNIEB",
  "name": "MEUNASAH ALUE",
  "postalCode": "24263"
 },
 {
  "id": 1110030015,
  "districtId": 1110030,
  "districtName": "JEUNIEB",
  "name": "MEUNASAH TUNONG LUENG",
  "postalCode": "24263"
 },
 {
  "id": 1110030016,
  "districtId": 1110030,
  "districtName": "JEUNIEB",
  "name": "LHEUE SIMPANG",
  "postalCode": "24263"
 },
 {
  "id": 1110030017,
  "districtId": 1110030,
  "districtName": "JEUNIEB",
  "name": "LHEUE BARAT",
  "postalCode": "24263"
 },
 {
  "id": 1110030018,
  "districtId": 1110030,
  "districtName": "JEUNIEB",
  "name": "MEUNASAH DAYAH",
  "postalCode": "23672"
 },
 {
  "id": 1110030019,
  "districtId": 1110030,
  "districtName": "JEUNIEB",
  "name": "MEUNASAH KEUPULA",
  "postalCode": "24263"
 },
 {
  "id": 1110030020,
  "districtId": 1110030,
  "districtName": "JEUNIEB",
  "name": "ULEE GAJAH",
  "postalCode": "24263"
 },
 {
  "id": 1110030021,
  "districtId": 1110030,
  "districtName": "JEUNIEB",
  "name": "UTEUN PUPALEH",
  "postalCode": "24263"
 },
 {
  "id": 1110030022,
  "districtId": 1110030,
  "districtName": "JEUNIEB",
  "name": "DARUL AMAN",
  "postalCode": "24373"
 },
 {
  "id": 1110030023,
  "districtId": 1110030,
  "districtName": "JEUNIEB",
  "name": "LAMPOH OE",
  "postalCode": "24263"
 },
 {
  "id": 1110030024,
  "districtId": 1110030,
  "districtName": "JEUNIEB",
  "name": "PULO RANGKILEH",
  "postalCode": "24263"
 },
 {
  "id": 1110030025,
  "districtId": 1110030,
  "districtName": "JEUNIEB",
  "name": "TUFAH",
  "postalCode": "24263"
 },
 {
  "id": 1110030030,
  "districtId": 1110030,
  "districtName": "JEUNIEB",
  "name": "TANJONG BUNGONG",
  "postalCode": "24356"
 },
 {
  "id": 1110030031,
  "districtId": 1110030,
  "districtName": "JEUNIEB",
  "name": "DAYAH BARO",
  "postalCode": "24162"
 },
 {
  "id": 1110030032,
  "districtId": 1110030,
  "districtName": "JEUNIEB",
  "name": "ULEE RABO",
  "postalCode": "24263"
 },
 {
  "id": 1110030033,
  "districtId": 1110030,
  "districtName": "JEUNIEB",
  "name": "LHUENG TENGOH",
  "postalCode": "24263"
 },
 {
  "id": 1110030034,
  "districtId": 1110030,
  "districtName": "JEUNIEB",
  "name": "MEUNASAH TAMBO",
  "postalCode": "24263"
 },
 {
  "id": 1110030035,
  "districtId": 1110030,
  "districtName": "JEUNIEB",
  "name": "MEUNASAH KEUTAPANG",
  "postalCode": "24455"
 },
 {
  "id": 1110030036,
  "districtId": 1110030,
  "districtName": "JEUNIEB",
  "name": "COT GEULUMPANG TUNONG",
  "postalCode": "24263"
 },
 {
  "id": 1110030037,
  "districtId": 1110030,
  "districtName": "JEUNIEB",
  "name": "COT GEULUMPANG BAROH",
  "postalCode": "24263"
 },
 {
  "id": 1110030038,
  "districtId": 1110030,
  "districtName": "JEUNIEB",
  "name": "KEUDE JEUNIEB",
  "postalCode": "24263"
 },
 {
  "id": 1110030039,
  "districtId": 1110030,
  "districtName": "JEUNIEB",
  "name": "JANGGOT SEUNGKO",
  "postalCode": "24263"
 },
 {
  "id": 1110030040,
  "districtId": 1110030,
  "districtName": "JEUNIEB",
  "name": "BLANG MEE TIMU",
  "postalCode": ""
 },
 {
  "id": 1110030041,
  "districtId": 1110030,
  "districtName": "JEUNIEB",
  "name": "MATANG NIBONG",
  "postalCode": "24263"
 },
 {
  "id": 1110030042,
  "districtId": 1110030,
  "districtName": "JEUNIEB",
  "name": "BLANG MEE BARAT",
  "postalCode": "24263"
 },
 {
  "id": 1110030043,
  "districtId": 1110030,
  "districtName": "JEUNIEB",
  "name": "MATANG TEUNGOH",
  "postalCode": "24392"
 },
 {
  "id": 1110030044,
  "districtId": 1110030,
  "districtName": "JEUNIEB",
  "name": "MATANG BANGKA",
  "postalCode": "24263"
 },
 {
  "id": 1110030045,
  "districtId": 1110030,
  "districtName": "JEUNIEB",
  "name": "BLANG LANCANG",
  "postalCode": "24263"
 },
 {
  "id": 1110030046,
  "districtId": 1110030,
  "districtName": "JEUNIEB",
  "name": "LANCANG",
  "postalCode": "24263"
 },
 {
  "id": 1110030047,
  "districtId": 1110030,
  "districtName": "JEUNIEB",
  "name": "TEUPIN KEUPULA",
  "postalCode": "24263"
 },
 {
  "id": 1110030057,
  "districtId": 1110030,
  "districtName": "JEUNIEB",
  "name": "MEUNASAH LUENG",
  "postalCode": "24263"
 },
 {
  "id": 1110030058,
  "districtId": 1110030,
  "districtName": "JEUNIEB",
  "name": "ALUE LAM SABA",
  "postalCode": ""
 },
 {
  "id": 1110030059,
  "districtId": 1110030,
  "districtName": "JEUNIEB",
  "name": "DAYAH BLANG RALEU",
  "postalCode": "24263"
 },
 {
  "id": 1110030060,
  "districtId": 1110030,
  "districtName": "JEUNIEB",
  "name": "MEUNASAH BLANG",
  "postalCode": "24455"
 },
 {
  "id": 1110030061,
  "districtId": 1110030,
  "districtName": "JEUNIEB",
  "name": "PAYA BILI",
  "postalCode": "24263"
 },
 {
  "id": 1110030062,
  "districtId": 1110030,
  "districtName": "JEUNIEB",
  "name": "MEUNASAH KOTA",
  "postalCode": "24263"
 }
]