[
 {
  "id": 1110090001,
  "districtId": 1110090,
  "districtName": "MAKMUR",
  "name": "SUKARAME",
  "postalCode": "24357"
 },
 {
  "id": 1110090002,
  "districtId": 1110090,
  "districtName": "MAKMUR",
  "name": "PANTON MESJID",
  "postalCode": "24357"
 },
 {
  "id": 1110090003,
  "districtId": 1110090,
  "districtName": "MAKMUR",
  "name": "ALUE DUA",
  "postalCode": "24394"
 },
 {
  "id": 1110090004,
  "districtId": 1110090,
  "districtName": "MAKMUR",
  "name": "BLANG PERLAK",
  "postalCode": "24357"
 },
 {
  "id": 1110090005,
  "districtId": 1110090,
  "districtName": "MAKMUR",
  "name": "TANJONG MULIA",
  "postalCode": "24472"
 },
 {
  "id": 1110090006,
  "districtId": 1110090,
  "districtName": "MAKMUR",
  "name": "MATANG KUMBANG",
  "postalCode": "24392"
 },
 {
  "id": 1110090007,
  "districtId": 1110090,
  "districtName": "MAKMUR",
  "name": "MEUREUBO",
  "postalCode": "24357"
 },
 {
  "id": 1110090008,
  "districtId": 1110090,
  "districtName": "MAKMUR",
  "name": "SEUNEUBOK BARO",
  "postalCode": "24352"
 },
 {
  "id": 1110090009,
  "districtId": 1110090,
  "districtName": "MAKMUR",
  "name": "BLANG DALAM",
  "postalCode": "23767"
 },
 {
  "id": 1110090010,
  "districtId": 1110090,
  "districtName": "MAKMUR",
  "name": "PANDAK",
  "postalCode": "24357"
 },
 {
  "id": 1110090011,
  "districtId": 1110090,
  "districtName": "MAKMUR",
  "name": "BLANG MANE",
  "postalCode": "24357"
 },
 {
  "id": 1110090012,
  "districtId": 1110090,
  "districtName": "MAKMUR",
  "name": "PANTE BREUH",
  "postalCode": "24357"
 },
 {
  "id": 1110090013,
  "districtId": 1110090,
  "districtName": "MAKMUR",
  "name": "ULEE GLE",
  "postalCode": "24357"
 },
 {
  "id": 1110090014,
  "districtId": 1110090,
  "districtName": "MAKMUR",
  "name": "MON ARA",
  "postalCode": "24357"
 },
 {
  "id": 1110090015,
  "districtId": 1110090,
  "districtName": "MAKMUR",
  "name": "LAPEHAN MESJID",
  "postalCode": "24357"
 },
 {
  "id": 1110090016,
  "districtId": 1110090,
  "districtName": "MAKMUR",
  "name": "BUKET SELAMAT",
  "postalCode": "24357"
 },
 {
  "id": 1110090017,
  "districtId": 1110090,
  "districtName": "MAKMUR",
  "name": "BLANG KUTANG",
  "postalCode": "24357"
 },
 {
  "id": 1110090018,
  "districtId": 1110090,
  "districtName": "MAKMUR",
  "name": "COT KRUET",
  "postalCode": "24357"
 },
 {
  "id": 1110090019,
  "districtId": 1110090,
  "districtName": "MAKMUR",
  "name": "TRIENGGADENG",
  "postalCode": "24357"
 },
 {
  "id": 1110090020,
  "districtId": 1110090,
  "districtName": "MAKMUR",
  "name": "LEUBU MESJID",
  "postalCode": "24357"
 },
 {
  "id": 1110090021,
  "districtId": 1110090,
  "districtName": "MAKMUR",
  "name": "KUTA BARAT",
  "postalCode": "24357"
 },
 {
  "id": 1110090022,
  "districtId": 1110090,
  "districtName": "MAKMUR",
  "name": "LEUBU COT",
  "postalCode": "24357"
 },
 {
  "id": 1110090023,
  "districtId": 1110090,
  "districtName": "MAKMUR",
  "name": "PAYA DUA",
  "postalCode": "24376"
 },
 {
  "id": 1110090024,
  "districtId": 1110090,
  "districtName": "MAKMUR",
  "name": "LEUBU ME",
  "postalCode": "24357"
 },
 {
  "id": 1110090025,
  "districtId": 1110090,
  "districtName": "MAKMUR",
  "name": "BATEE DABAI",
  "postalCode": "24357"
 },
 {
  "id": 1110090026,
  "districtId": 1110090,
  "districtName": "MAKMUR",
  "name": "PULO TEUNGOH",
  "postalCode": "23662"
 },
 {
  "id": 1110090027,
  "districtId": 1110090,
  "districtName": "MAKMUR",
  "name": "ARA LIPEH",
  "postalCode": "24357"
 }
]