[
 {
  "id": 1110061001,
  "districtId": 1110061,
  "districtName": "KOTA JUANG",
  "name": "COT PEUTEK",
  "postalCode": "24251"
 },
 {
  "id": 1110061002,
  "districtId": 1110061,
  "districtName": "KOTA JUANG",
  "name": "COT JRAT",
  "postalCode": "24251"
 },
 {
  "id": 1110061003,
  "districtId": 1110061,
  "districtName": "KOTA JUANG",
  "name": "UTEUN REUTOH",
  "postalCode": "24251"
 },
 {
  "id": 1110061004,
  "districtId": 1110061,
  "districtName": "KOTA JUANG",
  "name": "BUKET TEUKUEH",
  "postalCode": "24251"
 },
 {
  "id": 1110061005,
  "districtId": 1110061,
  "districtName": "KOTA JUANG",
  "name": "BLANG REULIENG",
  "postalCode": ""
 },
 {
  "id": 1110061006,
  "districtId": 1110061,
  "districtName": "KOTA JUANG",
  "name": "BLANG TINGKEUM",
  "postalCode": "24251"
 },
 {
  "id": 1110061007,
  "districtId": 1110061,
  "districtName": "KOTA JUANG",
  "name": "GEULANGGANG GAMPONG",
  "postalCode": "24251"
 },
 {
  "id": 1110061008,
  "districtId": 1110061,
  "districtName": "KOTA JUANG",
  "name": "PULO ARA GEUDONG TEUNGOH",
  "postalCode": "24251"
 },
 {
  "id": 1110061009,
  "districtId": 1110061,
  "districtName": "KOTA JUANG",
  "name": "BIREUN MEUNASAH CAPA",
  "postalCode": "24251"
 },
 {
  "id": 1110061010,
  "districtId": 1110061,
  "districtName": "KOTA JUANG",
  "name": "BIREUN MEUNSAH TGK DIGADONG",
  "postalCode": ""
 },
 {
  "id": 1110061011,
  "districtId": 1110061,
  "districtName": "KOTA JUANG",
  "name": "BIREUN MEUNASAH DAYAH",
  "postalCode": "24251"
 },
 {
  "id": 1110061012,
  "districtId": 1110061,
  "districtName": "KOTA JUANG",
  "name": "BIREUN MEUNASAH BLANG",
  "postalCode": "24251"
 },
 {
  "id": 1110061013,
  "districtId": 1110061,
  "districtName": "KOTA JUANG",
  "name": "BIREUN MNS REULEUT",
  "postalCode": ""
 },
 {
  "id": 1110061014,
  "districtId": 1110061,
  "districtName": "KOTA JUANG",
  "name": "KOTA BIREUN",
  "postalCode": ""
 },
 {
  "id": 1110061015,
  "districtId": 1110061,
  "districtName": "KOTA JUANG",
  "name": "PULO KITON",
  "postalCode": "24251"
 },
 {
  "id": 1110061016,
  "districtId": 1110061,
  "districtName": "KOTA JUANG",
  "name": "LHOK AWE TEUNGOH",
  "postalCode": "24251"
 },
 {
  "id": 1110061017,
  "districtId": 1110061,
  "districtName": "KOTA JUANG",
  "name": "GEUDONG ALUE",
  "postalCode": "24251"
 },
 {
  "id": 1110061018,
  "districtId": 1110061,
  "districtName": "KOTA JUANG",
  "name": "GEUDONG GEUDONG",
  "postalCode": "24251"
 },
 {
  "id": 1110061019,
  "districtId": 1110061,
  "districtName": "KOTA JUANG",
  "name": "GEULANGGANG TEUNGOH",
  "postalCode": "24251"
 },
 {
  "id": 1110061020,
  "districtId": 1110061,
  "districtName": "KOTA JUANG",
  "name": "GEULANGGANG BARO",
  "postalCode": "24251"
 },
 {
  "id": 1110061021,
  "districtId": 1110061,
  "districtName": "KOTA JUANG",
  "name": "GEULANGGANG KULAM",
  "postalCode": "24251"
 },
 {
  "id": 1110061022,
  "districtId": 1110061,
  "districtName": "KOTA JUANG",
  "name": "COT GAPU",
  "postalCode": "24251"
 },
 {
  "id": 1110061023,
  "districtId": 1110061,
  "districtName": "KOTA JUANG",
  "name": "GAMPONG BARO",
  "postalCode": "24454"
 }
]