[
 {
  "id": 1111080024,
  "districtId": 1111080,
  "districtName": "TANAH JAMBO AYE",
  "name": "BUKET JEURAT MANYANG",
  "postalCode": "24394"
 },
 {
  "id": 1111080025,
  "districtId": 1111080,
  "districtName": "TANAH JAMBO AYE",
  "name": "MATANG RAYA",
  "postalCode": "24394"
 },
 {
  "id": 1111080026,
  "districtId": 1111080,
  "districtName": "TANAH JAMBO AYE",
  "name": "MATANG SEUKE PULOT",
  "postalCode": "24394"
 },
 {
  "id": 1111080027,
  "districtId": 1111080,
  "districtName": "TANAH JAMBO AYE",
  "name": "LUENG TUHA",
  "postalCode": "24394"
 },
 {
  "id": 1111080028,
  "districtId": 1111080,
  "districtName": "TANAH JAMBO AYE",
  "name": "PUCOK ALUE",
  "postalCode": "24392"
 },
 {
  "id": 1111080029,
  "districtId": 1111080,
  "districtName": "TANAH JAMBO AYE",
  "name": "MATANG SERDANG",
  "postalCode": "24394"
 },
 {
  "id": 1111080030,
  "districtId": 1111080,
  "districtName": "TANAH JAMBO AYE",
  "name": "MATANG TEUNGOH T",
  "postalCode": ""
 },
 {
  "id": 1111080031,
  "districtId": 1111080,
  "districtName": "TANAH JAMBO AYE",
  "name": "BUKET PADANG",
  "postalCode": ""
 },
 {
  "id": 1111080032,
  "districtId": 1111080,
  "districtName": "TANAH JAMBO AYE",
  "name": "LHOK BEURINGEN",
  "postalCode": "24394"
 },
 {
  "id": 1111080033,
  "districtId": 1111080,
  "districtName": "TANAH JAMBO AYE",
  "name": "LHOK MERBO",
  "postalCode": "24394"
 },
 {
  "id": 1111080034,
  "districtId": 1111080,
  "districtName": "TANAH JAMBO AYE",
  "name": "BUKET ALUE PUTEH",
  "postalCode": "24394"
 },
 {
  "id": 1111080035,
  "districtId": 1111080,
  "districtName": "TANAH JAMBO AYE",
  "name": "LHOK REUDEUP",
  "postalCode": "24394"
 },
 {
  "id": 1111080036,
  "districtId": 1111080,
  "districtName": "TANAH JAMBO AYE",
  "name": "MATANG MANEH",
  "postalCode": "24394"
 },
 {
  "id": 1111080037,
  "districtId": 1111080,
  "districtName": "TANAH JAMBO AYE",
  "name": "ALUE IE MIRAH",
  "postalCode": "24457"
 },
 {
  "id": 1111080038,
  "districtId": 1111080,
  "districtName": "TANAH JAMBO AYE",
  "name": "TANJUNG PUNTI",
  "postalCode": "24394"
 },
 {
  "id": 1111080039,
  "districtId": 1111080,
  "districtName": "TANAH JAMBO AYE",
  "name": "TANJUNG ARA",
  "postalCode": "24458"
 },
 {
  "id": 1111080040,
  "districtId": 1111080,
  "districtName": "TANAH JAMBO AYE",
  "name": "MATANG SANTOT",
  "postalCode": "24394"
 },
 {
  "id": 1111080041,
  "districtId": 1111080,
  "districtName": "TANAH JAMBO AYE",
  "name": "ULEE GLE",
  "postalCode": "24357"
 },
 {
  "id": 1111080042,
  "districtId": 1111080,
  "districtName": "TANAH JAMBO AYE",
  "name": "BUKET BATEE BADAN",
  "postalCode": "24394"
 },
 {
  "id": 1111080043,
  "districtId": 1111080,
  "districtName": "TANAH JAMBO AYE",
  "name": "BIRAM CUT",
  "postalCode": "24394"
 },
 {
  "id": 1111080044,
  "districtId": 1111080,
  "districtName": "TANAH JAMBO AYE",
  "name": "BIRAM RAYEUK",
  "postalCode": "24394"
 },
 {
  "id": 1111080045,
  "districtId": 1111080,
  "districtName": "TANAH JAMBO AYE",
  "name": "COT BIEK",
  "postalCode": "24394"
 },
 {
  "id": 1111080046,
  "districtId": 1111080,
  "districtName": "TANAH JAMBO AYE",
  "name": "MATANG ARONGAN",
  "postalCode": "24394"
 },
 {
  "id": 1111080047,
  "districtId": 1111080,
  "districtName": "TANAH JAMBO AYE",
  "name": "LHOK BINTANG HU",
  "postalCode": "24394"
 },
 {
  "id": 1111080048,
  "districtId": 1111080,
  "districtName": "TANAH JAMBO AYE",
  "name": "BIARA BARAT",
  "postalCode": "24394"
 },
 {
  "id": 1111080049,
  "districtId": 1111080,
  "districtName": "TANAH JAMBO AYE",
  "name": "BIARA TIMUR",
  "postalCode": "24394"
 },
 {
  "id": 1111080050,
  "districtId": 1111080,
  "districtName": "TANAH JAMBO AYE",
  "name": "MATANG DRIEN",
  "postalCode": "24394"
 },
 {
  "id": 1111080051,
  "districtId": 1111080,
  "districtName": "TANAH JAMBO AYE",
  "name": "CEUMPEUDAK",
  "postalCode": "24392"
 },
 {
  "id": 1111080052,
  "districtId": 1111080,
  "districtName": "TANAH JAMBO AYE",
  "name": "ALUE PAPEUN",
  "postalCode": "24394"
 },
 {
  "id": 1111080053,
  "districtId": 1111080,
  "districtName": "TANAH JAMBO AYE",
  "name": "SAMAKUROK",
  "postalCode": "24394"
 },
 {
  "id": 1111080054,
  "districtId": 1111080,
  "districtName": "TANAH JAMBO AYE",
  "name": "RAWANG ITIK",
  "postalCode": "24394"
 },
 {
  "id": 1111080055,
  "districtId": 1111080,
  "districtName": "TANAH JAMBO AYE",
  "name": "KOTA PANTON LABU",
  "postalCode": "24394"
 },
 {
  "id": 1111080056,
  "districtId": 1111080,
  "districtName": "TANAH JAMBO AYE",
  "name": "MNS PANTON LABU",
  "postalCode": ""
 },
 {
  "id": 1111080057,
  "districtId": 1111080,
  "districtName": "TANAH JAMBO AYE",
  "name": "TANJONG CEUNGAI",
  "postalCode": "24394"
 },
 {
  "id": 1111080058,
  "districtId": 1111080,
  "districtName": "TANAH JAMBO AYE",
  "name": "TEUPIN BAYU",
  "postalCode": "24394"
 },
 {
  "id": 1111080059,
  "districtId": 1111080,
  "districtName": "TANAH JAMBO AYE",
  "name": "TEUPIN GAJAH",
  "postalCode": "23755"
 },
 {
  "id": 1111080060,
  "districtId": 1111080,
  "districtName": "TANAH JAMBO AYE",
  "name": "TANJONG MEUNYE",
  "postalCode": "24394"
 },
 {
  "id": 1111080061,
  "districtId": 1111080,
  "districtName": "TANAH JAMBO AYE",
  "name": "MATANG JURONG",
  "postalCode": "24394"
 },
 {
  "id": 1111080062,
  "districtId": 1111080,
  "districtName": "TANAH JAMBO AYE",
  "name": "TANJONG DALAM UTARA",
  "postalCode": "24394"
 },
 {
  "id": 1111080063,
  "districtId": 1111080,
  "districtName": "TANAH JAMBO AYE",
  "name": "TANJONG MENUANG",
  "postalCode": "24394"
 },
 {
  "id": 1111080064,
  "districtId": 1111080,
  "districtName": "TANAH JAMBO AYE",
  "name": "SEUNEUBOK PIDIE",
  "postalCode": "24458"
 },
 {
  "id": 1111080065,
  "districtId": 1111080,
  "districtName": "TANAH JAMBO AYE",
  "name": "MEUNASAH DAYAH",
  "postalCode": "23672"
 },
 {
  "id": 1111080066,
  "districtId": 1111080,
  "districtName": "TANAH JAMBO AYE",
  "name": "MEUNASAH GEUDONG",
  "postalCode": "24392"
 },
 {
  "id": 1111080067,
  "districtId": 1111080,
  "districtName": "TANAH JAMBO AYE",
  "name": "MEUNASAH MERBO",
  "postalCode": "24394"
 },
 {
  "id": 1111080068,
  "districtId": 1111080,
  "districtName": "TANAH JAMBO AYE",
  "name": "SEUNEUBOK DHOU",
  "postalCode": "24394"
 },
 {
  "id": 1111080069,
  "districtId": 1111080,
  "districtName": "TANAH JAMBO AYE",
  "name": "RANTAU PANYANG",
  "postalCode": "24394"
 },
 {
  "id": 1111080070,
  "districtId": 1111080,
  "districtName": "TANAH JAMBO AYE",
  "name": "GEULUMPANG UMPUNG UNOU",
  "postalCode": "24394"
 }
]