[
 {
  "id": 1111150001,
  "districtId": 1111150,
  "districtName": "TANAH PASIR",
  "name": "ALUE",
  "postalCode": "24184"
 },
 {
  "id": 1111150002,
  "districtId": 1111150,
  "districtName": "TANAH PASIR",
  "name": "KEUDE MATANG PANYANG",
  "postalCode": "24391"
 },
 {
  "id": 1111150003,
  "districtId": 1111150,
  "districtName": "TANAH PASIR",
  "name": "BLANG",
  "postalCode": "24385"
 },
 {
  "id": 1111150004,
  "districtId": 1111150,
  "districtName": "TANAH PASIR",
  "name": "GAMPONG PANDE",
  "postalCode": "23128"
 },
 {
  "id": 1111150005,
  "districtId": 1111150,
  "districtName": "TANAH PASIR",
  "name": "PALOH",
  "postalCode": "24261"
 },
 {
  "id": 1111150006,
  "districtId": 1111150,
  "districtName": "TANAH PASIR",
  "name": "PRIE",
  "postalCode": ""
 },
 {
  "id": 1111150007,
  "districtId": 1111150,
  "districtName": "TANAH PASIR",
  "name": "ME MERBO",
  "postalCode": ""
 },
 {
  "id": 1111150008,
  "districtId": 1111150,
  "districtName": "TANAH PASIR",
  "name": "ULEE TANOH",
  "postalCode": "24457"
 },
 {
  "id": 1111150009,
  "districtId": 1111150,
  "districtName": "TANAH PASIR",
  "name": "MATANG RANUB LASEH",
  "postalCode": "24391"
 },
 {
  "id": 1111150015,
  "districtId": 1111150,
  "districtName": "TANAH PASIR",
  "name": "KEUTAPANG",
  "postalCode": "24171"
 },
 {
  "id": 1111150016,
  "districtId": 1111150,
  "districtName": "TANAH PASIR",
  "name": "KUMBANG",
  "postalCode": "24162"
 },
 {
  "id": 1111150017,
  "districtId": 1111150,
  "districtName": "TANAH PASIR",
  "name": "ME MATANG PANYANG",
  "postalCode": "24391"
 },
 {
  "id": 1111150018,
  "districtId": 1111150,
  "districtName": "TANAH PASIR",
  "name": "CANGGUEK",
  "postalCode": ""
 },
 {
  "id": 1111150019,
  "districtId": 1111150,
  "districtName": "TANAH PASIR",
  "name": "KEUDE JRAT MANYANG",
  "postalCode": "24391"
 },
 {
  "id": 1111150020,
  "districtId": 1111150,
  "districtName": "TANAH PASIR",
  "name": "TEUPIN GAPEUH",
  "postalCode": "24391"
 },
 {
  "id": 1111150021,
  "districtId": 1111150,
  "districtName": "TANAH PASIR",
  "name": "CIBREK",
  "postalCode": "24372"
 },
 {
  "id": 1111150024,
  "districtId": 1111150,
  "districtName": "TANAH PASIR",
  "name": "MATANG JANENG",
  "postalCode": "24391"
 },
 {
  "id": 1111150029,
  "districtId": 1111150,
  "districtName": "TANAH PASIR",
  "name": "KUALA KEUREUTOE BARAT",
  "postalCode": ""
 }
]