[
 {
  "id": 1111031001,
  "districtId": 1111031,
  "districtName": "SIMPANG KERAMAT",
  "name": "PASE SENTAUSA",
  "postalCode": ""
 },
 {
  "id": 1111031002,
  "districtId": 1111031,
  "districtName": "SIMPANG KERAMAT",
  "name": "KILO METER VIII",
  "postalCode": "24313"
 },
 {
  "id": 1111031003,
  "districtId": 1111031,
  "districtName": "SIMPANG KERAMAT",
  "name": "KILO METER VI",
  "postalCode": "24313"
 },
 {
  "id": 1111031004,
  "districtId": 1111031,
  "districtName": "SIMPANG KERAMAT",
  "name": "MEUNASAH DAYAH",
  "postalCode": "23672"
 },
 {
  "id": 1111031005,
  "districtId": 1111031,
  "districtName": "SIMPANG KERAMAT",
  "name": "KEBON BARU",
  "postalCode": "12830"
 },
 {
  "id": 1111031006,
  "districtId": 1111031,
  "districtName": "SIMPANG KERAMAT",
  "name": "IE TAREK I",
  "postalCode": "24313"
 },
 {
  "id": 1111031007,
  "districtId": 1111031,
  "districtName": "SIMPANG KERAMAT",
  "name": "IE TAREK II",
  "postalCode": "24313"
 },
 {
  "id": 1111031008,
  "districtId": 1111031,
  "districtName": "SIMPANG KERAMAT",
  "name": "SEUNEBOK PUNTI",
  "postalCode": "24313"
 },
 {
  "id": 1111031009,
  "districtId": 1111031,
  "districtName": "SIMPANG KERAMAT",
  "name": "KEUDE SIMPANG IV",
  "postalCode": ""
 },
 {
  "id": 1111031010,
  "districtId": 1111031,
  "districtName": "SIMPANG KERAMAT",
  "name": "BLANG RALEU",
  "postalCode": ""
 },
 {
  "id": 1111031011,
  "districtId": 1111031,
  "districtName": "SIMPANG KERAMAT",
  "name": "MEUNASAH BAROH",
  "postalCode": "24262"
 },
 {
  "id": 1111031012,
  "districtId": 1111031,
  "districtName": "SIMPANG KERAMAT",
  "name": "MEUNASAH TEUNGOH",
  "postalCode": "23672"
 },
 {
  "id": 1111031013,
  "districtId": 1111031,
  "districtName": "SIMPANG KERAMAT",
  "name": "MANCANG",
  "postalCode": "24151"
 },
 {
  "id": 1111031014,
  "districtId": 1111031,
  "districtName": "SIMPANG KERAMAT",
  "name": "ALUE BADE",
  "postalCode": ""
 },
 {
  "id": 1111031015,
  "districtId": 1111031,
  "districtName": "SIMPANG KERAMAT",
  "name": "PAYA TEUNGOH",
  "postalCode": "24313"
 },
 {
  "id": 1111031016,
  "districtId": 1111031,
  "districtName": "SIMPANG KERAMAT",
  "name": "PAYA LEUPAH",
  "postalCode": "24313"
 }
]