[
 {
  "id": 1111022001,
  "districtId": 1111022,
  "districtName": "BANDA BARO",
  "name": "JAMUAN",
  "postalCode": "24376"
 },
 {
  "id": 1111022002,
  "districtId": 1111022,
  "districtName": "BANDA BARO",
  "name": "ALUE KEUREUNYAI",
  "postalCode": "24376"
 },
 {
  "id": 1111022003,
  "districtId": 1111022,
  "districtName": "BANDA BARO",
  "name": "BLANG PALA",
  "postalCode": "24376"
 },
 {
  "id": 1111022004,
  "districtId": 1111022,
  "districtName": "BANDA BARO",
  "name": "SANGKELAN",
  "postalCode": "24376"
 },
 {
  "id": 1111022005,
  "districtId": 1111022,
  "districtName": "BANDA BARO",
  "name": "ULEE NYEUE",
  "postalCode": ""
 },
 {
  "id": 1111022006,
  "districtId": 1111022,
  "districtName": "BANDA BARO",
  "name": "PAYA ULEUE",
  "postalCode": "24376"
 },
 {
  "id": 1111022007,
  "districtId": 1111022,
  "districtName": "BANDA BARO",
  "name": "COT JABET",
  "postalCode": "24376"
 },
 {
  "id": 1111022008,
  "districtId": 1111022,
  "districtName": "BANDA BARO",
  "name": "PAYA DUA",
  "postalCode": "24376"
 },
 {
  "id": 1111022009,
  "districtId": 1111022,
  "districtName": "BANDA BARO",
  "name": "PAYA BEUNYOT",
  "postalCode": "24376"
 }
]