[
 {
  "id": 1111062001,
  "districtId": 1111062,
  "districtName": "PIRAK TIMU",
  "name": "TANJONG SEURUEKUY",
  "postalCode": ""
 },
 {
  "id": 1111062002,
  "districtId": 1111062,
  "districtName": "PIRAK TIMU",
  "name": "ALUE RIMEE",
  "postalCode": ""
 },
 {
  "id": 1111062003,
  "districtId": 1111062,
  "districtName": "PIRAK TIMU",
  "name": "PAYA LUENG JALO",
  "postalCode": "24386"
 },
 {
  "id": 1111062004,
  "districtId": 1111062,
  "districtName": "PIRAK TIMU",
  "name": "SERDANG",
  "postalCode": "24386"
 },
 {
  "id": 1111062005,
  "districtId": 1111062,
  "districtName": "PIRAK TIMU",
  "name": "ULEE BLANG",
  "postalCode": "23652"
 },
 {
  "id": 1111062006,
  "districtId": 1111062,
  "districtName": "PIRAK TIMU",
  "name": "MEUNYE VII",
  "postalCode": ""
 },
 {
  "id": 1111062007,
  "districtId": 1111062,
  "districtName": "PIRAK TIMU",
  "name": "PUCOK ALUE PIRAK",
  "postalCode": "24386"
 },
 {
  "id": 1111062008,
  "districtId": 1111062,
  "districtName": "PIRAK TIMU",
  "name": "ARA TONTON MONCRANG",
  "postalCode": "24386"
 },
 {
  "id": 1111062009,
  "districtId": 1111062,
  "districtName": "PIRAK TIMU",
  "name": "BILI BARO",
  "postalCode": "24386"
 },
 {
  "id": 1111062010,
  "districtId": 1111062,
  "districtName": "PIRAK TIMU",
  "name": "KEUTAPANG",
  "postalCode": "24171"
 },
 {
  "id": 1111062011,
  "districtId": 1111062,
  "districtName": "PIRAK TIMU",
  "name": "RENGKAM",
  "postalCode": "86583"
 },
 {
  "id": 1111062012,
  "districtId": 1111062,
  "districtName": "PIRAK TIMU",
  "name": "TEUPIN U",
  "postalCode": "24386"
 },
 {
  "id": 1111062013,
  "districtId": 1111062,
  "districtName": "PIRAK TIMU",
  "name": "ALUE BUNGKOH",
  "postalCode": "24386"
 },
 {
  "id": 1111062014,
  "districtId": 1111062,
  "districtName": "PIRAK TIMU",
  "name": "CEUMEUCET",
  "postalCode": "24386"
 },
 {
  "id": 1111062015,
  "districtId": 1111062,
  "districtName": "PIRAK TIMU",
  "name": "LEUPE",
  "postalCode": "23657"
 },
 {
  "id": 1111062016,
  "districtId": 1111062,
  "districtName": "PIRAK TIMU",
  "name": "TRIENG KRUENG KREH",
  "postalCode": "24386"
 },
 {
  "id": 1111062017,
  "districtId": 1111062,
  "districtName": "PIRAK TIMU",
  "name": "MATANG KEH",
  "postalCode": "24386"
 },
 {
  "id": 1111062018,
  "districtId": 1111062,
  "districtName": "PIRAK TIMU",
  "name": "KRUENG PIRAK",
  "postalCode": "24386"
 },
 {
  "id": 1111062019,
  "districtId": 1111062,
  "districtName": "PIRAK TIMU",
  "name": "RAYEUK PANGE",
  "postalCode": "24386"
 },
 {
  "id": 1111062020,
  "districtId": 1111062,
  "districtName": "PIRAK TIMU",
  "name": "BUNGONG",
  "postalCode": "24183"
 },
 {
  "id": 1111062021,
  "districtId": 1111062,
  "districtName": "PIRAK TIMU",
  "name": "GEULUMPANG",
  "postalCode": "24382"
 },
 {
  "id": 1111062022,
  "districtId": 1111062,
  "districtName": "PIRAK TIMU",
  "name": "ASAN KRUENG KREH",
  "postalCode": "24386"
 },
 {
  "id": 1111062023,
  "districtId": 1111062,
  "districtName": "PIRAK TIMU",
  "name": "BEURACAN RATA",
  "postalCode": "24386"
 }
]