[
 {
  "id": 1111070001,
  "districtId": 1111070,
  "districtName": "COT GIREK",
  "name": "COT GIREK",
  "postalCode": "24352"
 },
 {
  "id": 1111070002,
  "districtId": 1111070,
  "districtName": "COT GIREK",
  "name": "ALUE LEUHOB",
  "postalCode": "24352"
 },
 {
  "id": 1111070003,
  "districtId": 1111070,
  "districtName": "COT GIREK",
  "name": "LHOK MERBO",
  "postalCode": "24394"
 },
 {
  "id": 1111070004,
  "districtId": 1111070,
  "districtName": "COT GIREK",
  "name": "KAMPUNG BANTAN",
  "postalCode": "24352"
 },
 {
  "id": 1111070005,
  "districtId": 1111070,
  "districtName": "COT GIREK",
  "name": "ALUE SEUMAMBU",
  "postalCode": "24352"
 },
 {
  "id": 1111070006,
  "districtId": 1111070,
  "districtName": "COT GIREK",
  "name": "BATU XII",
  "postalCode": "24352"
 },
 {
  "id": 1111070007,
  "districtId": 1111070,
  "districtName": "COT GIREK",
  "name": "KAMPUNG TEMPEL",
  "postalCode": "24352"
 },
 {
  "id": 1111070008,
  "districtId": 1111070,
  "districtName": "COT GIREK",
  "name": "SEUPENG",
  "postalCode": "24352"
 },
 {
  "id": 1111070009,
  "districtId": 1111070,
  "districtName": "COT GIREK",
  "name": "BEURANDANG DAYAH",
  "postalCode": "24352"
 },
 {
  "id": 1111070010,
  "districtId": 1111070,
  "districtName": "COT GIREK",
  "name": "BEURANDANG ASAN",
  "postalCode": "24352"
 },
 {
  "id": 1111070011,
  "districtId": 1111070,
  "districtName": "COT GIREK",
  "name": "DRIEN II",
  "postalCode": ""
 },
 {
  "id": 1111070012,
  "districtId": 1111070,
  "districtName": "COT GIREK",
  "name": "BEURANDANG KRUENG",
  "postalCode": "24352"
 },
 {
  "id": 1111070013,
  "districtId": 1111070,
  "districtName": "COT GIREK",
  "name": "JEULIKAT",
  "postalCode": "24375"
 },
 {
  "id": 1111070014,
  "districtId": 1111070,
  "districtName": "COT GIREK",
  "name": "ARA",
  "postalCode": "24184"
 },
 {
  "id": 1111070015,
  "districtId": 1111070,
  "districtName": "COT GIREK",
  "name": "LUENG BARO",
  "postalCode": "24352"
 },
 {
  "id": 1111070016,
  "districtId": 1111070,
  "districtName": "COT GIREK",
  "name": "LHOK REUHAT",
  "postalCode": "24352"
 },
 {
  "id": 1111070017,
  "districtId": 1111070,
  "districtName": "COT GIREK",
  "name": "TRIENG",
  "postalCode": "24161"
 },
 {
  "id": 1111070018,
  "districtId": 1111070,
  "districtName": "COT GIREK",
  "name": "U BARO",
  "postalCode": ""
 },
 {
  "id": 1111070019,
  "districtId": 1111070,
  "districtName": "COT GIREK",
  "name": "CEUMPEUDAK",
  "postalCode": "24392"
 },
 {
  "id": 1111070020,
  "districtId": 1111070,
  "districtName": "COT GIREK",
  "name": "ALUE DRIEN",
  "postalCode": "24452"
 },
 {
  "id": 1111070021,
  "districtId": 1111070,
  "districtName": "COT GIREK",
  "name": "SEUNEUBOK BARO",
  "postalCode": "24352"
 },
 {
  "id": 1111070022,
  "districtId": 1111070,
  "districtName": "COT GIREK",
  "name": "ULEE GAMPONG",
  "postalCode": "24352"
 },
 {
  "id": 1111070023,
  "districtId": 1111070,
  "districtName": "COT GIREK",
  "name": "PUCOK ALUE",
  "postalCode": "24392"
 },
 {
  "id": 1111070024,
  "districtId": 1111070,
  "districtName": "COT GIREK",
  "name": "MATANG TEUNGOH",
  "postalCode": "24392"
 }
]