[
 {
  "id": 1111140001,
  "districtId": 1111140,
  "districtName": "SYAMTALIRA ARON",
  "name": "TANJONG KRUENG PASE",
  "postalCode": "24381"
 },
 {
  "id": 1111140002,
  "districtId": 1111140,
  "districtName": "SYAMTALIRA ARON",
  "name": "MATANG MUNYE",
  "postalCode": ""
 },
 {
  "id": 1111140003,
  "districtId": 1111140,
  "districtName": "SYAMTALIRA ARON",
  "name": "BLANG",
  "postalCode": "24385"
 },
 {
  "id": 1111140004,
  "districtId": 1111140,
  "districtName": "SYAMTALIRA ARON",
  "name": "GLOK ARON",
  "postalCode": ""
 },
 {
  "id": 1111140005,
  "districtId": 1111140,
  "districtName": "SYAMTALIRA ARON",
  "name": "MEE ARON",
  "postalCode": ""
 },
 {
  "id": 1111140006,
  "districtId": 1111140,
  "districtName": "SYAMTALIRA ARON",
  "name": "MEURIA ARON",
  "postalCode": ""
 },
 {
  "id": 1111140007,
  "districtId": 1111140,
  "districtName": "SYAMTALIRA ARON",
  "name": "U BLANG ASAN",
  "postalCode": ""
 },
 {
  "id": 1111140008,
  "districtId": 1111140,
  "districtName": "SYAMTALIRA ARON",
  "name": "KANOT",
  "postalCode": "24381"
 },
 {
  "id": 1111140009,
  "districtId": 1111140,
  "districtName": "SYAMTALIRA ARON",
  "name": "DAYAH ARON",
  "postalCode": "24381"
 },
 {
  "id": 1111140010,
  "districtId": 1111140,
  "districtName": "SYAMTALIRA ARON",
  "name": "MONCRANG",
  "postalCode": ""
 },
 {
  "id": 1111140011,
  "districtId": 1111140,
  "districtName": "SYAMTALIRA ARON",
  "name": "KEUDE ARON",
  "postalCode": "23681"
 },
 {
  "id": 1111140012,
  "districtId": 1111140,
  "districtName": "SYAMTALIRA ARON",
  "name": "TEUNGOH",
  "postalCode": "24375"
 },
 {
  "id": 1111140013,
  "districtId": 1111140,
  "districtName": "SYAMTALIRA ARON",
  "name": "KUMBANG",
  "postalCode": "24162"
 },
 {
  "id": 1111140014,
  "districtId": 1111140,
  "districtName": "SYAMTALIRA ARON",
  "name": "CIBREK TUNONG",
  "postalCode": "24381"
 },
 {
  "id": 1111140015,
  "districtId": 1111140,
  "districtName": "SYAMTALIRA ARON",
  "name": "MEUCAT",
  "postalCode": "24152"
 },
 {
  "id": 1111140016,
  "districtId": 1111140,
  "districtName": "SYAMTALIRA ARON",
  "name": "DAYAH TEUNGKU",
  "postalCode": "24381"
 },
 {
  "id": 1111140017,
  "districtId": 1111140,
  "districtName": "SYAMTALIRA ARON",
  "name": "CALONG",
  "postalCode": "24381"
 },
 {
  "id": 1111140018,
  "districtId": 1111140,
  "districtName": "SYAMTALIRA ARON",
  "name": "MANYANG BAROH",
  "postalCode": "24381"
 },
 {
  "id": 1111140019,
  "districtId": 1111140,
  "districtName": "SYAMTALIRA ARON",
  "name": "ALUE GUNTO",
  "postalCode": "24381"
 },
 {
  "id": 1111140020,
  "districtId": 1111140,
  "districtName": "SYAMTALIRA ARON",
  "name": "PEURUPOK",
  "postalCode": ""
 },
 {
  "id": 1111140021,
  "districtId": 1111140,
  "districtName": "SYAMTALIRA ARON",
  "name": "PULO",
  "postalCode": "24188"
 },
 {
  "id": 1111140022,
  "districtId": 1111140,
  "districtName": "SYAMTALIRA ARON",
  "name": "TANJONG MULIENG",
  "postalCode": "24381"
 },
 {
  "id": 1111140023,
  "districtId": 1111140,
  "districtName": "SYAMTALIRA ARON",
  "name": "CIBREK BAROH",
  "postalCode": "24381"
 },
 {
  "id": 1111140024,
  "districtId": 1111140,
  "districtName": "SYAMTALIRA ARON",
  "name": "MESJID",
  "postalCode": "23681"
 },
 {
  "id": 1111140025,
  "districtId": 1111140,
  "districtName": "SYAMTALIRA ARON",
  "name": "PANTE",
  "postalCode": "24382"
 },
 {
  "id": 1111140026,
  "districtId": 1111140,
  "districtName": "SYAMTALIRA ARON",
  "name": "KEUTAPANG",
  "postalCode": "24171"
 },
 {
  "id": 1111140027,
  "districtId": 1111140,
  "districtName": "SYAMTALIRA ARON",
  "name": "KEUDE TEUPIN PUNTI",
  "postalCode": "24381"
 },
 {
  "id": 1111140028,
  "districtId": 1111140,
  "districtName": "SYAMTALIRA ARON",
  "name": "AWE",
  "postalCode": ""
 },
 {
  "id": 1111140029,
  "districtId": 1111140,
  "districtName": "SYAMTALIRA ARON",
  "name": "HAGU",
  "postalCode": "24386"
 },
 {
  "id": 1111140030,
  "districtId": 1111140,
  "districtName": "SYAMTALIRA ARON",
  "name": "ARA",
  "postalCode": "24184"
 },
 {
  "id": 1111140031,
  "districtId": 1111140,
  "districtName": "SYAMTALIRA ARON",
  "name": "MAMPREE",
  "postalCode": "24381"
 },
 {
  "id": 1111140032,
  "districtId": 1111140,
  "districtName": "SYAMTALIRA ARON",
  "name": "AMPEH",
  "postalCode": ""
 },
 {
  "id": 1111140033,
  "districtId": 1111140,
  "districtName": "SYAMTALIRA ARON",
  "name": "DAYAH MEURIA",
  "postalCode": ""
 },
 {
  "id": 1111140034,
  "districtId": 1111140,
  "districtName": "SYAMTALIRA ARON",
  "name": "KULAM",
  "postalCode": "24152"
 }
]