[
 {
  "id": 1111170001,
  "districtId": 1111170,
  "districtName": "DEWANTARA",
  "name": "PALOH IGEUH",
  "postalCode": "24354"
 },
 {
  "id": 1111170002,
  "districtId": 1111170,
  "districtName": "DEWANTARA",
  "name": "PALOH GADENG",
  "postalCode": "24354"
 },
 {
  "id": 1111170003,
  "districtId": 1111170,
  "districtName": "DEWANTARA",
  "name": "TAMBON TUNONG",
  "postalCode": "24354"
 },
 {
  "id": 1111170004,
  "districtId": 1111170,
  "districtName": "DEWANTARA",
  "name": "TAMBON BAROH",
  "postalCode": "24354"
 },
 {
  "id": 1111170005,
  "districtId": 1111170,
  "districtName": "DEWANTARA",
  "name": "PALOH LADA",
  "postalCode": "24354"
 },
 {
  "id": 1111170006,
  "districtId": 1111170,
  "districtName": "DEWANTARA",
  "name": "PULO RUNGKOM",
  "postalCode": "24354"
 },
 {
  "id": 1111170007,
  "districtId": 1111170,
  "districtName": "DEWANTARA",
  "name": "ULEE PULO",
  "postalCode": "24354"
 },
 {
  "id": 1111170008,
  "districtId": 1111170,
  "districtName": "DEWANTARA",
  "name": "ULEE REULEUNG",
  "postalCode": "24354"
 },
 {
  "id": 1111170009,
  "districtId": 1111170,
  "districtName": "DEWANTARA",
  "name": "LANCANG BARAT",
  "postalCode": "24354"
 },
 {
  "id": 1111170010,
  "districtId": 1111170,
  "districtName": "DEWANTARA",
  "name": "GEULUMPANG SULU BARAT",
  "postalCode": "24354"
 },
 {
  "id": 1111170011,
  "districtId": 1111170,
  "districtName": "DEWANTARA",
  "name": "GEULUMPANG SULU TIMUR",
  "postalCode": "24354"
 },
 {
  "id": 1111170012,
  "districtId": 1111170,
  "districtName": "DEWANTARA",
  "name": "UTEUN GEULINGGANG",
  "postalCode": "24354"
 },
 {
  "id": 1111170013,
  "districtId": 1111170,
  "districtName": "DEWANTARA",
  "name": "KEUDE KRUENG GEUKUEH",
  "postalCode": "24354"
 },
 {
  "id": 1111170014,
  "districtId": 1111170,
  "districtName": "DEWANTARA",
  "name": "BANGKA JAYA",
  "postalCode": "24354"
 },
 {
  "id": 1111170015,
  "districtId": 1111170,
  "districtName": "DEWANTARA",
  "name": "BLUKA TEUBAI",
  "postalCode": "24354"
 }
]