[
 {
  "id": 1112031001,
  "districtId": 1112031,
  "districtName": "JEUMPA",
  "name": "PADANG GEULUMPANG",
  "postalCode": "23764"
 },
 {
  "id": 1112031002,
  "districtId": 1112031,
  "districtName": "JEUMPA",
  "name": "ASO NANGGRO",
  "postalCode": ""
 },
 {
  "id": 1112031003,
  "districtId": 1112031,
  "districtName": "JEUMPA",
  "name": "LADANG NEUBOK",
  "postalCode": "23764"
 },
 {
  "id": 1112031004,
  "districtId": 1112031,
  "districtName": "JEUMPA",
  "name": "IKU LHUNG",
  "postalCode": "23764"
 },
 {
  "id": 1112031005,
  "districtId": 1112031,
  "districtName": "JEUMPA",
  "name": "COT MANE",
  "postalCode": "24392"
 },
 {
  "id": 1112031006,
  "districtId": 1112031,
  "districtName": "JEUMPA",
  "name": "KUTA JEUMPA",
  "postalCode": "23672"
 },
 {
  "id": 1112031007,
  "districtId": 1112031,
  "districtName": "JEUMPA",
  "name": "ALUE SUNGAI PINANG",
  "postalCode": "23764"
 },
 {
  "id": 1112031008,
  "districtId": 1112031,
  "districtName": "JEUMPA",
  "name": "ALUE RAMBOT",
  "postalCode": "23662"
 },
 {
  "id": 1112031009,
  "districtId": 1112031,
  "districtName": "JEUMPA",
  "name": "BARU",
  "postalCode": "23764"
 },
 {
  "id": 1112031010,
  "districtId": 1112031,
  "districtName": "JEUMPA",
  "name": "KUTA MAKMUR",
  "postalCode": "23764"
 },
 {
  "id": 1112031011,
  "districtId": 1112031,
  "districtName": "JEUMPA",
  "name": "ALUE SELASEH",
  "postalCode": ""
 },
 {
  "id": 1112031012,
  "districtId": 1112031,
  "districtName": "JEUMPA",
  "name": "JEUMPA BARAT",
  "postalCode": ""
 }
]