[
 {
  "id": 1113051001,
  "districtId": 1113051,
  "districtName": "TRIPE JAYA",
  "name": "PASIR",
  "postalCode": "24656"
 },
 {
  "id": 1113051002,
  "districtId": 1113051,
  "districtName": "TRIPE JAYA",
  "name": "REREBE",
  "postalCode": "24653"
 },
 {
  "id": 1113051003,
  "districtId": 1113051,
  "districtName": "TRIPE JAYA",
  "name": "SETUL",
  "postalCode": "24656"
 },
 {
  "id": 1113051004,
  "districtId": 1113051,
  "districtName": "TRIPE JAYA",
  "name": "PERLAK",
  "postalCode": "24161"
 },
 {
  "id": 1113051005,
  "districtId": 1113051,
  "districtName": "TRIPE JAYA",
  "name": "PANTAN KELA",
  "postalCode": "24656"
 },
 {
  "id": 1113051006,
  "districtId": 1113051,
  "districtName": "TRIPE JAYA",
  "name": "PAYA KUMER",
  "postalCode": "24656"
 },
 {
  "id": 1113051007,
  "districtId": 1113051,
  "districtName": "TRIPE JAYA",
  "name": "UYEM BERIRING",
  "postalCode": "24656"
 },
 {
  "id": 1113051008,
  "districtId": 1113051,
  "districtName": "TRIPE JAYA",
  "name": "PULO GELIME",
  "postalCode": "24656"
 },
 {
  "id": 1113051009,
  "districtId": 1113051,
  "districtName": "TRIPE JAYA",
  "name": "BUNTUL MUSARA",
  "postalCode": "24656"
 },
 {
  "id": 1113051010,
  "districtId": 1113051,
  "districtName": "TRIPE JAYA",
  "name": "KUALA JERNIH",
  "postalCode": "24656"
 }
]