[
 {
  "id": 1113041001,
  "districtId": 1113041,
  "districtName": "PANTAN CUACA",
  "name": "TETINGI",
  "postalCode": "24653"
 },
 {
  "id": 1113041002,
  "districtId": 1113041,
  "districtName": "PANTAN CUACA",
  "name": "REMUKUT",
  "postalCode": "24654"
 },
 {
  "id": 1113041003,
  "districtId": 1113041,
  "districtName": "PANTAN CUACA",
  "name": "SENEREN",
  "postalCode": "24654"
 },
 {
  "id": 1113041004,
  "districtId": 1113041,
  "districtName": "PANTAN CUACA",
  "name": "KENYARAN",
  "postalCode": "24654"
 },
 {
  "id": 1113041005,
  "districtId": 1113041,
  "districtName": "PANTAN CUACA",
  "name": "ATU KAPUR",
  "postalCode": "24654"
 },
 {
  "id": 1113041006,
  "districtId": 1113041,
  "districtName": "PANTAN CUACA",
  "name": "UNING KURNIA",
  "postalCode": ""
 },
 {
  "id": 1113041007,
  "districtId": 1113041,
  "districtName": "PANTAN CUACA",
  "name": "SURI MUSARA",
  "postalCode": "24654"
 },
 {
  "id": 1113041008,
  "districtId": 1113041,
  "districtName": "PANTAN CUACA",
  "name": "CANE BARU",
  "postalCode": "24654"
 },
 {
  "id": 1113041009,
  "districtId": 1113041,
  "districtName": "PANTAN CUACA",
  "name": "AIH SELAH",
  "postalCode": "24654"
 }
]