[
 {
  "id": 1113010001,
  "districtId": 1113010,
  "districtName": "KUTA PANJANG",
  "name": "BENER",
  "postalCode": "24655"
 },
 {
  "id": 1113010003,
  "districtId": 1113010,
  "districtName": "KUTA PANJANG",
  "name": "RIKIT DEKAT",
  "postalCode": "24655"
 },
 {
  "id": 1113010004,
  "districtId": 1113010,
  "districtName": "KUTA PANJANG",
  "name": "ULON TANOH",
  "postalCode": "24655"
 },
 {
  "id": 1113010005,
  "districtId": 1113010,
  "districtName": "KUTA PANJANG",
  "name": "REMA",
  "postalCode": "24671"
 },
 {
  "id": 1113010006,
  "districtId": 1113010,
  "districtName": "KUTA PANJANG",
  "name": "TAMPENG",
  "postalCode": "24655"
 },
 {
  "id": 1113010007,
  "districtId": 1113010,
  "districtName": "KUTA PANJANG",
  "name": "BERANANG",
  "postalCode": "24655"
 },
 {
  "id": 1113010008,
  "districtId": 1113010,
  "districtName": "KUTA PANJANG",
  "name": "KUTA UJUNG",
  "postalCode": "24655"
 },
 {
  "id": 1113010014,
  "districtId": 1113010,
  "districtName": "KUTA PANJANG",
  "name": "CIKE",
  "postalCode": "24655"
 },
 {
  "id": 1113010015,
  "districtId": 1113010,
  "districtName": "KUTA PANJANG",
  "name": "REMA BARU",
  "postalCode": "24655"
 },
 {
  "id": 1113010016,
  "districtId": 1113010,
  "districtName": "KUTA PANJANG",
  "name": "KERUKUNAN KUTA PANJANG",
  "postalCode": ""
 },
 {
  "id": 1113010017,
  "districtId": 1113010,
  "districtName": "KUTA PANJANG",
  "name": "TAMPENG MUSARA",
  "postalCode": "24655"
 },
 {
  "id": 1113010018,
  "districtId": 1113010,
  "districtName": "KUTA PANJANG",
  "name": "KONG PALUH",
  "postalCode": "24655"
 }
]