[
 {
  "id": 1114060001,
  "districtId": 1114060,
  "districtName": "BENDAHARA",
  "name": "UPAH",
  "postalCode": "24472"
 },
 {
  "id": 1114060002,
  "districtId": 1114060,
  "districtName": "BENDAHARA",
  "name": "PERKEBUNAN UPAH",
  "postalCode": "24472"
 },
 {
  "id": 1114060003,
  "districtId": 1114060,
  "districtName": "BENDAHARA",
  "name": "MATANG TEUPAH",
  "postalCode": "24472"
 },
 {
  "id": 1114060004,
  "districtId": 1114060,
  "districtName": "BENDAHARA",
  "name": "SEUNEUBOK DALAM UPAH",
  "postalCode": "24472"
 },
 {
  "id": 1114060006,
  "districtId": 1114060,
  "districtName": "BENDAHARA",
  "name": "SUKAMULIA BD /S.IYU",
  "postalCode": ""
 },
 {
  "id": 1114060009,
  "districtId": 1114060,
  "districtName": "BENDAHARA",
  "name": "KEBON SUNGAI IYU",
  "postalCode": ""
 },
 {
  "id": 1114060010,
  "districtId": 1114060,
  "districtName": "BENDAHARA",
  "name": "MARLEMPANG",
  "postalCode": "24472"
 },
 {
  "id": 1114060011,
  "districtId": 1114060,
  "districtName": "BENDAHARA",
  "name": "BALAI",
  "postalCode": "24472"
 },
 {
  "id": 1114060012,
  "districtId": 1114060,
  "districtName": "BENDAHARA",
  "name": "LAMBUNG BLANG",
  "postalCode": "24472"
 },
 {
  "id": 1114060013,
  "districtId": 1114060,
  "districtName": "BENDAHARA",
  "name": "LUBUK BATIL",
  "postalCode": ""
 },
 {
  "id": 1114060014,
  "districtId": 1114060,
  "districtName": "BENDAHARA",
  "name": "TANJUNG PARET",
  "postalCode": ""
 },
 {
  "id": 1114060015,
  "districtId": 1114060,
  "districtName": "BENDAHARA",
  "name": "SEUNEUBOK DALAM MESJID",
  "postalCode": "24472"
 },
 {
  "id": 1114060016,
  "districtId": 1114060,
  "districtName": "BENDAHARA",
  "name": "RANTAU PAKAM",
  "postalCode": "24472"
 },
 {
  "id": 1114060017,
  "districtId": 1114060,
  "districtName": "BENDAHARA",
  "name": "TUMPOK TEUNGAH",
  "postalCode": ""
 },
 {
  "id": 1114060018,
  "districtId": 1114060,
  "districtName": "BENDAHARA",
  "name": "TANJUNG",
  "postalCode": "24562"
 },
 {
  "id": 1114060019,
  "districtId": 1114060,
  "districtName": "BENDAHARA",
  "name": "TANJUNG MULIA",
  "postalCode": "20854"
 },
 {
  "id": 1114060020,
  "districtId": 1114060,
  "districtName": "BENDAHARA",
  "name": "TELUK KEMIRI",
  "postalCode": "24472"
 },
 {
  "id": 1114060021,
  "districtId": 1114060,
  "districtName": "BENDAHARA",
  "name": "MESJID BDH",
  "postalCode": ""
 },
 {
  "id": 1114060022,
  "districtId": 1114060,
  "districtName": "BENDAHARA",
  "name": "TELUK KEPAYANG",
  "postalCode": "24472"
 },
 {
  "id": 1114060023,
  "districtId": 1114060,
  "districtName": "BENDAHARA",
  "name": "TELUK HALBAN",
  "postalCode": "24472"
 },
 {
  "id": 1114060024,
  "districtId": 1114060,
  "districtName": "BENDAHARA",
  "name": "RAJA",
  "postalCode": "24472"
 },
 {
  "id": 1114060025,
  "districtId": 1114060,
  "districtName": "BENDAHARA",
  "name": "CINTA RAJA",
  "postalCode": "24472"
 },
 {
  "id": 1114060026,
  "districtId": 1114060,
  "districtName": "BENDAHARA",
  "name": "TANJUNG BINJAI",
  "postalCode": ""
 },
 {
  "id": 1114060027,
  "districtId": 1114060,
  "districtName": "BENDAHARA",
  "name": "KUALA PEUNAGA",
  "postalCode": ""
 },
 {
  "id": 1114060028,
  "districtId": 1114060,
  "districtName": "BENDAHARA",
  "name": "KUALA GEUNTING",
  "postalCode": ""
 },
 {
  "id": 1114060029,
  "districtId": 1114060,
  "districtName": "BENDAHARA",
  "name": "BANDAR BARU",
  "postalCode": "24472"
 },
 {
  "id": 1114060030,
  "districtId": 1114060,
  "districtName": "BENDAHARA",
  "name": "MESJID S.IYU",
  "postalCode": ""
 },
 {
  "id": 1114060031,
  "districtId": 1114060,
  "districtName": "BENDAHARA",
  "name": "ALUR CANTIK",
  "postalCode": ""
 },
 {
  "id": 1114060032,
  "districtId": 1114060,
  "districtName": "BENDAHARA",
  "name": "TANJUNG LIPAT I",
  "postalCode": ""
 },
 {
  "id": 1114060034,
  "districtId": 1114060,
  "districtName": "BENDAHARA",
  "name": "BANDAR KHALIFAH",
  "postalCode": "24472"
 },
 {
  "id": 1114060035,
  "districtId": 1114060,
  "districtName": "BENDAHARA",
  "name": "SEUNEUBOK ACEH",
  "postalCode": "24472"
 },
 {
  "id": 1114060036,
  "districtId": 1114060,
  "districtName": "BENDAHARA",
  "name": "TANJUNG LIPAT II",
  "postalCode": ""
 },
 {
  "id": 1114060037,
  "districtId": 1114060,
  "districtName": "BENDAHARA",
  "name": "TENGKU TINGGI",
  "postalCode": "24472"
 }
]