[
 {
  "id": 1114070013,
  "districtId": 1114070,
  "districtName": "KARANG BARU",
  "name": "TANJUNG KARANG",
  "postalCode": "24476"
 },
 {
  "id": 1114070015,
  "districtId": 1114070,
  "districtName": "KARANG BARU",
  "name": "MENANG GINI",
  "postalCode": "24476"
 },
 {
  "id": 1114070016,
  "districtId": 1114070,
  "districtName": "KARANG BARU",
  "name": "KESEHATAN",
  "postalCode": "24476"
 },
 {
  "id": 1114070017,
  "districtId": 1114070,
  "districtName": "KARANG BARU",
  "name": "GAMPONG SUKAJADI",
  "postalCode": "24476"
 },
 {
  "id": 1114070018,
  "districtId": 1114070,
  "districtName": "KARANG BARU",
  "name": "DALAM",
  "postalCode": "24476"
 },
 {
  "id": 1114070019,
  "districtId": 1114070,
  "districtName": "KARANG BARU",
  "name": "GAMPONG BUNDAR",
  "postalCode": "24476"
 },
 {
  "id": 1114070021,
  "districtId": 1114070,
  "districtName": "KARANG BARU",
  "name": "KEBUN TANAH TERBAN",
  "postalCode": "24476"
 },
 {
  "id": 1114070022,
  "districtId": 1114070,
  "districtName": "KARANG BARU",
  "name": "TANAH TERBAN",
  "postalCode": "24476"
 },
 {
  "id": 1114070023,
  "districtId": 1114070,
  "districtName": "KARANG BARU",
  "name": "GAMPONG AIR TENANG",
  "postalCode": "24476"
 },
 {
  "id": 1114070024,
  "districtId": 1114070,
  "districtName": "KARANG BARU",
  "name": "GAMPONG JOHAR",
  "postalCode": "24476"
 },
 {
  "id": 1114070025,
  "districtId": 1114070,
  "districtName": "KARANG BARU",
  "name": "GAMPONG TUPAH",
  "postalCode": "24476"
 },
 {
  "id": 1114070026,
  "districtId": 1114070,
  "districtName": "KARANG BARU",
  "name": "BANAI",
  "postalCode": "24476"
 },
 {
  "id": 1114070027,
  "districtId": 1114070,
  "districtName": "KARANG BARU",
  "name": "RANTAU PANJANG",
  "postalCode": "24476"
 },
 {
  "id": 1114070028,
  "districtId": 1114070,
  "districtName": "KARANG BARU",
  "name": "PAHLAWAN",
  "postalCode": "24476"
 },
 {
  "id": 1114070029,
  "districtId": 1114070,
  "districtName": "KARANG BARU",
  "name": "MEDANG ARA",
  "postalCode": "24476"
 },
 {
  "id": 1114070030,
  "districtId": 1114070,
  "districtName": "KARANG BARU",
  "name": "KEBUN MEDANG ARA",
  "postalCode": "24476"
 },
 {
  "id": 1114070031,
  "districtId": 1114070,
  "districtName": "KARANG BARU",
  "name": "KEBUN SELELEH",
  "postalCode": ""
 },
 {
  "id": 1114070032,
  "districtId": 1114070,
  "districtName": "KARANG BARU",
  "name": "ALUR SELALAS",
  "postalCode": "24476"
 },
 {
  "id": 1114070033,
  "districtId": 1114070,
  "districtName": "KARANG BARU",
  "name": "ALUR BAUNG",
  "postalCode": "24476"
 },
 {
  "id": 1114070034,
  "districtId": 1114070,
  "districtName": "KARANG BARU",
  "name": "PAYAMETA",
  "postalCode": "24476"
 },
 {
  "id": 1114070035,
  "districtId": 1114070,
  "districtName": "KARANG BARU",
  "name": "ALUR BEMBAN",
  "postalCode": "24476"
 },
 {
  "id": 1114070036,
  "districtId": 1114070,
  "districtName": "KARANG BARU",
  "name": "TANJUNG SEUMANTOH",
  "postalCode": "24476"
 },
 {
  "id": 1114070037,
  "districtId": 1114070,
  "districtName": "KARANG BARU",
  "name": "KEBUN TANJUNG SEUMANTOH",
  "postalCode": "24476"
 },
 {
  "id": 1114070038,
  "districtId": 1114070,
  "districtName": "KARANG BARU",
  "name": "PAYA TAMPAH",
  "postalCode": "24452"
 },
 {
  "id": 1114070039,
  "districtId": 1114070,
  "districtName": "KARANG BARU",
  "name": "ALUR LHOK",
  "postalCode": "24455"
 },
 {
  "id": 1114070040,
  "districtId": 1114070,
  "districtName": "KARANG BARU",
  "name": "BUKET PANJANG",
  "postalCode": "24476"
 },
 {
  "id": 1114070041,
  "districtId": 1114070,
  "districtName": "KARANG BARU",
  "name": "SUKAJADI PAYA BUJUK",
  "postalCode": "24476"
 },
 {
  "id": 1114070042,
  "districtId": 1114070,
  "districtName": "KARANG BARU",
  "name": "SIMPANG EMPAT",
  "postalCode": "24313"
 },
 {
  "id": 1114070043,
  "districtId": 1114070,
  "districtName": "KARANG BARU",
  "name": "PAYA AWE",
  "postalCode": "24476"
 },
 {
  "id": 1114070044,
  "districtId": 1114070,
  "districtName": "KARANG BARU",
  "name": "PAYA KULBI",
  "postalCode": "24476"
 },
 {
  "id": 1114070045,
  "districtId": 1114070,
  "districtName": "KARANG BARU",
  "name": "BUKET KERANJI",
  "postalCode": "24476"
 }
]