[
 {
  "id": 1115022001,
  "districtId": 1115022,
  "districtName": "TADU RAYA",
  "name": "ALUE BATA",
  "postalCode": "23661"
 },
 {
  "id": 1115022002,
  "districtId": 1115022,
  "districtName": "TADU RAYA",
  "name": "GUNONG SAPEK",
  "postalCode": "23661"
 },
 {
  "id": 1115022003,
  "districtId": 1115022,
  "districtName": "TADU RAYA",
  "name": "SARAH MANTOK",
  "postalCode": "23661"
 },
 {
  "id": 1115022004,
  "districtId": 1115022,
  "districtName": "TADU RAYA",
  "name": "PASI LUAH",
  "postalCode": "23661"
 },
 {
  "id": 1115022005,
  "districtId": 1115022,
  "districtName": "TADU RAYA",
  "name": "GUNONG GEULUGO",
  "postalCode": ""
 },
 {
  "id": 1115022006,
  "districtId": 1115022,
  "districtName": "TADU RAYA",
  "name": "GUNONG KUPOK",
  "postalCode": "23661"
 },
 {
  "id": 1115022007,
  "districtId": 1115022,
  "districtName": "TADU RAYA",
  "name": "GUNONG PUNGKIE",
  "postalCode": "23661"
 },
 {
  "id": 1115022008,
  "districtId": 1115022,
  "districtName": "TADU RAYA",
  "name": "ALUE SIRON",
  "postalCode": "23661"
 },
 {
  "id": 1115022009,
  "districtId": 1115022,
  "districtName": "TADU RAYA",
  "name": "COT MU",
  "postalCode": ""
 },
 {
  "id": 1115022010,
  "districtId": 1115022,
  "districtName": "TADU RAYA",
  "name": "BABAH ROT",
  "postalCode": "23661"
 },
 {
  "id": 1115022011,
  "districtId": 1115022,
  "districtName": "TADU RAYA",
  "name": "BABAH DUA",
  "postalCode": "23656"
 },
 {
  "id": 1115022012,
  "districtId": 1115022,
  "districtName": "TADU RAYA",
  "name": "BATU RAJA",
  "postalCode": "23661"
 },
 {
  "id": 1115022013,
  "districtId": 1115022,
  "districtName": "TADU RAYA",
  "name": "SIMPANG JAYA",
  "postalCode": "24251"
 },
 {
  "id": 1115022014,
  "districtId": 1115022,
  "districtName": "TADU RAYA",
  "name": "SUMBER DAYA",
  "postalCode": "23661"
 },
 {
  "id": 1115022015,
  "districtId": 1115022,
  "districtName": "TADU RAYA",
  "name": "RANTAU SELAMAT",
  "postalCode": "23661"
 },
 {
  "id": 1115022016,
  "districtId": 1115022,
  "districtName": "TADU RAYA",
  "name": "ALUE SEPENG",
  "postalCode": ""
 },
 {
  "id": 1115022017,
  "districtId": 1115022,
  "districtName": "TADU RAYA",
  "name": "KRUENG ITAM",
  "postalCode": "23661"
 },
 {
  "id": 1115022018,
  "districtId": 1115022,
  "districtName": "TADU RAYA",
  "name": "ALUE GAJAH",
  "postalCode": "23656"
 },
 {
  "id": 1115022019,
  "districtId": 1115022,
  "districtName": "TADU RAYA",
  "name": "ALUE LABU",
  "postalCode": ""
 },
 {
  "id": 1115022020,
  "districtId": 1115022,
  "districtName": "TADU RAYA",
  "name": "GAPA GARU",
  "postalCode": "23661"
 },
 {
  "id": 1115022021,
  "districtId": 1115022,
  "districtName": "TADU RAYA",
  "name": "KUALA TADU",
  "postalCode": "23661"
 },
 {
  "id": 1115022022,
  "districtId": 1115022,
  "districtName": "TADU RAYA",
  "name": "COT ME",
  "postalCode": "24356"
 }
]