[
 {
  "id": 1117040001,
  "districtId": 1117040,
  "districtName": "WIH PESAM",
  "name": "SIMPANG TERITIT",
  "postalCode": ""
 },
 {
  "id": 1117040003,
  "districtId": 1117040,
  "districtName": "WIH PESAM",
  "name": "SUKARAME ATAS",
  "postalCode": ""
 },
 {
  "id": 1117040004,
  "districtId": 1117040,
  "districtName": "WIH PESAM",
  "name": "SUKARAME BAWAH",
  "postalCode": ""
 },
 {
  "id": 1117040005,
  "districtId": 1117040,
  "districtName": "WIH PESAM",
  "name": "SYURA JADI",
  "postalCode": "24581"
 },
 {
  "id": 1117040006,
  "districtId": 1117040,
  "districtName": "WIH PESAM",
  "name": "PANTE RAYA",
  "postalCode": "24581"
 },
 {
  "id": 1117040007,
  "districtId": 1117040,
  "districtName": "WIH PESAM",
  "name": "SIMPANG BALEK",
  "postalCode": ""
 },
 {
  "id": 1117040008,
  "districtId": 1117040,
  "districtName": "WIH PESAM",
  "name": "SUKA JADI",
  "postalCode": "23662"
 },
 {
  "id": 1117040009,
  "districtId": 1117040,
  "districtName": "WIH PESAM",
  "name": "BENER AYU",
  "postalCode": ""
 },
 {
  "id": 1117040010,
  "districtId": 1117040,
  "districtName": "WIH PESAM",
  "name": "BLANG PAKU",
  "postalCode": "24386"
 },
 {
  "id": 1117040011,
  "districtId": 1117040,
  "districtName": "WIH PESAM",
  "name": "SUKA MAKMUR",
  "postalCode": "24784"
 },
 {
  "id": 1117040012,
  "districtId": 1117040,
  "districtName": "WIH PESAM",
  "name": "MERIE I",
  "postalCode": ""
 },
 {
  "id": 1117040013,
  "districtId": 1117040,
  "districtName": "WIH PESAM",
  "name": "JAMUR ULUH",
  "postalCode": "24581"
 },
 {
  "id": 1117040014,
  "districtId": 1117040,
  "districtName": "WIH PESAM",
  "name": "GEGERUNG",
  "postalCode": "24581"
 },
 {
  "id": 1117040015,
  "districtId": 1117040,
  "districtName": "WIH PESAM",
  "name": "BUKIT PEPANYI",
  "postalCode": "24581"
 },
 {
  "id": 1117040016,
  "districtId": 1117040,
  "districtName": "WIH PESAM",
  "name": "JAMUR UJUNG",
  "postalCode": "24581"
 },
 {
  "id": 1117040017,
  "districtId": 1117040,
  "districtName": "WIH PESAM",
  "name": "WONOSOBO",
  "postalCode": "24581"
 },
 {
  "id": 1117040018,
  "districtId": 1117040,
  "districtName": "WIH PESAM",
  "name": "LUT KUCAK",
  "postalCode": "24581"
 },
 {
  "id": 1117040019,
  "districtId": 1117040,
  "districtName": "WIH PESAM",
  "name": "WIH PESAM",
  "postalCode": "24562"
 },
 {
  "id": 1117040020,
  "districtId": 1117040,
  "districtName": "WIH PESAM",
  "name": "CINTA DAMAI",
  "postalCode": "24673"
 },
 {
  "id": 1117040021,
  "districtId": 1117040,
  "districtName": "WIH PESAM",
  "name": "BENER MULIE",
  "postalCode": "24581"
 },
 {
  "id": 1117040022,
  "districtId": 1117040,
  "districtName": "WIH PESAM",
  "name": "KEBUN BARU",
  "postalCode": "23891"
 },
 {
  "id": 1117040023,
  "districtId": 1117040,
  "districtName": "WIH PESAM",
  "name": "BLANG KUCAK",
  "postalCode": "24581"
 },
 {
  "id": 1117040024,
  "districtId": 1117040,
  "districtName": "WIH PESAM",
  "name": "SIMPANG ANTARA",
  "postalCode": "24581"
 },
 {
  "id": 1117040025,
  "districtId": 1117040,
  "districtName": "WIH PESAM",
  "name": "BLANG BENARA",
  "postalCode": ""
 },
 {
  "id": 1117040026,
  "districtId": 1117040,
  "districtName": "WIH PESAM",
  "name": "SUKA MAKMUR TIMUR",
  "postalCode": "24581"
 },
 {
  "id": 1117040027,
  "districtId": 1117040,
  "districtName": "WIH PESAM",
  "name": "BURNI TELONG",
  "postalCode": "24581"
 },
 {
  "id": 1117040028,
  "districtId": 1117040,
  "districtName": "WIH PESAM",
  "name": "MEKAR JADI AYU",
  "postalCode": "24581"
 }
]