[
 {
  "id": 1117061001,
  "districtId": 1117061,
  "districtName": "MESIDAH",
  "name": "CEMPARAM JAYA",
  "postalCode": ""
 },
 {
  "id": 1117061002,
  "districtId": 1117061,
  "districtName": "MESIDAH",
  "name": "JAMUR ATU",
  "postalCode": "24582"
 },
 {
  "id": 1117061003,
  "districtId": 1117061,
  "districtName": "MESIDAH",
  "name": "GUNUNG SAYANG",
  "postalCode": "24582"
 },
 {
  "id": 1117061004,
  "districtId": 1117061,
  "districtName": "MESIDAH",
  "name": "WIH RESAP",
  "postalCode": ""
 },
 {
  "id": 1117061005,
  "districtId": 1117061,
  "districtName": "MESIDAH",
  "name": "SIMPUR",
  "postalCode": "24582"
 },
 {
  "id": 1117061006,
  "districtId": 1117061,
  "districtName": "MESIDAH",
  "name": "AMOR",
  "postalCode": "24582"
 },
 {
  "id": 1117061007,
  "districtId": 1117061,
  "districtName": "MESIDAH",
  "name": "BUNTUL GAYO",
  "postalCode": "24582"
 },
 {
  "id": 1117061008,
  "districtId": 1117061,
  "districtName": "MESIDAH",
  "name": "WER TINGKEM",
  "postalCode": "24582"
 },
 {
  "id": 1117061009,
  "districtId": 1117061,
  "districtName": "MESIDAH",
  "name": "HAKIM PETERI PINTU",
  "postalCode": "24582"
 },
 {
  "id": 1117061010,
  "districtId": 1117061,
  "districtName": "MESIDAH",
  "name": "PERUMPAKAN BENJADI",
  "postalCode": ""
 },
 {
  "id": 1117061011,
  "districtId": 1117061,
  "districtName": "MESIDAH",
  "name": "CEMPARAM LAMA",
  "postalCode": ""
 },
 {
  "id": 1117061012,
  "districtId": 1117061,
  "districtName": "MESIDAH",
  "name": "CEMPARAM PAKAT JEROH",
  "postalCode": ""
 },
 {
  "id": 1117061013,
  "districtId": 1117061,
  "districtName": "MESIDAH",
  "name": "SIMPANG RENGGALI",
  "postalCode": "24582"
 },
 {
  "id": 1117061014,
  "districtId": 1117061,
  "districtName": "MESIDAH",
  "name": "SOSIAL",
  "postalCode": "24582"
 },
 {
  "id": 1117061015,
  "districtId": 1117061,
  "districtName": "MESIDAH",
  "name": "PANTAN KULI",
  "postalCode": "24582"
 }
]