[
 {
  "id": 1117050001,
  "districtId": 1117050,
  "districtName": "BANDAR",
  "name": "WONOSARI",
  "postalCode": "24582"
 },
 {
  "id": 1117050002,
  "districtId": 1117050,
  "districtName": "BANDAR",
  "name": "PAYA BANING",
  "postalCode": "24582"
 },
 {
  "id": 1117050003,
  "districtId": 1117050,
  "districtName": "BANDAR",
  "name": "BLANG PULO",
  "postalCode": "24582"
 },
 {
  "id": 1117050011,
  "districtId": 1117050,
  "districtName": "BANDAR",
  "name": "PETUKEL BLANG JORONG",
  "postalCode": ""
 },
 {
  "id": 1117050012,
  "districtId": 1117050,
  "districtName": "BANDAR",
  "name": "TANJUNG PURA",
  "postalCode": "24582"
 },
 {
  "id": 1117050013,
  "districtId": 1117050,
  "districtName": "BANDAR",
  "name": "HAKIM WIH ILANG",
  "postalCode": "24582"
 },
 {
  "id": 1117050014,
  "districtId": 1117050,
  "districtName": "BANDAR",
  "name": "LEWA JADI",
  "postalCode": ""
 },
 {
  "id": 1117050015,
  "districtId": 1117050,
  "districtName": "BANDAR",
  "name": "BUKIT WIH ILANG",
  "postalCode": "24582"
 },
 {
  "id": 1117050016,
  "districtId": 1117050,
  "districtName": "BANDAR",
  "name": "SUKU WIH ILANG",
  "postalCode": "24582"
 },
 {
  "id": 1117050017,
  "districtId": 1117050,
  "districtName": "BANDAR",
  "name": "PONDOK GAJAH",
  "postalCode": "24582"
 },
 {
  "id": 1117050018,
  "districtId": 1117050,
  "districtName": "BANDAR",
  "name": "PURWOSARI",
  "postalCode": "24582"
 },
 {
  "id": 1117050019,
  "districtId": 1117050,
  "districtName": "BANDAR",
  "name": "SIDODADI",
  "postalCode": "24582"
 },
 {
  "id": 1117050020,
  "districtId": 1117050,
  "districtName": "BANDAR",
  "name": "SELAMAT REJO",
  "postalCode": "24582"
 },
 {
  "id": 1117050021,
  "districtId": 1117050,
  "districtName": "BANDAR",
  "name": "PONDOK ULUNG",
  "postalCode": "24582"
 },
 {
  "id": 1117050022,
  "districtId": 1117050,
  "districtName": "BANDAR",
  "name": "JANARATA",
  "postalCode": "24582"
 },
 {
  "id": 1117050023,
  "districtId": 1117050,
  "districtName": "BANDAR",
  "name": "BATIN BARU",
  "postalCode": ""
 },
 {
  "id": 1117050033,
  "districtId": 1117050,
  "districtName": "BANDAR",
  "name": "MUYANG KUTE MANGKU",
  "postalCode": "24582"
 },
 {
  "id": 1117050034,
  "districtId": 1117050,
  "districtName": "BANDAR",
  "name": "KERAMAT JAYA",
  "postalCode": "24582"
 },
 {
  "id": 1117050035,
  "districtId": 1117050,
  "districtName": "BANDAR",
  "name": "SIMPANG UTAMA",
  "postalCode": "24582"
 },
 {
  "id": 1117050038,
  "districtId": 1117050,
  "districtName": "BANDAR",
  "name": "PAKAT JEROH",
  "postalCode": "24582"
 },
 {
  "id": 1117050039,
  "districtId": 1117050,
  "districtName": "BANDAR",
  "name": "PUJA MULIA",
  "postalCode": "24582"
 },
 {
  "id": 1117050040,
  "districtId": 1117050,
  "districtName": "BANDAR",
  "name": "PONDOK BARU",
  "postalCode": "24582"
 },
 {
  "id": 1117050041,
  "districtId": 1117050,
  "districtName": "BANDAR",
  "name": "BAHGIE BERTONA",
  "postalCode": ""
 },
 {
  "id": 1117050044,
  "districtId": 1117050,
  "districtName": "BANDAR",
  "name": "TANSARAN BIDIN",
  "postalCode": "24582"
 },
 {
  "id": 1117050045,
  "districtId": 1117050,
  "districtName": "BANDAR",
  "name": "SINAR JAYA PAYA RINGKEL",
  "postalCode": ""
 },
 {
  "id": 1117050046,
  "districtId": 1117050,
  "districtName": "BANDAR",
  "name": "REMANG KETIKE JAYA",
  "postalCode": "24582"
 },
 {
  "id": 1117050047,
  "districtId": 1117050,
  "districtName": "BANDAR",
  "name": "GUNUNG ANTARA",
  "postalCode": "24582"
 },
 {
  "id": 1117050048,
  "districtId": 1117050,
  "districtName": "BANDAR",
  "name": "GELE SEMAYANG",
  "postalCode": "24582"
 },
 {
  "id": 1117050049,
  "districtId": 1117050,
  "districtName": "BANDAR",
  "name": "MAKMUR SENTOSA",
  "postalCode": "24582"
 },
 {
  "id": 1117050050,
  "districtId": 1117050,
  "districtName": "BANDAR",
  "name": "TAWAR SEDENGE",
  "postalCode": "24582"
 },
 {
  "id": 1117050051,
  "districtId": 1117050,
  "districtName": "BANDAR",
  "name": "JADI SEPAKAT",
  "postalCode": "24582"
 },
 {
  "id": 1117050052,
  "districtId": 1117050,
  "districtName": "BANDAR",
  "name": "SELISIH MARA",
  "postalCode": "24582"
 },
 {
  "id": 1117050053,
  "districtId": 1117050,
  "districtName": "BANDAR",
  "name": "KALA NEMPAN",
  "postalCode": "24582"
 },
 {
  "id": 1117050054,
  "districtId": 1117050,
  "districtName": "BANDAR",
  "name": "MUTIARA",
  "postalCode": "24582"
 },
 {
  "id": 1117050060,
  "districtId": 1117050,
  "districtName": "BANDAR",
  "name": "BERANUN TELEDEN",
  "postalCode": "24582"
 }
]