[
 {
  "id": 1117030002,
  "districtId": 1117030,
  "districtName": "BUKIT",
  "name": "BLANG TAMPU",
  "postalCode": "24581"
 },
 {
  "id": 1117030003,
  "districtId": 1117030,
  "districtName": "BUKIT",
  "name": "UNING BERSAH",
  "postalCode": "24581"
 },
 {
  "id": 1117030004,
  "districtId": 1117030,
  "districtName": "BUKIT",
  "name": "UNING TERITIT",
  "postalCode": "24581"
 },
 {
  "id": 1117030005,
  "districtId": 1117030,
  "districtName": "BUKIT",
  "name": "KUTE LINTANG",
  "postalCode": "24581"
 },
 {
  "id": 1117030006,
  "districtId": 1117030,
  "districtName": "BUKIT",
  "name": "TINGKEM BERSATU",
  "postalCode": "24581"
 },
 {
  "id": 1117030007,
  "districtId": 1117030,
  "districtName": "BUKIT",
  "name": "TINGKEM ASLI",
  "postalCode": "24581"
 },
 {
  "id": 1117030008,
  "districtId": 1117030,
  "districtName": "BUKIT",
  "name": "REJE GURU",
  "postalCode": "24581"
 },
 {
  "id": 1117030009,
  "districtId": 1117030,
  "districtName": "BUKIT",
  "name": "BLANG SENTANG",
  "postalCode": "24581"
 },
 {
  "id": 1117030010,
  "districtId": 1117030,
  "districtName": "BUKIT",
  "name": "PASAR SIMPANG TIGA",
  "postalCode": "24581"
 },
 {
  "id": 1117030011,
  "districtId": 1117030,
  "districtName": "BUKIT",
  "name": "BALE REDELONG",
  "postalCode": "24581"
 },
 {
  "id": 1117030012,
  "districtId": 1117030,
  "districtName": "BUKIT",
  "name": "UJUNG GELE",
  "postalCode": "24581"
 },
 {
  "id": 1117030013,
  "districtId": 1117030,
  "districtName": "BUKIT",
  "name": "DELUNG TUE",
  "postalCode": "24581"
 },
 {
  "id": 1117030014,
  "districtId": 1117030,
  "districtName": "BUKIT",
  "name": "KENAWAT REDELONG",
  "postalCode": ""
 },
 {
  "id": 1117030015,
  "districtId": 1117030,
  "districtName": "BUKIT",
  "name": "BLANG ARA",
  "postalCode": "24581"
 },
 {
  "id": 1117030016,
  "districtId": 1117030,
  "districtName": "BUKIT",
  "name": "WAQ PONDOK SAYUR",
  "postalCode": "24581"
 },
 {
  "id": 1117030017,
  "districtId": 1117030,
  "districtName": "BUKIT",
  "name": "PANJI MULIA II",
  "postalCode": "24581"
 },
 {
  "id": 1117030018,
  "districtId": 1117030,
  "districtName": "BUKIT",
  "name": "PANJI MULIA  I",
  "postalCode": ""
 },
 {
  "id": 1117030019,
  "districtId": 1117030,
  "districtName": "BUKIT",
  "name": "ISAQ BUSUR",
  "postalCode": "24581"
 },
 {
  "id": 1117030020,
  "districtId": 1117030,
  "districtName": "BUKIT",
  "name": "BUJANG",
  "postalCode": "24581"
 },
 {
  "id": 1117030021,
  "districtId": 1117030,
  "districtName": "BUKIT",
  "name": "HAKIM TUNGGUL NARU",
  "postalCode": "24581"
 },
 {
  "id": 1117030022,
  "districtId": 1117030,
  "districtName": "BUKIT",
  "name": "BALE ATU",
  "postalCode": "24581"
 },
 {
  "id": 1117030033,
  "districtId": 1117030,
  "districtName": "BUKIT",
  "name": "TINGKEM BENYER",
  "postalCode": "24581"
 },
 {
  "id": 1117030034,
  "districtId": 1117030,
  "districtName": "BUKIT",
  "name": "BANTIN WIH PONGAS",
  "postalCode": ""
 },
 {
  "id": 1117030035,
  "districtId": 1117030,
  "districtName": "BUKIT",
  "name": "SEDIA JADI",
  "postalCode": ""
 },
 {
  "id": 1117030036,
  "districtId": 1117030,
  "districtName": "BUKIT",
  "name": "REMBELE",
  "postalCode": "24581"
 },
 {
  "id": 1117030037,
  "districtId": 1117030,
  "districtName": "BUKIT",
  "name": "MUTIARA BARU",
  "postalCode": "24581"
 },
 {
  "id": 1117030038,
  "districtId": 1117030,
  "districtName": "BUKIT",
  "name": "BLANG PANAS",
  "postalCode": "24581"
 },
 {
  "id": 1117030039,
  "districtId": 1117030,
  "districtName": "BUKIT",
  "name": "BUKIT BERSATU",
  "postalCode": "24581"
 },
 {
  "id": 1117030040,
  "districtId": 1117030,
  "districtName": "BUKIT",
  "name": "SERULE KAYU",
  "postalCode": "24581"
 },
 {
  "id": 1117030041,
  "districtId": 1117030,
  "districtName": "BUKIT",
  "name": "KUTE KERING",
  "postalCode": "24581"
 },
 {
  "id": 1117030042,
  "districtId": 1117030,
  "districtName": "BUKIT",
  "name": "KUTE TANYUNG",
  "postalCode": ""
 },
 {
  "id": 1117030043,
  "districtId": 1117030,
  "districtName": "BUKIT",
  "name": "BABUSSALAM",
  "postalCode": "24392"
 },
 {
  "id": 1117030044,
  "districtId": 1117030,
  "districtName": "BUKIT",
  "name": "PAYA GAJAH",
  "postalCode": "24581"
 },
 {
  "id": 1117030045,
  "districtId": 1117030,
  "districtName": "BUKIT",
  "name": "DELUNG ASLI",
  "postalCode": "24581"
 },
 {
  "id": 1117030046,
  "districtId": 1117030,
  "districtName": "BUKIT",
  "name": "PILAR JAYA",
  "postalCode": "24581"
 },
 {
  "id": 1117030047,
  "districtId": 1117030,
  "districtName": "BUKIT",
  "name": "MELUEM",
  "postalCode": "24581"
 },
 {
  "id": 1117030048,
  "districtId": 1117030,
  "districtName": "BUKIT",
  "name": "MUPAKAT JADI",
  "postalCode": "24581"
 },
 {
  "id": 1117030049,
  "districtId": 1117030,
  "districtName": "BUKIT",
  "name": "GODANG",
  "postalCode": "24581"
 },
 {
  "id": 1117030050,
  "districtId": 1117030,
  "districtName": "BUKIT",
  "name": "URING",
  "postalCode": "24581"
 },
 {
  "id": 1117030051,
  "districtId": 1117030,
  "districtName": "BUKIT",
  "name": "KARANG REJO",
  "postalCode": "24581"
 }
]