[
 {
  "id": 1117060001,
  "districtId": 1117060,
  "districtName": "SYIAH UTAMA",
  "name": "TEMBOLON",
  "postalCode": "24582"
 },
 {
  "id": 1117060002,
  "districtId": 1117060,
  "districtName": "SYIAH UTAMA",
  "name": "WIH NIDURIN",
  "postalCode": ""
 },
 {
  "id": 1117060003,
  "districtId": 1117060,
  "districtName": "SYIAH UTAMA",
  "name": "KUTE LAH LANE",
  "postalCode": ""
 },
 {
  "id": 1117060004,
  "districtId": 1117060,
  "districtName": "SYIAH UTAMA",
  "name": "PAYUNG",
  "postalCode": "24582"
 },
 {
  "id": 1117060007,
  "districtId": 1117060,
  "districtName": "SYIAH UTAMA",
  "name": "KERLANG",
  "postalCode": ""
 },
 {
  "id": 1117060008,
  "districtId": 1117060,
  "districtName": "SYIAH UTAMA",
  "name": "GERPA",
  "postalCode": "24582"
 },
 {
  "id": 1117060009,
  "districtId": 1117060,
  "districtName": "SYIAH UTAMA",
  "name": "GONENG",
  "postalCode": "24582"
 },
 {
  "id": 1117060010,
  "districtId": 1117060,
  "districtName": "SYIAH UTAMA",
  "name": "BLANG PANU",
  "postalCode": "24582"
 },
 {
  "id": 1117060011,
  "districtId": 1117060,
  "districtName": "SYIAH UTAMA",
  "name": "RUSIP",
  "postalCode": "24562"
 },
 {
  "id": 1117060015,
  "districtId": 1117060,
  "districtName": "SYIAH UTAMA",
  "name": "UNING",
  "postalCode": "24561"
 },
 {
  "id": 1117060016,
  "districtId": 1117060,
  "districtName": "SYIAH UTAMA",
  "name": "PASIR PUTIH",
  "postalCode": "24453"
 },
 {
  "id": 1117060027,
  "districtId": 1117060,
  "districtName": "SYIAH UTAMA",
  "name": "RATA MULIE",
  "postalCode": "24582"
 },
 {
  "id": 1117060028,
  "districtId": 1117060,
  "districtName": "SYIAH UTAMA",
  "name": "TEMPEN BARU",
  "postalCode": "24582"
 },
 {
  "id": 1117060029,
  "districtId": 1117060,
  "districtName": "SYIAH UTAMA",
  "name": "GERUTI JAYA",
  "postalCode": "24582"
 }
]