[
 {
  "id": 1118030001,
  "districtId": 1118030,
  "districtName": "BANDAR DUA",
  "name": "GAHRU",
  "postalCode": ""
 },
 {
  "id": 1118030002,
  "districtId": 1118030,
  "districtName": "BANDAR DUA",
  "name": "KUMBA",
  "postalCode": "24188"
 },
 {
  "id": 1118030003,
  "districtId": 1118030,
  "districtName": "BANDAR DUA",
  "name": "BLANG MIROE",
  "postalCode": ""
 },
 {
  "id": 1118030004,
  "districtId": 1118030,
  "districtName": "BANDAR DUA",
  "name": "BEURASAN",
  "postalCode": "24188"
 },
 {
  "id": 1118030005,
  "districtId": 1118030,
  "districtName": "BANDAR DUA",
  "name": "COT KENG",
  "postalCode": "24188"
 },
 {
  "id": 1118030006,
  "districtId": 1118030,
  "districtName": "BANDAR DUA",
  "name": "KRUENG KIRAN",
  "postalCode": "24188"
 },
 {
  "id": 1118030007,
  "districtId": 1118030,
  "districtName": "BANDAR DUA",
  "name": "ASAN KUMBANG",
  "postalCode": "24188"
 },
 {
  "id": 1118030008,
  "districtId": 1118030,
  "districtName": "BANDAR DUA",
  "name": "PULO GAPU",
  "postalCode": "24188"
 },
 {
  "id": 1118030009,
  "districtId": 1118030,
  "districtName": "BANDAR DUA",
  "name": "COT GURUFAI",
  "postalCode": ""
 },
 {
  "id": 1118030010,
  "districtId": 1118030,
  "districtName": "BANDAR DUA",
  "name": "ALUE SANE",
  "postalCode": "24188"
 },
 {
  "id": 1118030011,
  "districtId": 1118030,
  "districtName": "BANDAR DUA",
  "name": "LHOK PUSONG",
  "postalCode": "24188"
 },
 {
  "id": 1118030012,
  "districtId": 1118030,
  "districtName": "BANDAR DUA",
  "name": "ALUE KEUTAPANG",
  "postalCode": "24392"
 },
 {
  "id": 1118030013,
  "districtId": 1118030,
  "districtName": "BANDAR DUA",
  "name": "JEULANGA BARAT",
  "postalCode": "24188"
 },
 {
  "id": 1118030014,
  "districtId": 1118030,
  "districtName": "BANDAR DUA",
  "name": "JEULANGA MATA IE",
  "postalCode": "24188"
 },
 {
  "id": 1118030015,
  "districtId": 1118030,
  "districtName": "BANDAR DUA",
  "name": "JEULANGA MESJID",
  "postalCode": "24188"
 },
 {
  "id": 1118030016,
  "districtId": 1118030,
  "districtName": "BANDAR DUA",
  "name": "MEUNASAH PAKU",
  "postalCode": "24188"
 },
 {
  "id": 1118030017,
  "districtId": 1118030,
  "districtName": "BANDAR DUA",
  "name": "MEURANDEH ALUE",
  "postalCode": "24188"
 },
 {
  "id": 1118030018,
  "districtId": 1118030,
  "districtName": "BANDAR DUA",
  "name": "REUDEUP MELAYU",
  "postalCode": "24188"
 },
 {
  "id": 1118030019,
  "districtId": 1118030,
  "districtName": "BANDAR DUA",
  "name": "PAYA PISANG KLAT",
  "postalCode": "24188"
 },
 {
  "id": 1118030020,
  "districtId": 1118030,
  "districtName": "BANDAR DUA",
  "name": "ALUE MEE",
  "postalCode": ""
 },
 {
  "id": 1118030021,
  "districtId": 1118030,
  "districtName": "BANDAR DUA",
  "name": "DRIEN TUJOH",
  "postalCode": "24188"
 },
 {
  "id": 1118030022,
  "districtId": 1118030,
  "districtName": "BANDAR DUA",
  "name": "BLANG KUTA",
  "postalCode": "24188"
 },
 {
  "id": 1118030023,
  "districtId": 1118030,
  "districtName": "BANDAR DUA",
  "name": "SEUNONG",
  "postalCode": "24188"
 },
 {
  "id": 1118030024,
  "districtId": 1118030,
  "districtName": "BANDAR DUA",
  "name": "POHROH",
  "postalCode": "24188"
 },
 {
  "id": 1118030025,
  "districtId": 1118030,
  "districtName": "BANDAR DUA",
  "name": "BABAH KRUENG",
  "postalCode": "24188"
 },
 {
  "id": 1118030026,
  "districtId": 1118030,
  "districtName": "BANDAR DUA",
  "name": "UTEUN BAYU",
  "postalCode": "24188"
 },
 {
  "id": 1118030027,
  "districtId": 1118030,
  "districtName": "BANDAR DUA",
  "name": "MUKO BULOH",
  "postalCode": "24188"
 },
 {
  "id": 1118030028,
  "districtId": 1118030,
  "districtName": "BANDAR DUA",
  "name": "DRIEN BUNGONG",
  "postalCode": "24188"
 },
 {
  "id": 1118030029,
  "districtId": 1118030,
  "districtName": "BANDAR DUA",
  "name": "MEUGIT SAGOE",
  "postalCode": "24188"
 },
 {
  "id": 1118030030,
  "districtId": 1118030,
  "districtName": "BANDAR DUA",
  "name": "MEUGIT KAYEE PANYANG",
  "postalCode": ""
 },
 {
  "id": 1118030031,
  "districtId": 1118030,
  "districtName": "BANDAR DUA",
  "name": "ADAN",
  "postalCode": "24188"
 },
 {
  "id": 1118030032,
  "districtId": 1118030,
  "districtName": "BANDAR DUA",
  "name": "MUKO DAYAH",
  "postalCode": ""
 },
 {
  "id": 1118030033,
  "districtId": 1118030,
  "districtName": "BANDAR DUA",
  "name": "KEUDE ULEE GLE",
  "postalCode": ""
 },
 {
  "id": 1118030034,
  "districtId": 1118030,
  "districtName": "BANDAR DUA",
  "name": "PULO",
  "postalCode": "24188"
 },
 {
  "id": 1118030035,
  "districtId": 1118030,
  "districtName": "BANDAR DUA",
  "name": "GAMPONG BARO",
  "postalCode": "24454"
 },
 {
  "id": 1118030036,
  "districtId": 1118030,
  "districtName": "BANDAR DUA",
  "name": "GAMPONG ULEE GLE",
  "postalCode": ""
 },
 {
  "id": 1118030037,
  "districtId": 1118030,
  "districtName": "BANDAR DUA",
  "name": "MUKO KUTHANG",
  "postalCode": ""
 },
 {
  "id": 1118030038,
  "districtId": 1118030,
  "districtName": "BANDAR DUA",
  "name": "PEULAKAN TUNONG",
  "postalCode": "24188"
 },
 {
  "id": 1118030039,
  "districtId": 1118030,
  "districtName": "BANDAR DUA",
  "name": "PEULAKAN TAMBO",
  "postalCode": "24188"
 },
 {
  "id": 1118030040,
  "districtId": 1118030,
  "districtName": "BANDAR DUA",
  "name": "KUTA KRUENG",
  "postalCode": "24188"
 },
 {
  "id": 1118030041,
  "districtId": 1118030,
  "districtName": "BANDAR DUA",
  "name": "PAYA TUNONG",
  "postalCode": "24188"
 },
 {
  "id": 1118030042,
  "districtId": 1118030,
  "districtName": "BANDAR DUA",
  "name": "PAYA BAROH",
  "postalCode": "24188"
 },
 {
  "id": 1118030043,
  "districtId": 1118030,
  "districtName": "BANDAR DUA",
  "name": "BLANG DALAM",
  "postalCode": "23767"
 },
 {
  "id": 1118030044,
  "districtId": 1118030,
  "districtName": "BANDAR DUA",
  "name": "MUKOE BAROH",
  "postalCode": ""
 },
 {
  "id": 1118030045,
  "districtId": 1118030,
  "districtName": "BANDAR DUA",
  "name": "PEULAKAN CIBREK",
  "postalCode": ""
 }
]