[
 {
  "id": 1118040001,
  "districtId": 1118040,
  "districtName": "JANGKA BUYA",
  "name": "MEUKO JURONG",
  "postalCode": ""
 },
 {
  "id": 1118040002,
  "districtId": 1118040,
  "districtName": "JANGKA BUYA",
  "name": "BUKET TEUNGOH",
  "postalCode": "24186"
 },
 {
  "id": 1118040003,
  "districtId": 1118040,
  "districtName": "JANGKA BUYA",
  "name": "JURONG ARA",
  "postalCode": "24186"
 },
 {
  "id": 1118040004,
  "districtId": 1118040,
  "districtName": "JANGKA BUYA",
  "name": "JURONG TEUNGOH",
  "postalCode": "24186"
 },
 {
  "id": 1118040005,
  "districtId": 1118040,
  "districtName": "JANGKA BUYA",
  "name": "JURONG BINJE",
  "postalCode": "24186"
 },
 {
  "id": 1118040006,
  "districtId": 1118040,
  "districtName": "JANGKA BUYA",
  "name": "REULUI MANGAT",
  "postalCode": "24186"
 },
 {
  "id": 1118040007,
  "districtId": 1118040,
  "districtName": "JANGKA BUYA",
  "name": "MEUNASAH MEE",
  "postalCode": "24152"
 },
 {
  "id": 1118040008,
  "districtId": 1118040,
  "districtName": "JANGKA BUYA",
  "name": "MEUNASAH KUMBANG",
  "postalCode": "24186"
 },
 {
  "id": 1118040009,
  "districtId": 1118040,
  "districtName": "JANGKA BUYA",
  "name": "KUTA BAROH",
  "postalCode": "24186"
 },
 {
  "id": 1118040010,
  "districtId": 1118040,
  "districtName": "JANGKA BUYA",
  "name": "MEUKO MEUGIT",
  "postalCode": "24186"
 },
 {
  "id": 1118040011,
  "districtId": 1118040,
  "districtName": "JANGKA BUYA",
  "name": "KEURISI MEUNASAH RAYA",
  "postalCode": "24186"
 },
 {
  "id": 1118040012,
  "districtId": 1118040,
  "districtName": "JANGKA BUYA",
  "name": "KIRAN DAYAH",
  "postalCode": "24186"
 },
 {
  "id": 1118040013,
  "districtId": 1118040,
  "districtName": "JANGKA BUYA",
  "name": "KIRAN BAROH",
  "postalCode": "24186"
 },
 {
  "id": 1118040014,
  "districtId": 1118040,
  "districtName": "JANGKA BUYA",
  "name": "KIRAN KRUENG",
  "postalCode": "24186"
 },
 {
  "id": 1118040015,
  "districtId": 1118040,
  "districtName": "JANGKA BUYA",
  "name": "KEURISI MEUNASAH LUENG",
  "postalCode": "24186"
 },
 {
  "id": 1118040016,
  "districtId": 1118040,
  "districtName": "JANGKA BUYA",
  "name": "KEUDE JANGKA BUYA",
  "postalCode": ""
 },
 {
  "id": 1118040017,
  "districtId": 1118040,
  "districtName": "JANGKA BUYA",
  "name": "GAMPONG COT",
  "postalCode": "23373"
 },
 {
  "id": 1118040018,
  "districtId": 1118040,
  "districtName": "JANGKA BUYA",
  "name": "KEURISI MEUNASAH BEUREMBANG",
  "postalCode": ""
 }
]