[
 {
  "id": 1171021001,
  "districtId": 1171021,
  "districtName": "LUENG BATA",
  "name": "LAMDOM",
  "postalCode": ""
 },
 {
  "id": 1171021002,
  "districtId": 1171021,
  "districtName": "LUENG BATA",
  "name": "COT MESJID",
  "postalCode": "23246"
 },
 {
  "id": 1171021003,
  "districtId": 1171021,
  "districtName": "LUENG BATA",
  "name": "BATOH",
  "postalCode": "23245"
 },
 {
  "id": 1171021004,
  "districtId": 1171021,
  "districtName": "LUENG BATA",
  "name": "LUENG BATA",
  "postalCode": "24392"
 },
 {
  "id": 1171021005,
  "districtId": 1171021,
  "districtName": "LUENG BATA",
  "name": "BLANG CUT",
  "postalCode": "24375"
 },
 {
  "id": 1171021006,
  "districtId": 1171021,
  "districtName": "LUENG BATA",
  "name": "LAMPALOH",
  "postalCode": "23248"
 },
 {
  "id": 1171021007,
  "districtId": 1171021,
  "districtName": "LUENG BATA",
  "name": "SUKADAMAI",
  "postalCode": "24373"
 },
 {
  "id": 1171021008,
  "districtId": 1171021,
  "districtName": "LUENG BATA",
  "name": "PANTERIEK",
  "postalCode": "23247"
 },
 {
  "id": 1171021009,
  "districtId": 1171021,
  "districtName": "LUENG BATA",
  "name": "LAMSEUPEUNG",
  "postalCode": "23247"
 }
]