[
 {
  "id": 1171010019,
  "districtId": 1171010,
  "districtName": "MEURAXA",
  "name": "SURIEN",
  "postalCode": "23234"
 },
 {
  "id": 1171010020,
  "districtId": 1171010,
  "districtName": "MEURAXA",
  "name": "ASO NANGGROE",
  "postalCode": ""
 },
 {
  "id": 1171010021,
  "districtId": 1171010,
  "districtName": "MEURAXA",
  "name": "GAMPONG BLANG",
  "postalCode": "23373"
 },
 {
  "id": 1171010022,
  "districtId": 1171010,
  "districtName": "MEURAXA",
  "name": "LAMJABAT",
  "postalCode": "23234"
 },
 {
  "id": 1171010023,
  "districtId": 1171010,
  "districtName": "MEURAXA",
  "name": "GAMPONG BARO",
  "postalCode": "24454"
 },
 {
  "id": 1171010025,
  "districtId": 1171010,
  "districtName": "MEURAXA",
  "name": "PUNGE JURONG",
  "postalCode": "23231"
 },
 {
  "id": 1171010027,
  "districtId": 1171010,
  "districtName": "MEURAXA",
  "name": "LAMPASEH ACEH",
  "postalCode": "23231"
 },
 {
  "id": 1171010028,
  "districtId": 1171010,
  "districtName": "MEURAXA",
  "name": "PUNGE UJONG",
  "postalCode": "23233"
 },
 {
  "id": 1171010029,
  "districtId": 1171010,
  "districtName": "MEURAXA",
  "name": "COT LAMKUWEUEH",
  "postalCode": "23233"
 },
 {
  "id": 1171010030,
  "districtId": 1171010,
  "districtName": "MEURAXA",
  "name": "GAMPONG PIE",
  "postalCode": "23233"
 },
 {
  "id": 1171010031,
  "districtId": 1171010,
  "districtName": "MEURAXA",
  "name": "ULEE LHEUE",
  "postalCode": "23234"
 },
 {
  "id": 1171010032,
  "districtId": 1171010,
  "districtName": "MEURAXA",
  "name": "DEAH GLUMPANG",
  "postalCode": ""
 },
 {
  "id": 1171010033,
  "districtId": 1171010,
  "districtName": "MEURAXA",
  "name": "LAMBUNG",
  "postalCode": "23233"
 },
 {
  "id": 1171010034,
  "districtId": 1171010,
  "districtName": "MEURAXA",
  "name": "BLANG OI",
  "postalCode": "23233"
 },
 {
  "id": 1171010035,
  "districtId": 1171010,
  "districtName": "MEURAXA",
  "name": "ALUE DEAH TEUNGOH",
  "postalCode": ""
 },
 {
  "id": 1171010036,
  "districtId": 1171010,
  "districtName": "MEURAXA",
  "name": "DEAH BARO",
  "postalCode": ""
 }
]