[
 {
  "id": 1171030001,
  "districtId": 1171030,
  "districtName": "KUTA ALAM",
  "name": "PEUNAYONG",
  "postalCode": "23122"
 },
 {
  "id": 1171030002,
  "districtId": 1171030,
  "districtName": "KUTA ALAM",
  "name": "LAKSANA",
  "postalCode": "23122"
 },
 {
  "id": 1171030003,
  "districtId": 1171030,
  "districtName": "KUTA ALAM",
  "name": "KEURAMAT",
  "postalCode": "23681"
 },
 {
  "id": 1171030004,
  "districtId": 1171030,
  "districtName": "KUTA ALAM",
  "name": "KUTA ALAM",
  "postalCode": "23121"
 },
 {
  "id": 1171030005,
  "districtId": 1171030,
  "districtName": "KUTA ALAM",
  "name": "BEURAWE",
  "postalCode": "23124"
 },
 {
  "id": 1171030006,
  "districtId": 1171030,
  "districtName": "KUTA ALAM",
  "name": "KOTA BARU",
  "postalCode": "23125"
 },
 {
  "id": 1171030007,
  "districtId": 1171030,
  "districtName": "KUTA ALAM",
  "name": "BANDAR BARU",
  "postalCode": "24472"
 },
 {
  "id": 1171030008,
  "districtId": 1171030,
  "districtName": "KUTA ALAM",
  "name": "MULIA",
  "postalCode": "23123"
 },
 {
  "id": 1171030013,
  "districtId": 1171030,
  "districtName": "KUTA ALAM",
  "name": "LAMPULO",
  "postalCode": ""
 },
 {
  "id": 1171030014,
  "districtId": 1171030,
  "districtName": "KUTA ALAM",
  "name": "LAMDINGIN",
  "postalCode": "23127"
 },
 {
  "id": 1171030015,
  "districtId": 1171030,
  "districtName": "KUTA ALAM",
  "name": "LAMBARO SKEP",
  "postalCode": "23127"
 }
]