[
 {
  "id": 1173010007,
  "districtId": 1173010,
  "districtName": "LANGSA TIMUR",
  "name": "BUKET MEUDANG ARA",
  "postalCode": "24411"
 },
 {
  "id": 1173010009,
  "districtId": 1173010,
  "districtName": "LANGSA TIMUR",
  "name": "MATANG SEUTUI",
  "postalCode": "24411"
 },
 {
  "id": 1173010010,
  "districtId": 1173010,
  "districtName": "LANGSA TIMUR",
  "name": "BUKET PULO",
  "postalCode": "24411"
 },
 {
  "id": 1173010011,
  "districtId": 1173010,
  "districtName": "LANGSA TIMUR",
  "name": "MATANG PANYANG",
  "postalCode": "24392"
 },
 {
  "id": 1173010012,
  "districtId": 1173010,
  "districtName": "LANGSA TIMUR",
  "name": "SIMPANG WIE",
  "postalCode": "24411"
 },
 {
  "id": 1173010013,
  "districtId": 1173010,
  "districtName": "LANGSA TIMUR",
  "name": "BUKET RATA",
  "postalCode": "24411"
 },
 {
  "id": 1173010014,
  "districtId": 1173010,
  "districtName": "LANGSA TIMUR",
  "name": "BUKET MEUTUAH",
  "postalCode": "24411"
 },
 {
  "id": 1173010015,
  "districtId": 1173010,
  "districtName": "LANGSA TIMUR",
  "name": "ALUE MERBAU",
  "postalCode": "24411"
 },
 {
  "id": 1173010016,
  "districtId": 1173010,
  "districtName": "LANGSA TIMUR",
  "name": "MATANG CEUNGAI",
  "postalCode": "24411"
 },
 {
  "id": 1173010017,
  "districtId": 1173010,
  "districtName": "LANGSA TIMUR",
  "name": "SEUNEUBOK ANTARA",
  "postalCode": "24411"
 },
 {
  "id": 1173010018,
  "districtId": 1173010,
  "districtName": "LANGSA TIMUR",
  "name": "ALUE PINEUNG",
  "postalCode": "24411"
 },
 {
  "id": 1173010019,
  "districtId": 1173010,
  "districtName": "LANGSA TIMUR",
  "name": "SUKAREJO",
  "postalCode": "24411"
 },
 {
  "id": 1173010020,
  "districtId": 1173010,
  "districtName": "LANGSA TIMUR",
  "name": "CINTA RAJA",
  "postalCode": "24472"
 },
 {
  "id": 1173010021,
  "districtId": 1173010,
  "districtName": "LANGSA TIMUR",
  "name": "SUNGAI LUENG",
  "postalCode": "24411"
 },
 {
  "id": 1173010022,
  "districtId": 1173010,
  "districtName": "LANGSA TIMUR",
  "name": "ALUE PINEUNG TIMUE",
  "postalCode": "24411"
 },
 {
  "id": 1173010023,
  "districtId": 1173010,
  "districtName": "LANGSA TIMUR",
  "name": "KAPA",
  "postalCode": "24411"
 }
]