[
 {
  "id": 1175020001,
  "districtId": 1175020,
  "districtName": "PENANGGALAN",
  "name": "LAE MOTONG",
  "postalCode": "24782"
 },
 {
  "id": 1175020002,
  "districtId": 1175020,
  "districtName": "PENANGGALAN",
  "name": "KAMPUNG BARU",
  "postalCode": "24652"
 },
 {
  "id": 1175020003,
  "districtId": 1175020,
  "districtName": "PENANGGALAN",
  "name": "PENANGGALAN",
  "postalCode": "24782"
 },
 {
  "id": 1175020004,
  "districtId": 1175020,
  "districtName": "PENANGGALAN",
  "name": "LAE BERSIH",
  "postalCode": "24782"
 },
 {
  "id": 1175020005,
  "districtId": 1175020,
  "districtName": "PENANGGALAN",
  "name": "CEPU",
  "postalCode": "24782"
 },
 {
  "id": 1175020006,
  "districtId": 1175020,
  "districtName": "PENANGGALAN",
  "name": "KUTA TENGAH",
  "postalCode": "24782"
 },
 {
  "id": 1175020007,
  "districtId": 1175020,
  "districtName": "PENANGGALAN",
  "name": "SIKELANG",
  "postalCode": "24782"
 },
 {
  "id": 1175020008,
  "districtId": 1175020,
  "districtName": "PENANGGALAN",
  "name": "JONTOR",
  "postalCode": "24782"
 },
 {
  "id": 1175020009,
  "districtId": 1175020,
  "districtName": "PENANGGALAN",
  "name": "LAE IKAN",
  "postalCode": "24782"
 },
 {
  "id": 1175020010,
  "districtId": 1175020,
  "districtName": "PENANGGALAN",
  "name": "PENUNTUNGAN",
  "postalCode": "24782"
 },
 {
  "id": 1175020011,
  "districtId": 1175020,
  "districtName": "PENANGGALAN",
  "name": "DASAN RAJA",
  "postalCode": ""
 },
 {
  "id": 1175020012,
  "districtId": 1175020,
  "districtName": "PENANGGALAN",
  "name": "PENANGGALAN BARAT",
  "postalCode": ""
 },
 {
  "id": 1175020013,
  "districtId": 1175020,
  "districtName": "PENANGGALAN",
  "name": "PENANGGALAN TIMUR",
  "postalCode": ""
 }
]