[
 {
  "id": 1201060015,
  "districtId": 1201060,
  "districtName": "IDANO GAWO",
  "name": "TETE GOENAAI",
  "postalCode": "22872"
 },
 {
  "id": 1201060016,
  "districtId": 1201060,
  "districtName": "IDANO GAWO",
  "name": "LAOWO HILIMBARUZO",
  "postalCode": "22872"
 },
 {
  "id": 1201060017,
  "districtId": 1201060,
  "districtName": "IDANO GAWO",
  "name": "HILILAWAE",
  "postalCode": "22872"
 },
 {
  "id": 1201060018,
  "districtId": 1201060,
  "districtName": "IDANO GAWO",
  "name": "TUHEWAEBU",
  "postalCode": "22872"
 },
 {
  "id": 1201060023,
  "districtId": 1201060,
  "districtName": "IDANO GAWO",
  "name": "SISOBAHILI IRAONOHURA",
  "postalCode": "22872"
 },
 {
  "id": 1201060024,
  "districtId": 1201060,
  "districtName": "IDANO GAWO",
  "name": "HILIMOASIO",
  "postalCode": "22872"
 },
 {
  "id": 1201060025,
  "districtId": 1201060,
  "districtName": "IDANO GAWO",
  "name": "OLADANO",
  "postalCode": "22872"
 },
 {
  "id": 1201060026,
  "districtId": 1201060,
  "districtName": "IDANO GAWO",
  "name": "AHEDANO",
  "postalCode": "22872"
 },
 {
  "id": 1201060027,
  "districtId": 1201060,
  "districtName": "IDANO GAWO",
  "name": "HILINAA TAFUO",
  "postalCode": "22872"
 },
 {
  "id": 1201060028,
  "districtId": 1201060,
  "districtName": "IDANO GAWO",
  "name": "HILIONOZEGA",
  "postalCode": "22872"
 },
 {
  "id": 1201060029,
  "districtId": 1201060,
  "districtName": "IDANO GAWO",
  "name": "MONDRALI",
  "postalCode": "22872"
 },
 {
  "id": 1201060036,
  "districtId": 1201060,
  "districtName": "IDANO GAWO",
  "name": "AWONI LAUSO",
  "postalCode": "22872"
 },
 {
  "id": 1201060037,
  "districtId": 1201060,
  "districtName": "IDANO GAWO",
  "name": "BOBOZIOLI LOLOANAA",
  "postalCode": "22872"
 },
 {
  "id": 1201060038,
  "districtId": 1201060,
  "districtName": "IDANO GAWO",
  "name": "TETEHOSI",
  "postalCode": "22872"
 },
 {
  "id": 1201060039,
  "districtId": 1201060,
  "districtName": "IDANO GAWO",
  "name": "SAIWAHILI HILIADULO",
  "postalCode": "22872"
 },
 {
  "id": 1201060040,
  "districtId": 1201060,
  "districtName": "IDANO GAWO",
  "name": "MALIWAA",
  "postalCode": "22872"
 },
 {
  "id": 1201060041,
  "districtId": 1201060,
  "districtName": "IDANO GAWO",
  "name": "BIOUTI",
  "postalCode": "22872"
 },
 {
  "id": 1201060042,
  "districtId": 1201060,
  "districtName": "IDANO GAWO",
  "name": "BOZIHONA",
  "postalCode": "22872"
 },
 {
  "id": 1201060043,
  "districtId": 1201060,
  "districtName": "IDANO GAWO",
  "name": "HILIMOASIO DUA",
  "postalCode": "22872"
 },
 {
  "id": 1201060044,
  "districtId": 1201060,
  "districtName": "IDANO GAWO",
  "name": "HILIADULO",
  "postalCode": "22864"
 },
 {
  "id": 1201060045,
  "districtId": 1201060,
  "districtName": "IDANO GAWO",
  "name": "ORAHILI ZUZUNDRAO",
  "postalCode": "22872"
 },
 {
  "id": 1201060046,
  "districtId": 1201060,
  "districtName": "IDANO GAWO",
  "name": "TIGA SERANGKAI MALIWAA",
  "postalCode": ""
 },
 {
  "id": 1201060047,
  "districtId": 1201060,
  "districtName": "IDANO GAWO",
  "name": "HILIGOGOWAYA MALIWAA",
  "postalCode": ""
 },
 {
  "id": 1201060048,
  "districtId": 1201060,
  "districtName": "IDANO GAWO",
  "name": "LAIRA",
  "postalCode": "22872"
 },
 {
  "id": 1201060049,
  "districtId": 1201060,
  "districtName": "IDANO GAWO",
  "name": "OTALUA",
  "postalCode": "22872"
 },
 {
  "id": 1201060050,
  "districtId": 1201060,
  "districtName": "IDANO GAWO",
  "name": "BARUZO",
  "postalCode": "22872"
 },
 {
  "id": 1201060051,
  "districtId": 1201060,
  "districtName": "IDANO GAWO",
  "name": "SANDRUTA",
  "postalCode": "22872"
 },
 {
  "id": 1201060052,
  "districtId": 1201060,
  "districtName": "IDANO GAWO",
  "name": "BIOUTI TIMUR",
  "postalCode": "22872"
 }
]