[
 {
  "id": 1201082001,
  "districtId": 1201082,
  "districtName": "SOMOLO - MOLO",
  "name": "SISOBAWINO I",
  "postalCode": "22871"
 },
 {
  "id": 1201082002,
  "districtId": 1201082,
  "districtName": "SOMOLO - MOLO",
  "name": "LEWUOMBANUA",
  "postalCode": "22871"
 },
 {
  "id": 1201082003,
  "districtId": 1201082,
  "districtName": "SOMOLO - MOLO",
  "name": "IODANO",
  "postalCode": "22871"
 },
 {
  "id": 1201082004,
  "districtId": 1201082,
  "districtName": "SOMOLO - MOLO",
  "name": "H U N O",
  "postalCode": ""
 },
 {
  "id": 1201082005,
  "districtId": 1201082,
  "districtName": "SOMOLO - MOLO",
  "name": "LEWUOGURU I",
  "postalCode": "22871"
 },
 {
  "id": 1201082006,
  "districtId": 1201082,
  "districtName": "SOMOLO - MOLO",
  "name": "SISARATANDRAWA",
  "postalCode": "22871"
 },
 {
  "id": 1201082007,
  "districtId": 1201082,
  "districtName": "SOMOLO - MOLO",
  "name": "SOMOLO-MOLO",
  "postalCode": "22871"
 },
 {
  "id": 1201082008,
  "districtId": 1201082,
  "districtName": "SOMOLO - MOLO",
  "name": "SIFAOROASI",
  "postalCode": "22851"
 },
 {
  "id": 1201082009,
  "districtId": 1201082,
  "districtName": "SOMOLO - MOLO",
  "name": "HILIGODU SOMOLO-MOLO",
  "postalCode": "22871"
 },
 {
  "id": 1201082010,
  "districtId": 1201082,
  "districtName": "SOMOLO - MOLO",
  "name": "HILIMBORODANO",
  "postalCode": ""
 },
 {
  "id": 1201082011,
  "districtId": 1201082,
  "districtName": "SOMOLO - MOLO",
  "name": "SOEWALI",
  "postalCode": ""
 }
]