[
 {
  "id": 1201131001,
  "districtId": 1201131,
  "districtName": "HILI SERANGKAI",
  "name": "FADORO HUNOGOA",
  "postalCode": "22851"
 },
 {
  "id": 1201131002,
  "districtId": 1201131,
  "districtName": "HILI SERANGKAI",
  "name": "LOLOFAOSO LALAI",
  "postalCode": "22851"
 },
 {
  "id": 1201131003,
  "districtId": 1201131,
  "districtName": "HILI SERANGKAI",
  "name": "FULOLO LALAI",
  "postalCode": "22851"
 },
 {
  "id": 1201131004,
  "districtId": 1201131,
  "districtName": "HILI SERANGKAI",
  "name": "LALAI I / II",
  "postalCode": "22851"
 },
 {
  "id": 1201131005,
  "districtId": 1201131,
  "districtName": "HILI SERANGKAI",
  "name": "LAWA LAWA",
  "postalCode": ""
 },
 {
  "id": 1201131006,
  "districtId": 1201131,
  "districtName": "HILI SERANGKAI",
  "name": "LOLOWUA",
  "postalCode": "22851"
 },
 {
  "id": 1201131007,
  "districtId": 1201131,
  "districtName": "HILI SERANGKAI",
  "name": "DAHADANO BOTOMBAWO",
  "postalCode": "22851"
 },
 {
  "id": 1201131008,
  "districtId": 1201131,
  "districtName": "HILI SERANGKAI",
  "name": "FADORO LALAI",
  "postalCode": "22851"
 },
 {
  "id": 1201131009,
  "districtId": 1201131,
  "districtName": "HILI SERANGKAI",
  "name": "LOLOWUA HILIWARASI",
  "postalCode": "22851"
 },
 {
  "id": 1201131010,
  "districtId": 1201131,
  "districtName": "HILI SERANGKAI",
  "name": "HILIZIA LAURU",
  "postalCode": "22851"
 },
 {
  "id": 1201131011,
  "districtId": 1201131,
  "districtName": "HILI SERANGKAI",
  "name": "LOLO FAOSO",
  "postalCode": ""
 },
 {
  "id": 1201131012,
  "districtId": 1201131,
  "districtName": "HILI SERANGKAI",
  "name": "ONOMBONGI",
  "postalCode": "22851"
 },
 {
  "id": 1201131013,
  "districtId": 1201131,
  "districtName": "HILI SERANGKAI",
  "name": "ORAHILI IDANOI",
  "postalCode": "22851"
 },
 {
  "id": 1201131014,
  "districtId": 1201131,
  "districtName": "HILI SERANGKAI",
  "name": "AWELA",
  "postalCode": "22851"
 },
 {
  "id": 1201131015,
  "districtId": 1201131,
  "districtName": "HILI SERANGKAI",
  "name": "EHOSAKHOZI",
  "postalCode": "22851"
 }
]