[
 {
  "id": 1202033001,
  "districtId": 1202033,
  "districtName": "LEMBAH SORIK MARAPI",
  "name": "PURBA BARU",
  "postalCode": "22994"
 },
 {
  "id": 1202033002,
  "districtId": 1202033,
  "districtName": "LEMBAH SORIK MARAPI",
  "name": "SIANTONA",
  "postalCode": ""
 },
 {
  "id": 1202033003,
  "districtId": 1202033,
  "districtName": "LEMBAH SORIK MARAPI",
  "name": "PURBA LAMO",
  "postalCode": "22994"
 },
 {
  "id": 1202033004,
  "districtId": 1202033,
  "districtName": "LEMBAH SORIK MARAPI",
  "name": "BANGUN PURBA",
  "postalCode": "20581"
 },
 {
  "id": 1202033005,
  "districtId": 1202033,
  "districtName": "LEMBAH SORIK MARAPI",
  "name": "AEK MARIAN MG",
  "postalCode": "22994"
 },
 {
  "id": 1202033006,
  "districtId": 1202033,
  "districtName": "LEMBAH SORIK MARAPI",
  "name": "PASAR MAGA",
  "postalCode": "22994"
 },
 {
  "id": 1202033007,
  "districtId": 1202033,
  "districtName": "LEMBAH SORIK MARAPI",
  "name": "MAGA DOLOK",
  "postalCode": "22994"
 },
 {
  "id": 1202033008,
  "districtId": 1202033,
  "districtName": "LEMBAH SORIK MARAPI",
  "name": "MAGA LOMBANG",
  "postalCode": "22994"
 },
 {
  "id": 1202033009,
  "districtId": 1202033,
  "districtName": "LEMBAH SORIK MARAPI",
  "name": "PANGKAT",
  "postalCode": "22994"
 }
]