[
 {
  "id": 1203012001,
  "districtId": 1203012,
  "districtName": "TANO TOMBANGAN ANGKOLA",
  "name": "SIMANINGGIR",
  "postalCode": "22763"
 },
 {
  "id": 1203012002,
  "districtId": 1203012,
  "districtName": "TANO TOMBANGAN ANGKOLA",
  "name": "KOTA TUA",
  "postalCode": "22774"
 },
 {
  "id": 1203012003,
  "districtId": 1203012,
  "districtName": "TANO TOMBANGAN ANGKOLA",
  "name": "HAREAN",
  "postalCode": "22774"
 },
 {
  "id": 1203012004,
  "districtId": 1203012,
  "districtName": "TANO TOMBANGAN ANGKOLA",
  "name": "LUMBAN RATUS",
  "postalCode": "22774"
 },
 {
  "id": 1203012005,
  "districtId": 1203012,
  "districtName": "TANO TOMBANGAN ANGKOLA",
  "name": "SISOMA",
  "postalCode": "22765"
 },
 {
  "id": 1203012006,
  "districtId": 1203012,
  "districtName": "TANO TOMBANGAN ANGKOLA",
  "name": "INGUL JAE",
  "postalCode": "22774"
 },
 {
  "id": 1203012007,
  "districtId": 1203012,
  "districtName": "TANO TOMBANGAN ANGKOLA",
  "name": "LUMBAN JABI-JABI",
  "postalCode": "22774"
 },
 {
  "id": 1203012008,
  "districtId": 1203012,
  "districtName": "TANO TOMBANGAN ANGKOLA",
  "name": "PURBATUA",
  "postalCode": "22763"
 },
 {
  "id": 1203012009,
  "districtId": 1203012,
  "districtName": "TANO TOMBANGAN ANGKOLA",
  "name": "HUTARAJA",
  "postalCode": "22457"
 },
 {
  "id": 1203012010,
  "districtId": 1203012,
  "districtName": "TANO TOMBANGAN ANGKOLA",
  "name": "PANABARI HUTA TONGA",
  "postalCode": ""
 },
 {
  "id": 1203012011,
  "districtId": 1203012,
  "districtName": "TANO TOMBANGAN ANGKOLA",
  "name": "SITUMBA",
  "postalCode": "22742"
 },
 {
  "id": 1203012012,
  "districtId": 1203012,
  "districtName": "TANO TOMBANGAN ANGKOLA",
  "name": "BATU HORPAK",
  "postalCode": "22774"
 },
 {
  "id": 1203012013,
  "districtId": 1203012,
  "districtName": "TANO TOMBANGAN ANGKOLA",
  "name": "AEK KAHOMBU",
  "postalCode": "22774"
 },
 {
  "id": 1203012014,
  "districtId": 1203012,
  "districtName": "TANO TOMBANGAN ANGKOLA",
  "name": "TANJUNG MEDAN",
  "postalCode": "21411"
 },
 {
  "id": 1203012015,
  "districtId": 1203012,
  "districtName": "TANO TOMBANGAN ANGKOLA",
  "name": "AEK PARUPUK",
  "postalCode": "22774"
 },
 {
  "id": 1203012016,
  "districtId": 1203012,
  "districtName": "TANO TOMBANGAN ANGKOLA",
  "name": "PANINDOAN",
  "postalCode": "22774"
 },
 {
  "id": 1203012017,
  "districtId": 1203012,
  "districtName": "TANO TOMBANGAN ANGKOLA",
  "name": "AEK UNCIM",
  "postalCode": "22774"
 }
]