[
 {
  "id": 1203010056,
  "districtId": 1203010,
  "districtName": "BATANG ANGKOLA",
  "name": "SORIK",
  "postalCode": "22773"
 },
 {
  "id": 1203010057,
  "districtId": 1203010,
  "districtName": "BATANG ANGKOLA",
  "name": "PADANG KAHOMBU",
  "postalCode": "22773"
 },
 {
  "id": 1203010058,
  "districtId": 1203010,
  "districtName": "BATANG ANGKOLA",
  "name": "HUTA PADANG",
  "postalCode": "21262"
 },
 {
  "id": 1203010059,
  "districtId": 1203010,
  "districtName": "BATANG ANGKOLA",
  "name": "SORI MADINGIN PP",
  "postalCode": "22773"
 },
 {
  "id": 1203010061,
  "districtId": 1203010,
  "districtName": "BATANG ANGKOLA",
  "name": "HURASE",
  "postalCode": ""
 },
 {
  "id": 1203010069,
  "districtId": 1203010,
  "districtName": "BATANG ANGKOLA",
  "name": "SIGULANG LOSUNG",
  "postalCode": "22773"
 },
 {
  "id": 1203010075,
  "districtId": 1203010,
  "districtName": "BATANG ANGKOLA",
  "name": "PASAR LAMA",
  "postalCode": "23761"
 },
 {
  "id": 1203010076,
  "districtId": 1203010,
  "districtName": "BATANG ANGKOLA",
  "name": "SIGALANGAN",
  "postalCode": "22773"
 },
 {
  "id": 1203010079,
  "districtId": 1203010,
  "districtName": "BATANG ANGKOLA",
  "name": "JANJI MANAON",
  "postalCode": "22773"
 },
 {
  "id": 1203010081,
  "districtId": 1203010,
  "districtName": "BATANG ANGKOLA",
  "name": "BARGOT TOPONG",
  "postalCode": "22773"
 },
 {
  "id": 1203010083,
  "districtId": 1203010,
  "districtName": "BATANG ANGKOLA",
  "name": "SIDADI II",
  "postalCode": ""
 },
 {
  "id": 1203010084,
  "districtId": 1203010,
  "districtName": "BATANG ANGKOLA",
  "name": "SIDADI I",
  "postalCode": ""
 },
 {
  "id": 1203010087,
  "districtId": 1203010,
  "districtName": "BATANG ANGKOLA",
  "name": "JANJI MAULI MT",
  "postalCode": "22773"
 },
 {
  "id": 1203010088,
  "districtId": 1203010,
  "districtName": "BATANG ANGKOLA",
  "name": "MUARA TAIS III",
  "postalCode": "22773"
 },
 {
  "id": 1203010090,
  "districtId": 1203010,
  "districtName": "BATANG ANGKOLA",
  "name": "PARGUMBANGAN",
  "postalCode": "22773"
 },
 {
  "id": 1203010094,
  "districtId": 1203010,
  "districtName": "BATANG ANGKOLA",
  "name": "PANGARIBUAN",
  "postalCode": "22651"
 },
 {
  "id": 1203010099,
  "districtId": 1203010,
  "districtName": "BATANG ANGKOLA",
  "name": "AEK NAULI",
  "postalCode": "22773"
 },
 {
  "id": 1203010106,
  "districtId": 1203010,
  "districtName": "BATANG ANGKOLA",
  "name": "MUARA TAIS I",
  "postalCode": "22773"
 },
 {
  "id": 1203010107,
  "districtId": 1203010,
  "districtName": "BATANG ANGKOLA",
  "name": "BINTUJU",
  "postalCode": "22773"
 },
 {
  "id": 1203010108,
  "districtId": 1203010,
  "districtName": "BATANG ANGKOLA",
  "name": "HUTA HOLBUNG",
  "postalCode": ""
 },
 {
  "id": 1203010109,
  "districtId": 1203010,
  "districtName": "BATANG ANGKOLA",
  "name": "MUARA TAIS II",
  "postalCode": "22773"
 },
 {
  "id": 1203010110,
  "districtId": 1203010,
  "districtName": "BATANG ANGKOLA",
  "name": "BASILAM BARU",
  "postalCode": "22773"
 },
 {
  "id": 1203010111,
  "districtId": 1203010,
  "districtName": "BATANG ANGKOLA",
  "name": "SIPANGKO",
  "postalCode": "22773"
 },
 {
  "id": 1203010114,
  "districtId": 1203010,
  "districtName": "BATANG ANGKOLA",
  "name": "BENTENG HURABA",
  "postalCode": "22773"
 },
 {
  "id": 1203010115,
  "districtId": 1203010,
  "districtName": "BATANG ANGKOLA",
  "name": "KELURAHAN PINTU PADANG I",
  "postalCode": ""
 },
 {
  "id": 1203010116,
  "districtId": 1203010,
  "districtName": "BATANG ANGKOLA",
  "name": "KELURAHAN PINTU PADANG II",
  "postalCode": ""
 },
 {
  "id": 1203010117,
  "districtId": 1203010,
  "districtName": "BATANG ANGKOLA",
  "name": "BANGUN PURBA",
  "postalCode": "20581"
 },
 {
  "id": 1203010118,
  "districtId": 1203010,
  "districtName": "BATANG ANGKOLA",
  "name": "SITAMPA",
  "postalCode": "22773"
 },
 {
  "id": 1203010119,
  "districtId": 1203010,
  "districtName": "BATANG ANGKOLA",
  "name": "PASIR MATOGU",
  "postalCode": ""
 },
 {
  "id": 1203010120,
  "districtId": 1203010,
  "districtName": "BATANG ANGKOLA",
  "name": "SIBULELE MUARA",
  "postalCode": ""
 },
 {
  "id": 1203010121,
  "districtId": 1203010,
  "districtName": "BATANG ANGKOLA",
  "name": "AEK GUNUNG",
  "postalCode": "22773"
 },
 {
  "id": 1203010122,
  "districtId": 1203010,
  "districtName": "BATANG ANGKOLA",
  "name": "SORIMANAON",
  "postalCode": ""
 },
 {
  "id": 1203010123,
  "districtId": 1203010,
  "districtName": "BATANG ANGKOLA",
  "name": "TATENGGER",
  "postalCode": "22773"
 },
 {
  "id": 1203010124,
  "districtId": 1203010,
  "districtName": "BATANG ANGKOLA",
  "name": "MUARA PURBA NAULI",
  "postalCode": ""
 },
 {
  "id": 1203010125,
  "districtId": 1203010,
  "districtName": "BATANG ANGKOLA",
  "name": "HUTA TONGA",
  "postalCode": "22758"
 },
 {
  "id": 1203010126,
  "districtId": 1203010,
  "districtName": "BATANG ANGKOLA",
  "name": "TAHALAK UJUNG GADING",
  "postalCode": ""
 }
]