[
 {
  "id": 1204061001,
  "districtId": 1204061,
  "districtName": "SORKAM BARAT",
  "name": "MADUMA",
  "postalCode": "22395"
 },
 {
  "id": 1204061002,
  "districtId": 1204061,
  "districtName": "SORKAM BARAT",
  "name": "PAHIEME",
  "postalCode": "22563"
 },
 {
  "id": 1204061003,
  "districtId": 1204061,
  "districtName": "SORKAM BARAT",
  "name": "PASAR SORKAM",
  "postalCode": "22563"
 },
 {
  "id": 1204061004,
  "districtId": 1204061,
  "districtName": "SORKAM BARAT",
  "name": "SORKAM KANAN",
  "postalCode": "22563"
 },
 {
  "id": 1204061005,
  "districtId": 1204061,
  "districtName": "SORKAM BARAT",
  "name": "SIPEA PEA",
  "postalCode": "22563"
 },
 {
  "id": 1204061006,
  "districtId": 1204061,
  "districtName": "SORKAM BARAT",
  "name": "AEK RASO",
  "postalCode": "22563"
 },
 {
  "id": 1204061007,
  "districtId": 1204061,
  "districtName": "SORKAM BARAT",
  "name": "PASARIBU TOBING JAE",
  "postalCode": "22563"
 },
 {
  "id": 1204061008,
  "districtId": 1204061,
  "districtName": "SORKAM BARAT",
  "name": "PAHIEME II",
  "postalCode": "22563"
 },
 {
  "id": 1204061009,
  "districtId": 1204061,
  "districtName": "SORKAM BARAT",
  "name": "BINASI",
  "postalCode": "22563"
 },
 {
  "id": 1204061010,
  "districtId": 1204061,
  "districtName": "SORKAM BARAT",
  "name": "SIDIKALANG",
  "postalCode": "22563"
 },
 {
  "id": 1204061011,
  "districtId": 1204061,
  "districtName": "SORKAM BARAT",
  "name": "SORKAM KANAN",
  "postalCode": "22563"
 },
 {
  "id": 1204061012,
  "districtId": 1204061,
  "districtName": "SORKAM BARAT",
  "name": "MADANI",
  "postalCode": "29273"
 }
]