[
 {
  "id": 1205090001,
  "districtId": 1205090,
  "districtName": "PANGARIBUAN",
  "name": "PARLOMBUAN",
  "postalCode": "22472"
 },
 {
  "id": 1205090002,
  "districtId": 1205090,
  "districtName": "PANGARIBUAN",
  "name": "LUMBAN SINAGA",
  "postalCode": ""
 },
 {
  "id": 1205090003,
  "districtId": 1205090,
  "districtName": "PANGARIBUAN",
  "name": "PANSUR NATOLU",
  "postalCode": ""
 },
 {
  "id": 1205090004,
  "districtId": 1205090,
  "districtName": "PANGARIBUAN",
  "name": "SILANTOM JULU",
  "postalCode": "22472"
 },
 {
  "id": 1205090005,
  "districtId": 1205090,
  "districtName": "PANGARIBUAN",
  "name": "SILANTOM TONGA",
  "postalCode": "22472"
 },
 {
  "id": 1205090006,
  "districtId": 1205090,
  "districtName": "PANGARIBUAN",
  "name": "RAHUT BOSI",
  "postalCode": "22472"
 },
 {
  "id": 1205090007,
  "districtId": 1205090,
  "districtName": "PANGARIBUAN",
  "name": "BATUNA DUA",
  "postalCode": ""
 },
 {
  "id": 1205090008,
  "districtId": 1205090,
  "districtName": "PANGARIBUAN",
  "name": "SAMPAGUL",
  "postalCode": "22472"
 },
 {
  "id": 1205090009,
  "districtId": 1205090,
  "districtName": "PANGARIBUAN",
  "name": "HARIANJA",
  "postalCode": "22472"
 },
 {
  "id": 1205090010,
  "districtId": 1205090,
  "districtName": "PANGARIBUAN",
  "name": "BATU MANUMPAK",
  "postalCode": "22383"
 },
 {
  "id": 1205090011,
  "districtId": 1205090,
  "districtName": "PANGARIBUAN",
  "name": "PARSI BARUNGAN",
  "postalCode": ""
 },
 {
  "id": 1205090012,
  "districtId": 1205090,
  "districtName": "PANGARIBUAN",
  "name": "PAKPAHAN",
  "postalCode": "22394"
 },
 {
  "id": 1205090013,
  "districtId": 1205090,
  "districtName": "PANGARIBUAN",
  "name": "NAJUMAMBE",
  "postalCode": "22472"
 },
 {
  "id": 1205090014,
  "districtId": 1205090,
  "districtName": "PANGARIBUAN",
  "name": "PURBATUA",
  "postalCode": "22763"
 },
 {
  "id": 1205090015,
  "districtId": 1205090,
  "districtName": "PANGARIBUAN",
  "name": "LUMBAN SORMIN",
  "postalCode": ""
 },
 {
  "id": 1205090016,
  "districtId": 1205090,
  "districtName": "PANGARIBUAN",
  "name": "SIBINGKE",
  "postalCode": "22472"
 },
 {
  "id": 1205090017,
  "districtId": 1205090,
  "districtName": "PANGARIBUAN",
  "name": "GODUNG BOROTAN",
  "postalCode": "22472"
 },
 {
  "id": 1205090018,
  "districtId": 1205090,
  "districtName": "PANGARIBUAN",
  "name": "PARRATUSAN",
  "postalCode": "22472"
 },
 {
  "id": 1205090019,
  "districtId": 1205090,
  "districtName": "PANGARIBUAN",
  "name": "SIGOTOM JULU",
  "postalCode": "22472"
 },
 {
  "id": 1205090020,
  "districtId": 1205090,
  "districtName": "PANGARIBUAN",
  "name": "PARSORMINAN I",
  "postalCode": "22472"
 },
 {
  "id": 1205090021,
  "districtId": 1205090,
  "districtName": "PANGARIBUAN",
  "name": "SILANTOM JAE",
  "postalCode": "22472"
 },
 {
  "id": 1205090022,
  "districtId": 1205090,
  "districtName": "PANGARIBUAN",
  "name": "PADANG PARSADAAN",
  "postalCode": "22472"
 },
 {
  "id": 1205090023,
  "districtId": 1205090,
  "districtName": "PANGARIBUAN",
  "name": "RAHUT BOSI ONAN",
  "postalCode": ""
 },
 {
  "id": 1205090024,
  "districtId": 1205090,
  "districtName": "PANGARIBUAN",
  "name": "HUTARAJA",
  "postalCode": "22457"
 },
 {
  "id": 1205090025,
  "districtId": 1205090,
  "districtName": "PANGARIBUAN",
  "name": "SIGOTOM TIMUR",
  "postalCode": ""
 },
 {
  "id": 1205090026,
  "districtId": 1205090,
  "districtName": "PANGARIBUAN",
  "name": "SIGOTOM DOLOK NAULI",
  "postalCode": ""
 }
]