[
 {
  "id": 1205110001,
  "districtId": 1205110,
  "districtName": "SIPAHUTAR",
  "name": "ONAN RUNGGU I",
  "postalCode": "22471"
 },
 {
  "id": 1205110002,
  "districtId": 1205110,
  "districtName": "SIPAHUTAR",
  "name": "SIPAHUTAR III",
  "postalCode": "22471"
 },
 {
  "id": 1205110003,
  "districtId": 1205110,
  "districtName": "SIPAHUTAR",
  "name": "SIABAL ABAL I",
  "postalCode": "22471"
 },
 {
  "id": 1205110004,
  "districtId": 1205110,
  "districtName": "SIPAHUTAR",
  "name": "SIABAL ABAL II",
  "postalCode": "22471"
 },
 {
  "id": 1205110005,
  "districtId": 1205110,
  "districtName": "SIPAHUTAR",
  "name": "AEK NAULI II",
  "postalCode": "22457"
 },
 {
  "id": 1205110006,
  "districtId": 1205110,
  "districtName": "SIPAHUTAR",
  "name": "AEK NAULI III",
  "postalCode": "22471"
 },
 {
  "id": 1205110007,
  "districtId": 1205110,
  "districtName": "SIPAHUTAR",
  "name": "AEK NAULI I",
  "postalCode": "22457"
 },
 {
  "id": 1205110008,
  "districtId": 1205110,
  "districtName": "SIPAHUTAR",
  "name": "SABUNGAN NIHUTA V",
  "postalCode": "22471"
 },
 {
  "id": 1205110009,
  "districtId": 1205110,
  "districtName": "SIPAHUTAR",
  "name": "SIABAL ABAL III",
  "postalCode": "22471"
 },
 {
  "id": 1205110010,
  "districtId": 1205110,
  "districtName": "SIPAHUTAR",
  "name": "SIPAHUTAR II",
  "postalCode": "22471"
 },
 {
  "id": 1205110011,
  "districtId": 1205110,
  "districtName": "SIPAHUTAR",
  "name": "SIPAHUTAR I",
  "postalCode": "22471"
 },
 {
  "id": 1205110012,
  "districtId": 1205110,
  "districtName": "SIPAHUTAR",
  "name": "ONAN RUNGGU III",
  "postalCode": "22471"
 },
 {
  "id": 1205110013,
  "districtId": 1205110,
  "districtName": "SIPAHUTAR",
  "name": "ONAN RUNGGU II",
  "postalCode": "22471"
 },
 {
  "id": 1205110014,
  "districtId": 1205110,
  "districtName": "SIPAHUTAR",
  "name": "ONAN RUNGGU IV",
  "postalCode": "22471"
 },
 {
  "id": 1205110015,
  "districtId": 1205110,
  "districtName": "SIPAHUTAR",
  "name": "SABUNGAN NIHUTA I",
  "postalCode": "22471"
 },
 {
  "id": 1205110016,
  "districtId": 1205110,
  "districtName": "SIPAHUTAR",
  "name": "SABUNGAN NIHUTA II",
  "postalCode": "22471"
 },
 {
  "id": 1205110017,
  "districtId": 1205110,
  "districtName": "SIPAHUTAR",
  "name": "SABUNGAN NIHUTA III",
  "postalCode": "22471"
 },
 {
  "id": 1205110018,
  "districtId": 1205110,
  "districtName": "SIPAHUTAR",
  "name": "SABUNGAN NIHUTA IV",
  "postalCode": "22471"
 },
 {
  "id": 1205110019,
  "districtId": 1205110,
  "districtName": "SIPAHUTAR",
  "name": "TAPIAN NAULI II",
  "postalCode": "22471"
 },
 {
  "id": 1205110020,
  "districtId": 1205110,
  "districtName": "SIPAHUTAR",
  "name": "TAPIAN NAULI III",
  "postalCode": "22471"
 },
 {
  "id": 1205110021,
  "districtId": 1205110,
  "districtName": "SIPAHUTAR",
  "name": "TAPIAN NAULI I",
  "postalCode": "22471"
 },
 {
  "id": 1205110022,
  "districtId": 1205110,
  "districtName": "SIPAHUTAR",
  "name": "SIABAL ABAL IV",
  "postalCode": "22471"
 },
 {
  "id": 1205110023,
  "districtId": 1205110,
  "districtName": "SIPAHUTAR",
  "name": "AEK NAULI IV",
  "postalCode": "22471"
 },
 {
  "id": 1205110024,
  "districtId": 1205110,
  "districtName": "SIPAHUTAR",
  "name": "SIABAL-ABAL VI",
  "postalCode": ""
 },
 {
  "id": 1205110025,
  "districtId": 1205110,
  "districtName": "SIPAHUTAR",
  "name": "SIABAL-ABAL V",
  "postalCode": ""
 }
]