[
 {
  "id": 1205030001,
  "districtId": 1205030,
  "districtName": "PARMONANGAN",
  "name": "MANALU PURBA",
  "postalCode": "22453"
 },
 {
  "id": 1205030002,
  "districtId": 1205030,
  "districtName": "PARMONANGAN",
  "name": "MANALU DOLOK",
  "postalCode": "22453"
 },
 {
  "id": 1205030003,
  "districtId": 1205030,
  "districtName": "PARMONANGAN",
  "name": "MANALU",
  "postalCode": "22455"
 },
 {
  "id": 1205030004,
  "districtId": 1205030,
  "districtName": "PARMONANGAN",
  "name": "HUTA JULU",
  "postalCode": "22998"
 },
 {
  "id": 1205030005,
  "districtId": 1205030,
  "districtName": "PARMONANGAN",
  "name": "AEK RAJA",
  "postalCode": "22453"
 },
 {
  "id": 1205030006,
  "districtId": 1205030,
  "districtName": "PARMONANGAN",
  "name": "HUTA TINGGI",
  "postalCode": "22392"
 },
 {
  "id": 1205030007,
  "districtId": 1205030,
  "districtName": "PARMONANGAN",
  "name": "LOBU SUNUT",
  "postalCode": ""
 },
 {
  "id": 1205030008,
  "districtId": 1205030,
  "districtName": "PARMONANGAN",
  "name": "SISORDAK",
  "postalCode": "22453"
 },
 {
  "id": 1205030009,
  "districtId": 1205030,
  "districtName": "PARMONANGAN",
  "name": "HUTATUA",
  "postalCode": "22453"
 },
 {
  "id": 1205030010,
  "districtId": 1205030,
  "districtName": "PARMONANGAN",
  "name": "PERTENGAHAN",
  "postalCode": "22453"
 },
 {
  "id": 1205030011,
  "districtId": 1205030,
  "districtName": "PARMONANGAN",
  "name": "HUTAJULU PARBALIK",
  "postalCode": ""
 },
 {
  "id": 1205030012,
  "districtId": 1205030,
  "districtName": "PARMONANGAN",
  "name": "HORISAN RANGGITGIT",
  "postalCode": ""
 },
 {
  "id": 1205030013,
  "districtId": 1205030,
  "districtName": "PARMONANGAN",
  "name": "PURBA DOLOK",
  "postalCode": "22457"
 },
 {
  "id": 1205030014,
  "districtId": 1205030,
  "districtName": "PARMONANGAN",
  "name": "BATUARIMO",
  "postalCode": ""
 }
]