[
 {
  "id": 1205060001,
  "districtId": 1205060,
  "districtName": "TARUTUNG",
  "name": "SIANDOR ANDOR",
  "postalCode": "22417"
 },
 {
  "id": 1205060002,
  "districtId": 1205060,
  "districtName": "TARUTUNG",
  "name": "HUTAPEA BANUAREA",
  "postalCode": "22411"
 },
 {
  "id": 1205060008,
  "districtId": 1205060,
  "districtName": "TARUTUNG",
  "name": "PARBUBU PEA",
  "postalCode": "22414"
 },
 {
  "id": 1205060009,
  "districtId": 1205060,
  "districtName": "TARUTUNG",
  "name": "PARBUBU II",
  "postalCode": "22414"
 },
 {
  "id": 1205060010,
  "districtId": 1205060,
  "districtName": "TARUTUNG",
  "name": "PARBUBU DOLOK",
  "postalCode": "22414"
 },
 {
  "id": 1205060011,
  "districtId": 1205060,
  "districtName": "TARUTUNG",
  "name": "HUTA TORUAN VIII",
  "postalCode": ""
 },
 {
  "id": 1205060012,
  "districtId": 1205060,
  "districtName": "TARUTUNG",
  "name": "PARBUBU I",
  "postalCode": "22414"
 },
 {
  "id": 1205060013,
  "districtId": 1205060,
  "districtName": "TARUTUNG",
  "name": "HUTATORUAN I",
  "postalCode": "22414"
 },
 {
  "id": 1205060019,
  "districtId": 1205060,
  "districtName": "TARUTUNG",
  "name": "SOSUNGGULON",
  "postalCode": "22411"
 },
 {
  "id": 1205060020,
  "districtId": 1205060,
  "districtName": "TARUTUNG",
  "name": "PARBAJU TORUAN",
  "postalCode": ""
 },
 {
  "id": 1205060021,
  "districtId": 1205060,
  "districtName": "TARUTUNG",
  "name": "HAPOLTAHAN",
  "postalCode": "22416"
 },
 {
  "id": 1205060022,
  "districtId": 1205060,
  "districtName": "TARUTUNG",
  "name": "HUTA TORUAN IV",
  "postalCode": ""
 },
 {
  "id": 1205060023,
  "districtId": 1205060,
  "districtName": "TARUTUNG",
  "name": "AEK SIAN SIMUN",
  "postalCode": ""
 },
 {
  "id": 1205060024,
  "districtId": 1205060,
  "districtName": "TARUTUNG",
  "name": "HUTA TORUAN V",
  "postalCode": ""
 },
 {
  "id": 1205060025,
  "districtId": 1205060,
  "districtName": "TARUTUNG",
  "name": "HUTA TORUAN VI",
  "postalCode": ""
 },
 {
  "id": 1205060026,
  "districtId": 1205060,
  "districtName": "TARUTUNG",
  "name": "HUTA TORUAN XI",
  "postalCode": ""
 },
 {
  "id": 1205060027,
  "districtId": 1205060,
  "districtName": "TARUTUNG",
  "name": "HUTA TORUAN IX",
  "postalCode": ""
 },
 {
  "id": 1205060028,
  "districtId": 1205060,
  "districtName": "TARUTUNG",
  "name": "HUTA TORUAN X",
  "postalCode": ""
 },
 {
  "id": 1205060029,
  "districtId": 1205060,
  "districtName": "TARUTUNG",
  "name": "HUTA TORUAN VII",
  "postalCode": ""
 },
 {
  "id": 1205060030,
  "districtId": 1205060,
  "districtName": "TARUTUNG",
  "name": "PARTALI TORUAN",
  "postalCode": "22416"
 },
 {
  "id": 1205060033,
  "districtId": 1205060,
  "districtName": "TARUTUNG",
  "name": "PARBAJU TONGA",
  "postalCode": ""
 },
 {
  "id": 1205060034,
  "districtId": 1205060,
  "districtName": "TARUTUNG",
  "name": "SIMAMORA",
  "postalCode": "22457"
 },
 {
  "id": 1205060035,
  "districtId": 1205060,
  "districtName": "TARUTUNG",
  "name": "HUTAGALUNG SIWALUOMPU",
  "postalCode": "22411"
 },
 {
  "id": 1205060036,
  "districtId": 1205060,
  "districtName": "TARUTUNG",
  "name": "SIRAJA OLOAN",
  "postalCode": "22415"
 },
 {
  "id": 1205060037,
  "districtId": 1205060,
  "districtName": "TARUTUNG",
  "name": "HUTAURUK",
  "postalCode": "22452"
 },
 {
  "id": 1205060038,
  "districtId": 1205060,
  "districtName": "TARUTUNG",
  "name": "PARBAJU JULU",
  "postalCode": "22411"
 },
 {
  "id": 1205060039,
  "districtId": 1205060,
  "districtName": "TARUTUNG",
  "name": "PARTALI JULU",
  "postalCode": "22416"
 },
 {
  "id": 1205060040,
  "districtId": 1205060,
  "districtName": "TARUTUNG",
  "name": "SITAMPURUNG",
  "postalCode": "22474"
 },
 {
  "id": 1205060041,
  "districtId": 1205060,
  "districtName": "TARUTUNG",
  "name": "JAMBUR NAULI",
  "postalCode": "22452"
 },
 {
  "id": 1205060042,
  "districtId": 1205060,
  "districtName": "TARUTUNG",
  "name": "SIHUJUR",
  "postalCode": "22452"
 },
 {
  "id": 1205060043,
  "districtId": 1205060,
  "districtName": "TARUTUNG",
  "name": "HUTATORUAN III",
  "postalCode": "22414"
 }
]