[
 {
  "id": 1206061001,
  "districtId": 1206061,
  "districtName": "SIGUMPAR",
  "name": "SIGUMPAR DANGSINA",
  "postalCode": "22381"
 },
 {
  "id": 1206061002,
  "districtId": 1206061,
  "districtName": "SIGUMPAR",
  "name": "DOLOK JIOR",
  "postalCode": "22381"
 },
 {
  "id": 1206061003,
  "districtId": 1206061,
  "districtName": "SIGUMPAR",
  "name": "SIGUMPAR",
  "postalCode": "22475"
 },
 {
  "id": 1206061004,
  "districtId": 1206061,
  "districtName": "SIGUMPAR",
  "name": "SIGUMPAR JULU",
  "postalCode": "22381"
 },
 {
  "id": 1206061005,
  "districtId": 1206061,
  "districtName": "SIGUMPAR",
  "name": "MAJU",
  "postalCode": "22381"
 },
 {
  "id": 1206061006,
  "districtId": 1206061,
  "districtName": "SIGUMPAR",
  "name": "MARSANGAP",
  "postalCode": "22381"
 },
 {
  "id": 1206061007,
  "districtId": 1206061,
  "districtName": "SIGUMPAR",
  "name": "NAULI",
  "postalCode": "22381"
 },
 {
  "id": 1206061008,
  "districtId": 1206061,
  "districtName": "SIGUMPAR",
  "name": "SITUA-TUA",
  "postalCode": "22381"
 },
 {
  "id": 1206061009,
  "districtId": 1206061,
  "districtName": "SIGUMPAR",
  "name": "SIGUMPAR BARAT",
  "postalCode": "22381"
 },
 {
  "id": 1206061010,
  "districtId": 1206061,
  "districtName": "SIGUMPAR",
  "name": "BANUA HUTA",
  "postalCode": "22381"
 }
]