[
 {
  "id": 1207130001,
  "districtId": 1207130,
  "districtName": "BILAH HILIR",
  "name": "PERKEBUNAN SENNAH",
  "postalCode": "21471"
 },
 {
  "id": 1207130002,
  "districtId": 1207130,
  "districtName": "BILAH HILIR",
  "name": "KAMPUNG BILAH",
  "postalCode": "21471"
 },
 {
  "id": 1207130003,
  "districtId": 1207130,
  "districtName": "BILAH HILIR",
  "name": "PERKEBUNAN BILAH",
  "postalCode": "21471"
 },
 {
  "id": 1207130004,
  "districtId": 1207130,
  "districtName": "BILAH HILIR",
  "name": "NEGERI LAMA",
  "postalCode": "21471"
 },
 {
  "id": 1207130005,
  "districtId": 1207130,
  "districtName": "BILAH HILIR",
  "name": "NEGERI LAMA SEBERANG",
  "postalCode": "21471"
 },
 {
  "id": 1207130006,
  "districtId": 1207130,
  "districtName": "BILAH HILIR",
  "name": "PERKEBUNAN NEGERI LAMA",
  "postalCode": "21471"
 },
 {
  "id": 1207130007,
  "districtId": 1207130,
  "districtName": "BILAH HILIR",
  "name": "SIDOMULYO",
  "postalCode": "21455"
 },
 {
  "id": 1207130008,
  "districtId": 1207130,
  "districtName": "BILAH HILIR",
  "name": "NEGERI BARU",
  "postalCode": "21471"
 },
 {
  "id": 1207130009,
  "districtId": 1207130,
  "districtName": "BILAH HILIR",
  "name": "SEI TAMPANG",
  "postalCode": "21471"
 },
 {
  "id": 1207130010,
  "districtId": 1207130,
  "districtName": "BILAH HILIR",
  "name": "SEI TAROLAT",
  "postalCode": "21471"
 },
 {
  "id": 1207130011,
  "districtId": 1207130,
  "districtName": "BILAH HILIR",
  "name": "SEI KASIH",
  "postalCode": "21471"
 },
 {
  "id": 1207130012,
  "districtId": 1207130,
  "districtName": "BILAH HILIR",
  "name": "TANJUNG HALOBAN",
  "postalCode": "21471"
 },
 {
  "id": 1207130013,
  "districtId": 1207130,
  "districtName": "BILAH HILIR",
  "name": "SELAT BESAR",
  "postalCode": "21471"
 }
]