[
 {
  "id": 1207210001,
  "districtId": 1207210,
  "districtName": "RANTAU SELATAN",
  "name": "LOBUSONA",
  "postalCode": ""
 },
 {
  "id": 1207210002,
  "districtId": 1207210,
  "districtName": "RANTAU SELATAN",
  "name": "SIDOREJO",
  "postalCode": "24784"
 },
 {
  "id": 1207210003,
  "districtId": 1207210,
  "districtName": "RANTAU SELATAN",
  "name": "SIGAMBAL",
  "postalCode": "21425"
 },
 {
  "id": 1207210004,
  "districtId": 1207210,
  "districtName": "RANTAU SELATAN",
  "name": "DANOBALE",
  "postalCode": "21427"
 },
 {
  "id": 1207210005,
  "districtId": 1207210,
  "districtName": "RANTAU SELATAN",
  "name": "PERDAMEAN",
  "postalCode": "24673"
 },
 {
  "id": 1207210006,
  "districtId": 1207210,
  "districtName": "RANTAU SELATAN",
  "name": "UJUNG BANDAR",
  "postalCode": "20774"
 },
 {
  "id": 1207210007,
  "districtId": 1207210,
  "districtName": "RANTAU SELATAN",
  "name": "BAKARAN BATU",
  "postalCode": "20372"
 },
 {
  "id": 1207210008,
  "districtId": 1207210,
  "districtName": "RANTAU SELATAN",
  "name": "URUNG KOMPAS",
  "postalCode": "21429"
 },
 {
  "id": 1207210009,
  "districtId": 1207210,
  "districtName": "RANTAU SELATAN",
  "name": "SIOLDENGAN",
  "postalCode": "21428"
 }
]