[
 {
  "id": 1208021001,
  "districtId": 1208021,
  "districtName": "AEK SONGSONGAN",
  "name": "TANGGA",
  "postalCode": "21274"
 },
 {
  "id": 1208021002,
  "districtId": 1208021,
  "districtName": "AEK SONGSONGAN",
  "name": "LOBU RAPPA",
  "postalCode": "21274"
 },
 {
  "id": 1208021003,
  "districtId": 1208021,
  "districtName": "AEK SONGSONGAN",
  "name": "MARJANJI ACEH",
  "postalCode": "21274"
 },
 {
  "id": 1208021004,
  "districtId": 1208021,
  "districtName": "AEK SONGSONGAN",
  "name": "AEK BAMBAN",
  "postalCode": "21274"
 },
 {
  "id": 1208021005,
  "districtId": 1208021,
  "districtName": "AEK SONGSONGAN",
  "name": "PERKEBUNAN BANDAR PULAU",
  "postalCode": "21274"
 },
 {
  "id": 1208021006,
  "districtId": 1208021,
  "districtName": "AEK SONGSONGAN",
  "name": "AEK SONGSONGAN",
  "postalCode": "21274"
 },
 {
  "id": 1208021007,
  "districtId": 1208021,
  "districtName": "AEK SONGSONGAN",
  "name": "PERKEBUNAN BANDAR SELAMAT",
  "postalCode": "21274"
 },
 {
  "id": 1208021008,
  "districtId": 1208021,
  "districtName": "AEK SONGSONGAN",
  "name": "MEKAR MARJANJI",
  "postalCode": "21274"
 },
 {
  "id": 1208021009,
  "districtId": 1208021,
  "districtName": "AEK SONGSONGAN",
  "name": "SITUNJAK",
  "postalCode": "21274"
 }
]