[
 {
  "id": 1208080001,
  "districtId": 1208080,
  "districtName": "BUNTU PANE",
  "name": "LESTARI",
  "postalCode": "24656"
 },
 {
  "id": 1208080005,
  "districtId": 1208080,
  "districtName": "BUNTU PANE",
  "name": "BUNTU PANE",
  "postalCode": "21261"
 },
 {
  "id": 1208080006,
  "districtId": 1208080,
  "districtName": "BUNTU PANE",
  "name": "AMBALUTU",
  "postalCode": "21261"
 },
 {
  "id": 1208080008,
  "districtId": 1208080,
  "districtName": "BUNTU PANE",
  "name": "PRAPAT JANJI",
  "postalCode": "21261"
 },
 {
  "id": 1208080012,
  "districtId": 1208080,
  "districtName": "BUNTU PANE",
  "name": "SEI SILAU TIMUR",
  "postalCode": "21261"
 },
 {
  "id": 1208080013,
  "districtId": 1208080,
  "districtName": "BUNTU PANE",
  "name": "SIONGGANG",
  "postalCode": "21261"
 },
 {
  "id": 1208080014,
  "districtId": 1208080,
  "districtName": "BUNTU PANE",
  "name": "MEKAR SARI",
  "postalCode": "21261"
 },
 {
  "id": 1208080015,
  "districtId": 1208080,
  "districtName": "BUNTU PANE",
  "name": "PERKEBUNAN SEI SILAU",
  "postalCode": "21261"
 },
 {
  "id": 1208080016,
  "districtId": 1208080,
  "districtName": "BUNTU PANE",
  "name": "KARYA AMBALUTU",
  "postalCode": "21261"
 }
]