[
 {
  "id": 1209041001,
  "districtId": 1209041,
  "districtName": "PEMATANG SIDAMANIK",
  "name": "SIPOLHA HORISAN",
  "postalCode": "21186"
 },
 {
  "id": 1209041002,
  "districtId": 1209041,
  "districtName": "PEMATANG SIDAMANIK",
  "name": "PEMATANG TAMBUN RAYA",
  "postalCode": "21186"
 },
 {
  "id": 1209041003,
  "districtId": 1209041,
  "districtName": "PEMATANG SIDAMANIK",
  "name": "SIHAPORAS",
  "postalCode": "21186"
 },
 {
  "id": 1209041004,
  "districtId": 1209041,
  "districtName": "PEMATANG SIDAMANIK",
  "name": "JORLANG HULUAN",
  "postalCode": "21186"
 },
 {
  "id": 1209041005,
  "districtId": 1209041,
  "districtName": "PEMATANG SIDAMANIK",
  "name": "BANDAR MANIK",
  "postalCode": "21186"
 },
 {
  "id": 1209041006,
  "districtId": 1209041,
  "districtName": "PEMATANG SIDAMANIK",
  "name": "SAIT BUTTU SARIBU",
  "postalCode": "21186"
 },
 {
  "id": 1209041007,
  "districtId": 1209041,
  "districtName": "PEMATANG SIDAMANIK",
  "name": "PEMATANG SIDAMANIK",
  "postalCode": "21186"
 },
 {
  "id": 1209041008,
  "districtId": 1209041,
  "districtName": "PEMATANG SIDAMANIK",
  "name": "SARIMATTIN",
  "postalCode": "21186"
 },
 {
  "id": 1209041009,
  "districtId": 1209041,
  "districtName": "PEMATANG SIDAMANIK",
  "name": "SIMANTIN",
  "postalCode": "21186"
 },
 {
  "id": 1209041010,
  "districtId": 1209041,
  "districtName": "PEMATANG SIDAMANIK",
  "name": "GORAK",
  "postalCode": "21186"
 }
]