[
 {
  "id": 1209150001,
  "districtId": 1209150,
  "districtName": "DOLOK BATU NANGGAR",
  "name": "SILENDUK",
  "postalCode": "21155"
 },
 {
  "id": 1209150002,
  "districtId": 1209150,
  "districtName": "DOLOK BATU NANGGAR",
  "name": "BAH TOBU",
  "postalCode": "21155"
 },
 {
  "id": 1209150003,
  "districtId": 1209150,
  "districtName": "DOLOK BATU NANGGAR",
  "name": "BANDAR SELAMAT",
  "postalCode": "21455"
 },
 {
  "id": 1209150004,
  "districtId": 1209150,
  "districtName": "DOLOK BATU NANGGAR",
  "name": "DOLOK MERANGIR SATU",
  "postalCode": "21155"
 },
 {
  "id": 1209150005,
  "districtId": 1209150,
  "districtName": "DOLOK BATU NANGGAR",
  "name": "DOLOK MERANGIR DUA",
  "postalCode": "21155"
 },
 {
  "id": 1209150006,
  "districtId": 1209150,
  "districtName": "DOLOK BATU NANGGAR",
  "name": "SERBELAWAN",
  "postalCode": "21155"
 },
 {
  "id": 1209150007,
  "districtId": 1209150,
  "districtName": "DOLOK BATU NANGGAR",
  "name": "DOLOK ILIR SATU",
  "postalCode": "21155"
 },
 {
  "id": 1209150008,
  "districtId": 1209150,
  "districtName": "DOLOK BATU NANGGAR",
  "name": "DOLOK MAINU",
  "postalCode": "21155"
 },
 {
  "id": 1209150009,
  "districtId": 1209150,
  "districtName": "DOLOK BATU NANGGAR",
  "name": "BAHUNG KAHEAN",
  "postalCode": "21155"
 },
 {
  "id": 1209150010,
  "districtId": 1209150,
  "districtName": "DOLOK BATU NANGGAR",
  "name": "DOLOK ILIR DUA",
  "postalCode": "21155"
 },
 {
  "id": 1209150011,
  "districtId": 1209150,
  "districtName": "DOLOK BATU NANGGAR",
  "name": "KAHEAN",
  "postalCode": "21155"
 },
 {
  "id": 1209150012,
  "districtId": 1209150,
  "districtName": "DOLOK BATU NANGGAR",
  "name": "DOLOG TENERA",
  "postalCode": ""
 },
 {
  "id": 1209150013,
  "districtId": 1209150,
  "districtName": "DOLOK BATU NANGGAR",
  "name": "DOLOK KATARAN",
  "postalCode": ""
 },
 {
  "id": 1209150014,
  "districtId": 1209150,
  "districtName": "DOLOK BATU NANGGAR",
  "name": "PADANG MAINU",
  "postalCode": "21155"
 },
 {
  "id": 1209150015,
  "districtId": 1209150,
  "districtName": "DOLOK BATU NANGGAR",
  "name": "BAHUNG HULUAN",
  "postalCode": "21155"
 },
 {
  "id": 1209150016,
  "districtId": 1209150,
  "districtName": "DOLOK BATU NANGGAR",
  "name": "AMAN SARI",
  "postalCode": ""
 }
]