[
 {
  "id": 1209191001,
  "districtId": 1209191,
  "districtName": "BANDAR MASILAM",
  "name": "PANOMBEAN BARU",
  "postalCode": "21184"
 },
 {
  "id": 1209191002,
  "districtId": 1209191,
  "districtName": "BANDAR MASILAM",
  "name": "LIAS BARU",
  "postalCode": "21184"
 },
 {
  "id": 1209191003,
  "districtId": 1209191,
  "districtName": "BANDAR MASILAM",
  "name": "BANDAR SILOU",
  "postalCode": "21184"
 },
 {
  "id": 1209191004,
  "districtId": 1209191,
  "districtName": "BANDAR MASILAM",
  "name": "BANDAR MASILAM",
  "postalCode": "21184"
 },
 {
  "id": 1209191005,
  "districtId": 1209191,
  "districtName": "BANDAR MASILAM",
  "name": "GUNUNG SERAWAN",
  "postalCode": "21184"
 },
 {
  "id": 1209191006,
  "districtId": 1209191,
  "districtName": "BANDAR MASILAM",
  "name": "BANDAR MASILAM II",
  "postalCode": "21184"
 },
 {
  "id": 1209191007,
  "districtId": 1209191,
  "districtName": "BANDAR MASILAM",
  "name": "PARTIMBALAN",
  "postalCode": "21184"
 },
 {
  "id": 1209191008,
  "districtId": 1209191,
  "districtName": "BANDAR MASILAM",
  "name": "BANDAR TINGGI",
  "postalCode": "21184"
 },
 {
  "id": 1209191009,
  "districtId": 1209191,
  "districtName": "BANDAR MASILAM",
  "name": "BANDAR REJO",
  "postalCode": "21184"
 },
 {
  "id": 1209191010,
  "districtId": 1209191,
  "districtName": "BANDAR MASILAM",
  "name": "BANDAR GUNUNG",
  "postalCode": "20581"
 }
]