[
 {
  "id": 1209161001,
  "districtId": 1209161,
  "districtName": "GUNUNG MALELA",
  "name": "SENIO",
  "postalCode": "21174"
 },
 {
  "id": 1209161002,
  "districtId": 1209161,
  "districtName": "GUNUNG MALELA",
  "name": "BANGUN",
  "postalCode": "21174"
 },
 {
  "id": 1209161003,
  "districtId": 1209161,
  "districtName": "GUNUNG MALELA",
  "name": "PEMATANG ASILUM",
  "postalCode": "21174"
 },
 {
  "id": 1209161004,
  "districtId": 1209161,
  "districtName": "GUNUNG MALELA",
  "name": "PEMATANG SAH KUDA",
  "postalCode": ""
 },
 {
  "id": 1209161005,
  "districtId": 1209161,
  "districtName": "GUNUNG MALELA",
  "name": "MARIHAT BUKIT",
  "postalCode": "21174"
 },
 {
  "id": 1209161006,
  "districtId": 1209161,
  "districtName": "GUNUNG MALELA",
  "name": "SAH KUDA BAYU",
  "postalCode": ""
 },
 {
  "id": 1209161007,
  "districtId": 1209161,
  "districtName": "GUNUNG MALELA",
  "name": "BUKIT MARAJA",
  "postalCode": "21174"
 },
 {
  "id": 1209161008,
  "districtId": 1209161,
  "districtName": "GUNUNG MALELA",
  "name": "PEMATANG GAJING",
  "postalCode": "21174"
 },
 {
  "id": 1209161009,
  "districtId": 1209161,
  "districtName": "GUNUNG MALELA",
  "name": "DOLOK MALELA",
  "postalCode": "21174"
 },
 {
  "id": 1209161010,
  "districtId": 1209161,
  "districtName": "GUNUNG MALELA",
  "name": "BANDAR SIANTAR",
  "postalCode": "21174"
 },
 {
  "id": 1209161011,
  "districtId": 1209161,
  "districtName": "GUNUNG MALELA",
  "name": "SERAPUH",
  "postalCode": "21174"
 },
 {
  "id": 1209161012,
  "districtId": 1209161,
  "districtName": "GUNUNG MALELA",
  "name": "SILAU MALELA",
  "postalCode": "21174"
 },
 {
  "id": 1209161013,
  "districtId": 1209161,
  "districtName": "GUNUNG MALELA",
  "name": "SILULU",
  "postalCode": "21174"
 },
 {
  "id": 1209161014,
  "districtId": 1209161,
  "districtName": "GUNUNG MALELA",
  "name": "MARGOMULYO",
  "postalCode": "35679"
 },
 {
  "id": 1209161015,
  "districtId": 1209161,
  "districtName": "GUNUNG MALELA",
  "name": "NAGORI MALELA",
  "postalCode": "21174"
 },
 {
  "id": 1209161016,
  "districtId": 1209161,
  "districtName": "GUNUNG MALELA",
  "name": "LINGGA",
  "postalCode": "21174"
 }
]