[
 {
  "id": 1209091001,
  "districtId": 1209091,
  "districtName": "PANOMBEAN PANEI",
  "name": "SIMPANG PANE",
  "postalCode": ""
 },
 {
  "id": 1209091002,
  "districtId": 1209091,
  "districtName": "PANOMBEAN PANEI",
  "name": "MARJANDI",
  "postalCode": "21165"
 },
 {
  "id": 1209091003,
  "districtId": 1209091,
  "districtName": "PANOMBEAN PANEI",
  "name": "PANOMBEAN",
  "postalCode": "20984"
 },
 {
  "id": 1209091004,
  "districtId": 1209091,
  "districtName": "PANOMBEAN PANEI",
  "name": "NAGORI BOSAR",
  "postalCode": "21165"
 },
 {
  "id": 1209091005,
  "districtId": 1209091,
  "districtName": "PANOMBEAN PANEI",
  "name": "TALUN KONDOT",
  "postalCode": "21165"
 },
 {
  "id": 1209091006,
  "districtId": 1209091,
  "districtName": "PANOMBEAN PANEI",
  "name": "PEMATANG PANOMBEAN",
  "postalCode": ""
 },
 {
  "id": 1209091007,
  "districtId": 1209091,
  "districtName": "PANOMBEAN PANEI",
  "name": "SIMBOLON TENGKOH",
  "postalCode": "21165"
 },
 {
  "id": 1209091008,
  "districtId": 1209091,
  "districtName": "PANOMBEAN PANEI",
  "name": "PEMATANG PANE",
  "postalCode": "21165"
 },
 {
  "id": 1209091009,
  "districtId": 1209091,
  "districtName": "PANOMBEAN PANEI",
  "name": "MARJANDI PISANG",
  "postalCode": "21165"
 },
 {
  "id": 1209091010,
  "districtId": 1209091,
  "districtName": "PANOMBEAN PANEI",
  "name": "BANUH RAYA",
  "postalCode": "21165"
 },
 {
  "id": 1209091011,
  "districtId": 1209091,
  "districtName": "PANOMBEAN PANEI",
  "name": "RUKUN MULYO",
  "postalCode": ""
 }
]