[
 {
  "id": 1210080001,
  "districtId": 1210080,
  "districtName": "SIEMPAT NEMPU HULU",
  "name": "TAMBAHAN",
  "postalCode": "22254"
 },
 {
  "id": 1210080002,
  "districtId": 1210080,
  "districtName": "SIEMPAT NEMPU HULU",
  "name": "KUTA TENGAH",
  "postalCode": "24782"
 },
 {
  "id": 1210080003,
  "districtId": 1210080,
  "districtName": "SIEMPAT NEMPU HULU",
  "name": "LAE NUAHA",
  "postalCode": "22254"
 },
 {
  "id": 1210080004,
  "districtId": 1210080,
  "districtName": "SIEMPAT NEMPU HULU",
  "name": "SUNGAI RAYA",
  "postalCode": "22254"
 },
 {
  "id": 1210080005,
  "districtId": 1210080,
  "districtName": "SIEMPAT NEMPU HULU",
  "name": "GUNUNG MERIAH",
  "postalCode": "20583"
 },
 {
  "id": 1210080006,
  "districtId": 1210080,
  "districtName": "SIEMPAT NEMPU HULU",
  "name": "SIGAMBIR GAMBIR",
  "postalCode": "22254"
 },
 {
  "id": 1210080007,
  "districtId": 1210080,
  "districtName": "SIEMPAT NEMPU HULU",
  "name": "SILUMBOYAH",
  "postalCode": "22254"
 },
 {
  "id": 1210080008,
  "districtId": 1210080,
  "districtName": "SIEMPAT NEMPU HULU",
  "name": "PANGARIBUAN",
  "postalCode": "22651"
 },
 {
  "id": 1210080009,
  "districtId": 1210080,
  "districtName": "SIEMPAT NEMPU HULU",
  "name": "TUALANG",
  "postalCode": "24372"
 },
 {
  "id": 1210080010,
  "districtId": 1210080,
  "districtName": "SIEMPAT NEMPU HULU",
  "name": "BAKAL JULU",
  "postalCode": "22254"
 },
 {
  "id": 1210080011,
  "districtId": 1210080,
  "districtName": "SIEMPAT NEMPU HULU",
  "name": "SIPOLTONG",
  "postalCode": "22254"
 },
 {
  "id": 1210080012,
  "districtId": 1210080,
  "districtName": "SIEMPAT NEMPU HULU",
  "name": "P A N D A N",
  "postalCode": ""
 }
]