[
 {
  "id": 1210060001,
  "districtId": 1210060,
  "districtName": "SILIMA PUNGGA-PUNGGA",
  "name": "LAE RAMBONG",
  "postalCode": "22262"
 },
 {
  "id": 1210060002,
  "districtId": 1210060,
  "districtName": "SILIMA PUNGGA-PUNGGA",
  "name": "LAE AMBAT",
  "postalCode": "22262"
 },
 {
  "id": 1210060003,
  "districtId": 1210060,
  "districtName": "SILIMA PUNGGA-PUNGGA",
  "name": "LAE PANGINUMAN",
  "postalCode": "22262"
 },
 {
  "id": 1210060004,
  "districtId": 1210060,
  "districtName": "SILIMA PUNGGA-PUNGGA",
  "name": "SUMBARI",
  "postalCode": "22262"
 },
 {
  "id": 1210060005,
  "districtId": 1210060,
  "districtName": "SILIMA PUNGGA-PUNGGA",
  "name": "BAKAL GAJAH",
  "postalCode": "22262"
 },
 {
  "id": 1210060006,
  "districtId": 1210060,
  "districtName": "SILIMA PUNGGA-PUNGGA",
  "name": "URUK BELIN",
  "postalCode": ""
 },
 {
  "id": 1210060007,
  "districtId": 1210060,
  "districtName": "SILIMA PUNGGA-PUNGGA",
  "name": "SIBORAS",
  "postalCode": "21167"
 },
 {
  "id": 1210060008,
  "districtId": 1210060,
  "districtName": "SILIMA PUNGGA-PUNGGA",
  "name": "BONIAN",
  "postalCode": "22262"
 },
 {
  "id": 1210060009,
  "districtId": 1210060,
  "districtName": "SILIMA PUNGGA-PUNGGA",
  "name": "BONGKARAS",
  "postalCode": "22262"
 },
 {
  "id": 1210060010,
  "districtId": 1210060,
  "districtName": "SILIMA PUNGGA-PUNGGA",
  "name": "TUNGTUNG BATU",
  "postalCode": "22262"
 },
 {
  "id": 1210060011,
  "districtId": 1210060,
  "districtName": "SILIMA PUNGGA-PUNGGA",
  "name": "LONGKOTAN",
  "postalCode": "22262"
 },
 {
  "id": 1210060012,
  "districtId": 1210060,
  "districtName": "SILIMA PUNGGA-PUNGGA",
  "name": "PARONGIL",
  "postalCode": "22262"
 },
 {
  "id": 1210060013,
  "districtId": 1210060,
  "districtName": "SILIMA PUNGGA-PUNGGA",
  "name": "SIRATAH",
  "postalCode": "22262"
 },
 {
  "id": 1210060014,
  "districtId": 1210060,
  "districtName": "SILIMA PUNGGA-PUNGGA",
  "name": "POLLING ANAK-ANAK",
  "postalCode": "22262"
 },
 {
  "id": 1210060015,
  "districtId": 1210060,
  "districtName": "SILIMA PUNGGA-PUNGGA",
  "name": "PALIPI",
  "postalCode": "22393"
 },
 {
  "id": 1210060016,
  "districtId": 1210060,
  "districtName": "SILIMA PUNGGA-PUNGGA",
  "name": "LAE PANGAROAN",
  "postalCode": ""
 }
]