[
 {
  "id": 1211130001,
  "districtId": 1211130,
  "districtName": "BARUSJAHE",
  "name": "RUMAMIS",
  "postalCode": "22172"
 },
 {
  "id": 1211130002,
  "districtId": 1211130,
  "districtName": "BARUSJAHE",
  "name": "SEMANGAT",
  "postalCode": "22172"
 },
 {
  "id": 1211130003,
  "districtId": 1211130,
  "districtName": "BARUSJAHE",
  "name": "SINAMAN",
  "postalCode": "22172"
 },
 {
  "id": 1211130004,
  "districtId": 1211130,
  "districtName": "BARUSJAHE",
  "name": "TALIMBARU",
  "postalCode": "22172"
 },
 {
  "id": 1211130005,
  "districtId": 1211130,
  "districtName": "BARUSJAHE",
  "name": "PERTUMBUKEN",
  "postalCode": "22172"
 },
 {
  "id": 1211130006,
  "districtId": 1211130,
  "districtName": "BARUSJAHE",
  "name": "BULAN JULU",
  "postalCode": "22172"
 },
 {
  "id": 1211130007,
  "districtId": 1211130,
  "districtName": "BARUSJAHE",
  "name": "BULAN JAHE",
  "postalCode": "22172"
 },
 {
  "id": 1211130008,
  "districtId": 1211130,
  "districtName": "BARUSJAHE",
  "name": "SUKANALU",
  "postalCode": "22172"
 },
 {
  "id": 1211130009,
  "districtId": 1211130,
  "districtName": "BARUSJAHE",
  "name": "SUKAJULU",
  "postalCode": "22172"
 },
 {
  "id": 1211130010,
  "districtId": 1211130,
  "districtName": "BARUSJAHE",
  "name": "BARUSJAHE",
  "postalCode": ""
 },
 {
  "id": 1211130011,
  "districtId": 1211130,
  "districtName": "BARUSJAHE",
  "name": "SERDANG",
  "postalCode": "24386"
 },
 {
  "id": 1211130012,
  "districtId": 1211130,
  "districtName": "BARUSJAHE",
  "name": "PENAMPEN",
  "postalCode": "22172"
 },
 {
  "id": 1211130013,
  "districtId": 1211130,
  "districtName": "BARUSJAHE",
  "name": "SARIMANIS",
  "postalCode": "22172"
 },
 {
  "id": 1211130014,
  "districtId": 1211130,
  "districtName": "BARUSJAHE",
  "name": "TENGKIDIK",
  "postalCode": ""
 },
 {
  "id": 1211130015,
  "districtId": 1211130,
  "districtName": "BARUSJAHE",
  "name": "PARIBUN",
  "postalCode": "22172"
 },
 {
  "id": 1211130016,
  "districtId": 1211130,
  "districtName": "BARUSJAHE",
  "name": "PERSADANTA",
  "postalCode": "22172"
 },
 {
  "id": 1211130017,
  "districtId": 1211130,
  "districtName": "BARUSJAHE",
  "name": "SIKAP",
  "postalCode": ""
 },
 {
  "id": 1211130018,
  "districtId": 1211130,
  "districtName": "BARUSJAHE",
  "name": "TANJUNG BARUS",
  "postalCode": "22172"
 },
 {
  "id": 1211130019,
  "districtId": 1211130,
  "districtName": "BARUSJAHE",
  "name": "BARUSJULU",
  "postalCode": ""
 }
]