[
 {
  "id": 1211090001,
  "districtId": 1211090,
  "districtName": "KABANJAHE",
  "name": "LAUSIMOMO",
  "postalCode": ""
 },
 {
  "id": 1211090002,
  "districtId": 1211090,
  "districtName": "KABANJAHE",
  "name": "KANDIBATA",
  "postalCode": "22111"
 },
 {
  "id": 1211090003,
  "districtId": 1211090,
  "districtName": "KABANJAHE",
  "name": "KACARIBU",
  "postalCode": "22111"
 },
 {
  "id": 1211090004,
  "districtId": 1211090,
  "districtName": "KABANJAHE",
  "name": "LAU CIMBA",
  "postalCode": "22114"
 },
 {
  "id": 1211090005,
  "districtId": 1211090,
  "districtName": "KABANJAHE",
  "name": "PADANG MAS",
  "postalCode": "22115"
 },
 {
  "id": 1211090006,
  "districtId": 1211090,
  "districtName": "KABANJAHE",
  "name": "GUNG LETO",
  "postalCode": "22111"
 },
 {
  "id": 1211090007,
  "districtId": 1211090,
  "districtName": "KABANJAHE",
  "name": "GUNG NEGERI",
  "postalCode": "22112"
 },
 {
  "id": 1211090008,
  "districtId": 1211090,
  "districtName": "KABANJAHE",
  "name": "SAMURA",
  "postalCode": "22111"
 },
 {
  "id": 1211090009,
  "districtId": 1211090,
  "districtName": "KABANJAHE",
  "name": "KETAREN",
  "postalCode": "22111"
 },
 {
  "id": 1211090010,
  "districtId": 1211090,
  "districtName": "KABANJAHE",
  "name": "KAMPUNG DALAM",
  "postalCode": "21451"
 },
 {
  "id": 1211090011,
  "districtId": 1211090,
  "districtName": "KABANJAHE",
  "name": "RUMAH KABANJAHE",
  "postalCode": "22111"
 },
 {
  "id": 1211090012,
  "districtId": 1211090,
  "districtName": "KABANJAHE",
  "name": "KABAN",
  "postalCode": "22111"
 },
 {
  "id": 1211090013,
  "districtId": 1211090,
  "districtName": "KABANJAHE",
  "name": "SUMBER MUFAKAT",
  "postalCode": "22111"
 }
]