[
 {
  "id": 1211081001,
  "districtId": 1211081,
  "districtName": "NAMAN TERAN",
  "name": "KUTA GUGUNG",
  "postalCode": "22153"
 },
 {
  "id": 1211081002,
  "districtId": 1211081,
  "districtName": "NAMAN TERAN",
  "name": "SIGARANG GARANG",
  "postalCode": "22153"
 },
 {
  "id": 1211081003,
  "districtId": 1211081,
  "districtName": "NAMAN TERAN",
  "name": "BEKERAH",
  "postalCode": "22153"
 },
 {
  "id": 1211081004,
  "districtId": 1211081,
  "districtName": "NAMAN TERAN",
  "name": "SIMACEM",
  "postalCode": "22153"
 },
 {
  "id": 1211081005,
  "districtId": 1211081,
  "districtName": "NAMAN TERAN",
  "name": "SUKANALU",
  "postalCode": "22172"
 },
 {
  "id": 1211081006,
  "districtId": 1211081,
  "districtName": "NAMAN TERAN",
  "name": "KUTA TONGGAL",
  "postalCode": "22153"
 },
 {
  "id": 1211081007,
  "districtId": 1211081,
  "districtName": "NAMAN TERAN",
  "name": "SUKA NDEBI",
  "postalCode": "22153"
 },
 {
  "id": 1211081008,
  "districtId": 1211081,
  "districtName": "NAMAN TERAN",
  "name": "NAMAN",
  "postalCode": "22153"
 },
 {
  "id": 1211081009,
  "districtId": 1211081,
  "districtName": "NAMAN TERAN",
  "name": "SUKATEPU",
  "postalCode": "22153"
 },
 {
  "id": 1211081010,
  "districtId": 1211081,
  "districtName": "NAMAN TERAN",
  "name": "NDESKATI",
  "postalCode": "22153"
 },
 {
  "id": 1211081011,
  "districtId": 1211081,
  "districtName": "NAMAN TERAN",
  "name": "KUTA MBELIN",
  "postalCode": "22153"
 },
 {
  "id": 1211081012,
  "districtId": 1211081,
  "districtName": "NAMAN TERAN",
  "name": "GUNG PINTO",
  "postalCode": "22153"
 },
 {
  "id": 1211081013,
  "districtId": 1211081,
  "districtName": "NAMAN TERAN",
  "name": "KEBAYAKEN",
  "postalCode": "22153"
 },
 {
  "id": 1211081014,
  "districtId": 1211081,
  "districtName": "NAMAN TERAN",
  "name": "KUTA RAYAT",
  "postalCode": "22153"
 }
]