[
 {
  "id": 1212080001,
  "districtId": 1212080,
  "districtName": "SINEMBAH TANJUNG MUDA HILIR",
  "name": "RAMBAI",
  "postalCode": "20363"
 },
 {
  "id": 1212080002,
  "districtId": 1212080,
  "districtName": "SINEMBAH TANJUNG MUDA HILIR",
  "name": "KUTA JURUNG",
  "postalCode": "20363"
 },
 {
  "id": 1212080003,
  "districtId": 1212080,
  "districtName": "SINEMBAH TANJUNG MUDA HILIR",
  "name": "PENUNGKIREN",
  "postalCode": "20363"
 },
 {
  "id": 1212080004,
  "districtId": 1212080,
  "districtName": "SINEMBAH TANJUNG MUDA HILIR",
  "name": "LAU RAKIT",
  "postalCode": "20363"
 },
 {
  "id": 1212080005,
  "districtId": 1212080,
  "districtName": "SINEMBAH TANJUNG MUDA HILIR",
  "name": "TALA PETA",
  "postalCode": "20363"
 },
 {
  "id": 1212080006,
  "districtId": 1212080,
  "districtName": "SINEMBAH TANJUNG MUDA HILIR",
  "name": "SIGUCI",
  "postalCode": "20363"
 },
 {
  "id": 1212080007,
  "districtId": 1212080,
  "districtName": "SINEMBAH TANJUNG MUDA HILIR",
  "name": "GUNUNG RINTIS",
  "postalCode": "20363"
 },
 {
  "id": 1212080008,
  "districtId": 1212080,
  "districtName": "SINEMBAH TANJUNG MUDA HILIR",
  "name": "LAU REMPAH",
  "postalCode": "20363"
 },
 {
  "id": 1212080009,
  "districtId": 1212080,
  "districtName": "SINEMBAH TANJUNG MUDA HILIR",
  "name": "JUMA TOMBAK",
  "postalCode": ""
 },
 {
  "id": 1212080010,
  "districtId": 1212080,
  "districtName": "SINEMBAH TANJUNG MUDA HILIR",
  "name": "NEGARA/BERINGIN",
  "postalCode": ""
 },
 {
  "id": 1212080011,
  "districtId": 1212080,
  "districtName": "SINEMBAH TANJUNG MUDA HILIR",
  "name": "TALUN KENAS",
  "postalCode": ""
 },
 {
  "id": 1212080012,
  "districtId": 1212080,
  "districtName": "SINEMBAH TANJUNG MUDA HILIR",
  "name": "SUMBUL",
  "postalCode": "22281"
 },
 {
  "id": 1212080013,
  "districtId": 1212080,
  "districtName": "SINEMBAH TANJUNG MUDA HILIR",
  "name": "LIMAU MUNGKUR",
  "postalCode": "20717"
 },
 {
  "id": 1212080014,
  "districtId": 1212080,
  "districtName": "SINEMBAH TANJUNG MUDA HILIR",
  "name": "TADUKAN RAGA",
  "postalCode": "20363"
 },
 {
  "id": 1212080015,
  "districtId": 1212080,
  "districtName": "SINEMBAH TANJUNG MUDA HILIR",
  "name": "LAU BARUS BARU",
  "postalCode": "20363"
 }
]