[
 {
  "id": 1212310001,
  "districtId": 1212310,
  "districtName": "PAGAR MERBAU",
  "name": "BANDAR DOLOK",
  "postalCode": "21173"
 },
 {
  "id": 1212310002,
  "districtId": 1212310,
  "districtName": "PAGAR MERBAU",
  "name": "TANJUNG GARBUS II",
  "postalCode": "20551"
 },
 {
  "id": 1212310003,
  "districtId": 1212310,
  "districtName": "PAGAR MERBAU",
  "name": "PERBARAKAN",
  "postalCode": "20551"
 },
 {
  "id": 1212310004,
  "districtId": 1212310,
  "districtName": "PAGAR MERBAU",
  "name": "TANJUNG GARBUS KAMPUNG",
  "postalCode": "20551"
 },
 {
  "id": 1212310005,
  "districtId": 1212310,
  "districtName": "PAGAR MERBAU",
  "name": "TANJUNG MULIA",
  "postalCode": "20854"
 },
 {
  "id": 1212310006,
  "districtId": 1212310,
  "districtName": "PAGAR MERBAU",
  "name": "PURWODADI",
  "postalCode": "24652"
 },
 {
  "id": 1212310007,
  "districtId": 1212310,
  "districtName": "PAGAR MERBAU",
  "name": "SUKAMULIA",
  "postalCode": "83652"
 },
 {
  "id": 1212310008,
  "districtId": 1212310,
  "districtName": "PAGAR MERBAU",
  "name": "SIDODADI BATU DELAPAN",
  "postalCode": "20551"
 },
 {
  "id": 1212310009,
  "districtId": 1212310,
  "districtName": "PAGAR MERBAU",
  "name": "JATI REJO",
  "postalCode": "20551"
 },
 {
  "id": 1212310010,
  "districtId": 1212310,
  "districtName": "PAGAR MERBAU",
  "name": "SIDOARJO SATU JATIBARU",
  "postalCode": ""
 },
 {
  "id": 1212310011,
  "districtId": 1212310,
  "districtName": "PAGAR MERBAU",
  "name": "SIDOARJO SATU PASAR MIRING",
  "postalCode": ""
 },
 {
  "id": 1212310012,
  "districtId": 1212310,
  "districtName": "PAGAR MERBAU",
  "name": "PAGAR MERBAU I",
  "postalCode": "20551"
 },
 {
  "id": 1212310013,
  "districtId": 1212310,
  "districtName": "PAGAR MERBAU",
  "name": "PAGAR MERBAU II",
  "postalCode": "20551"
 },
 {
  "id": 1212310014,
  "districtId": 1212310,
  "districtName": "PAGAR MERBAU",
  "name": "SUMBEREJO",
  "postalCode": "20551"
 },
 {
  "id": 1212310015,
  "districtId": 1212310,
  "districtName": "PAGAR MERBAU",
  "name": "SUKAMANDI HULU",
  "postalCode": "20551"
 },
 {
  "id": 1212310016,
  "districtId": 1212310,
  "districtName": "PAGAR MERBAU",
  "name": "SUKAMANDI HILIR",
  "postalCode": "20551"
 }
]