[
 {
  "id": 1213190001,
  "districtId": 1213190,
  "districtName": "BESITANG",
  "name": "PIR ADB BESITANG",
  "postalCode": "20859"
 },
 {
  "id": 1213190002,
  "districtId": 1213190,
  "districtName": "BESITANG",
  "name": "SEKOCI",
  "postalCode": "20859"
 },
 {
  "id": 1213190003,
  "districtId": 1213190,
  "districtName": "BESITANG",
  "name": "BUKIT MAS",
  "postalCode": "20859"
 },
 {
  "id": 1213190004,
  "districtId": 1213190,
  "districtName": "BESITANG",
  "name": "HALABAN",
  "postalCode": "20859"
 },
 {
  "id": 1213190005,
  "districtId": 1213190,
  "districtName": "BESITANG",
  "name": "BUKIT SELAMAT",
  "postalCode": "24458"
 },
 {
  "id": 1213190006,
  "districtId": 1213190,
  "districtName": "BESITANG",
  "name": "PEKAN BESITANG",
  "postalCode": "20859"
 },
 {
  "id": 1213190007,
  "districtId": 1213190,
  "districtName": "BESITANG",
  "name": "KAMPUNG LAMA",
  "postalCode": "20859"
 },
 {
  "id": 1213190008,
  "districtId": 1213190,
  "districtName": "BESITANG",
  "name": "BUKIT KUBU",
  "postalCode": "20859"
 },
 {
  "id": 1213190009,
  "districtId": 1213190,
  "districtName": "BESITANG",
  "name": "SUKA JAYA",
  "postalCode": "24784"
 }
]