[
 {
  "id": 1213050001,
  "districtId": 1213050,
  "districtName": "SELESAI",
  "name": "NAMBIKI",
  "postalCode": "20762"
 },
 {
  "id": 1213050002,
  "districtId": 1213050,
  "districtName": "SELESAI",
  "name": "TANJUNG MERAHE",
  "postalCode": "22155"
 },
 {
  "id": 1213050003,
  "districtId": 1213050,
  "districtName": "SELESAI",
  "name": "PADANG BRAHRANG",
  "postalCode": "20762"
 },
 {
  "id": 1213050004,
  "districtId": 1213050,
  "districtName": "SELESAI",
  "name": "LAU MULGAP",
  "postalCode": "22165"
 },
 {
  "id": 1213050005,
  "districtId": 1213050,
  "districtName": "SELESAI",
  "name": "KUTA PARIT",
  "postalCode": "20762"
 },
 {
  "id": 1213050006,
  "districtId": 1213050,
  "districtName": "SELESAI",
  "name": "PEKAN SELESAI",
  "postalCode": "20762"
 },
 {
  "id": 1213050007,
  "districtId": 1213050,
  "districtName": "SELESAI",
  "name": "BEKULAP",
  "postalCode": "20762"
 },
 {
  "id": 1213050008,
  "districtId": 1213050,
  "districtName": "SELESAI",
  "name": "PERHIASAN",
  "postalCode": "20762"
 },
 {
  "id": 1213050009,
  "districtId": 1213050,
  "districtName": "SELESAI",
  "name": "SELAYANG",
  "postalCode": "20762"
 },
 {
  "id": 1213050010,
  "districtId": 1213050,
  "districtName": "SELESAI",
  "name": "SEI LIMBAT",
  "postalCode": "20762"
 },
 {
  "id": 1213050011,
  "districtId": 1213050,
  "districtName": "SELESAI",
  "name": "MANCANG",
  "postalCode": "24151"
 },
 {
  "id": 1213050012,
  "districtId": 1213050,
  "districtName": "SELESAI",
  "name": "KUALA AIR HITAM",
  "postalCode": ""
 },
 {
  "id": 1213050013,
  "districtId": 1213050,
  "districtName": "SELESAI",
  "name": "PADANG CERMIN",
  "postalCode": "20762"
 },
 {
  "id": 1213050014,
  "districtId": 1213050,
  "districtName": "SELESAI",
  "name": "SELAYANG BARU",
  "postalCode": "20762"
 }
]