[
 {
  "id": 1213070001,
  "districtId": 1213070,
  "districtName": "STABAT",
  "name": "BANYUMAS",
  "postalCode": "20811"
 },
 {
  "id": 1213070002,
  "districtId": 1213070,
  "districtName": "STABAT",
  "name": "KWALA BINGAI",
  "postalCode": "20811"
 },
 {
  "id": 1213070003,
  "districtId": 1213070,
  "districtName": "STABAT",
  "name": "SIDOMULYO",
  "postalCode": "21455"
 },
 {
  "id": 1213070004,
  "districtId": 1213070,
  "districtName": "STABAT",
  "name": "PANTAI GEMI",
  "postalCode": "20812"
 },
 {
  "id": 1213070005,
  "districtId": 1213070,
  "districtName": "STABAT",
  "name": "PERDAMAIAN",
  "postalCode": "24475"
 },
 {
  "id": 1213070006,
  "districtId": 1213070,
  "districtName": "STABAT",
  "name": "STABAT BARU",
  "postalCode": "20811"
 },
 {
  "id": 1213070007,
  "districtId": 1213070,
  "districtName": "STABAT",
  "name": "ARA CONDONG",
  "postalCode": "20811"
 },
 {
  "id": 1213070008,
  "districtId": 1213070,
  "districtName": "STABAT",
  "name": "KWALA BEGUMIT",
  "postalCode": "20761"
 },
 {
  "id": 1213070009,
  "districtId": 1213070,
  "districtName": "STABAT",
  "name": "MANGGA",
  "postalCode": "20141"
 },
 {
  "id": 1213070010,
  "districtId": 1213070,
  "districtName": "STABAT",
  "name": "KARANGREJO",
  "postalCode": "35387"
 },
 {
  "id": 1213070011,
  "districtId": 1213070,
  "districtName": "STABAT",
  "name": "DENDANG",
  "postalCode": "20811"
 },
 {
  "id": 1213070012,
  "districtId": 1213070,
  "districtName": "STABAT",
  "name": "PAYA MABAR",
  "postalCode": "20816"
 }
]