[
 {
  "id": 1213150001,
  "districtId": 1213150,
  "districtName": "GEBANG",
  "name": "PAYA BENGKUANG",
  "postalCode": "20856"
 },
 {
  "id": 1213150002,
  "districtId": 1213150,
  "districtName": "GEBANG",
  "name": "AIR HITAM",
  "postalCode": "20856"
 },
 {
  "id": 1213150003,
  "districtId": 1213150,
  "districtName": "GEBANG",
  "name": "PADANG LANGKAT",
  "postalCode": "20856"
 },
 {
  "id": 1213150004,
  "districtId": 1213150,
  "districtName": "GEBANG",
  "name": "PALUH MANIS",
  "postalCode": "20856"
 },
 {
  "id": 1213150005,
  "districtId": 1213150,
  "districtName": "GEBANG",
  "name": "PEKAN GEBANG",
  "postalCode": "20856"
 },
 {
  "id": 1213150006,
  "districtId": 1213150,
  "districtName": "GEBANG",
  "name": "DOGANG",
  "postalCode": "20856"
 },
 {
  "id": 1213150007,
  "districtId": 1213150,
  "districtName": "GEBANG",
  "name": "SANGGA LIMA PERKEBUNAN SERAPUH",
  "postalCode": ""
 },
 {
  "id": 1213150008,
  "districtId": 1213150,
  "districtName": "GEBANG",
  "name": "PASAR RAWA",
  "postalCode": "20856"
 },
 {
  "id": 1213150009,
  "districtId": 1213150,
  "districtName": "GEBANG",
  "name": "KWALA GEBANG",
  "postalCode": "20856"
 },
 {
  "id": 1213150010,
  "districtId": 1213150,
  "districtName": "GEBANG",
  "name": "BUKIT MENGKIRAI",
  "postalCode": "20856"
 },
 {
  "id": 1213150011,
  "districtId": 1213150,
  "districtName": "GEBANG",
  "name": "PASIRAN",
  "postalCode": "20856"
 }
]