[
 {
  "id": 1214010001,
  "districtId": 1214010,
  "districtName": "HIBALA",
  "name": "DURU",
  "postalCode": "22881"
 },
 {
  "id": 1214010002,
  "districtId": 1214010,
  "districtName": "HIBALA",
  "name": "TUWASO",
  "postalCode": "22881"
 },
 {
  "id": 1214010003,
  "districtId": 1214010,
  "districtName": "HIBALA",
  "name": "HILIOROMAO",
  "postalCode": ""
 },
 {
  "id": 1214010004,
  "districtId": 1214010,
  "districtName": "HIBALA",
  "name": "EHO",
  "postalCode": "22881"
 },
 {
  "id": 1214010005,
  "districtId": 1214010,
  "districtName": "HIBALA",
  "name": "SIALEMA",
  "postalCode": "22881"
 },
 {
  "id": 1214010006,
  "districtId": 1214010,
  "districtName": "HIBALA",
  "name": "BAWONIFAOSO",
  "postalCode": "22881"
 },
 {
  "id": 1214010007,
  "districtId": 1214010,
  "districtName": "HIBALA",
  "name": "HILIANOMBASELA",
  "postalCode": "22881"
 },
 {
  "id": 1214010008,
  "districtId": 1214010,
  "districtName": "HIBALA",
  "name": "LUMBUI MELAYU",
  "postalCode": "22881"
 },
 {
  "id": 1214010009,
  "districtId": 1214010,
  "districtName": "HIBALA",
  "name": "HILIORUDUA TEBOLO",
  "postalCode": ""
 },
 {
  "id": 1214010010,
  "districtId": 1214010,
  "districtName": "HIBALA",
  "name": "TEBOLO MELAYU",
  "postalCode": "22881"
 },
 {
  "id": 1214010016,
  "districtId": 1214010,
  "districtName": "HIBALA",
  "name": "BARUYU SIBOHOU",
  "postalCode": "22881"
 },
 {
  "id": 1214010017,
  "districtId": 1214010,
  "districtName": "HIBALA",
  "name": "LUMBUI NIAS",
  "postalCode": "22881"
 },
 {
  "id": 1214010018,
  "districtId": 1214010,
  "districtName": "HIBALA",
  "name": "TANOMOKINO",
  "postalCode": ""
 },
 {
  "id": 1214010019,
  "districtId": 1214010,
  "districtName": "HIBALA",
  "name": "SEPAKAT",
  "postalCode": "24562"
 },
 {
  "id": 1214010020,
  "districtId": 1214010,
  "districtName": "HIBALA",
  "name": "HILIKANA",
  "postalCode": "22881"
 },
 {
  "id": 1214010021,
  "districtId": 1214010,
  "districtName": "HIBALA",
  "name": "BAWOOTANIO OMEGA",
  "postalCode": ""
 },
 {
  "id": 1214010022,
  "districtId": 1214010,
  "districtName": "HIBALA",
  "name": "HILINIFAESE",
  "postalCode": "22881"
 }
]