[
 {
  "id": 1214071001,
  "districtId": 1214071,
  "districtName": "ULUNOYO",
  "name": "HILIWAEBU",
  "postalCode": "22873"
 },
 {
  "id": 1214071002,
  "districtId": 1214071,
  "districtName": "ULUNOYO",
  "name": "BOROWOSI",
  "postalCode": "22867"
 },
 {
  "id": 1214071003,
  "districtId": 1214071,
  "districtName": "ULUNOYO",
  "name": "SAMBULU",
  "postalCode": "22867"
 },
 {
  "id": 1214071004,
  "districtId": 1214071,
  "districtName": "ULUNOYO",
  "name": "HILIMAERA",
  "postalCode": "22866"
 },
 {
  "id": 1214071005,
  "districtId": 1214071,
  "districtName": "ULUNOYO",
  "name": "ORAHILI ULUNOYO",
  "postalCode": "22867"
 },
 {
  "id": 1214071006,
  "districtId": 1214071,
  "districtName": "ULUNOYO",
  "name": "MARAO",
  "postalCode": "22867"
 },
 {
  "id": 1214071007,
  "districtId": 1214071,
  "districtName": "ULUNOYO",
  "name": "AMOROSA",
  "postalCode": "22867"
 },
 {
  "id": 1214071008,
  "districtId": 1214071,
  "districtName": "ULUNOYO",
  "name": "SUKA MAJU",
  "postalCode": "24673"
 },
 {
  "id": 1214071009,
  "districtId": 1214071,
  "districtName": "ULUNOYO",
  "name": "LOLOANAA",
  "postalCode": ""
 },
 {
  "id": 1214071010,
  "districtId": 1214071,
  "districtName": "ULUNOYO",
  "name": "HILIFAKHE",
  "postalCode": "22867"
 },
 {
  "id": 1214071011,
  "districtId": 1214071,
  "districtName": "ULUNOYO",
  "name": "BAWOLOLOMATUA",
  "postalCode": ""
 },
 {
  "id": 1214071012,
  "districtId": 1214071,
  "districtName": "ULUNOYO",
  "name": "PUNCAK LOLOMATUA",
  "postalCode": "22867"
 },
 {
  "id": 1214071013,
  "districtId": 1214071,
  "districtName": "ULUNOYO",
  "name": "AMBUKHA I",
  "postalCode": ""
 }
]