[
 {
  "id": 1214021001,
  "districtId": 1214021,
  "districtName": "PULAU-PULAU BATU TIMUR",
  "name": "MAHANG LABARA",
  "postalCode": "22881"
 },
 {
  "id": 1214021002,
  "districtId": 1214021,
  "districtName": "PULAU-PULAU BATU TIMUR",
  "name": "ADAM",
  "postalCode": "22881"
 },
 {
  "id": 1214021003,
  "districtId": 1214021,
  "districtName": "PULAU-PULAU BATU TIMUR",
  "name": "BAIS",
  "postalCode": "22881"
 },
 {
  "id": 1214021004,
  "districtId": 1214021,
  "districtName": "PULAU-PULAU BATU TIMUR",
  "name": "LAMBAK",
  "postalCode": "22881"
 },
 {
  "id": 1214021005,
  "districtId": 1214021,
  "districtName": "PULAU-PULAU BATU TIMUR",
  "name": "LABUAN RIMA",
  "postalCode": "22881"
 },
 {
  "id": 1214021006,
  "districtId": 1214021,
  "districtName": "PULAU-PULAU BATU TIMUR",
  "name": "LABUAN HIU",
  "postalCode": ""
 },
 {
  "id": 1214021007,
  "districtId": 1214021,
  "districtName": "PULAU-PULAU BATU TIMUR",
  "name": "LABUAN BAJAU",
  "postalCode": "22881"
 },
 {
  "id": 1214021008,
  "districtId": 1214021,
  "districtName": "PULAU-PULAU BATU TIMUR",
  "name": "LABARA",
  "postalCode": "22881"
 },
 {
  "id": 1214021009,
  "districtId": 1214021,
  "districtName": "PULAU-PULAU BATU TIMUR",
  "name": "BAIS BARU",
  "postalCode": "22881"
 },
 {
  "id": 1214021010,
  "districtId": 1214021,
  "districtName": "PULAU-PULAU BATU TIMUR",
  "name": "LABUAN RIMA BARU",
  "postalCode": "22881"
 }
]