[
 {
  "id": 1214080001,
  "districtId": 1214080,
  "districtName": "LOLOWA'U",
  "name": "TUHEGAFOA",
  "postalCode": "22873"
 },
 {
  "id": 1214080002,
  "districtId": 1214080,
  "districtName": "LOLOWA'U",
  "name": "SISARAHILI EKHOLO",
  "postalCode": "22864"
 },
 {
  "id": 1214080003,
  "districtId": 1214080,
  "districtName": "LOLOWA'U",
  "name": "AMURI",
  "postalCode": "22864"
 },
 {
  "id": 1214080010,
  "districtId": 1214080,
  "districtName": "LOLOWA'U",
  "name": "LOLOHOWA",
  "postalCode": "22864"
 },
 {
  "id": 1214080011,
  "districtId": 1214080,
  "districtName": "LOLOWA'U",
  "name": "LOLOWAU",
  "postalCode": "22864"
 },
 {
  "id": 1214080012,
  "districtId": 1214080,
  "districtName": "LOLOWA'U",
  "name": "HILIFADOLO",
  "postalCode": "22866"
 },
 {
  "id": 1214080015,
  "districtId": 1214080,
  "districtName": "LOLOWA'U",
  "name": "LOLOMOYO",
  "postalCode": "22866"
 },
 {
  "id": 1214080016,
  "districtId": 1214080,
  "districtName": "LOLOWA'U",
  "name": "LOLOFAOSO",
  "postalCode": "22851"
 },
 {
  "id": 1214080017,
  "districtId": 1214080,
  "districtName": "LOLOWA'U",
  "name": "BAWOSALOO SIWALAWA",
  "postalCode": ""
 },
 {
  "id": 1214080038,
  "districtId": 1214080,
  "districtName": "LOLOWA'U",
  "name": "BOTOHILI",
  "postalCode": "22864"
 },
 {
  "id": 1214080039,
  "districtId": 1214080,
  "districtName": "LOLOWA'U",
  "name": "SAMIRI",
  "postalCode": "22864"
 },
 {
  "id": 1214080040,
  "districtId": 1214080,
  "districtName": "LOLOWA'U",
  "name": "HILIMBOWO SIWALAWA",
  "postalCode": "22864"
 },
 {
  "id": 1214080041,
  "districtId": 1214080,
  "districtName": "LOLOWA'U",
  "name": "NITUWUBOHO",
  "postalCode": ""
 },
 {
  "id": 1214080042,
  "districtId": 1214080,
  "districtName": "LOLOWA'U",
  "name": "HILIKARA",
  "postalCode": "22864"
 }
]