[
 {
  "id": 1214066001,
  "districtId": 1214066,
  "districtName": "BORONADU",
  "name": "TUHEGAFOA",
  "postalCode": "22873"
 },
 {
  "id": 1214066002,
  "districtId": 1214066,
  "districtName": "BORONADU",
  "name": "SIHOLI",
  "postalCode": "22873"
 },
 {
  "id": 1214066003,
  "districtId": 1214066,
  "districtName": "BORONADU",
  "name": "SIFALAGO GOMO",
  "postalCode": "22873"
 },
 {
  "id": 1214066004,
  "districtId": 1214066,
  "districtName": "BORONADU",
  "name": "BALOHILI GOMO",
  "postalCode": "22873"
 },
 {
  "id": 1214066007,
  "districtId": 1214066,
  "districtName": "BORONADU",
  "name": "ORSEDES",
  "postalCode": "22873"
 },
 {
  "id": 1214066008,
  "districtId": 1214066,
  "districtName": "BORONADU",
  "name": "BOHALU",
  "postalCode": "22873"
 },
 {
  "id": 1214066009,
  "districtId": 1214066,
  "districtName": "BORONADU",
  "name": "SINAR HELAOWO",
  "postalCode": "22873"
 },
 {
  "id": 1214066010,
  "districtId": 1214066,
  "districtName": "BORONADU",
  "name": "PERJUANGAN",
  "postalCode": "22873"
 },
 {
  "id": 1214066011,
  "districtId": 1214066,
  "districtName": "BORONADU",
  "name": "LEWA-LEWA",
  "postalCode": "22873"
 },
 {
  "id": 1214066012,
  "districtId": 1214066,
  "districtName": "BORONADU",
  "name": "SIRAHA",
  "postalCode": ""
 }
]