[
 {
  "id": 1214065001,
  "districtId": 1214065,
  "districtName": "ULUIDANOTAE",
  "name": "LAWA LAWA LUO IDANOTAE",
  "postalCode": ""
 },
 {
  "id": 1214065002,
  "districtId": 1214065,
  "districtName": "ULUIDANOTAE",
  "name": "DAO-DAO ZANUWO IDANOTAE",
  "postalCode": ""
 },
 {
  "id": 1214065003,
  "districtId": 1214065,
  "districtName": "ULUIDANOTAE",
  "name": "FANEDANU",
  "postalCode": "22874"
 },
 {
  "id": 1214065004,
  "districtId": 1214065,
  "districtName": "ULUIDANOTAE",
  "name": "FANEDANU SIBOHOU",
  "postalCode": "22873"
 },
 {
  "id": 1214065005,
  "districtId": 1214065,
  "districtName": "ULUIDANOTAE",
  "name": "LOLOZUKHU",
  "postalCode": "22873"
 },
 {
  "id": 1214065006,
  "districtId": 1214065,
  "districtName": "ULUIDANOTAE",
  "name": "DAMAI",
  "postalCode": "20745"
 },
 {
  "id": 1214065007,
  "districtId": 1214065,
  "districtName": "ULUIDANOTAE",
  "name": "SISIWA EWALI",
  "postalCode": "22873"
 },
 {
  "id": 1214065008,
  "districtId": 1214065,
  "districtName": "ULUIDANOTAE",
  "name": "SILIMA BANUA",
  "postalCode": "22852"
 },
 {
  "id": 1214065009,
  "districtId": 1214065,
  "districtName": "ULUIDANOTAE",
  "name": "SINDROLO",
  "postalCode": "22873"
 },
 {
  "id": 1214065010,
  "districtId": 1214065,
  "districtName": "ULUIDANOTAE",
  "name": "SISARAHILI EWO",
  "postalCode": "22873"
 },
 {
  "id": 1214065011,
  "districtId": 1214065,
  "districtName": "ULUIDANOTAE",
  "name": "HILIALO'OA",
  "postalCode": ""
 }
]