[
 {
  "id": 1214072001,
  "districtId": 1214072,
  "districtName": "HURUNA",
  "name": "HILIUSO",
  "postalCode": "22867"
 },
 {
  "id": 1214072002,
  "districtId": 1214072,
  "districtName": "HURUNA",
  "name": "TAREWE",
  "postalCode": "22867"
 },
 {
  "id": 1214072003,
  "districtId": 1214072,
  "districtName": "HURUNA",
  "name": "SISARAHILI HURUNA",
  "postalCode": "22867"
 },
 {
  "id": 1214072004,
  "districtId": 1214072,
  "districtName": "HURUNA",
  "name": "SIFALAGO",
  "postalCode": "22867"
 },
 {
  "id": 1214072005,
  "districtId": 1214072,
  "districtName": "HURUNA",
  "name": "TUNDUMBAHO",
  "postalCode": ""
 },
 {
  "id": 1214072006,
  "districtId": 1214072,
  "districtName": "HURUNA",
  "name": "LALIMANAWA",
  "postalCode": "22867"
 },
 {
  "id": 1214072007,
  "districtId": 1214072,
  "districtName": "HURUNA",
  "name": "SIFOROASI",
  "postalCode": ""
 },
 {
  "id": 1214072009,
  "districtId": 1214072,
  "districtName": "HURUNA",
  "name": "EHOSAKHOZI",
  "postalCode": "22851"
 },
 {
  "id": 1214072010,
  "districtId": 1214072,
  "districtName": "HURUNA",
  "name": "HILIZOLIGA",
  "postalCode": "22867"
 },
 {
  "id": 1214072011,
  "districtId": 1214072,
  "districtName": "HURUNA",
  "name": "OLAYAMA",
  "postalCode": "22867"
 },
 {
  "id": 1214072012,
  "districtId": 1214072,
  "districtName": "HURUNA",
  "name": "BAWOHOSI",
  "postalCode": "22864"
 },
 {
  "id": 1214072013,
  "districtId": 1214072,
  "districtName": "HURUNA",
  "name": "FADORO TUHEMBERUA",
  "postalCode": "22867"
 },
 {
  "id": 1214072014,
  "districtId": 1214072,
  "districtName": "HURUNA",
  "name": "HILIFALAWU",
  "postalCode": "22867"
 },
 {
  "id": 1214072015,
  "districtId": 1214072,
  "districtName": "HURUNA",
  "name": "LUAHAMOFAKHE",
  "postalCode": "22867"
 },
 {
  "id": 1214072016,
  "districtId": 1214072,
  "districtName": "HURUNA",
  "name": "SIFAORO'ASI HURUNA",
  "postalCode": ""
 },
 {
  "id": 1214072017,
  "districtId": 1214072,
  "districtName": "HURUNA",
  "name": "HILIMANAWA",
  "postalCode": "22867"
 },
 {
  "id": 1214072018,
  "districtId": 1214072,
  "districtName": "HURUNA",
  "name": "MOMBAWA OLADANO",
  "postalCode": "22867"
 }
]