[
 {
  "id": 1214084001,
  "districtId": 1214084,
  "districtName": "HILISALAWAAHE",
  "name": "MANAWADANO",
  "postalCode": "22864"
 },
 {
  "id": 1214084002,
  "districtId": 1214084,
  "districtName": "HILISALAWAAHE",
  "name": "SISOBAHILI SIWALAWA",
  "postalCode": "22864"
 },
 {
  "id": 1214084003,
  "districtId": 1214084,
  "districtName": "HILISALAWAAHE",
  "name": "TALIO",
  "postalCode": "22864"
 },
 {
  "id": 1214084004,
  "districtId": 1214084,
  "districtName": "HILISALAWAAHE",
  "name": "HILIADULO",
  "postalCode": "22864"
 },
 {
  "id": 1214084005,
  "districtId": 1214084,
  "districtName": "HILISALAWAAHE",
  "name": "MALUO",
  "postalCode": "22864"
 },
 {
  "id": 1214084008,
  "districtId": 1214084,
  "districtName": "HILISALAWAAHE",
  "name": "UMBUASI",
  "postalCode": ""
 },
 {
  "id": 1214084010,
  "districtId": 1214084,
  "districtName": "HILISALAWAAHE",
  "name": "ANAOMA",
  "postalCode": "22861"
 },
 {
  "id": 1214084011,
  "districtId": 1214084,
  "districtName": "HILISALAWAAHE",
  "name": "BERUA SIWALAWA",
  "postalCode": "22864"
 },
 {
  "id": 1214084012,
  "districtId": 1214084,
  "districtName": "HILISALAWAAHE",
  "name": "HILIGODU",
  "postalCode": "22864"
 },
 {
  "id": 1214084013,
  "districtId": 1214084,
  "districtName": "HILISALAWAAHE",
  "name": "BUKIT BURASI",
  "postalCode": ""
 },
 {
  "id": 1214084014,
  "districtId": 1214084,
  "districtName": "HILISALAWAAHE",
  "name": "UMBUASI BARAT",
  "postalCode": "22864"
 }
]