[
 {
  "id": 1214031004,
  "districtId": 1214031,
  "districtName": "FANAYAMA",
  "name": "BAWONAHONO",
  "postalCode": "22865"
 },
 {
  "id": 1214031005,
  "districtId": 1214031,
  "districtName": "FANAYAMA",
  "name": "HILIZIHONO",
  "postalCode": "22865"
 },
 {
  "id": 1214031006,
  "districtId": 1214031,
  "districtName": "FANAYAMA",
  "name": "BAWOMATALUO",
  "postalCode": "22865"
 },
 {
  "id": 1214031007,
  "districtId": 1214031,
  "districtName": "FANAYAMA",
  "name": "ORAHILI FAU",
  "postalCode": "22865"
 },
 {
  "id": 1214031008,
  "districtId": 1214031,
  "districtName": "FANAYAMA",
  "name": "LAHUSA FAU",
  "postalCode": "22865"
 },
 {
  "id": 1214031009,
  "districtId": 1214031,
  "districtName": "FANAYAMA",
  "name": "ONOHONDRO",
  "postalCode": ""
 },
 {
  "id": 1214031010,
  "districtId": 1214031,
  "districtName": "FANAYAMA",
  "name": "SIWALAWA",
  "postalCode": "22865"
 },
 {
  "id": 1214031011,
  "districtId": 1214031,
  "districtName": "FANAYAMA",
  "name": "HILINAWALO FAU",
  "postalCode": ""
 },
 {
  "id": 1214031013,
  "districtId": 1214031,
  "districtName": "FANAYAMA",
  "name": "HILIOFONALUO",
  "postalCode": "22865"
 },
 {
  "id": 1214031016,
  "districtId": 1214031,
  "districtName": "FANAYAMA",
  "name": "BAWOFANAYAMA",
  "postalCode": "22865"
 },
 {
  "id": 1214031017,
  "districtId": 1214031,
  "districtName": "FANAYAMA",
  "name": "ORAHILI GETO",
  "postalCode": ""
 },
 {
  "id": 1214031018,
  "districtId": 1214031,
  "districtName": "FANAYAMA",
  "name": "ORAHILI EHO",
  "postalCode": "22866"
 },
 {
  "id": 1214031019,
  "districtId": 1214031,
  "districtName": "FANAYAMA",
  "name": "HILISALAWA",
  "postalCode": "22865"
 },
 {
  "id": 1214031020,
  "districtId": 1214031,
  "districtName": "FANAYAMA",
  "name": "HILIKARAMAHA",
  "postalCode": ""
 },
 {
  "id": 1214031021,
  "districtId": 1214031,
  "districtName": "FANAYAMA",
  "name": "SILIWULAWA",
  "postalCode": "22865"
 },
 {
  "id": 1214031022,
  "districtId": 1214031,
  "districtName": "FANAYAMA",
  "name": "HILIFAROKHALAWA",
  "postalCode": ""
 },
 {
  "id": 1214031023,
  "districtId": 1214031,
  "districtName": "FANAYAMA",
  "name": "ETE BATU",
  "postalCode": "22865"
 }
]