[
 {
  "id": 1214020028,
  "districtId": 1214020,
  "districtName": "PULAU-PULAU BATU",
  "name": "SIFITU EWALI",
  "postalCode": "22881"
 },
 {
  "id": 1214020029,
  "districtId": 1214020,
  "districtName": "PULAU-PULAU BATU",
  "name": "RAPA RAPA",
  "postalCode": ""
 },
 {
  "id": 1214020030,
  "districtId": 1214020,
  "districtName": "PULAU-PULAU BATU",
  "name": "SINAURU",
  "postalCode": "22881"
 },
 {
  "id": 1214020031,
  "districtId": 1214020,
  "districtName": "PULAU-PULAU BATU",
  "name": "SIOFA EWALI",
  "postalCode": "22881"
 },
 {
  "id": 1214020032,
  "districtId": 1214020,
  "districtName": "PULAU-PULAU BATU",
  "name": "SIMALUAYA",
  "postalCode": "22881"
 },
 {
  "id": 1214020033,
  "districtId": 1214020,
  "districtName": "PULAU-PULAU BATU",
  "name": "SILIMAEWALI",
  "postalCode": "22881"
 },
 {
  "id": 1214020034,
  "districtId": 1214020,
  "districtName": "PULAU-PULAU BATU",
  "name": "SIDUAEWALI",
  "postalCode": "22881"
 },
 {
  "id": 1214020035,
  "districtId": 1214020,
  "districtName": "PULAU-PULAU BATU",
  "name": "PASAR PULAU TELLO",
  "postalCode": ""
 },
 {
  "id": 1214020036,
  "districtId": 1214020,
  "districtName": "PULAU-PULAU BATU",
  "name": "BARUYU LASARA",
  "postalCode": "22881"
 },
 {
  "id": 1214020037,
  "districtId": 1214020,
  "districtName": "PULAU-PULAU BATU",
  "name": "HILIOTALUA",
  "postalCode": "22871"
 },
 {
  "id": 1214020038,
  "districtId": 1214020,
  "districtName": "PULAU-PULAU BATU",
  "name": "HILIAMODULA",
  "postalCode": ""
 },
 {
  "id": 1214020039,
  "districtId": 1214020,
  "districtName": "PULAU-PULAU BATU",
  "name": "BAWODOBARA",
  "postalCode": "22881"
 },
 {
  "id": 1214020040,
  "districtId": 1214020,
  "districtName": "PULAU-PULAU BATU",
  "name": "BAWOAMAHELATO",
  "postalCode": ""
 },
 {
  "id": 1214020041,
  "districtId": 1214020,
  "districtName": "PULAU-PULAU BATU",
  "name": "LOBOI",
  "postalCode": "22881"
 },
 {
  "id": 1214020042,
  "districtId": 1214020,
  "districtName": "PULAU-PULAU BATU",
  "name": "BAWOOMASIO",
  "postalCode": ""
 },
 {
  "id": 1214020043,
  "districtId": 1214020,
  "districtName": "PULAU-PULAU BATU",
  "name": "BALOGIA",
  "postalCode": "22881"
 },
 {
  "id": 1214020045,
  "districtId": 1214020,
  "districtName": "PULAU-PULAU BATU",
  "name": "LASONDE",
  "postalCode": "22881"
 },
 {
  "id": 1214020051,
  "districtId": 1214020,
  "districtName": "PULAU-PULAU BATU",
  "name": "KOTO",
  "postalCode": "22881"
 },
 {
  "id": 1214020062,
  "districtId": 1214020,
  "districtName": "PULAU-PULAU BATU",
  "name": "SEBUASI",
  "postalCode": "22881"
 },
 {
  "id": 1214020063,
  "districtId": 1214020,
  "districtName": "PULAU-PULAU BATU",
  "name": "SISARAHILI",
  "postalCode": "22866"
 },
 {
  "id": 1214020064,
  "districtId": 1214020,
  "districtName": "PULAU-PULAU BATU",
  "name": "ONAYA",
  "postalCode": "22881"
 },
 {
  "id": 1214020065,
  "districtId": 1214020,
  "districtName": "PULAU-PULAU BATU",
  "name": "ORAHILI",
  "postalCode": "22876"
 }
]