[
 {
  "id": 1214062001,
  "districtId": 1214062,
  "districtName": "MAZO",
  "name": "LUAHANDROITO",
  "postalCode": "22873"
 },
 {
  "id": 1214062002,
  "districtId": 1214062,
  "districtName": "MAZO",
  "name": "TETEGAWAAI",
  "postalCode": ""
 },
 {
  "id": 1214062003,
  "districtId": 1214062,
  "districtName": "MAZO",
  "name": "HILIMBARUZO",
  "postalCode": "22811"
 },
 {
  "id": 1214062005,
  "districtId": 1214062,
  "districtName": "MAZO",
  "name": "SIOFABANUA",
  "postalCode": "22876"
 },
 {
  "id": 1214062006,
  "districtId": 1214062,
  "districtName": "MAZO",
  "name": "TAFULU",
  "postalCode": "22873"
 },
 {
  "id": 1214062007,
  "districtId": 1214062,
  "districtName": "MAZO",
  "name": "HILIMAUFA",
  "postalCode": "22873"
 },
 {
  "id": 1214062009,
  "districtId": 1214062,
  "districtName": "MAZO",
  "name": "ULU MAZO",
  "postalCode": "22873"
 },
 {
  "id": 1214062010,
  "districtId": 1214062,
  "districtName": "MAZO",
  "name": "TETEGAWAI EHOMO",
  "postalCode": ""
 },
 {
  "id": 1214062011,
  "districtId": 1214062,
  "districtName": "MAZO",
  "name": "ORAHUAHILI",
  "postalCode": "22873"
 },
 {
  "id": 1214062012,
  "districtId": 1214062,
  "districtName": "MAZO",
  "name": "GUIGUI",
  "postalCode": "22873"
 }
]