[
 {
  "id": 1215030001,
  "districtId": 1215030,
  "districtName": "SIJAMA POLANG",
  "name": "SANGGARAN I",
  "postalCode": "22457"
 },
 {
  "id": 1215030002,
  "districtId": 1215030,
  "districtName": "SIJAMA POLANG",
  "name": "SITAPONGAN",
  "postalCode": "22457"
 },
 {
  "id": 1215030003,
  "districtId": 1215030,
  "districtName": "SIJAMA POLANG",
  "name": "SIBUNTUON",
  "postalCode": "22312"
 },
 {
  "id": 1215030004,
  "districtId": 1215030,
  "districtName": "SIJAMA POLANG",
  "name": "SIGULOK",
  "postalCode": "22457"
 },
 {
  "id": 1215030005,
  "districtId": 1215030,
  "districtName": "SIJAMA POLANG",
  "name": "BATUNAJAGAR",
  "postalCode": ""
 },
 {
  "id": 1215030006,
  "districtId": 1215030,
  "districtName": "SIJAMA POLANG",
  "name": "BONAN DOLOK II",
  "postalCode": "22312"
 },
 {
  "id": 1215030007,
  "districtId": 1215030,
  "districtName": "SIJAMA POLANG",
  "name": "BONAN DOLOK I",
  "postalCode": "22312"
 },
 {
  "id": 1215030008,
  "districtId": 1215030,
  "districtName": "SIJAMA POLANG",
  "name": "HUTAGINJANG",
  "postalCode": "22457"
 },
 {
  "id": 1215030009,
  "districtId": 1215030,
  "districtName": "SIJAMA POLANG",
  "name": "SIBORBORON",
  "postalCode": "22457"
 },
 {
  "id": 1215030010,
  "districtId": 1215030,
  "districtName": "SIJAMA POLANG",
  "name": "NAGURGURAN",
  "postalCode": "22457"
 }
]