[
 {
  "id": 1215040001,
  "districtId": 1215040,
  "districtName": "DOLOK SANGGUL",
  "name": "SOSOR TAMBOK",
  "postalCode": "22457"
 },
 {
  "id": 1215040002,
  "districtId": 1215040,
  "districtName": "DOLOK SANGGUL",
  "name": "SIHITE II",
  "postalCode": "22457"
 },
 {
  "id": 1215040003,
  "districtId": 1215040,
  "districtName": "DOLOK SANGGUL",
  "name": "PURBA DOLOK",
  "postalCode": "22457"
 },
 {
  "id": 1215040004,
  "districtId": 1215040,
  "districtName": "DOLOK SANGGUL",
  "name": "LUMBAN PURBA",
  "postalCode": "22457"
 },
 {
  "id": 1215040005,
  "districtId": 1215040,
  "districtName": "DOLOK SANGGUL",
  "name": "SIMARIGUNG",
  "postalCode": "22457"
 },
 {
  "id": 1215040006,
  "districtId": 1215040,
  "districtName": "DOLOK SANGGUL",
  "name": "SAITNIHUTA",
  "postalCode": "22457"
 },
 {
  "id": 1215040007,
  "districtId": 1215040,
  "districtName": "DOLOK SANGGUL",
  "name": "AEK LUNG",
  "postalCode": "22457"
 },
 {
  "id": 1215040008,
  "districtId": 1215040,
  "districtName": "DOLOK SANGGUL",
  "name": "PURBA MANALU",
  "postalCode": "22457"
 },
 {
  "id": 1215040009,
  "districtId": 1215040,
  "districtName": "DOLOK SANGGUL",
  "name": "PAKKAT",
  "postalCode": "22457"
 },
 {
  "id": 1215040010,
  "districtId": 1215040,
  "districtName": "DOLOK SANGGUL",
  "name": "PASARIBU",
  "postalCode": "22457"
 },
 {
  "id": 1215040011,
  "districtId": 1215040,
  "districtName": "DOLOK SANGGUL",
  "name": "LUMBAN TOBING",
  "postalCode": "22457"
 },
 {
  "id": 1215040012,
  "districtId": 1215040,
  "districtName": "DOLOK SANGGUL",
  "name": "PASAR DOLOK SANGGUL",
  "postalCode": ""
 },
 {
  "id": 1215040013,
  "districtId": 1215040,
  "districtName": "DOLOK SANGGUL",
  "name": "JANJI",
  "postalCode": "21411"
 },
 {
  "id": 1215040014,
  "districtId": 1215040,
  "districtName": "DOLOK SANGGUL",
  "name": "SIHITE I",
  "postalCode": "22457"
 },
 {
  "id": 1215040015,
  "districtId": 1215040,
  "districtName": "DOLOK SANGGUL",
  "name": "HUTA BAGASAN",
  "postalCode": "21262"
 },
 {
  "id": 1215040016,
  "districtId": 1215040,
  "districtName": "DOLOK SANGGUL",
  "name": "MATITI II",
  "postalCode": "22457"
 },
 {
  "id": 1215040017,
  "districtId": 1215040,
  "districtName": "DOLOK SANGGUL",
  "name": "MATITI I",
  "postalCode": "22457"
 },
 {
  "id": 1215040018,
  "districtId": 1215040,
  "districtName": "DOLOK SANGGUL",
  "name": "HUTA GURGUR",
  "postalCode": "22457"
 },
 {
  "id": 1215040019,
  "districtId": 1215040,
  "districtName": "DOLOK SANGGUL",
  "name": "SAMPEAN",
  "postalCode": "22457"
 },
 {
  "id": 1215040020,
  "districtId": 1215040,
  "districtName": "DOLOK SANGGUL",
  "name": "SILAGA LAGA",
  "postalCode": ""
 },
 {
  "id": 1215040021,
  "districtId": 1215040,
  "districtName": "DOLOK SANGGUL",
  "name": "SIRISIRISI",
  "postalCode": "22457"
 },
 {
  "id": 1215040022,
  "districtId": 1215040,
  "districtName": "DOLOK SANGGUL",
  "name": "BONANI ONAN",
  "postalCode": "22457"
 },
 {
  "id": 1215040023,
  "districtId": 1215040,
  "districtName": "DOLOK SANGGUL",
  "name": "SILEANG",
  "postalCode": "22457"
 },
 {
  "id": 1215040024,
  "districtId": 1215040,
  "districtName": "DOLOK SANGGUL",
  "name": "SOSOR GONTING",
  "postalCode": "22651"
 },
 {
  "id": 1215040025,
  "districtId": 1215040,
  "districtName": "DOLOK SANGGUL",
  "name": "HUTARAJA",
  "postalCode": "22457"
 },
 {
  "id": 1215040026,
  "districtId": 1215040,
  "districtName": "DOLOK SANGGUL",
  "name": "PARIK SINOMBA",
  "postalCode": "22564"
 },
 {
  "id": 1215040027,
  "districtId": 1215040,
  "districtName": "DOLOK SANGGUL",
  "name": "SIMANGARONSANG",
  "postalCode": "22457"
 },
 {
  "id": 1215040028,
  "districtId": 1215040,
  "districtName": "DOLOK SANGGUL",
  "name": "SOSORTOLONG SIHITE III",
  "postalCode": "22457"
 }
]