[
 {
  "id": 1215090006,
  "districtId": 1215090,
  "districtName": "PARLILITAN",
  "name": "PUSUK II SIMANINGGIR",
  "postalCode": "22456"
 },
 {
  "id": 1215090007,
  "districtId": 1215090,
  "districtName": "PARLILITAN",
  "name": "PUSUK I",
  "postalCode": "22456"
 },
 {
  "id": 1215090008,
  "districtId": 1215090,
  "districtName": "PARLILITAN",
  "name": "BARINGIN",
  "postalCode": "22456"
 },
 {
  "id": 1215090009,
  "districtId": 1215090,
  "districtName": "PARLILITAN",
  "name": "SIHOTANG HASUGIAN TONGA",
  "postalCode": "22456"
 },
 {
  "id": 1215090010,
  "districtId": 1215090,
  "districtName": "PARLILITAN",
  "name": "SIONOM HUDON SELATAN",
  "postalCode": "22456"
 },
 {
  "id": 1215090011,
  "districtId": 1215090,
  "districtName": "PARLILITAN",
  "name": "SIHOTANG HASUGIAN DOLOK I",
  "postalCode": "22456"
 },
 {
  "id": 1215090012,
  "districtId": 1215090,
  "districtName": "PARLILITAN",
  "name": "SIONOM HUDON TIMUR I",
  "postalCode": ""
 },
 {
  "id": 1215090013,
  "districtId": 1215090,
  "districtName": "PARLILITAN",
  "name": "SIONOM HUDON UTARA",
  "postalCode": "22456"
 },
 {
  "id": 1215090014,
  "districtId": 1215090,
  "districtName": "PARLILITAN",
  "name": "SIONOM HUDON JULU",
  "postalCode": "22456"
 },
 {
  "id": 1215090015,
  "districtId": 1215090,
  "districtName": "PARLILITAN",
  "name": "SIONOM HUDON TONGA",
  "postalCode": "22456"
 },
 {
  "id": 1215090016,
  "districtId": 1215090,
  "districtName": "PARLILITAN",
  "name": "SIONOM HUDON TORUAN",
  "postalCode": "22456"
 },
 {
  "id": 1215090017,
  "districtId": 1215090,
  "districtName": "PARLILITAN",
  "name": "SIONOM HUDON VII",
  "postalCode": "22456"
 },
 {
  "id": 1215090018,
  "districtId": 1215090,
  "districtName": "PARLILITAN",
  "name": "SIMATANIARI",
  "postalCode": "22735"
 },
 {
  "id": 1215090019,
  "districtId": 1215090,
  "districtName": "PARLILITAN",
  "name": "SIHOTANG HASUGIAN HABINSARAN",
  "postalCode": "22456"
 },
 {
  "id": 1215090020,
  "districtId": 1215090,
  "districtName": "PARLILITAN",
  "name": "SIHOTANG HASUGIAN DOLOK II",
  "postalCode": "22456"
 },
 {
  "id": 1215090021,
  "districtId": 1215090,
  "districtName": "PARLILITAN",
  "name": "SIONOM HUDON TIMUR II",
  "postalCode": "22456"
 },
 {
  "id": 1215090022,
  "districtId": 1215090,
  "districtName": "PARLILITAN",
  "name": "SIONOM HUDON SIBULBULON",
  "postalCode": "22456"
 },
 {
  "id": 1215090023,
  "districtId": 1215090,
  "districtName": "PARLILITAN",
  "name": "JANJI HUTANAPA",
  "postalCode": "22456"
 },
 {
  "id": 1215090024,
  "districtId": 1215090,
  "districtName": "PARLILITAN",
  "name": "BARINGIN NATAM",
  "postalCode": "22456"
 },
 {
  "id": 1215090025,
  "districtId": 1215090,
  "districtName": "PARLILITAN",
  "name": "SIONOM HUDON RUNGGU",
  "postalCode": "22456"
 }
]