[
 {
  "id": 1215060001,
  "districtId": 1215060,
  "districtName": "PARANGINAN",
  "name": "LUMBAN SIALAMAN",
  "postalCode": "22475"
 },
 {
  "id": 1215060002,
  "districtId": 1215060,
  "districtName": "PARANGINAN",
  "name": "PARANGINAN SELATAN",
  "postalCode": "22475"
 },
 {
  "id": 1215060003,
  "districtId": 1215060,
  "districtName": "PARANGINAN",
  "name": "LUMBAN BARAT",
  "postalCode": "22475"
 },
 {
  "id": 1215060004,
  "districtId": 1215060,
  "districtName": "PARANGINAN",
  "name": "LOBU TOLONG",
  "postalCode": "22475"
 },
 {
  "id": 1215060005,
  "districtId": 1215060,
  "districtName": "PARANGINAN",
  "name": "SIHONONGAN",
  "postalCode": "22475"
 },
 {
  "id": 1215060006,
  "districtId": 1215060,
  "districtName": "PARANGINAN",
  "name": "PARANGINAN UTARA",
  "postalCode": "22475"
 },
 {
  "id": 1215060007,
  "districtId": 1215060,
  "districtName": "PARANGINAN",
  "name": "PEARUNG",
  "postalCode": "22475"
 },
 {
  "id": 1215060008,
  "districtId": 1215060,
  "districtName": "PARANGINAN",
  "name": "SIBORUTORUP",
  "postalCode": ""
 },
 {
  "id": 1215060009,
  "districtId": 1215060,
  "districtName": "PARANGINAN",
  "name": "LUMBAN SIANTURI",
  "postalCode": "22475"
 },
 {
  "id": 1215060010,
  "districtId": 1215060,
  "districtName": "PARANGINAN",
  "name": "LOBUTOLONG HABINSARAN",
  "postalCode": "22475"
 },
 {
  "id": 1215060011,
  "districtId": 1215060,
  "districtName": "PARANGINAN",
  "name": "PEARUNG SILALI",
  "postalCode": "22475"
 }
]