[
 {
  "id": 1216020001,
  "districtId": 1216020,
  "districtName": "KERAJAAN",
  "name": "MAJANGGUT II",
  "postalCode": "22271"
 },
 {
  "id": 1216020002,
  "districtId": 1216020,
  "districtName": "KERAJAAN",
  "name": "MAJANGGUT I",
  "postalCode": "22271"
 },
 {
  "id": 1216020003,
  "districtId": 1216020,
  "districtName": "KERAJAAN",
  "name": "PARDOMUAN",
  "postalCode": "22732"
 },
 {
  "id": 1216020004,
  "districtId": 1216020,
  "districtName": "KERAJAAN",
  "name": "PARPULUNGAN",
  "postalCode": ""
 },
 {
  "id": 1216020005,
  "districtId": 1216020,
  "districtName": "KERAJAAN",
  "name": "KUTASAGA",
  "postalCode": "22271"
 },
 {
  "id": 1216020006,
  "districtId": 1216020,
  "districtName": "KERAJAAN",
  "name": "KUTADAME",
  "postalCode": "22271"
 },
 {
  "id": 1216020007,
  "districtId": 1216020,
  "districtName": "KERAJAAN",
  "name": "KUTA MERIAH",
  "postalCode": ""
 },
 {
  "id": 1216020008,
  "districtId": 1216020,
  "districtName": "KERAJAAN",
  "name": "SUKARAMAI",
  "postalCode": "23243"
 },
 {
  "id": 1216020009,
  "districtId": 1216020,
  "districtName": "KERAJAAN",
  "name": "SURUNG MERSADA",
  "postalCode": "22271"
 },
 {
  "id": 1216020010,
  "districtId": 1216020,
  "districtName": "KERAJAAN",
  "name": "PERDUHAPEN",
  "postalCode": "22271"
 }
]