[
 {
  "id": 1217070001,
  "districtId": 1217070,
  "districtName": "RONGGUR NIHUTA",
  "name": "PARADUAN",
  "postalCode": "22392"
 },
 {
  "id": 1217070002,
  "districtId": 1217070,
  "districtName": "RONGGUR NIHUTA",
  "name": "LINTONGNIHUTA",
  "postalCode": "22392"
 },
 {
  "id": 1217070003,
  "districtId": 1217070,
  "districtName": "RONGGUR NIHUTA",
  "name": "RONGGUR NIHUTA",
  "postalCode": "22392"
 },
 {
  "id": 1217070004,
  "districtId": 1217070,
  "districtName": "RONGGUR NIHUTA",
  "name": "SIJAMBUR",
  "postalCode": "22392"
 },
 {
  "id": 1217070005,
  "districtId": 1217070,
  "districtName": "RONGGUR NIHUTA",
  "name": "SABUNGAN NIHUTA",
  "postalCode": "22392"
 },
 {
  "id": 1217070006,
  "districtId": 1217070,
  "districtName": "RONGGUR NIHUTA",
  "name": "SALAON TOBA",
  "postalCode": "22392"
 },
 {
  "id": 1217070007,
  "districtId": 1217070,
  "districtName": "RONGGUR NIHUTA",
  "name": "SALAON TONGA TONGA",
  "postalCode": "22392"
 },
 {
  "id": 1217070008,
  "districtId": 1217070,
  "districtName": "RONGGUR NIHUTA",
  "name": "SALAON DOLOK",
  "postalCode": "22392"
 }
]