[
 {
  "id": 1217060005,
  "districtId": 1217060,
  "districtName": "PALIPI",
  "name": "URAT TIMUR",
  "postalCode": "22393"
 },
 {
  "id": 1217060006,
  "districtId": 1217060,
  "districtName": "PALIPI",
  "name": "SUHUT NIHUTA PARDOMUAN",
  "postalCode": "22393"
 },
 {
  "id": 1217060007,
  "districtId": 1217060,
  "districtName": "PALIPI",
  "name": "PARSAORAN URAT",
  "postalCode": "22393"
 },
 {
  "id": 1217060008,
  "districtId": 1217060,
  "districtName": "PALIPI",
  "name": "URAT II",
  "postalCode": "22393"
 },
 {
  "id": 1217060009,
  "districtId": 1217060,
  "districtName": "PALIPI",
  "name": "GORAT PALLOMBUAN",
  "postalCode": "22393"
 },
 {
  "id": 1217060010,
  "districtId": 1217060,
  "districtName": "PALIPI",
  "name": "PALIPI",
  "postalCode": "22393"
 },
 {
  "id": 1217060011,
  "districtId": 1217060,
  "districtName": "PALIPI",
  "name": "PARDOMUAN NAULI",
  "postalCode": "22461"
 },
 {
  "id": 1217060012,
  "districtId": 1217060,
  "districtName": "PALIPI",
  "name": "HATOGUAN",
  "postalCode": "22393"
 },
 {
  "id": 1217060013,
  "districtId": 1217060,
  "districtName": "PALIPI",
  "name": "SAOR NAULI HATOGUAN",
  "postalCode": "22393"
 },
 {
  "id": 1217060014,
  "districtId": 1217060,
  "districtName": "PALIPI",
  "name": "SIMBOLON PURBA",
  "postalCode": "22393"
 },
 {
  "id": 1217060015,
  "districtId": 1217060,
  "districtName": "PALIPI",
  "name": "HUTA GINJANG",
  "postalCode": "22733"
 },
 {
  "id": 1217060016,
  "districtId": 1217060,
  "districtName": "PALIPI",
  "name": "SIGAOL MARBUN",
  "postalCode": "22393"
 },
 {
  "id": 1217060017,
  "districtId": 1217060,
  "districtName": "PALIPI",
  "name": "SIGAOL SIMBOLON",
  "postalCode": "22393"
 },
 {
  "id": 1217060018,
  "districtId": 1217060,
  "districtName": "PALIPI",
  "name": "PAMUTARAN",
  "postalCode": ""
 },
 {
  "id": 1217060019,
  "districtId": 1217060,
  "districtName": "PALIPI",
  "name": "SIDEAK",
  "postalCode": ""
 },
 {
  "id": 1217060020,
  "districtId": 1217060,
  "districtName": "PALIPI",
  "name": "PALLOMBUAN",
  "postalCode": ""
 },
 {
  "id": 1217060021,
  "districtId": 1217060,
  "districtName": "PALIPI",
  "name": "HUTADAME",
  "postalCode": ""
 }
]