[
 {
  "id": 1218070001,
  "districtId": 1218070,
  "districtName": "TANJUNG BERINGIN",
  "name": "PEMATANG TERANG",
  "postalCode": "20996"
 },
 {
  "id": 1218070002,
  "districtId": 1218070,
  "districtName": "TANJUNG BERINGIN",
  "name": "PEMATANG CERMAI",
  "postalCode": "20996"
 },
 {
  "id": 1218070003,
  "districtId": 1218070,
  "districtName": "TANJUNG BERINGIN",
  "name": "TEBING TINGGI",
  "postalCode": "24477"
 },
 {
  "id": 1218070004,
  "districtId": 1218070,
  "districtName": "TANJUNG BERINGIN",
  "name": "BAGAN KUALA",
  "postalCode": "20996"
 },
 {
  "id": 1218070005,
  "districtId": 1218070,
  "districtName": "TANJUNG BERINGIN",
  "name": "PEKAN TANJUNG BERINGIN",
  "postalCode": "20996"
 },
 {
  "id": 1218070006,
  "districtId": 1218070,
  "districtName": "TANJUNG BERINGIN",
  "name": "MANGGA DUA",
  "postalCode": "20996"
 },
 {
  "id": 1218070007,
  "districtId": 1218070,
  "districtName": "TANJUNG BERINGIN",
  "name": "NAGUR",
  "postalCode": "20996"
 },
 {
  "id": 1218070008,
  "districtId": 1218070,
  "districtName": "TANJUNG BERINGIN",
  "name": "SUKAJADI",
  "postalCode": "24472"
 }
]