[
 {
  "id": 1219042001,
  "districtId": 1219042,
  "districtName": "DATUK LIMA PULUH",
  "name": "KWALA GUNUNG",
  "postalCode": ""
 },
 {
  "id": 1219042002,
  "districtId": 1219042,
  "districtName": "DATUK LIMA PULUH",
  "name": "CAHAYA PARDOMUAN",
  "postalCode": "21255"
 },
 {
  "id": 1219042003,
  "districtId": 1219042,
  "districtName": "DATUK LIMA PULUH",
  "name": "SIMPANG DOLOK",
  "postalCode": "21255"
 },
 {
  "id": 1219042004,
  "districtId": 1219042,
  "districtName": "DATUK LIMA PULUH",
  "name": "EMPAT NEGERI",
  "postalCode": "21255"
 },
 {
  "id": 1219042005,
  "districtId": 1219042,
  "districtName": "DATUK LIMA PULUH",
  "name": "PERKEBUNAN TANAH ITAM ULU",
  "postalCode": ""
 },
 {
  "id": 1219042006,
  "districtId": 1219042,
  "districtName": "DATUK LIMA PULUH",
  "name": "LUBUK BESAR",
  "postalCode": "21255"
 },
 {
  "id": 1219042007,
  "districtId": 1219042,
  "districtName": "DATUK LIMA PULUH",
  "name": "PULAU SEJUK",
  "postalCode": "21255"
 },
 {
  "id": 1219042008,
  "districtId": 1219042,
  "districtName": "DATUK LIMA PULUH",
  "name": "AIR HITAM",
  "postalCode": "20856"
 },
 {
  "id": 1219042009,
  "districtId": 1219042,
  "districtName": "DATUK LIMA PULUH",
  "name": "SUMBER REJO",
  "postalCode": "21255"
 },
 {
  "id": 1219042010,
  "districtId": 1219042,
  "districtName": "DATUK LIMA PULUH",
  "name": "LUBUK HULU",
  "postalCode": "21255"
 }
]