[
 {
  "id": 1219031001,
  "districtId": 1219031,
  "districtName": "DATUK TANAH DATAR",
  "name": "PETATAL",
  "postalCode": "21254"
 },
 {
  "id": 1219031002,
  "districtId": 1219031,
  "districtName": "DATUK TANAH DATAR",
  "name": "PERKEBUNAN TANAH DATAR",
  "postalCode": "21254"
 },
 {
  "id": 1219031003,
  "districtId": 1219031,
  "districtName": "DATUK TANAH DATAR",
  "name": "KARANG BARU",
  "postalCode": "21254"
 },
 {
  "id": 1219031004,
  "districtId": 1219031,
  "districtName": "DATUK TANAH DATAR",
  "name": "BANGUN SARI",
  "postalCode": "24782"
 },
 {
  "id": 1219031005,
  "districtId": 1219031,
  "districtName": "DATUK TANAH DATAR",
  "name": "BINJEI BARU",
  "postalCode": ""
 },
 {
  "id": 1219031006,
  "districtId": 1219031,
  "districtName": "DATUK TANAH DATAR",
  "name": "SEI MUKA",
  "postalCode": "21254"
 },
 {
  "id": 1219031007,
  "districtId": 1219031,
  "districtName": "DATUK TANAH DATAR",
  "name": "PERKEBUNAN PETATAL",
  "postalCode": "21254"
 },
 {
  "id": 1219031008,
  "districtId": 1219031,
  "districtName": "DATUK TANAH DATAR",
  "name": "GLUGUR MAKMUR",
  "postalCode": "21254"
 },
 {
  "id": 1219031009,
  "districtId": 1219031,
  "districtName": "DATUK TANAH DATAR",
  "name": "MEKAR BARU",
  "postalCode": "21216"
 },
 {
  "id": 1219031010,
  "districtId": 1219031,
  "districtName": "DATUK TANAH DATAR",
  "name": "SUMBER TANI",
  "postalCode": "21254"
 }
]