[
 {
  "id": 1220050104,
  "districtId": 1220050,
  "districtName": "SIMANGAMBAT",
  "name": "HUTA PASIR",
  "postalCode": "22747"
 },
 {
  "id": 1220050105,
  "districtId": 1220050,
  "districtName": "SIMANGAMBAT",
  "name": "MANDASIP",
  "postalCode": "22747"
 },
 {
  "id": 1220050107,
  "districtId": 1220050,
  "districtName": "SIMANGAMBAT",
  "name": "LANGKIMAT",
  "postalCode": "22747"
 },
 {
  "id": 1220050108,
  "districtId": 1220050,
  "districtName": "SIMANGAMBAT",
  "name": "HUTA BARU",
  "postalCode": "22758"
 },
 {
  "id": 1220050109,
  "districtId": 1220050,
  "districtName": "SIMANGAMBAT",
  "name": "JANJI MATOGU SIM",
  "postalCode": "22747"
 },
 {
  "id": 1220050110,
  "districtId": 1220050,
  "districtName": "SIMANGAMBAT",
  "name": "PARAN PADANG",
  "postalCode": "22747"
 },
 {
  "id": 1220050111,
  "districtId": 1220050,
  "districtName": "SIMANGAMBAT",
  "name": "JABI-JABI",
  "postalCode": "24782"
 },
 {
  "id": 1220050112,
  "districtId": 1220050,
  "districtName": "SIMANGAMBAT",
  "name": "GUNUNG MANAON SIM",
  "postalCode": "22747"
 },
 {
  "id": 1220050113,
  "districtId": 1220050,
  "districtName": "SIMANGAMBAT",
  "name": "SIONGGOTON",
  "postalCode": "22747"
 },
 {
  "id": 1220050114,
  "districtId": 1220050,
  "districtName": "SIMANGAMBAT",
  "name": "TANJUNG BOTUNG",
  "postalCode": "22763"
 },
 {
  "id": 1220050115,
  "districtId": 1220050,
  "districtName": "SIMANGAMBAT",
  "name": "AEK RARU",
  "postalCode": "22747"
 },
 {
  "id": 1220050116,
  "districtId": 1220050,
  "districtName": "SIMANGAMBAT",
  "name": "SIMANGAMBAT JULU",
  "postalCode": "22747"
 },
 {
  "id": 1220050117,
  "districtId": 1220050,
  "districtName": "SIMANGAMBAT",
  "name": "SIGAGAN",
  "postalCode": "22747"
 },
 {
  "id": 1220050118,
  "districtId": 1220050,
  "districtName": "SIMANGAMBAT",
  "name": "SIMANGAMBAT JAE",
  "postalCode": "22747"
 },
 {
  "id": 1220050119,
  "districtId": 1220050,
  "districtName": "SIMANGAMBAT",
  "name": "PAGARAN TONGA ( PARAN )",
  "postalCode": ""
 },
 {
  "id": 1220050120,
  "districtId": 1220050,
  "districtName": "SIMANGAMBAT",
  "name": "UJUNG GADING JULU",
  "postalCode": "22747"
 },
 {
  "id": 1220050121,
  "districtId": 1220050,
  "districtName": "SIMANGAMBAT",
  "name": "ULAK TANO",
  "postalCode": ""
 },
 {
  "id": 1220050122,
  "districtId": 1220050,
  "districtName": "SIMANGAMBAT",
  "name": "TANJUNG MARIA",
  "postalCode": "20991"
 },
 {
  "id": 1220050123,
  "districtId": 1220050,
  "districtName": "SIMANGAMBAT",
  "name": "UJUNG GADING JAE",
  "postalCode": "22747"
 },
 {
  "id": 1220050124,
  "districtId": 1220050,
  "districtName": "SIMANGAMBAT",
  "name": "HUTA BARINGIN",
  "postalCode": "22911"
 },
 {
  "id": 1220050138,
  "districtId": 1220050,
  "districtName": "SIMANGAMBAT",
  "name": "KOSIK PUTIH",
  "postalCode": "22747"
 }
]