[
 {
  "id": 1220020001,
  "districtId": 1220020,
  "districtName": "PADANG BOLAK JULU",
  "name": "AEK BARGOT",
  "postalCode": "22753"
 },
 {
  "id": 1220020002,
  "districtId": 1220020,
  "districtName": "PADANG BOLAK JULU",
  "name": "PAMUNTARAN",
  "postalCode": "22753"
 },
 {
  "id": 1220020003,
  "districtId": 1220020,
  "districtName": "PADANG BOLAK JULU",
  "name": "BALIMBING JULU",
  "postalCode": "22753"
 },
 {
  "id": 1220020004,
  "districtId": 1220020,
  "districtName": "PADANG BOLAK JULU",
  "name": "BALIMBING JAE",
  "postalCode": "22753"
 },
 {
  "id": 1220020005,
  "districtId": 1220020,
  "districtName": "PADANG BOLAK JULU",
  "name": "SOBAR",
  "postalCode": "22753"
 },
 {
  "id": 1220020006,
  "districtId": 1220020,
  "districtName": "PADANG BOLAK JULU",
  "name": "SIPUPUS LOMBANG",
  "postalCode": "22753"
 },
 {
  "id": 1220020007,
  "districtId": 1220020,
  "districtName": "PADANG BOLAK JULU",
  "name": "PADANG BUJUR",
  "postalCode": "22753"
 },
 {
  "id": 1220020008,
  "districtId": 1220020,
  "districtName": "PADANG BOLAK JULU",
  "name": "PARAN GADUNG",
  "postalCode": "22753"
 },
 {
  "id": 1220020009,
  "districtId": 1220020,
  "districtName": "PADANG BOLAK JULU",
  "name": "PADANG BARUAS",
  "postalCode": "22753"
 },
 {
  "id": 1220020010,
  "districtId": 1220020,
  "districtName": "PADANG BOLAK JULU",
  "name": "UBAR",
  "postalCode": "22753"
 },
 {
  "id": 1220020011,
  "districtId": 1220020,
  "districtName": "PADANG BOLAK JULU",
  "name": "BALAKKA",
  "postalCode": ""
 },
 {
  "id": 1220020012,
  "districtId": 1220020,
  "districtName": "PADANG BOLAK JULU",
  "name": "GARIANG",
  "postalCode": "22753"
 },
 {
  "id": 1220020013,
  "districtId": 1220020,
  "districtName": "PADANG BOLAK JULU",
  "name": "LANTOSAN II",
  "postalCode": "22753"
 },
 {
  "id": 1220020014,
  "districtId": 1220020,
  "districtName": "PADANG BOLAK JULU",
  "name": "BATU GANA",
  "postalCode": "22753"
 },
 {
  "id": 1220020015,
  "districtId": 1220020,
  "districtName": "PADANG BOLAK JULU",
  "name": "PARUPUK JAE",
  "postalCode": "22753"
 },
 {
  "id": 1220020016,
  "districtId": 1220020,
  "districtName": "PADANG BOLAK JULU",
  "name": "PARUPUK JULU",
  "postalCode": "22753"
 },
 {
  "id": 1220020017,
  "districtId": 1220020,
  "districtName": "PADANG BOLAK JULU",
  "name": "PANCUR PANGKO",
  "postalCode": "22753"
 },
 {
  "id": 1220020018,
  "districtId": 1220020,
  "districtName": "PADANG BOLAK JULU",
  "name": "PARAN NANGKA",
  "postalCode": "22753"
 },
 {
  "id": 1220020019,
  "districtId": 1220020,
  "districtName": "PADANG BOLAK JULU",
  "name": "HASAMBI",
  "postalCode": "22753"
 },
 {
  "id": 1220020020,
  "districtId": 1220020,
  "districtName": "PADANG BOLAK JULU",
  "name": "SIALANG",
  "postalCode": "23772"
 },
 {
  "id": 1220020021,
  "districtId": 1220020,
  "districtName": "PADANG BOLAK JULU",
  "name": "BATU RANCANG",
  "postalCode": "22753"
 },
 {
  "id": 1220020022,
  "districtId": 1220020,
  "districtName": "PADANG BOLAK JULU",
  "name": "SIUNGGAM DOLOK",
  "postalCode": "22753"
 },
 {
  "id": 1220020023,
  "districtId": 1220020,
  "districtName": "PADANG BOLAK JULU",
  "name": "SITANGGORU",
  "postalCode": "22753"
 }
]