[
 {
  "id": 1220060001,
  "districtId": 1220060,
  "districtName": "HALONGONAN",
  "name": "HUTAIMBARU I",
  "postalCode": ""
 },
 {
  "id": 1220060002,
  "districtId": 1220060,
  "districtName": "HALONGONAN",
  "name": "HUTA NOPAN",
  "postalCode": "22763"
 },
 {
  "id": 1220060003,
  "districtId": 1220060,
  "districtName": "HALONGONAN",
  "name": "HAMBULO",
  "postalCode": "22753"
 },
 {
  "id": 1220060004,
  "districtId": 1220060,
  "districtName": "HALONGONAN",
  "name": "PAOLAN",
  "postalCode": "22753"
 },
 {
  "id": 1220060005,
  "districtId": 1220060,
  "districtName": "HALONGONAN",
  "name": "SIPENGGENG",
  "postalCode": "22738"
 },
 {
  "id": 1220060006,
  "districtId": 1220060,
  "districtName": "HALONGONAN",
  "name": "BALIMBING",
  "postalCode": "22753"
 },
 {
  "id": 1220060011,
  "districtId": 1220060,
  "districtName": "HALONGONAN",
  "name": "SIPAHO",
  "postalCode": "22753"
 },
 {
  "id": 1220060014,
  "districtId": 1220060,
  "districtName": "HALONGONAN",
  "name": "SIGALA-GALA",
  "postalCode": "22753"
 },
 {
  "id": 1220060015,
  "districtId": 1220060,
  "districtName": "HALONGONAN",
  "name": "UJUNG PADANG",
  "postalCode": "23773"
 },
 {
  "id": 1220060016,
  "districtId": 1220060,
  "districtName": "HALONGONAN",
  "name": "RONDAMAN SIBUREGAR",
  "postalCode": "22753"
 },
 {
  "id": 1220060017,
  "districtId": 1220060,
  "districtName": "HALONGONAN",
  "name": "PANGIRKIRAN",
  "postalCode": "22753"
 },
 {
  "id": 1220060018,
  "districtId": 1220060,
  "districtName": "HALONGONAN",
  "name": "SITABOLA",
  "postalCode": "22753"
 },
 {
  "id": 1220060019,
  "districtId": 1220060,
  "districtName": "HALONGONAN",
  "name": "JAPINULIK",
  "postalCode": "22753"
 },
 {
  "id": 1220060020,
  "districtId": 1220060,
  "districtName": "HALONGONAN",
  "name": "SITENUN",
  "postalCode": ""
 },
 {
  "id": 1220060021,
  "districtId": 1220060,
  "districtName": "HALONGONAN",
  "name": "SANDEAN TONGA",
  "postalCode": "22753"
 },
 {
  "id": 1220060022,
  "districtId": 1220060,
  "districtName": "HALONGONAN",
  "name": "SANDEAN JAE",
  "postalCode": "22753"
 },
 {
  "id": 1220060023,
  "districtId": 1220060,
  "districtName": "HALONGONAN",
  "name": "SILANTOYUNG",
  "postalCode": "22753"
 },
 {
  "id": 1220060024,
  "districtId": 1220060,
  "districtName": "HALONGONAN",
  "name": "HITEURAT",
  "postalCode": "22753"
 },
 {
  "id": 1220060025,
  "districtId": 1220060,
  "districtName": "HALONGONAN",
  "name": "HALONGONAN",
  "postalCode": "22753"
 },
 {
  "id": 1220060026,
  "districtId": 1220060,
  "districtName": "HALONGONAN",
  "name": "BARGOT TOPONG JULU",
  "postalCode": ""
 },
 {
  "id": 1220060027,
  "districtId": 1220060,
  "districtName": "HALONGONAN",
  "name": "BARGOT TOPONG JAE",
  "postalCode": ""
 },
 {
  "id": 1220060028,
  "districtId": 1220060,
  "districtName": "HALONGONAN",
  "name": "SIRINGKIT JULU",
  "postalCode": "22753"
 },
 {
  "id": 1220060029,
  "districtId": 1220060,
  "districtName": "HALONGONAN",
  "name": "SIRINGKIT JAE",
  "postalCode": "22753"
 },
 {
  "id": 1220060035,
  "districtId": 1220060,
  "districtName": "HALONGONAN",
  "name": "NAPA LANCAT",
  "postalCode": ""
 },
 {
  "id": 1220060036,
  "districtId": 1220060,
  "districtName": "HALONGONAN",
  "name": "PANGARAMBANGAN",
  "postalCode": "22753"
 },
 {
  "id": 1220060037,
  "districtId": 1220060,
  "districtName": "HALONGONAN",
  "name": "PAGAR GUNUNG",
  "postalCode": "22753"
 },
 {
  "id": 1220060038,
  "districtId": 1220060,
  "districtName": "HALONGONAN",
  "name": "SIBORU ANGIN",
  "postalCode": "22753"
 },
 {
  "id": 1220060039,
  "districtId": 1220060,
  "districtName": "HALONGONAN",
  "name": "HASATAN",
  "postalCode": ""
 },
 {
  "id": 1220060040,
  "districtId": 1220060,
  "districtName": "HALONGONAN",
  "name": "PARAN HONAS",
  "postalCode": "22753"
 },
 {
  "id": 1220060041,
  "districtId": 1220060,
  "districtName": "HALONGONAN",
  "name": "TAPUS JAE",
  "postalCode": "22753"
 },
 {
  "id": 1220060042,
  "districtId": 1220060,
  "districtName": "HALONGONAN",
  "name": "SABA",
  "postalCode": "22753"
 },
 {
  "id": 1220060043,
  "districtId": 1220060,
  "districtName": "HALONGONAN",
  "name": "SANDEAN JULU",
  "postalCode": "22753"
 },
 {
  "id": 1220060044,
  "districtId": 1220060,
  "districtName": "HALONGONAN",
  "name": "BATU TUNGGAL",
  "postalCode": "22753"
 }
]