[
 {
  "id": 1221070030,
  "districtId": 1221070,
  "districtName": "HUTA RAJA TINGGI",
  "name": "TANJUNG ALE",
  "postalCode": "22774"
 },
 {
  "id": 1221070031,
  "districtId": 1221070,
  "districtName": "HUTA RAJA TINGGI",
  "name": "SIGALA GALA",
  "postalCode": "22756"
 },
 {
  "id": 1221070032,
  "districtId": 1221070,
  "districtName": "HUTA RAJA TINGGI",
  "name": "SIMANGAMBAT",
  "postalCode": "22756"
 },
 {
  "id": 1221070033,
  "districtId": 1221070,
  "districtName": "HUTA RAJA TINGGI",
  "name": "PIR TRANS SOSA III B",
  "postalCode": ""
 },
 {
  "id": 1221070034,
  "districtId": 1221070,
  "districtName": "HUTA RAJA TINGGI",
  "name": "TANJUNG SARI IB",
  "postalCode": ""
 },
 {
  "id": 1221070054,
  "districtId": 1221070,
  "districtName": "HUTA RAJA TINGGI",
  "name": "SIBODAK SOSA JAE",
  "postalCode": "22774"
 },
 {
  "id": 1221070055,
  "districtId": 1221070,
  "districtName": "HUTA RAJA TINGGI",
  "name": "PARMAINAN",
  "postalCode": "22774"
 },
 {
  "id": 1221070056,
  "districtId": 1221070,
  "districtName": "HUTA RAJA TINGGI",
  "name": "PAGARAN DOLOK SOSA JAE",
  "postalCode": "22774"
 },
 {
  "id": 1221070058,
  "districtId": 1221070,
  "districtName": "HUTA RAJA TINGGI",
  "name": "SIDO MULYO III A",
  "postalCode": ""
 },
 {
  "id": 1221070059,
  "districtId": 1221070,
  "districtName": "HUTA RAJA TINGGI",
  "name": "ALI AGA",
  "postalCode": "22774"
 },
 {
  "id": 1221070060,
  "districtId": 1221070,
  "districtName": "HUTA RAJA TINGGI",
  "name": "MANANTI SOSA JAE",
  "postalCode": "22774"
 },
 {
  "id": 1221070061,
  "districtId": 1221070,
  "districtName": "HUTA RAJA TINGGI",
  "name": "PIR TRAN SOSA II",
  "postalCode": ""
 },
 {
  "id": 1221070062,
  "districtId": 1221070,
  "districtName": "HUTA RAJA TINGGI",
  "name": "MULYA SARI",
  "postalCode": "22774"
 },
 {
  "id": 1221070063,
  "districtId": 1221070,
  "districtName": "HUTA RAJA TINGGI",
  "name": "PANYABUNGAN",
  "postalCode": "22756"
 },
 {
  "id": 1221070064,
  "districtId": 1221070,
  "districtName": "HUTA RAJA TINGGI",
  "name": "TANJUNG BARINGIN",
  "postalCode": "22742"
 },
 {
  "id": 1221070065,
  "districtId": 1221070,
  "districtName": "HUTA RAJA TINGGI",
  "name": "PASAR PANYABUNGAN",
  "postalCode": "22774"
 },
 {
  "id": 1221070066,
  "districtId": 1221070,
  "districtName": "HUTA RAJA TINGGI",
  "name": "SOSA MULIA",
  "postalCode": "22774"
 },
 {
  "id": 1221070067,
  "districtId": 1221070,
  "districtName": "HUTA RAJA TINGGI",
  "name": "UJUNG PADANG",
  "postalCode": "23773"
 },
 {
  "id": 1221070068,
  "districtId": 1221070,
  "districtName": "HUTA RAJA TINGGI",
  "name": "HUTA RAJA TINGGI",
  "postalCode": "22774"
 },
 {
  "id": 1221070069,
  "districtId": 1221070,
  "districtName": "HUTA RAJA TINGGI",
  "name": "PAYAOMBOR",
  "postalCode": ""
 },
 {
  "id": 1221070070,
  "districtId": 1221070,
  "districtName": "HUTA RAJA TINGGI",
  "name": "SIABU",
  "postalCode": "22774"
 },
 {
  "id": 1221070071,
  "districtId": 1221070,
  "districtName": "HUTA RAJA TINGGI",
  "name": "SUNGAI KORANG",
  "postalCode": "22774"
 },
 {
  "id": 1221070072,
  "districtId": 1221070,
  "districtName": "HUTA RAJA TINGGI",
  "name": "SIGALAPUNG",
  "postalCode": "22774"
 },
 {
  "id": 1221070073,
  "districtId": 1221070,
  "districtName": "HUTA RAJA TINGGI",
  "name": "UJUNG BATU III",
  "postalCode": "22774"
 },
 {
  "id": 1221070074,
  "districtId": 1221070,
  "districtName": "HUTA RAJA TINGGI",
  "name": "UJUNG BATU II",
  "postalCode": "22774"
 },
 {
  "id": 1221070075,
  "districtId": 1221070,
  "districtName": "HUTA RAJA TINGGI",
  "name": "UJUNG BATU I",
  "postalCode": "22774"
 },
 {
  "id": 1221070076,
  "districtId": 1221070,
  "districtName": "HUTA RAJA TINGGI",
  "name": "UJUNG BATU IV",
  "postalCode": "22774"
 },
 {
  "id": 1221070077,
  "districtId": 1221070,
  "districtName": "HUTA RAJA TINGGI",
  "name": "UPT UJUNG BATU V",
  "postalCode": ""
 },
 {
  "id": 1221070078,
  "districtId": 1221070,
  "districtName": "HUTA RAJA TINGGI",
  "name": "LUBUK BUNUT",
  "postalCode": "22774"
 },
 {
  "id": 1221070081,
  "districtId": 1221070,
  "districtName": "HUTA RAJA TINGGI",
  "name": "GUNUNG MULIA",
  "postalCode": "22774"
 },
 {
  "id": 1221070098,
  "districtId": 1221070,
  "districtName": "HUTA RAJA TINGGI",
  "name": "MARGO MULIA SOSA IV",
  "postalCode": ""
 }
]