[
 {
  "id": 1221050001,
  "districtId": 1221050,
  "districtName": "SOSA",
  "name": "BATU GAJAH",
  "postalCode": "22983"
 },
 {
  "id": 1221050002,
  "districtId": 1221050,
  "districtName": "SOSA",
  "name": "HAPUNG",
  "postalCode": "22765"
 },
 {
  "id": 1221050003,
  "districtId": 1221050,
  "districtName": "SOSA",
  "name": "HAPUNG TOROP",
  "postalCode": "22765"
 },
 {
  "id": 1221050004,
  "districtId": 1221050,
  "districtName": "SOSA",
  "name": "BONAN DOLOK",
  "postalCode": "22762"
 },
 {
  "id": 1221050038,
  "districtId": 1221050,
  "districtName": "SOSA",
  "name": "MANDIAN",
  "postalCode": "22765"
 },
 {
  "id": 1221050039,
  "districtId": 1221050,
  "districtName": "SOSA",
  "name": "PARAPAT",
  "postalCode": "21174"
 },
 {
  "id": 1221050040,
  "districtId": 1221050,
  "districtName": "SOSA",
  "name": "HANDIO",
  "postalCode": "22765"
 },
 {
  "id": 1221050041,
  "districtId": 1221050,
  "districtName": "SOSA",
  "name": "HORUAN",
  "postalCode": "22765"
 },
 {
  "id": 1221050042,
  "districtId": 1221050,
  "districtName": "SOSA",
  "name": "HARANG JAE",
  "postalCode": "22765"
 },
 {
  "id": 1221050043,
  "districtId": 1221050,
  "districtName": "SOSA",
  "name": "HARANG JULU",
  "postalCode": "22765"
 },
 {
  "id": 1221050044,
  "districtId": 1221050,
  "districtName": "SOSA",
  "name": "GUNUNG TUA",
  "postalCode": "22765"
 },
 {
  "id": 1221050045,
  "districtId": 1221050,
  "districtName": "SOSA",
  "name": "PASIR JULU",
  "postalCode": "22765"
 },
 {
  "id": 1221050046,
  "districtId": 1221050,
  "districtName": "SOSA",
  "name": "LUMBAN HUAYAN",
  "postalCode": "22774"
 },
 {
  "id": 1221050047,
  "districtId": 1221050,
  "districtName": "SOSA",
  "name": "SIBORNA (SIBORIS BUNUT)",
  "postalCode": ""
 },
 {
  "id": 1221050048,
  "districtId": 1221050,
  "districtName": "SOSA",
  "name": "MANANTI SOSA JULU",
  "postalCode": "22765"
 },
 {
  "id": 1221050049,
  "districtId": 1221050,
  "districtName": "SOSA",
  "name": "HUTA IMBARU",
  "postalCode": "22989"
 },
 {
  "id": 1221050050,
  "districtId": 1221050,
  "districtName": "SOSA",
  "name": "SISOMA",
  "postalCode": "22765"
 },
 {
  "id": 1221050051,
  "districtId": 1221050,
  "districtName": "SOSA",
  "name": "MONDANG",
  "postalCode": "22774"
 },
 {
  "id": 1221050052,
  "districtId": 1221050,
  "districtName": "SOSA",
  "name": "SIMARANCAR",
  "postalCode": "22765"
 },
 {
  "id": 1221050053,
  "districtId": 1221050,
  "districtName": "SOSA",
  "name": "HUTA RAJA LAMA",
  "postalCode": "22765"
 },
 {
  "id": 1221050057,
  "districtId": 1221050,
  "districtName": "SOSA",
  "name": "TJ BOTUNG SOSA JAE",
  "postalCode": ""
 },
 {
  "id": 1221050079,
  "districtId": 1221050,
  "districtName": "SOSA",
  "name": "AEK TINGA",
  "postalCode": "22765"
 },
 {
  "id": 1221050080,
  "districtId": 1221050,
  "districtName": "SOSA",
  "name": "GUNUNG BARINGIN",
  "postalCode": "22732"
 },
 {
  "id": 1221050082,
  "districtId": 1221050,
  "districtName": "SOSA",
  "name": "PASAR UJUNG BATU",
  "postalCode": "22765"
 },
 {
  "id": 1221050083,
  "districtId": 1221050,
  "districtName": "SOSA",
  "name": "UJUNG BATU",
  "postalCode": "23761"
 },
 {
  "id": 1221050084,
  "districtId": 1221050,
  "districtName": "SOSA",
  "name": "JANJI RAJA",
  "postalCode": "22755"
 },
 {
  "id": 1221050085,
  "districtId": 1221050,
  "districtName": "SOSA",
  "name": "RAO RAO DOLOK",
  "postalCode": "22765"
 },
 {
  "id": 1221050086,
  "districtId": 1221050,
  "districtName": "SOSA",
  "name": "PARAU SORAT",
  "postalCode": "22762"
 },
 {
  "id": 1221050087,
  "districtId": 1221050,
  "districtName": "SOSA",
  "name": "AER BALE",
  "postalCode": "22765"
 },
 {
  "id": 1221050088,
  "districtId": 1221050,
  "districtName": "SOSA",
  "name": "TANJUNG BALE",
  "postalCode": "22765"
 },
 {
  "id": 1221050089,
  "districtId": 1221050,
  "districtName": "SOSA",
  "name": "AMPOLU",
  "postalCode": "22765"
 },
 {
  "id": 1221050090,
  "districtId": 1221050,
  "districtName": "SOSA",
  "name": "SIGINDUANG",
  "postalCode": "22765"
 },
 {
  "id": 1221050091,
  "districtId": 1221050,
  "districtName": "SOSA",
  "name": "RAMBA",
  "postalCode": "22742"
 },
 {
  "id": 1221050092,
  "districtId": 1221050,
  "districtName": "SOSA",
  "name": "ROBURAN",
  "postalCode": "22765"
 },
 {
  "id": 1221050093,
  "districtId": 1221050,
  "districtName": "SOSA",
  "name": "TANJUNG",
  "postalCode": "24562"
 },
 {
  "id": 1221050094,
  "districtId": 1221050,
  "districtName": "SOSA",
  "name": "HURUNG JILOK",
  "postalCode": "22765"
 },
 {
  "id": 1221050095,
  "districtId": 1221050,
  "districtName": "SOSA",
  "name": "PASIR JAE",
  "postalCode": "22765"
 },
 {
  "id": 1221050096,
  "districtId": 1221050,
  "districtName": "SOSA",
  "name": "SUNGAI JIOR",
  "postalCode": "22765"
 },
 {
  "id": 1221050097,
  "districtId": 1221050,
  "districtName": "SOSA",
  "name": "PIR SOSA PLASMA MOND",
  "postalCode": ""
 }
]