[
 {
  "id": 1222030001,
  "districtId": 1222030,
  "districtName": "KOTA PINANG",
  "name": "SIMATAHARI",
  "postalCode": "21464"
 },
 {
  "id": 1222030002,
  "districtId": 1222030,
  "districtName": "KOTA PINANG",
  "name": "PASIR TUNTUNG",
  "postalCode": "21464"
 },
 {
  "id": 1222030003,
  "districtId": 1222030,
  "districtName": "KOTA PINANG",
  "name": "MAMPANG",
  "postalCode": "21464"
 },
 {
  "id": 1222030004,
  "districtId": 1222030,
  "districtName": "KOTA PINANG",
  "name": "HADUNDUNG",
  "postalCode": "21464"
 },
 {
  "id": 1222030005,
  "districtId": 1222030,
  "districtName": "KOTA PINANG",
  "name": "PERKEBUNAN NORMARK",
  "postalCode": "21464"
 },
 {
  "id": 1222030006,
  "districtId": 1222030,
  "districtName": "KOTA PINANG",
  "name": "SOSOPAN",
  "postalCode": "21464"
 },
 {
  "id": 1222030007,
  "districtId": 1222030,
  "districtName": "KOTA PINANG",
  "name": "PERKEBUNAN NAGODANG",
  "postalCode": "21464"
 },
 {
  "id": 1222030008,
  "districtId": 1222030,
  "districtName": "KOTA PINANG",
  "name": "KOTA PINANG",
  "postalCode": "21464"
 },
 {
  "id": 1222030009,
  "districtId": 1222030,
  "districtName": "KOTA PINANG",
  "name": "PERKEBUNAN SEI RUMBIA",
  "postalCode": ""
 },
 {
  "id": 1222030010,
  "districtId": 1222030,
  "districtName": "KOTA PINANG",
  "name": "SISUMUT",
  "postalCode": "21464"
 }
]