[
 {
  "id": 1223040001,
  "districtId": 1223040,
  "districtName": "AEK NATAS",
  "name": "POLDUNG",
  "postalCode": "21455"
 },
 {
  "id": 1223040002,
  "districtId": 1223040,
  "districtName": "AEK NATAS",
  "name": "ROMBISAN",
  "postalCode": "21455"
 },
 {
  "id": 1223040003,
  "districtId": 1223040,
  "districtName": "AEK NATAS",
  "name": "SIBITO",
  "postalCode": "21455"
 },
 {
  "id": 1223040004,
  "districtId": 1223040,
  "districtName": "AEK NATAS",
  "name": "SIMONIS",
  "postalCode": "21455"
 },
 {
  "id": 1223040005,
  "districtId": 1223040,
  "districtName": "AEK NATAS",
  "name": "KAMPUNG YAMAN",
  "postalCode": "21455"
 },
 {
  "id": 1223040006,
  "districtId": 1223040,
  "districtName": "AEK NATAS",
  "name": "PERKEBUNAN AEK PAMINGKE",
  "postalCode": "21455"
 },
 {
  "id": 1223040007,
  "districtId": 1223040,
  "districtName": "AEK NATAS",
  "name": "BANDAR DURIAN",
  "postalCode": "21455"
 },
 {
  "id": 1223040008,
  "districtId": 1223040,
  "districtName": "AEK NATAS",
  "name": "PERKEBUNAN HALIMBE",
  "postalCode": ""
 },
 {
  "id": 1223040009,
  "districtId": 1223040,
  "districtName": "AEK NATAS",
  "name": "TERANG BULAN",
  "postalCode": "21455"
 },
 {
  "id": 1223040010,
  "districtId": 1223040,
  "districtName": "AEK NATAS",
  "name": "ADIAN TOROP",
  "postalCode": "21455"
 },
 {
  "id": 1223040011,
  "districtId": 1223040,
  "districtName": "AEK NATAS",
  "name": "PANGKALAN",
  "postalCode": "24477"
 },
 {
  "id": 1223040012,
  "districtId": 1223040,
  "districtName": "AEK NATAS",
  "name": "UJUNG PADANG",
  "postalCode": "23773"
 }
]