[
 {
  "id": 1224060001,
  "districtId": 1224060,
  "districtName": "TUHEMBERUA",
  "name": "BOTOLAKHA",
  "postalCode": "22852"
 },
 {
  "id": 1224060002,
  "districtId": 1224060,
  "districtName": "TUHEMBERUA",
  "name": "SIOFA BANUA",
  "postalCode": "22852"
 },
 {
  "id": 1224060003,
  "districtId": 1224060,
  "districtName": "TUHEMBERUA",
  "name": "LAAYA",
  "postalCode": "22852"
 },
 {
  "id": 1224060004,
  "districtId": 1224060,
  "districtName": "TUHEMBERUA",
  "name": "ALOOA",
  "postalCode": "22852"
 },
 {
  "id": 1224060005,
  "districtId": 1224060,
  "districtName": "TUHEMBERUA",
  "name": "LADARA",
  "postalCode": "22852"
 },
 {
  "id": 1224060006,
  "districtId": 1224060,
  "districtName": "TUHEMBERUA",
  "name": "BANUAGEA",
  "postalCode": "22852"
 },
 {
  "id": 1224060007,
  "districtId": 1224060,
  "districtName": "TUHEMBERUA",
  "name": "SILIMA BANUA",
  "postalCode": "22852"
 },
 {
  "id": 1224060008,
  "districtId": 1224060,
  "districtName": "TUHEMBERUA",
  "name": "FINO",
  "postalCode": "22852"
 }
]