[
 {
  "id": 1224100001,
  "districtId": 1224100,
  "districtName": "AFULU",
  "name": "FAEKHUNAA",
  "postalCode": "22851"
 },
 {
  "id": 1224100002,
  "districtId": 1224100,
  "districtName": "AFULU",
  "name": "SIFAOROASI",
  "postalCode": "22851"
 },
 {
  "id": 1224100003,
  "districtId": 1224100,
  "districtName": "AFULU",
  "name": "LAURU FADORO",
  "postalCode": "22851"
 },
 {
  "id": 1224100004,
  "districtId": 1224100,
  "districtName": "AFULU",
  "name": "AFULU",
  "postalCode": "22857"
 },
 {
  "id": 1224100005,
  "districtId": 1224100,
  "districtName": "AFULU",
  "name": "SISOBAHILI",
  "postalCode": "22851"
 },
 {
  "id": 1224100006,
  "districtId": 1224100,
  "districtName": "AFULU",
  "name": "LAURU LAHEWA",
  "postalCode": "22851"
 },
 {
  "id": 1224100007,
  "districtId": 1224100,
  "districtName": "AFULU",
  "name": "HAREWAKHE",
  "postalCode": "22851"
 },
 {
  "id": 1224100008,
  "districtId": 1224100,
  "districtName": "AFULU",
  "name": "OMBOLATA AFULU",
  "postalCode": "22851"
 },
 {
  "id": 1224100009,
  "districtId": 1224100,
  "districtName": "AFULU",
  "name": "LAURU I AFULU",
  "postalCode": "22851"
 }
]