[
 {
  "id": 1225080001,
  "districtId": 1225080,
  "districtName": "MORO O",
  "name": "ONOZALUKHU YOU",
  "postalCode": "22862"
 },
 {
  "id": 1225080002,
  "districtId": 1225080,
  "districtName": "MORO O",
  "name": "SIDUAHILI",
  "postalCode": ""
 },
 {
  "id": 1225080003,
  "districtId": 1225080,
  "districtName": "MORO O",
  "name": "HILISOROMI",
  "postalCode": "22865"
 },
 {
  "id": 1225080004,
  "districtId": 1225080,
  "districtName": "MORO O",
  "name": "GUNUNG BARU",
  "postalCode": "22862"
 },
 {
  "id": 1225080005,
  "districtId": 1225080,
  "districtName": "MORO O",
  "name": "HILIWALOO II",
  "postalCode": "22862"
 },
 {
  "id": 1225080006,
  "districtId": 1225080,
  "districtName": "MORO O",
  "name": "HILIFADOLO",
  "postalCode": "22866"
 },
 {
  "id": 1225080007,
  "districtId": 1225080,
  "districtName": "MORO O",
  "name": "SITOLU EWALI",
  "postalCode": "22862"
 },
 {
  "id": 1225080008,
  "districtId": 1225080,
  "districtName": "MORO O",
  "name": "HILI WAELE",
  "postalCode": "22862"
 },
 {
  "id": 1225080009,
  "districtId": 1225080,
  "districtName": "MORO O",
  "name": "LASARA BAHILI",
  "postalCode": "22811"
 },
 {
  "id": 1225080010,
  "districtId": 1225080,
  "districtName": "MORO O",
  "name": "SITOLUBANUA FADORO",
  "postalCode": ""
 }
]