[
 {
  "id": 1225020001,
  "districtId": 1225020,
  "districtName": "LAHOMI",
  "name": "SISOBAOHO",
  "postalCode": "22864"
 },
 {
  "id": 1225020002,
  "districtId": 1225020,
  "districtName": "LAHOMI",
  "name": "BAWAZAMAIWO",
  "postalCode": ""
 },
 {
  "id": 1225020003,
  "districtId": 1225020,
  "districtName": "LAHOMI",
  "name": "SITOLUBANUA",
  "postalCode": "22876"
 },
 {
  "id": 1225020004,
  "districtId": 1225020,
  "districtName": "LAHOMI",
  "name": "IRAONOGAILA",
  "postalCode": "22864"
 },
 {
  "id": 1225020005,
  "districtId": 1225020,
  "districtName": "LAHOMI",
  "name": "LOLOGUNDRE",
  "postalCode": "22864"
 },
 {
  "id": 1225020006,
  "districtId": 1225020,
  "districtName": "LAHOMI",
  "name": "LOLOWAU",
  "postalCode": "22864"
 },
 {
  "id": 1225020007,
  "districtId": 1225020,
  "districtName": "LAHOMI",
  "name": "SISOBAMBOWO",
  "postalCode": "22866"
 },
 {
  "id": 1225020008,
  "districtId": 1225020,
  "districtName": "LAHOMI",
  "name": "HILIADULO",
  "postalCode": "22864"
 },
 {
  "id": 1225020009,
  "districtId": 1225020,
  "districtName": "LAHOMI",
  "name": "ONOLIMBU",
  "postalCode": ""
 },
 {
  "id": 1225020010,
  "districtId": 1225020,
  "districtName": "LAHOMI",
  "name": "ONOWAEMBO",
  "postalCode": "22871"
 },
 {
  "id": 1225020011,
  "districtId": 1225020,
  "districtName": "LAHOMI",
  "name": "TIGA SERANGKAI",
  "postalCode": "22864"
 }
]