[
 {
  "id": 1273030001,
  "districtId": 1273030,
  "districtName": "SIANTAR BARAT",
  "name": "SIPINGGOL PINGGOL",
  "postalCode": "21114"
 },
 {
  "id": 1273030002,
  "districtId": 1273030,
  "districtName": "SIANTAR BARAT",
  "name": "TELADAN",
  "postalCode": "21183"
 },
 {
  "id": 1273030003,
  "districtId": 1273030,
  "districtName": "SIANTAR BARAT",
  "name": "DWIKORA",
  "postalCode": "21118"
 },
 {
  "id": 1273030004,
  "districtId": 1273030,
  "districtName": "SIANTAR BARAT",
  "name": "PROKLAMASI",
  "postalCode": "21117"
 },
 {
  "id": 1273030005,
  "districtId": 1273030,
  "districtName": "SIANTAR BARAT",
  "name": "TIMBANG GALUNG",
  "postalCode": "21116"
 },
 {
  "id": 1273030006,
  "districtId": 1273030,
  "districtName": "SIANTAR BARAT",
  "name": "SIMARITO",
  "postalCode": "21113"
 },
 {
  "id": 1273030007,
  "districtId": 1273030,
  "districtName": "SIANTAR BARAT",
  "name": "BANJAR",
  "postalCode": "21263"
 },
 {
  "id": 1273030008,
  "districtId": 1273030,
  "districtName": "SIANTAR BARAT",
  "name": "BANTAN",
  "postalCode": "23671"
 }
]