[
 {
  "id": 1302090001,
  "districtId": 1302090,
  "districtName": "IV JURAI",
  "name": "SALIDO",
  "postalCode": "25651"
 },
 {
  "id": 1302090002,
  "districtId": 1302090,
  "districtName": "IV JURAI",
  "name": "PAINAN",
  "postalCode": "25651"
 },
 {
  "id": 1302090003,
  "districtId": 1302090,
  "districtName": "IV JURAI",
  "name": "LUMPO",
  "postalCode": "25651"
 },
 {
  "id": 1302090004,
  "districtId": 1302090,
  "districtName": "IV JURAI",
  "name": "TAMBANG",
  "postalCode": "25651"
 },
 {
  "id": 1302090005,
  "districtId": 1302090,
  "districtName": "IV JURAI",
  "name": "BUNGO PASANG SALIDO",
  "postalCode": ""
 },
 {
  "id": 1302090006,
  "districtId": 1302090,
  "districtName": "IV JURAI",
  "name": "SAGO SALIDO",
  "postalCode": "25651"
 },
 {
  "id": 1302090007,
  "districtId": 1302090,
  "districtName": "IV JURAI",
  "name": "PAINAN SELATAN PAINAN",
  "postalCode": "25651"
 },
 {
  "id": 1302090008,
  "districtId": 1302090,
  "districtName": "IV JURAI",
  "name": "PAINAN TIMUR PAINAN",
  "postalCode": "25651"
 },
 {
  "id": 1302090009,
  "districtId": 1302090,
  "districtName": "IV JURAI",
  "name": "BUKIK KACIAK LUMPO",
  "postalCode": ""
 },
 {
  "id": 1302090010,
  "districtId": 1302090,
  "districtName": "IV JURAI",
  "name": "SUNGAI SARIAK LUMPO",
  "postalCode": ""
 },
 {
  "id": 1302090011,
  "districtId": 1302090,
  "districtName": "IV JURAI",
  "name": "SUNGAI GAYO LUMPO",
  "postalCode": ""
 },
 {
  "id": 1302090012,
  "districtId": 1302090,
  "districtName": "IV JURAI",
  "name": "GUNUNG BUNGKUAK LUMPO",
  "postalCode": ""
 },
 {
  "id": 1302090013,
  "districtId": 1302090,
  "districtName": "IV JURAI",
  "name": "AMPANG TAREH LUMPO",
  "postalCode": "25651"
 },
 {
  "id": 1302090014,
  "districtId": 1302090,
  "districtName": "IV JURAI",
  "name": "AMPUAN LUMPO",
  "postalCode": "25651"
 },
 {
  "id": 1302090015,
  "districtId": 1302090,
  "districtName": "IV JURAI",
  "name": "BALAI SINAYAN LUMPO",
  "postalCode": "25651"
 },
 {
  "id": 1302090016,
  "districtId": 1302090,
  "districtName": "IV JURAI",
  "name": "TARATAK TANGAH LUMPO",
  "postalCode": "25651"
 },
 {
  "id": 1302090017,
  "districtId": 1302090,
  "districtName": "IV JURAI",
  "name": "BATU KUNIK LUMPO",
  "postalCode": "25651"
 },
 {
  "id": 1302090018,
  "districtId": 1302090,
  "districtName": "IV JURAI",
  "name": "LIMAU GADANG LUMPO",
  "postalCode": "25651"
 },
 {
  "id": 1302090019,
  "districtId": 1302090,
  "districtName": "IV JURAI",
  "name": "KOTO RAWANG",
  "postalCode": "25651"
 },
 {
  "id": 1302090020,
  "districtId": 1302090,
  "districtName": "IV JURAI",
  "name": "SALIDO SARI BULAN",
  "postalCode": "25651"
 }
]