[
 {
  "id": 1308030001,
  "districtId": 1308030,
  "districtName": "HARAU",
  "name": "TARAM",
  "postalCode": "26271"
 },
 {
  "id": 1308030002,
  "districtId": 1308030,
  "districtName": "HARAU",
  "name": "BUKIK LIMBUKU",
  "postalCode": "26271"
 },
 {
  "id": 1308030003,
  "districtId": 1308030,
  "districtName": "HARAU",
  "name": "PILUBANG",
  "postalCode": "26271"
 },
 {
  "id": 1308030004,
  "districtId": 1308030,
  "districtName": "HARAU",
  "name": "BATU BALANG",
  "postalCode": "26271"
 },
 {
  "id": 1308030005,
  "districtId": 1308030,
  "districtName": "HARAU",
  "name": "KOTO TUO",
  "postalCode": "26271"
 },
 {
  "id": 1308030006,
  "districtId": 1308030,
  "districtName": "HARAU",
  "name": "LUBUAK BATINGKOK",
  "postalCode": "26271"
 },
 {
  "id": 1308030007,
  "districtId": 1308030,
  "districtName": "HARAU",
  "name": "GURUN",
  "postalCode": "26271"
 },
 {
  "id": 1308030008,
  "districtId": 1308030,
  "districtName": "HARAU",
  "name": "SARILAMAK",
  "postalCode": "26271"
 },
 {
  "id": 1308030009,
  "districtId": 1308030,
  "districtName": "HARAU",
  "name": "TARANTANG",
  "postalCode": "26271"
 },
 {
  "id": 1308030010,
  "districtId": 1308030,
  "districtName": "HARAU",
  "name": "SOLOK BIO-BIO",
  "postalCode": "26271"
 },
 {
  "id": 1308030011,
  "districtId": 1308030,
  "districtName": "HARAU",
  "name": "HARAU",
  "postalCode": "26271"
 }
]