[
 {
  "id": 1371060010,
  "districtId": 1371060,
  "districtName": "PADANG BARAT",
  "name": "BELAKANG TANGSI",
  "postalCode": "25118"
 },
 {
  "id": 1371060013,
  "districtId": 1371060,
  "districtName": "PADANG BARAT",
  "name": "OLO",
  "postalCode": "25117"
 },
 {
  "id": 1371060023,
  "districtId": 1371060,
  "districtName": "PADANG BARAT",
  "name": "UJUNG GURUN",
  "postalCode": "25114"
 },
 {
  "id": 1371060031,
  "districtId": 1371060,
  "districtName": "PADANG BARAT",
  "name": "BEROK NIPAH",
  "postalCode": "25118"
 },
 {
  "id": 1371060032,
  "districtId": 1371060,
  "districtName": "PADANG BARAT",
  "name": "KAMPUNG PONDOK",
  "postalCode": "25119"
 },
 {
  "id": 1371060033,
  "districtId": 1371060,
  "districtName": "PADANG BARAT",
  "name": "KAMPUNG JAO",
  "postalCode": "25112"
 },
 {
  "id": 1371060034,
  "districtId": 1371060,
  "districtName": "PADANG BARAT",
  "name": "PURUS",
  "postalCode": "25115"
 },
 {
  "id": 1371060035,
  "districtId": 1371060,
  "districtName": "PADANG BARAT",
  "name": "PADANG PASIR",
  "postalCode": "24654"
 },
 {
  "id": 1371060036,
  "districtId": 1371060,
  "districtName": "PADANG BARAT",
  "name": "RIMBO KALUANG",
  "postalCode": "25111"
 },
 {
  "id": 1371060037,
  "districtId": 1371060,
  "districtName": "PADANG BARAT",
  "name": "FLAMBOYAN BARU",
  "postalCode": ""
 }
]