[
 {
  "id": 1371090001,
  "districtId": 1371090,
  "districtName": "KURANJI",
  "name": "ANDURING",
  "postalCode": "25151"
 },
 {
  "id": 1371090002,
  "districtId": 1371090,
  "districtName": "KURANJI",
  "name": "PASAR AMBACANG",
  "postalCode": "25152"
 },
 {
  "id": 1371090003,
  "districtId": 1371090,
  "districtName": "KURANJI",
  "name": "LUBUK LINTAH",
  "postalCode": "25153"
 },
 {
  "id": 1371090004,
  "districtId": 1371090,
  "districtName": "KURANJI",
  "name": "AMPANG",
  "postalCode": "25154"
 },
 {
  "id": 1371090005,
  "districtId": 1371090,
  "districtName": "KURANJI",
  "name": "KALUMBUK",
  "postalCode": "25155"
 },
 {
  "id": 1371090006,
  "districtId": 1371090,
  "districtName": "KURANJI",
  "name": "KORONG GADANG",
  "postalCode": "25156"
 },
 {
  "id": 1371090007,
  "districtId": 1371090,
  "districtName": "KURANJI",
  "name": "KURANJI",
  "postalCode": "25157"
 },
 {
  "id": 1371090008,
  "districtId": 1371090,
  "districtName": "KURANJI",
  "name": "GUNUNG SARIK",
  "postalCode": "25158"
 },
 {
  "id": 1371090009,
  "districtId": 1371090,
  "districtName": "KURANJI",
  "name": "SUNGAI SAPIH",
  "postalCode": ""
 }
]