[
 {
  "id": 1401052001,
  "districtId": 1401052,
  "districtName": "LOGAS TANAH DARAT",
  "name": "SIKIJANG",
  "postalCode": "29556"
 },
 {
  "id": 1401052002,
  "districtId": 1401052,
  "districtName": "LOGAS TANAH DARAT",
  "name": "TERATAK RENDAH",
  "postalCode": "29556"
 },
 {
  "id": 1401052003,
  "districtId": 1401052,
  "districtName": "LOGAS TANAH DARAT",
  "name": "PERHENTIAN LUAS",
  "postalCode": "29561"
 },
 {
  "id": 1401052004,
  "districtId": 1401052,
  "districtName": "LOGAS TANAH DARAT",
  "name": "LOGAS",
  "postalCode": "29556"
 },
 {
  "id": 1401052005,
  "districtId": 1401052,
  "districtName": "LOGAS TANAH DARAT",
  "name": "SUNGAI RAMBAI",
  "postalCode": "25529"
 },
 {
  "id": 1401052006,
  "districtId": 1401052,
  "districtName": "LOGAS TANAH DARAT",
  "name": "RAMBAHAN",
  "postalCode": "29556"
 },
 {
  "id": 1401052007,
  "districtId": 1401052,
  "districtName": "LOGAS TANAH DARAT",
  "name": "LUBUK KEBUN",
  "postalCode": "29556"
 },
 {
  "id": 1401052008,
  "districtId": 1401052,
  "districtName": "LOGAS TANAH DARAT",
  "name": "SITUGAL",
  "postalCode": "29556"
 },
 {
  "id": 1401052009,
  "districtId": 1401052,
  "districtName": "LOGAS TANAH DARAT",
  "name": "HULU TESO",
  "postalCode": "29556"
 },
 {
  "id": 1401052010,
  "districtId": 1401052,
  "districtName": "LOGAS TANAH DARAT",
  "name": "SUKARAJA",
  "postalCode": "21256"
 },
 {
  "id": 1401052011,
  "districtId": 1401052,
  "districtName": "LOGAS TANAH DARAT",
  "name": "SAKO MARGASARI",
  "postalCode": ""
 },
 {
  "id": 1401052012,
  "districtId": 1401052,
  "districtName": "LOGAS TANAH DARAT",
  "name": "GIRI SAKO",
  "postalCode": "29556"
 },
 {
  "id": 1401052013,
  "districtId": 1401052,
  "districtName": "LOGAS TANAH DARAT",
  "name": "KUANTAN SAKO",
  "postalCode": "29556"
 },
 {
  "id": 1401052014,
  "districtId": 1401052,
  "districtName": "LOGAS TANAH DARAT",
  "name": "SIDODADI",
  "postalCode": "24582"
 },
 {
  "id": 1401052015,
  "districtId": 1401052,
  "districtName": "LOGAS TANAH DARAT",
  "name": "BUMI MULYA",
  "postalCode": "29556"
 }
]