[
 {
  "id": 1401040001,
  "districtId": 1401040,
  "districtName": "BENAI",
  "name": "KOTO BENAI",
  "postalCode": "29566"
 },
 {
  "id": 1401040002,
  "districtId": 1401040,
  "districtName": "BENAI",
  "name": "TALONTAM",
  "postalCode": ""
 },
 {
  "id": 1401040003,
  "districtId": 1401040,
  "districtName": "BENAI",
  "name": "BANJAR BENAI",
  "postalCode": "29566"
 },
 {
  "id": 1401040004,
  "districtId": 1401040,
  "districtName": "BENAI",
  "name": "GUNUNG KESIANGAN",
  "postalCode": ""
 },
 {
  "id": 1401040005,
  "districtId": 1401040,
  "districtName": "BENAI",
  "name": "BANJAR LOPAK",
  "postalCode": "29566"
 },
 {
  "id": 1401040006,
  "districtId": 1401040,
  "districtName": "BENAI",
  "name": "PULAU KALIMANTING",
  "postalCode": ""
 },
 {
  "id": 1401040007,
  "districtId": 1401040,
  "districtName": "BENAI",
  "name": "TANJUNG",
  "postalCode": "24562"
 },
 {
  "id": 1401040008,
  "districtId": 1401040,
  "districtName": "BENAI",
  "name": "PULAU INGU",
  "postalCode": ""
 },
 {
  "id": 1401040009,
  "districtId": 1401040,
  "districtName": "BENAI",
  "name": "SIMANDOLAK",
  "postalCode": "29566"
 },
 {
  "id": 1401040012,
  "districtId": 1401040,
  "districtName": "BENAI",
  "name": "TEBING TINGGI",
  "postalCode": "24477"
 },
 {
  "id": 1401040013,
  "districtId": 1401040,
  "districtName": "BENAI",
  "name": "PULAU LANCANG",
  "postalCode": ""
 },
 {
  "id": 1401040014,
  "districtId": 1401040,
  "districtName": "BENAI",
  "name": "PULAU TONGAH",
  "postalCode": ""
 },
 {
  "id": 1401040015,
  "districtId": 1401040,
  "districtName": "BENAI",
  "name": "UJUNG TANJUNG",
  "postalCode": "29566"
 },
 {
  "id": 1401040016,
  "districtId": 1401040,
  "districtName": "BENAI",
  "name": "SIBERAKUN",
  "postalCode": "29566"
 },
 {
  "id": 1401040017,
  "districtId": 1401040,
  "districtName": "BENAI",
  "name": "BENAI",
  "postalCode": "29566"
 },
 {
  "id": 1401040018,
  "districtId": 1401040,
  "districtName": "BENAI",
  "name": "BENAI KECIL",
  "postalCode": "29566"
 }
]