[
 {
  "id": 1401030001,
  "districtId": 1401030,
  "districtName": "KUANTAN TENGAH",
  "name": "BANDAR ALAI",
  "postalCode": "29511"
 },
 {
  "id": 1401030002,
  "districtId": 1401030,
  "districtName": "KUANTAN TENGAH",
  "name": "PULAU KEDUNDUNG",
  "postalCode": ""
 },
 {
  "id": 1401030003,
  "districtId": 1401030,
  "districtName": "KUANTAN TENGAH",
  "name": "PULAU ARO",
  "postalCode": "37482"
 },
 {
  "id": 1401030004,
  "districtId": 1401030,
  "districtName": "KUANTAN TENGAH",
  "name": "SEBERANG TALUK",
  "postalCode": "29511"
 },
 {
  "id": 1401030005,
  "districtId": 1401030,
  "districtName": "KUANTAN TENGAH",
  "name": "PULAU BARU",
  "postalCode": "37311"
 },
 {
  "id": 1401030006,
  "districtId": 1401030,
  "districtName": "KUANTAN TENGAH",
  "name": "KOTO TUO",
  "postalCode": "26271"
 },
 {
  "id": 1401030007,
  "districtId": 1401030,
  "districtName": "KUANTAN TENGAH",
  "name": "KOPAH",
  "postalCode": "29511"
 },
 {
  "id": 1401030008,
  "districtId": 1401030,
  "districtName": "KUANTAN TENGAH",
  "name": "JAYA",
  "postalCode": "29511"
 },
 {
  "id": 1401030009,
  "districtId": 1401030,
  "districtName": "KUANTAN TENGAH",
  "name": "MUNSALO",
  "postalCode": "29511"
 },
 {
  "id": 1401030015,
  "districtId": 1401030,
  "districtName": "KUANTAN TENGAH",
  "name": "BERINGIN TALUK",
  "postalCode": "29511"
 },
 {
  "id": 1401030016,
  "districtId": 1401030,
  "districtName": "KUANTAN TENGAH",
  "name": "SAWAH",
  "postalCode": "28461"
 },
 {
  "id": 1401030017,
  "districtId": 1401030,
  "districtName": "KUANTAN TENGAH",
  "name": "PASAR TALUK",
  "postalCode": ""
 },
 {
  "id": 1401030018,
  "districtId": 1401030,
  "districtName": "KUANTAN TENGAH",
  "name": "KOTO TALUK",
  "postalCode": "29515"
 },
 {
  "id": 1401030019,
  "districtId": 1401030,
  "districtName": "KUANTAN TENGAH",
  "name": "SIMPANG TIGA",
  "postalCode": "23772"
 },
 {
  "id": 1401030020,
  "districtId": 1401030,
  "districtName": "KUANTAN TENGAH",
  "name": "PULAU GODANG",
  "postalCode": ""
 },
 {
  "id": 1401030021,
  "districtId": 1401030,
  "districtName": "KUANTAN TENGAH",
  "name": "KOTO KARI",
  "postalCode": "29511"
 },
 {
  "id": 1401030022,
  "districtId": 1401030,
  "districtName": "KUANTAN TENGAH",
  "name": "PINTU GOBANG",
  "postalCode": "29511"
 },
 {
  "id": 1401030023,
  "districtId": 1401030,
  "districtName": "KUANTAN TENGAH",
  "name": "JAKE",
  "postalCode": "29511"
 },
 {
  "id": 1401030024,
  "districtId": 1401030,
  "districtName": "KUANTAN TENGAH",
  "name": "SITORAJO",
  "postalCode": "29511"
 },
 {
  "id": 1401030025,
  "districtId": 1401030,
  "districtName": "KUANTAN TENGAH",
  "name": "SEBERANG TELUK HILIR",
  "postalCode": ""
 },
 {
  "id": 1401030026,
  "districtId": 1401030,
  "districtName": "KUANTAN TENGAH",
  "name": "SUNGAI JERING",
  "postalCode": "37361"
 },
 {
  "id": 1401030027,
  "districtId": 1401030,
  "districtName": "KUANTAN TENGAH",
  "name": "TITIAN MODANG KOPAH",
  "postalCode": "29512"
 },
 {
  "id": 1401030028,
  "districtId": 1401030,
  "districtName": "KUANTAN TENGAH",
  "name": "PULAU BANJAR KARI",
  "postalCode": ""
 }
]