[
 {
  "id": 1402061001,
  "districtId": 1402061,
  "districtName": "KUALA CENAKU",
  "name": "KUALA CENAKU",
  "postalCode": "29335"
 },
 {
  "id": 1402061002,
  "districtId": 1402061,
  "districtName": "KUALA CENAKU",
  "name": "TAMBAK",
  "postalCode": "29335"
 },
 {
  "id": 1402061003,
  "districtId": 1402061,
  "districtName": "KUALA CENAKU",
  "name": "PULAU GELANG",
  "postalCode": "29335"
 },
 {
  "id": 1402061004,
  "districtId": 1402061,
  "districtName": "KUALA CENAKU",
  "name": "KUALA MULYA",
  "postalCode": ""
 },
 {
  "id": 1402061005,
  "districtId": 1402061,
  "districtName": "KUALA CENAKU",
  "name": "TANJUNG SARI",
  "postalCode": "24673"
 },
 {
  "id": 1402061006,
  "districtId": 1402061,
  "districtName": "KUALA CENAKU",
  "name": "RAWA SEKIP",
  "postalCode": "29335"
 },
 {
  "id": 1402061007,
  "districtId": 1402061,
  "districtName": "KUALA CENAKU",
  "name": "RAWA ASRI",
  "postalCode": "29335"
 },
 {
  "id": 1402061008,
  "districtId": 1402061,
  "districtName": "KUALA CENAKU",
  "name": "PULAU JUM'AT",
  "postalCode": ""
 },
 {
  "id": 1402061009,
  "districtId": 1402061,
  "districtName": "KUALA CENAKU",
  "name": "SUKA JADI",
  "postalCode": "23662"
 },
 {
  "id": 1402061010,
  "districtId": 1402061,
  "districtName": "KUALA CENAKU",
  "name": "TELUK SUNGKAI",
  "postalCode": "29335"
 }
]