[
 {
  "id": 1402022001,
  "districtId": 1402022,
  "districtName": "BATANG GANSAL",
  "name": "SIAMBUL",
  "postalCode": "29355"
 },
 {
  "id": 1402022002,
  "districtId": 1402022,
  "districtName": "BATANG GANSAL",
  "name": "RANTAU LANGSAT",
  "postalCode": "29355"
 },
 {
  "id": 1402022003,
  "districtId": 1402022,
  "districtName": "BATANG GANSAL",
  "name": "SUNGAI AKAR",
  "postalCode": "29355"
 },
 {
  "id": 1402022004,
  "districtId": 1402022,
  "districtName": "BATANG GANSAL",
  "name": "USUL",
  "postalCode": "29355"
 },
 {
  "id": 1402022005,
  "districtId": 1402022,
  "districtName": "BATANG GANSAL",
  "name": "SEBERIDA",
  "postalCode": "29355"
 },
 {
  "id": 1402022006,
  "districtId": 1402022,
  "districtName": "BATANG GANSAL",
  "name": "TALANG LAKAT",
  "postalCode": "29355"
 },
 {
  "id": 1402022007,
  "districtId": 1402022,
  "districtName": "BATANG GANSAL",
  "name": "BELIMBING",
  "postalCode": "29355"
 },
 {
  "id": 1402022008,
  "districtId": 1402022,
  "districtName": "BATANG GANSAL",
  "name": "RINGIN",
  "postalCode": "29355"
 },
 {
  "id": 1402022009,
  "districtId": 1402022,
  "districtName": "BATANG GANSAL",
  "name": "PANYAGUAN",
  "postalCode": ""
 },
 {
  "id": 1402022010,
  "districtId": 1402022,
  "districtName": "BATANG GANSAL",
  "name": "DANAU RAMBAI",
  "postalCode": "29355"
 }
]