[
 {
  "id": 1403050001,
  "districtId": 1403050,
  "districtName": "KUALA INDRAGIRI",
  "name": "TANJUNG LAJAU",
  "postalCode": "29281"
 },
 {
  "id": 1403050002,
  "districtId": 1403050,
  "districtName": "KUALA INDRAGIRI",
  "name": "SUNGAI BULUH",
  "postalCode": "25586"
 },
 {
  "id": 1403050003,
  "districtId": 1403050,
  "districtName": "KUALA INDRAGIRI",
  "name": "SUNGAI BELA",
  "postalCode": "29281"
 },
 {
  "id": 1403050008,
  "districtId": 1403050,
  "districtName": "KUALA INDRAGIRI",
  "name": "PERIGI RAJA",
  "postalCode": "29281"
 },
 {
  "id": 1403050009,
  "districtId": 1403050,
  "districtName": "KUALA INDRAGIRI",
  "name": "SAPAT",
  "postalCode": "29281"
 },
 {
  "id": 1403050010,
  "districtId": 1403050,
  "districtName": "KUALA INDRAGIRI",
  "name": "TELUK DALAM",
  "postalCode": "21271"
 },
 {
  "id": 1403050011,
  "districtId": 1403050,
  "districtName": "KUALA INDRAGIRI",
  "name": "SUNGAI PIYAI",
  "postalCode": "29281"
 },
 {
  "id": 1403050012,
  "districtId": 1403050,
  "districtName": "KUALA INDRAGIRI",
  "name": "TANJUNG MELAYU",
  "postalCode": "29281"
 }
]