[
 {
  "id": 1403060001,
  "districtId": 1403060,
  "districtName": "TEMBILAHAN",
  "name": "SEBERANG TEMBILAHAN",
  "postalCode": "29212"
 },
 {
  "id": 1403060002,
  "districtId": 1403060,
  "districtName": "TEMBILAHAN",
  "name": "SUNGAI PERAK",
  "postalCode": "29212"
 },
 {
  "id": 1403060003,
  "districtId": 1403060,
  "districtName": "TEMBILAHAN",
  "name": "TEMBILAHAN HILIR",
  "postalCode": "29211"
 },
 {
  "id": 1403060004,
  "districtId": 1403060,
  "districtName": "TEMBILAHAN",
  "name": "TEMBILAHAN KOTA",
  "postalCode": "29212"
 },
 {
  "id": 1403060005,
  "districtId": 1403060,
  "districtName": "TEMBILAHAN",
  "name": "PEKAN ARBA",
  "postalCode": "29212"
 },
 {
  "id": 1403060006,
  "districtId": 1403060,
  "districtName": "TEMBILAHAN",
  "name": "SUNGAI BERINGIN",
  "postalCode": "26251"
 },
 {
  "id": 1403060007,
  "districtId": 1403060,
  "districtName": "TEMBILAHAN",
  "name": "SEBERANG TEMBILAHAN BARAT",
  "postalCode": "29212"
 },
 {
  "id": 1403060008,
  "districtId": 1403060,
  "districtName": "TEMBILAHAN",
  "name": "SEBERANG TEMBILAHAN SELATAN",
  "postalCode": "29212"
 }
]