[
 {
  "id": 1403071001,
  "districtId": 1403071,
  "districtName": "KEMPAS",
  "name": "BAYAS JAYA",
  "postalCode": "29261"
 },
 {
  "id": 1403071002,
  "districtId": 1403071,
  "districtName": "KEMPAS",
  "name": "PEKAN TUA",
  "postalCode": "29261"
 },
 {
  "id": 1403071003,
  "districtId": 1403071,
  "districtName": "KEMPAS",
  "name": "KEMPAS JAYA",
  "postalCode": "29261"
 },
 {
  "id": 1403071004,
  "districtId": 1403071,
  "districtName": "KEMPAS",
  "name": "SUNGAI ARA",
  "postalCode": "28353"
 },
 {
  "id": 1403071005,
  "districtId": 1403071,
  "districtName": "KEMPAS",
  "name": "HARAPAN TANI",
  "postalCode": "29261"
 },
 {
  "id": 1403071006,
  "districtId": 1403071,
  "districtName": "KEMPAS",
  "name": "KARYA TANI",
  "postalCode": "29261"
 },
 {
  "id": 1403071007,
  "districtId": 1403071,
  "districtName": "KEMPAS",
  "name": "RUMBAI JAYA",
  "postalCode": "29261"
 },
 {
  "id": 1403071008,
  "districtId": 1403071,
  "districtName": "KEMPAS",
  "name": "SUNGAI GANTANG",
  "postalCode": "29261"
 },
 {
  "id": 1403071009,
  "districtId": 1403071,
  "districtName": "KEMPAS",
  "name": "SUNGAI RABIT",
  "postalCode": "29261"
 },
 {
  "id": 1403071010,
  "districtId": 1403071,
  "districtName": "KEMPAS",
  "name": "KERTA JAYA",
  "postalCode": "29261"
 },
 {
  "id": 1403071011,
  "districtId": 1403071,
  "districtName": "KEMPAS",
  "name": "KULIM JAYA",
  "postalCode": "29261"
 },
 {
  "id": 1403071012,
  "districtId": 1403071,
  "districtName": "KEMPAS",
  "name": "DANAU PULAI INDAH",
  "postalCode": "29261"
 }
]