[
 {
  "id": 1403090001,
  "districtId": 1403090,
  "districtName": "GAUNG ANAK SERKA",
  "name": "RAMBAIAN",
  "postalCode": "29253"
 },
 {
  "id": 1403090002,
  "districtId": 1403090,
  "districtName": "GAUNG ANAK SERKA",
  "name": "SUNGAI EMPAT",
  "postalCode": "29253"
 },
 {
  "id": 1403090003,
  "districtId": 1403090,
  "districtName": "GAUNG ANAK SERKA",
  "name": "TELUK TUASAN",
  "postalCode": "29253"
 },
 {
  "id": 1403090004,
  "districtId": 1403090,
  "districtName": "GAUNG ANAK SERKA",
  "name": "SUNGAI ILIRAN",
  "postalCode": "29253"
 },
 {
  "id": 1403090005,
  "districtId": 1403090,
  "districtName": "GAUNG ANAK SERKA",
  "name": "TELUK SUNGKA",
  "postalCode": "29253"
 },
 {
  "id": 1403090006,
  "districtId": 1403090,
  "districtName": "GAUNG ANAK SERKA",
  "name": "TELUK PANTAIAN",
  "postalCode": "29253"
 },
 {
  "id": 1403090007,
  "districtId": 1403090,
  "districtName": "GAUNG ANAK SERKA",
  "name": "TELUK PINANG",
  "postalCode": "29253"
 },
 {
  "id": 1403090008,
  "districtId": 1403090,
  "districtName": "GAUNG ANAK SERKA",
  "name": "KUALA GAUNG",
  "postalCode": "29253"
 },
 {
  "id": 1403090009,
  "districtId": 1403090,
  "districtName": "GAUNG ANAK SERKA",
  "name": "KELUMPANG",
  "postalCode": "29253"
 },
 {
  "id": 1403090010,
  "districtId": 1403090,
  "districtName": "GAUNG ANAK SERKA",
  "name": "IDAMAN",
  "postalCode": "29253"
 },
 {
  "id": 1403090011,
  "districtId": 1403090,
  "districtName": "GAUNG ANAK SERKA",
  "name": "HARAPAN MAKMUR",
  "postalCode": "20773"
 },
 {
  "id": 1403090012,
  "districtId": 1403090,
  "districtName": "GAUNG ANAK SERKA",
  "name": "TANJUNG HARAPAN",
  "postalCode": "23754"
 }
]