[
 {
  "id": 1403011001,
  "districtId": 1403011,
  "districtName": "KEMUNING",
  "name": "SELENSEN",
  "postalCode": "29274"
 },
 {
  "id": 1403011002,
  "districtId": 1403011,
  "districtName": "KEMUNING",
  "name": "BATU AMPAR",
  "postalCode": "29274"
 },
 {
  "id": 1403011003,
  "districtId": 1403011,
  "districtName": "KEMUNING",
  "name": "KERITANG",
  "postalCode": "29274"
 },
 {
  "id": 1403011004,
  "districtId": 1403011,
  "districtName": "KEMUNING",
  "name": "AIR BALUI",
  "postalCode": "29274"
 },
 {
  "id": 1403011005,
  "districtId": 1403011,
  "districtName": "KEMUNING",
  "name": "TUK JIMUN",
  "postalCode": ""
 },
 {
  "id": 1403011006,
  "districtId": 1403011,
  "districtName": "KEMUNING",
  "name": "KEMUNING MUDA",
  "postalCode": "28763"
 },
 {
  "id": 1403011007,
  "districtId": 1403011,
  "districtName": "KEMUNING",
  "name": "KEMUNING TUA",
  "postalCode": "29274"
 },
 {
  "id": 1403011008,
  "districtId": 1403011,
  "districtName": "KEMUNING",
  "name": "SEKARA",
  "postalCode": "29274"
 },
 {
  "id": 1403011009,
  "districtId": 1403011,
  "districtName": "KEMUNING",
  "name": "LIMAU MANIS",
  "postalCode": "22998"
 },
 {
  "id": 1403011010,
  "districtId": 1403011,
  "districtName": "KEMUNING",
  "name": "TALANG JANGKANG",
  "postalCode": "29274"
 },
 {
  "id": 1403011011,
  "districtId": 1403011,
  "districtName": "KEMUNING",
  "name": "LUBUK BESAR",
  "postalCode": "21255"
 },
 {
  "id": 1403011012,
  "districtId": 1403011,
  "districtName": "KEMUNING",
  "name": "SEKAYAN",
  "postalCode": "29274"
 }
]