[
 {
  "id": 1403070009,
  "districtId": 1403070,
  "districtName": "TEMPULING",
  "name": "TEMPULING",
  "postalCode": "29261"
 },
 {
  "id": 1403070010,
  "districtId": 1403070,
  "districtName": "TEMPULING",
  "name": "SUNGAI SALAK",
  "postalCode": "29261"
 },
 {
  "id": 1403070011,
  "districtId": 1403070,
  "districtName": "TEMPULING",
  "name": "TELUK JIRA",
  "postalCode": "29261"
 },
 {
  "id": 1403070012,
  "districtId": 1403070,
  "districtName": "TEMPULING",
  "name": "MUMPA",
  "postalCode": "29261"
 },
 {
  "id": 1403070013,
  "districtId": 1403070,
  "districtName": "TEMPULING",
  "name": "TELUK KIAMBANG",
  "postalCode": "29261"
 },
 {
  "id": 1403070014,
  "districtId": 1403070,
  "districtName": "TEMPULING",
  "name": "KARYA TUNAS JAYA",
  "postalCode": "29261"
 },
 {
  "id": 1403070015,
  "districtId": 1403070,
  "districtName": "TEMPULING",
  "name": "HARAPAN JAYA",
  "postalCode": "20773"
 },
 {
  "id": 1403070016,
  "districtId": 1403070,
  "districtName": "TEMPULING",
  "name": "TANJUNG PIDADA",
  "postalCode": "29261"
 },
 {
  "id": 1403070017,
  "districtId": 1403070,
  "districtName": "TEMPULING",
  "name": "PANGKALAN TUJUH",
  "postalCode": "29261"
 }
]