[
 {
  "id": 1403010001,
  "districtId": 1403010,
  "districtName": "KERITANG",
  "name": "KOTABARU RETEH",
  "postalCode": ""
 },
 {
  "id": 1403010002,
  "districtId": 1403010,
  "districtName": "KERITANG",
  "name": "SEBERANG PEBENAAN",
  "postalCode": "29274"
 },
 {
  "id": 1403010003,
  "districtId": 1403010,
  "districtName": "KERITANG",
  "name": "PEBENAAN",
  "postalCode": "29274"
 },
 {
  "id": 1403010004,
  "districtId": 1403010,
  "districtName": "KERITANG",
  "name": "NUSANTARA JAYA",
  "postalCode": "29274"
 },
 {
  "id": 1403010005,
  "districtId": 1403010,
  "districtName": "KERITANG",
  "name": "KEMBANG MEKAR SARI",
  "postalCode": "29274"
 },
 {
  "id": 1403010006,
  "districtId": 1403010,
  "districtName": "KERITANG",
  "name": "KOTABARU SEBERIDA",
  "postalCode": ""
 },
 {
  "id": 1403010007,
  "districtId": 1403010,
  "districtName": "KERITANG",
  "name": "PASAR KEMBANG",
  "postalCode": "29274"
 },
 {
  "id": 1403010008,
  "districtId": 1403010,
  "districtName": "KERITANG",
  "name": "KUALA KERITANG",
  "postalCode": "29274"
 },
 {
  "id": 1403010009,
  "districtId": 1403010,
  "districtName": "KERITANG",
  "name": "KUALA LEMANG",
  "postalCode": "29274"
 },
 {
  "id": 1403010010,
  "districtId": 1403010,
  "districtName": "KERITANG",
  "name": "TELUK KELASA",
  "postalCode": "29274"
 },
 {
  "id": 1403010011,
  "districtId": 1403010,
  "districtName": "KERITANG",
  "name": "PENGALIHAN",
  "postalCode": "29272"
 },
 {
  "id": 1403010012,
  "districtId": 1403010,
  "districtName": "KERITANG",
  "name": "PANCUR",
  "postalCode": "29274"
 },
 {
  "id": 1403010013,
  "districtId": 1403010,
  "districtName": "KERITANG",
  "name": "SENCALANG",
  "postalCode": "29274"
 },
 {
  "id": 1403010014,
  "districtId": 1403010,
  "districtName": "KERITANG",
  "name": "KAYU RAJA",
  "postalCode": "29274"
 },
 {
  "id": 1403010015,
  "districtId": 1403010,
  "districtName": "KERITANG",
  "name": "LINTAS UTARA",
  "postalCode": "29274"
 },
 {
  "id": 1403010016,
  "districtId": 1403010,
  "districtName": "KERITANG",
  "name": "NYIUR PERMAI",
  "postalCode": "29274"
 },
 {
  "id": 1403010017,
  "districtId": 1403010,
  "districtName": "KERITANG",
  "name": "PETALONGAN",
  "postalCode": "29274"
 }
]