[
 {
  "id": 1404031001,
  "districtId": 1404031,
  "districtName": "PELALAWAN",
  "name": "SUNGAI ARA",
  "postalCode": "28353"
 },
 {
  "id": 1404031002,
  "districtId": 1404031,
  "districtName": "PELALAWAN",
  "name": "RANSANG",
  "postalCode": "28353"
 },
 {
  "id": 1404031003,
  "districtId": 1404031,
  "districtName": "PELALAWAN",
  "name": "KUALA TOLAM",
  "postalCode": "28353"
 },
 {
  "id": 1404031004,
  "districtId": 1404031,
  "districtName": "PELALAWAN",
  "name": "PELALAWAN",
  "postalCode": "28353"
 },
 {
  "id": 1404031005,
  "districtId": 1404031,
  "districtName": "PELALAWAN",
  "name": "TELAYAP",
  "postalCode": "28353"
 },
 {
  "id": 1404031006,
  "districtId": 1404031,
  "districtName": "PELALAWAN",
  "name": "BATANG NILO KECIL",
  "postalCode": "28353"
 },
 {
  "id": 1404031007,
  "districtId": 1404031,
  "districtName": "PELALAWAN",
  "name": "SERING",
  "postalCode": "28353"
 },
 {
  "id": 1404031008,
  "districtId": 1404031,
  "districtName": "PELALAWAN",
  "name": "DELIK",
  "postalCode": "28353"
 },
 {
  "id": 1404031010,
  "districtId": 1404031,
  "districtName": "PELALAWAN",
  "name": "LALANG KABUNG",
  "postalCode": "28353"
 }
]