[
 {
  "id": 1404022001,
  "districtId": 1404022,
  "districtName": "PANGKALAN LESUNG",
  "name": "GENDUANG",
  "postalCode": "28382"
 },
 {
  "id": 1404022002,
  "districtId": 1404022,
  "districtName": "PANGKALAN LESUNG",
  "name": "RAWANG SARI",
  "postalCode": "28382"
 },
 {
  "id": 1404022003,
  "districtId": 1404022,
  "districtName": "PANGKALAN LESUNG",
  "name": "SARI MAKMUR",
  "postalCode": "28382"
 },
 {
  "id": 1404022004,
  "districtId": 1404022,
  "districtName": "PANGKALAN LESUNG",
  "name": "MULIA SUBUR",
  "postalCode": ""
 },
 {
  "id": 1404022005,
  "districtId": 1404022,
  "districtName": "PANGKALAN LESUNG",
  "name": "MAYANG SARI",
  "postalCode": "28752"
 },
 {
  "id": 1404022006,
  "districtId": 1404022,
  "districtName": "PANGKALAN LESUNG",
  "name": "SARI MULYA",
  "postalCode": "37257"
 },
 {
  "id": 1404022007,
  "districtId": 1404022,
  "districtName": "PANGKALAN LESUNG",
  "name": "DUSUN TUA",
  "postalCode": "29352"
 },
 {
  "id": 1404022008,
  "districtId": 1404022,
  "districtName": "PANGKALAN LESUNG",
  "name": "PANGKALAN LESUNG",
  "postalCode": "28382"
 },
 {
  "id": 1404022009,
  "districtId": 1404022,
  "districtName": "PANGKALAN LESUNG",
  "name": "TANJUNG KUYO",
  "postalCode": "28382"
 },
 {
  "id": 1404022010,
  "districtId": 1404022,
  "districtName": "PANGKALAN LESUNG",
  "name": "PESAGUAN",
  "postalCode": "28382"
 }
]