[
 {
  "id": 1405025001,
  "districtId": 1405025,
  "districtName": "KOTO GASIB",
  "name": "KUALA GASIB",
  "postalCode": "28671"
 },
 {
  "id": 1405025002,
  "districtId": 1405025,
  "districtName": "KOTO GASIB",
  "name": "TELUK RIMBA",
  "postalCode": "28671"
 },
 {
  "id": 1405025003,
  "districtId": 1405025,
  "districtName": "KOTO GASIB",
  "name": "PANGKALAN PISANG",
  "postalCode": "28671"
 },
 {
  "id": 1405025004,
  "districtId": 1405025,
  "districtName": "KOTO GASIB",
  "name": "KERANJI GUGUH",
  "postalCode": "28671"
 },
 {
  "id": 1405025005,
  "districtId": 1405025,
  "districtName": "KOTO GASIB",
  "name": "EMPANG PANDAN",
  "postalCode": "28671"
 },
 {
  "id": 1405025006,
  "districtId": 1405025,
  "districtName": "KOTO GASIB",
  "name": "SENGKEMANG",
  "postalCode": "28671"
 },
 {
  "id": 1405025007,
  "districtId": 1405025,
  "districtName": "KOTO GASIB",
  "name": "RANTAU PANJANG",
  "postalCode": "24476"
 },
 {
  "id": 1405025008,
  "districtId": 1405025,
  "districtName": "KOTO GASIB",
  "name": "BUATAN II",
  "postalCode": "28671"
 },
 {
  "id": 1405025009,
  "districtId": 1405025,
  "districtName": "KOTO GASIB",
  "name": "BUATAN I",
  "postalCode": "28671"
 },
 {
  "id": 1405025010,
  "districtId": 1405025,
  "districtName": "KOTO GASIB",
  "name": "SRI GEMILANG",
  "postalCode": "28671"
 },
 {
  "id": 1405025011,
  "districtId": 1405025,
  "districtName": "KOTO GASIB",
  "name": "TASIK SEMINAI",
  "postalCode": "28671"
 }
]