[
 {
  "id": 1405022001,
  "districtId": 1405022,
  "districtName": "TUALANG",
  "name": "MEREDAN",
  "postalCode": "28772"
 },
 {
  "id": 1405022002,
  "districtId": 1405022,
  "districtName": "TUALANG",
  "name": "TUALANG",
  "postalCode": "24372"
 },
 {
  "id": 1405022003,
  "districtId": 1405022,
  "districtName": "TUALANG",
  "name": "PINANG SEBATANG",
  "postalCode": "28772"
 },
 {
  "id": 1405022013,
  "districtId": 1405022,
  "districtName": "TUALANG",
  "name": "MEREDAN BARAT",
  "postalCode": "28772"
 },
 {
  "id": 1405022014,
  "districtId": 1405022,
  "districtName": "TUALANG",
  "name": "PINANG SEBATANG BARAT",
  "postalCode": "28772"
 },
 {
  "id": 1405022015,
  "districtId": 1405022,
  "districtName": "TUALANG",
  "name": "PINANG SEBATANG TIMUR",
  "postalCode": "28772"
 },
 {
  "id": 1405022016,
  "districtId": 1405022,
  "districtName": "TUALANG",
  "name": "PERAWANG BARAT",
  "postalCode": "28772"
 },
 {
  "id": 1405022017,
  "districtId": 1405022,
  "districtName": "TUALANG",
  "name": "PERAWANG",
  "postalCode": "28772"
 },
 {
  "id": 1405022018,
  "districtId": 1405022,
  "districtName": "TUALANG",
  "name": "TUALANG TIMUR",
  "postalCode": "28772"
 }
]