[
 {
  "id": 1405011001,
  "districtId": 1405011,
  "districtName": "SUNGAI MANDAU",
  "name": "LUBUK UMBUT",
  "postalCode": "28671"
 },
 {
  "id": 1405011002,
  "districtId": 1405011,
  "districtName": "SUNGAI MANDAU",
  "name": "SUNGAI SELODANG",
  "postalCode": ""
 },
 {
  "id": 1405011003,
  "districtId": 1405011,
  "districtName": "SUNGAI MANDAU",
  "name": "TELUK LANCANG",
  "postalCode": "28671"
 },
 {
  "id": 1405011004,
  "districtId": 1405011,
  "districtName": "SUNGAI MANDAU",
  "name": "OLAK",
  "postalCode": "28671"
 },
 {
  "id": 1405011005,
  "districtId": 1405011,
  "districtName": "SUNGAI MANDAU",
  "name": "MUARA KELANTAN",
  "postalCode": "28671"
 },
 {
  "id": 1405011006,
  "districtId": 1405011,
  "districtName": "SUNGAI MANDAU",
  "name": "LUBUK JERING",
  "postalCode": "28671"
 },
 {
  "id": 1405011007,
  "districtId": 1405011,
  "districtName": "SUNGAI MANDAU",
  "name": "MUARA BUNGKAL",
  "postalCode": "28671"
 },
 {
  "id": 1405011008,
  "districtId": 1405011,
  "districtName": "SUNGAI MANDAU",
  "name": "BENCAH UMBAI",
  "postalCode": "28671"
 },
 {
  "id": 1405011009,
  "districtId": 1405011,
  "districtName": "SUNGAI MANDAU",
  "name": "TASIK BETUNG",
  "postalCode": "28671"
 }
]