[
 {
  "id": 1406014001,
  "districtId": 1406014,
  "districtName": "KAMPAR KIRI TENGAH",
  "name": "PENGHIDUPAN",
  "postalCode": "28471"
 },
 {
  "id": 1406014002,
  "districtId": 1406014,
  "districtName": "KAMPAR KIRI TENGAH",
  "name": "SIMALINYANG",
  "postalCode": "28471"
 },
 {
  "id": 1406014003,
  "districtId": 1406014,
  "districtName": "KAMPAR KIRI TENGAH",
  "name": "MAYANG PONGKAI",
  "postalCode": "28471"
 },
 {
  "id": 1406014004,
  "districtId": 1406014,
  "districtName": "KAMPAR KIRI TENGAH",
  "name": "LUBUK SAKAI",
  "postalCode": "28471"
 },
 {
  "id": 1406014005,
  "districtId": 1406014,
  "districtName": "KAMPAR KIRI TENGAH",
  "name": "BINA BARU",
  "postalCode": "28471"
 },
 {
  "id": 1406014006,
  "districtId": 1406014,
  "districtName": "KAMPAR KIRI TENGAH",
  "name": "HIDUP BARU",
  "postalCode": "28471"
 },
 {
  "id": 1406014007,
  "districtId": 1406014,
  "districtName": "KAMPAR KIRI TENGAH",
  "name": "KARYA BAKTI",
  "postalCode": "23893"
 },
 {
  "id": 1406014008,
  "districtId": 1406014,
  "districtName": "KAMPAR KIRI TENGAH",
  "name": "KOTO DAMAI",
  "postalCode": "28471"
 },
 {
  "id": 1406014009,
  "districtId": 1406014,
  "districtName": "KAMPAR KIRI TENGAH",
  "name": "UTAMA KARYA",
  "postalCode": "28471"
 },
 {
  "id": 1406014010,
  "districtId": 1406014,
  "districtName": "KAMPAR KIRI TENGAH",
  "name": "BUKIT SAKAI",
  "postalCode": "28471"
 },
 {
  "id": 1406014011,
  "districtId": 1406014,
  "districtName": "KAMPAR KIRI TENGAH",
  "name": "MEKAR JAYA",
  "postalCode": "20771"
 }
]