[
 {
  "id": 1406013001,
  "districtId": 1406013,
  "districtName": "GUNUNG SAHILAN",
  "name": "KEBUN DURIAN",
  "postalCode": "28471"
 },
 {
  "id": 1406013002,
  "districtId": 1406013,
  "districtName": "GUNUNG SAHILAN",
  "name": "SUBARAK",
  "postalCode": "28471"
 },
 {
  "id": 1406013003,
  "districtId": 1406013,
  "districtName": "GUNUNG SAHILAN",
  "name": "GUNUNG SAHILAN",
  "postalCode": "28471"
 },
 {
  "id": 1406013004,
  "districtId": 1406013,
  "districtName": "GUNUNG SAHILAN",
  "name": "SUKA MAKMUR",
  "postalCode": "24784"
 },
 {
  "id": 1406013005,
  "districtId": 1406013,
  "districtName": "GUNUNG SAHILAN",
  "name": "GUNUNG SARI",
  "postalCode": "28471"
 },
 {
  "id": 1406013006,
  "districtId": 1406013,
  "districtName": "GUNUNG SAHILAN",
  "name": "MAKMUR SEJAHTERA",
  "postalCode": "28471"
 },
 {
  "id": 1406013007,
  "districtId": 1406013,
  "districtName": "GUNUNG SAHILAN",
  "name": "SUNGAI LIPAI",
  "postalCode": "28471"
 },
 {
  "id": 1406013008,
  "districtId": 1406013,
  "districtName": "GUNUNG SAHILAN",
  "name": "SAHILAN DARUSSALAM",
  "postalCode": "28471"
 },
 {
  "id": 1406013009,
  "districtId": 1406013,
  "districtName": "GUNUNG SAHILAN",
  "name": "GUNUNG MULYA",
  "postalCode": "28471"
 }
]