[
 {
  "id": 1406011001,
  "districtId": 1406011,
  "districtName": "KAMPAR KIRI HULU",
  "name": "AUR KUNING",
  "postalCode": "26131"
 },
 {
  "id": 1406011002,
  "districtId": 1406011,
  "districtName": "KAMPAR KIRI HULU",
  "name": "TANJUNG BERINGIN",
  "postalCode": "22161"
 },
 {
  "id": 1406011003,
  "districtId": 1406011,
  "districtName": "KAMPAR KIRI HULU",
  "name": "BATU SANGGAN",
  "postalCode": "28471"
 },
 {
  "id": 1406011004,
  "districtId": 1406011,
  "districtName": "KAMPAR KIRI HULU",
  "name": "TANJUNG BELIT",
  "postalCode": "28471"
 },
 {
  "id": 1406011005,
  "districtId": 1406011,
  "districtName": "KAMPAR KIRI HULU",
  "name": "GEMA",
  "postalCode": "28471"
 },
 {
  "id": 1406011006,
  "districtId": 1406011,
  "districtName": "KAMPAR KIRI HULU",
  "name": "TANJUNG BELIT SELATAN",
  "postalCode": "28471"
 },
 {
  "id": 1406011007,
  "districtId": 1406011,
  "districtName": "KAMPAR KIRI HULU",
  "name": "KOTA LAMA",
  "postalCode": "28471"
 },
 {
  "id": 1406011008,
  "districtId": 1406011,
  "districtName": "KAMPAR KIRI HULU",
  "name": "LUDAI",
  "postalCode": "28471"
 },
 {
  "id": 1406011009,
  "districtId": 1406011,
  "districtName": "KAMPAR KIRI HULU",
  "name": "PANGKALAN KAPAS",
  "postalCode": "28471"
 },
 {
  "id": 1406011010,
  "districtId": 1406011,
  "districtName": "KAMPAR KIRI HULU",
  "name": "KEBUN TINGGI",
  "postalCode": "28471"
 },
 {
  "id": 1406011011,
  "districtId": 1406011,
  "districtName": "KAMPAR KIRI HULU",
  "name": "BATU SASAK",
  "postalCode": "28471"
 },
 {
  "id": 1406011012,
  "districtId": 1406011,
  "districtName": "KAMPAR KIRI HULU",
  "name": "TANJUNG KARANG",
  "postalCode": "24476"
 },
 {
  "id": 1406011013,
  "districtId": 1406011,
  "districtName": "KAMPAR KIRI HULU",
  "name": "GAJAH BERTALUT",
  "postalCode": "28471"
 },
 {
  "id": 1406011014,
  "districtId": 1406011,
  "districtName": "KAMPAR KIRI HULU",
  "name": "PANGKALAN SERAI",
  "postalCode": "28471"
 },
 {
  "id": 1406011015,
  "districtId": 1406011,
  "districtName": "KAMPAR KIRI HULU",
  "name": "DANAU SONTUL",
  "postalCode": "28471"
 },
 {
  "id": 1406011016,
  "districtId": 1406011,
  "districtName": "KAMPAR KIRI HULU",
  "name": "DERAS TAJAK",
  "postalCode": "28471"
 },
 {
  "id": 1406011017,
  "districtId": 1406011,
  "districtName": "KAMPAR KIRI HULU",
  "name": "TERUSAN",
  "postalCode": "28471"
 },
 {
  "id": 1406011018,
  "districtId": 1406011,
  "districtName": "KAMPAR KIRI HULU",
  "name": "SUNGAI SANTI",
  "postalCode": "28471"
 },
 {
  "id": 1406011019,
  "districtId": 1406011,
  "districtName": "KAMPAR KIRI HULU",
  "name": "TANJUNG PERMAI",
  "postalCode": "28471"
 },
 {
  "id": 1406011020,
  "districtId": 1406011,
  "districtName": "KAMPAR KIRI HULU",
  "name": "DUA SEPAKAT",
  "postalCode": "28471"
 },
 {
  "id": 1406011021,
  "districtId": 1406011,
  "districtName": "KAMPAR KIRI HULU",
  "name": "SUBAYANG JAYA",
  "postalCode": "28471"
 },
 {
  "id": 1406011022,
  "districtId": 1406011,
  "districtName": "KAMPAR KIRI HULU",
  "name": "BUKIT BETUNG",
  "postalCode": "28471"
 },
 {
  "id": 1406011023,
  "districtId": 1406011,
  "districtName": "KAMPAR KIRI HULU",
  "name": "LUBUK BIGAU",
  "postalCode": ""
 },
 {
  "id": 1406011024,
  "districtId": 1406011,
  "districtName": "KAMPAR KIRI HULU",
  "name": "MUARA BIO",
  "postalCode": ""
 }
]