[
 {
  "id": 1406020001,
  "districtId": 1406020,
  "districtName": "XIII KOTO KAMPAR",
  "name": "BALUNG",
  "postalCode": "28453"
 },
 {
  "id": 1406020002,
  "districtId": 1406020,
  "districtName": "XIII KOTO KAMPAR",
  "name": "PULAU GADANG",
  "postalCode": "28453"
 },
 {
  "id": 1406020003,
  "districtId": 1406020,
  "districtName": "XIII KOTO KAMPAR",
  "name": "TANJUNG ALAI",
  "postalCode": "22998"
 },
 {
  "id": 1406020004,
  "districtId": 1406020,
  "districtName": "XIII KOTO KAMPAR",
  "name": "BATU BERSURAT",
  "postalCode": "28453"
 },
 {
  "id": 1406020005,
  "districtId": 1406020,
  "districtName": "XIII KOTO KAMPAR",
  "name": "KOTO TUO",
  "postalCode": "26271"
 },
 {
  "id": 1406020006,
  "districtId": 1406020,
  "districtName": "XIII KOTO KAMPAR",
  "name": "MUARA TAKUS",
  "postalCode": "28453"
 },
 {
  "id": 1406020007,
  "districtId": 1406020,
  "districtName": "XIII KOTO KAMPAR",
  "name": "GUNUNG BUNGSU",
  "postalCode": "28453"
 },
 {
  "id": 1406020013,
  "districtId": 1406020,
  "districtName": "XIII KOTO KAMPAR",
  "name": "KOTO MESJID",
  "postalCode": "28453"
 },
 {
  "id": 1406020014,
  "districtId": 1406020,
  "districtName": "XIII KOTO KAMPAR",
  "name": "LUBUK AGUNG",
  "postalCode": "28453"
 },
 {
  "id": 1406020015,
  "districtId": 1406020,
  "districtName": "XIII KOTO KAMPAR",
  "name": "RANAH SUNGKAI",
  "postalCode": "28453"
 },
 {
  "id": 1406020016,
  "districtId": 1406020,
  "districtName": "XIII KOTO KAMPAR",
  "name": "BINAMANG",
  "postalCode": "28453"
 },
 {
  "id": 1406020017,
  "districtId": 1406020,
  "districtName": "XIII KOTO KAMPAR",
  "name": "PONGKAI ISTIQAMAH",
  "postalCode": ""
 },
 {
  "id": 1406020024,
  "districtId": 1406020,
  "districtName": "XIII KOTO KAMPAR",
  "name": "KOTO TUO BARAT",
  "postalCode": "28453"
 }
]