[
 {
  "id": 1407041004,
  "districtId": 1407041,
  "districtName": "RAMBAH HILIR",
  "name": "PASIR JAYA",
  "postalCode": "28557"
 },
 {
  "id": 1407041005,
  "districtId": 1407041,
  "districtName": "RAMBAH HILIR",
  "name": "PASIR UTAMA",
  "postalCode": "28557"
 },
 {
  "id": 1407041006,
  "districtId": 1407041,
  "districtName": "RAMBAH HILIR",
  "name": "RAMBAH HILIR",
  "postalCode": "28557"
 },
 {
  "id": 1407041007,
  "districtId": 1407041,
  "districtName": "RAMBAH HILIR",
  "name": "RAMBAH MUDA",
  "postalCode": "28557"
 },
 {
  "id": 1407041008,
  "districtId": 1407041,
  "districtName": "RAMBAH HILIR",
  "name": "SUNGAI SITOLANG",
  "postalCode": "28557"
 },
 {
  "id": 1407041009,
  "districtId": 1407041,
  "districtName": "RAMBAH HILIR",
  "name": "LUBUK KRAPAT",
  "postalCode": ""
 },
 {
  "id": 1407041010,
  "districtId": 1407041,
  "districtName": "RAMBAH HILIR",
  "name": "RAMBAH HILIR TENGAH",
  "postalCode": "28557"
 },
 {
  "id": 1407041011,
  "districtId": 1407041,
  "districtName": "RAMBAH HILIR",
  "name": "RAMBAH HILIR TIMUR",
  "postalCode": "28557"
 },
 {
  "id": 1407041012,
  "districtId": 1407041,
  "districtName": "RAMBAH HILIR",
  "name": "RAMBAH",
  "postalCode": "28557"
 },
 {
  "id": 1407041013,
  "districtId": 1407041,
  "districtName": "RAMBAH HILIR",
  "name": "SEROMBAU INDAH",
  "postalCode": ""
 },
 {
  "id": 1407041014,
  "districtId": 1407041,
  "districtName": "RAMBAH HILIR",
  "name": "SUNGAI DUA INDAH",
  "postalCode": "28557"
 },
 {
  "id": 1407041015,
  "districtId": 1407041,
  "districtName": "RAMBAH HILIR",
  "name": "MUARA MUSU",
  "postalCode": "28557"
 },
 {
  "id": 1407041016,
  "districtId": 1407041,
  "districtName": "RAMBAH HILIR",
  "name": "SEJATI",
  "postalCode": "28557"
 }
]