[
 {
  "id": 1407070002,
  "districtId": 1407070,
  "districtName": "KUNTO DARUSSALAM",
  "name": "KOTA INTAN",
  "postalCode": "28556"
 },
 {
  "id": 1407070003,
  "districtId": 1407070,
  "districtName": "KUNTO DARUSSALAM",
  "name": "KOTA LAMA",
  "postalCode": "28471"
 },
 {
  "id": 1407070006,
  "districtId": 1407070,
  "districtName": "KUNTO DARUSSALAM",
  "name": "BUKIT INTAN MAKMUR",
  "postalCode": "28556"
 },
 {
  "id": 1407070008,
  "districtId": 1407070,
  "districtName": "KUNTO DARUSSALAM",
  "name": "BAGAN TUJUH",
  "postalCode": "28556"
 },
 {
  "id": 1407070011,
  "districtId": 1407070,
  "districtName": "KUNTO DARUSSALAM",
  "name": "KOTA RAYA",
  "postalCode": "28556"
 },
 {
  "id": 1407070012,
  "districtId": 1407070,
  "districtName": "KUNTO DARUSSALAM",
  "name": "KOTA BARU",
  "postalCode": "23125"
 },
 {
  "id": 1407070013,
  "districtId": 1407070,
  "districtName": "KUNTO DARUSSALAM",
  "name": "SUNGAI KUTI",
  "postalCode": "28556"
 },
 {
  "id": 1407070014,
  "districtId": 1407070,
  "districtName": "KUNTO DARUSSALAM",
  "name": "PASIR INDAH",
  "postalCode": "28556"
 },
 {
  "id": 1407070015,
  "districtId": 1407070,
  "districtName": "KUNTO DARUSSALAM",
  "name": "MUARA DILAM",
  "postalCode": "28556"
 },
 {
  "id": 1407070016,
  "districtId": 1407070,
  "districtName": "KUNTO DARUSSALAM",
  "name": "PASIR LUHUR",
  "postalCode": "28556"
 }
]