[
 {
  "id": 1407020003,
  "districtId": 1407020,
  "districtName": "TANDUN",
  "name": "KUMAIN",
  "postalCode": "28554"
 },
 {
  "id": 1407020004,
  "districtId": 1407020,
  "districtName": "TANDUN",
  "name": "BONO TAPUNG",
  "postalCode": "28554"
 },
 {
  "id": 1407020005,
  "districtId": 1407020,
  "districtName": "TANDUN",
  "name": "DAYO",
  "postalCode": "28554"
 },
 {
  "id": 1407020006,
  "districtId": 1407020,
  "districtName": "TANDUN",
  "name": "TAPUNG JAYA",
  "postalCode": "28554"
 },
 {
  "id": 1407020012,
  "districtId": 1407020,
  "districtName": "TANDUN",
  "name": "TANDUN",
  "postalCode": "28554"
 },
 {
  "id": 1407020013,
  "districtId": 1407020,
  "districtName": "TANDUN",
  "name": "PUO RAYA",
  "postalCode": "28554"
 },
 {
  "id": 1407020014,
  "districtId": 1407020,
  "districtName": "TANDUN",
  "name": "SUNGAI KUNING",
  "postalCode": "29563"
 },
 {
  "id": 1407020015,
  "districtId": 1407020,
  "districtName": "TANDUN",
  "name": "KOTO TANDUN",
  "postalCode": "28554"
 },
 {
  "id": 1407020016,
  "districtId": 1407020,
  "districtName": "TANDUN",
  "name": "TANDUN BARAT",
  "postalCode": "28554"
 }
]