[
 {
  "id": 1408020005,
  "districtId": 1408020,
  "districtName": "BUKIT BATU",
  "name": "PANGKALAN JAMBI",
  "postalCode": "28761"
 },
 {
  "id": 1408020014,
  "districtId": 1408020,
  "districtName": "BUKIT BATU",
  "name": "DOMPAS",
  "postalCode": "28761"
 },
 {
  "id": 1408020015,
  "districtId": 1408020,
  "districtName": "BUKIT BATU",
  "name": "SEJANGAT",
  "postalCode": "28761"
 },
 {
  "id": 1408020016,
  "districtId": 1408020,
  "districtName": "BUKIT BATU",
  "name": "SUNGAI PAKNING",
  "postalCode": "28761"
 },
 {
  "id": 1408020017,
  "districtId": 1408020,
  "districtName": "BUKIT BATU",
  "name": "SUNGAI SELARI",
  "postalCode": "28761"
 },
 {
  "id": 1408020018,
  "districtId": 1408020,
  "districtName": "BUKIT BATU",
  "name": "BURUK BAKUL",
  "postalCode": "28761"
 },
 {
  "id": 1408020019,
  "districtId": 1408020,
  "districtName": "BUKIT BATU",
  "name": "BUKIT BATU",
  "postalCode": "28761"
 },
 {
  "id": 1408020020,
  "districtId": 1408020,
  "districtName": "BUKIT BATU",
  "name": "SUKAJADI",
  "postalCode": "24472"
 },
 {
  "id": 1408020029,
  "districtId": 1408020,
  "districtName": "BUKIT BATU",
  "name": "PAKNING ASAL",
  "postalCode": "28761"
 },
 {
  "id": 1408020030,
  "districtId": 1408020,
  "districtName": "BUKIT BATU",
  "name": "BATANG DUKU",
  "postalCode": "28761"
 }
]