[
 {
  "id": 1408012001,
  "districtId": 1408012,
  "districtName": "BATHIN SOLAPAN",
  "name": "BULUH MANIS",
  "postalCode": "28784"
 },
 {
  "id": 1408012002,
  "districtId": 1408012,
  "districtName": "BATHIN SOLAPAN",
  "name": "PETANI",
  "postalCode": "28383"
 },
 {
  "id": 1408012003,
  "districtId": 1408012,
  "districtName": "BATHIN SOLAPAN",
  "name": "TAMBUSAI BATANG DUI",
  "postalCode": "28784"
 },
 {
  "id": 1408012004,
  "districtId": 1408012,
  "districtName": "BATHIN SOLAPAN",
  "name": "SIMPANG PADANG",
  "postalCode": "28784"
 },
 {
  "id": 1408012005,
  "districtId": 1408012,
  "districtName": "BATHIN SOLAPAN",
  "name": "PEMATANG OBO",
  "postalCode": "28784"
 },
 {
  "id": 1408012006,
  "districtId": 1408012,
  "districtName": "BATHIN SOLAPAN",
  "name": "BALAI MAKAM",
  "postalCode": "28784"
 },
 {
  "id": 1408012007,
  "districtId": 1408012,
  "districtName": "BATHIN SOLAPAN",
  "name": "AIR KULIM",
  "postalCode": "28784"
 },
 {
  "id": 1408012008,
  "districtId": 1408012,
  "districtName": "BATHIN SOLAPAN",
  "name": "BONCAH MAHANG",
  "postalCode": "28784"
 },
 {
  "id": 1408012009,
  "districtId": 1408012,
  "districtName": "BATHIN SOLAPAN",
  "name": "SEBANGAR",
  "postalCode": "28784"
 },
 {
  "id": 1408012010,
  "districtId": 1408012,
  "districtName": "BATHIN SOLAPAN",
  "name": "PAMESI",
  "postalCode": "28784"
 },
 {
  "id": 1408012011,
  "districtId": 1408012,
  "districtName": "BATHIN SOLAPAN",
  "name": "BUMBUNG",
  "postalCode": "28784"
 },
 {
  "id": 1408012012,
  "districtId": 1408012,
  "districtName": "BATHIN SOLAPAN",
  "name": "KESUMBO AMPAI",
  "postalCode": ""
 },
 {
  "id": 1408012013,
  "districtId": 1408012,
  "districtName": "BATHIN SOLAPAN",
  "name": "BATHIN SOBANGA",
  "postalCode": "28784"
 }
]