[
 {
  "id": 1408040001,
  "districtId": 1408040,
  "districtName": "BENGKALIS",
  "name": "SEKODI",
  "postalCode": "28711"
 },
 {
  "id": 1408040002,
  "districtId": 1408040,
  "districtName": "BENGKALIS",
  "name": "KELEMANTAN",
  "postalCode": "28711"
 },
 {
  "id": 1408040003,
  "districtId": 1408040,
  "districtName": "BENGKALIS",
  "name": "KETAM PUTIH",
  "postalCode": "28711"
 },
 {
  "id": 1408040004,
  "districtId": 1408040,
  "districtName": "BENGKALIS",
  "name": "PEMATANG DUKU",
  "postalCode": "28711"
 },
 {
  "id": 1408040005,
  "districtId": 1408040,
  "districtName": "BENGKALIS",
  "name": "PENEBAL",
  "postalCode": "28711"
 },
 {
  "id": 1408040006,
  "districtId": 1408040,
  "districtName": "BENGKALIS",
  "name": "TEMERAN",
  "postalCode": "28711"
 },
 {
  "id": 1408040007,
  "districtId": 1408040,
  "districtName": "BENGKALIS",
  "name": "PENAMPI",
  "postalCode": "28711"
 },
 {
  "id": 1408040008,
  "districtId": 1408040,
  "districtName": "BENGKALIS",
  "name": "SUNGAI ALAM",
  "postalCode": ""
 },
 {
  "id": 1408040009,
  "districtId": 1408040,
  "districtName": "BENGKALIS",
  "name": "AIR PUTIH",
  "postalCode": "21264"
 },
 {
  "id": 1408040010,
  "districtId": 1408040,
  "districtName": "BENGKALIS",
  "name": "SENGGORO",
  "postalCode": "28714"
 },
 {
  "id": 1408040011,
  "districtId": 1408040,
  "districtName": "BENGKALIS",
  "name": "RIMBA SEKAMPUNG",
  "postalCode": "28711"
 },
 {
  "id": 1408040012,
  "districtId": 1408040,
  "districtName": "BENGKALIS",
  "name": "BENGKALIS KOTA",
  "postalCode": "28712"
 },
 {
  "id": 1408040013,
  "districtId": 1408040,
  "districtName": "BENGKALIS",
  "name": "WONOSARI",
  "postalCode": "24582"
 },
 {
  "id": 1408040014,
  "districtId": 1408040,
  "districtName": "BENGKALIS",
  "name": "DAMON",
  "postalCode": ""
 },
 {
  "id": 1408040015,
  "districtId": 1408040,
  "districtName": "BENGKALIS",
  "name": "KELAPA PATI",
  "postalCode": "28711"
 },
 {
  "id": 1408040016,
  "districtId": 1408040,
  "districtName": "BENGKALIS",
  "name": "PEDEKIK",
  "postalCode": "28711"
 },
 {
  "id": 1408040017,
  "districtId": 1408040,
  "districtName": "BENGKALIS",
  "name": "PANGKALAN BATANG",
  "postalCode": "28711"
 },
 {
  "id": 1408040018,
  "districtId": 1408040,
  "districtName": "BENGKALIS",
  "name": "SEBAUK",
  "postalCode": "28711"
 },
 {
  "id": 1408040019,
  "districtId": 1408040,
  "districtName": "BENGKALIS",
  "name": "TELUK LATAK",
  "postalCode": "28711"
 },
 {
  "id": 1408040020,
  "districtId": 1408040,
  "districtName": "BENGKALIS",
  "name": "MESKOM",
  "postalCode": "28711"
 },
 {
  "id": 1408040021,
  "districtId": 1408040,
  "districtName": "BENGKALIS",
  "name": "PALKUN",
  "postalCode": "28711"
 },
 {
  "id": 1408040022,
  "districtId": 1408040,
  "districtName": "BENGKALIS",
  "name": "KELEMANTAN BARAT",
  "postalCode": "28711"
 },
 {
  "id": 1408040023,
  "districtId": 1408040,
  "districtName": "BENGKALIS",
  "name": "SUNGAI BATANG",
  "postalCode": "26471"
 },
 {
  "id": 1408040024,
  "districtId": 1408040,
  "districtName": "BENGKALIS",
  "name": "PEMATANG DUKU TIMUR",
  "postalCode": "28711"
 },
 {
  "id": 1408040025,
  "districtId": 1408040,
  "districtName": "BENGKALIS",
  "name": "DAMAI",
  "postalCode": "20745"
 },
 {
  "id": 1408040026,
  "districtId": 1408040,
  "districtName": "BENGKALIS",
  "name": "KELEBUK",
  "postalCode": "28711"
 },
 {
  "id": 1408040027,
  "districtId": 1408040,
  "districtName": "BENGKALIS",
  "name": "KUALA ALAM",
  "postalCode": "28711"
 },
 {
  "id": 1408040028,
  "districtId": 1408040,
  "districtName": "BENGKALIS",
  "name": "PANGKALAN BATANG BARAT",
  "postalCode": "28711"
 },
 {
  "id": 1408040029,
  "districtId": 1408040,
  "districtName": "BENGKALIS",
  "name": "SENDERAK",
  "postalCode": ""
 },
 {
  "id": 1408040030,
  "districtId": 1408040,
  "districtName": "BENGKALIS",
  "name": "PRAPAT TUNGGAL",
  "postalCode": "28711"
 },
 {
  "id": 1408040031,
  "districtId": 1408040,
  "districtName": "BENGKALIS",
  "name": "SIMPANG AYAM",
  "postalCode": "28711"
 }
]