[
 {
  "id": 1408010013,
  "districtId": 1408010,
  "districtName": "MANDAU",
  "name": "TALANG MANDI",
  "postalCode": "28784"
 },
 {
  "id": 1408010014,
  "districtId": 1408010,
  "districtName": "MANDAU",
  "name": "HARAPAN BARU",
  "postalCode": "24786"
 },
 {
  "id": 1408010015,
  "districtId": 1408010,
  "districtName": "MANDAU",
  "name": "GAJAH SAKTI",
  "postalCode": "21274"
 },
 {
  "id": 1408010016,
  "districtId": 1408010,
  "districtName": "MANDAU",
  "name": "BATANG SEROSA",
  "postalCode": "28784"
 },
 {
  "id": 1408010017,
  "districtId": 1408010,
  "districtName": "MANDAU",
  "name": "BALIK ALAM",
  "postalCode": "28784"
 },
 {
  "id": 1408010018,
  "districtId": 1408010,
  "districtName": "MANDAU",
  "name": "DURI BARAT",
  "postalCode": "28784"
 },
 {
  "id": 1408010019,
  "districtId": 1408010,
  "districtName": "MANDAU",
  "name": "DURI TIMUR",
  "postalCode": "28784"
 },
 {
  "id": 1408010020,
  "districtId": 1408010,
  "districtName": "MANDAU",
  "name": "BABUSSALAM",
  "postalCode": "24392"
 },
 {
  "id": 1408010021,
  "districtId": 1408010,
  "districtName": "MANDAU",
  "name": "AIR JAMBAN",
  "postalCode": "28784"
 },
 {
  "id": 1408010025,
  "districtId": 1408010,
  "districtName": "MANDAU",
  "name": "PEMATANG PUDU",
  "postalCode": "28784"
 },
 {
  "id": 1408010028,
  "districtId": 1408010,
  "districtName": "MANDAU",
  "name": "BATHIN BETUAH",
  "postalCode": "28784"
 }
]