[
 {
  "id": 1408013001,
  "districtId": 1408013,
  "districtName": "TALANG MUANDAU",
  "name": "MELIBUR",
  "postalCode": "28784"
 },
 {
  "id": 1408013002,
  "districtId": 1408013,
  "districtName": "TALANG MUANDAU",
  "name": "BERINGIN",
  "postalCode": "20552"
 },
 {
  "id": 1408013003,
  "districtId": 1408013,
  "districtName": "TALANG MUANDAU",
  "name": "KUALA PENASO",
  "postalCode": "28784"
 },
 {
  "id": 1408013004,
  "districtId": 1408013,
  "districtName": "TALANG MUANDAU",
  "name": "KOTO PAIT BERINGIN",
  "postalCode": "28784"
 },
 {
  "id": 1408013005,
  "districtId": 1408013,
  "districtName": "TALANG MUANDAU",
  "name": "SERAI WANGI",
  "postalCode": "29354"
 },
 {
  "id": 1408013006,
  "districtId": 1408013,
  "districtName": "TALANG MUANDAU",
  "name": "TASIK TEBING SERAI",
  "postalCode": "28784"
 },
 {
  "id": 1408013007,
  "districtId": 1408013,
  "districtName": "TALANG MUANDAU",
  "name": "TASIK SERAI TIMUR",
  "postalCode": "28784"
 },
 {
  "id": 1408013008,
  "districtId": 1408013,
  "districtName": "TALANG MUANDAU",
  "name": "TASIK SERAI",
  "postalCode": "28784"
 },
 {
  "id": 1408013009,
  "districtId": 1408013,
  "districtName": "TALANG MUANDAU",
  "name": "TASIK SERAI BARAT",
  "postalCode": "28784"
 }
]