[
 {
  "id": 1409011002,
  "districtId": 1409011,
  "districtName": "PUJUD",
  "name": "PUJUD",
  "postalCode": "28983"
 },
 {
  "id": 1409011003,
  "districtId": 1409011,
  "districtName": "PUJUD",
  "name": "TELUK NAYANG",
  "postalCode": ""
 },
 {
  "id": 1409011004,
  "districtId": 1409011,
  "districtName": "PUJUD",
  "name": "AIR HITAM",
  "postalCode": "20856"
 },
 {
  "id": 1409011005,
  "districtId": 1409011,
  "districtName": "PUJUD",
  "name": "SIARANG ARANG",
  "postalCode": ""
 },
 {
  "id": 1409011020,
  "districtId": 1409011,
  "districtName": "PUJUD",
  "name": "KASANG BANGSAWAN",
  "postalCode": "28983"
 },
 {
  "id": 1409011021,
  "districtId": 1409011,
  "districtName": "PUJUD",
  "name": "SUNGAI PINANG",
  "postalCode": "25654"
 },
 {
  "id": 1409011024,
  "districtId": 1409011,
  "districtName": "PUJUD",
  "name": "SUKA JADI",
  "postalCode": "23662"
 },
 {
  "id": 1409011034,
  "districtId": 1409011,
  "districtName": "PUJUD",
  "name": "PERKEBUNAN SIARANGARANG",
  "postalCode": ""
 },
 {
  "id": 1409011035,
  "districtId": 1409011,
  "districtName": "PUJUD",
  "name": "BABUSSALAM ROKAN",
  "postalCode": "28983"
 },
 {
  "id": 1409011036,
  "districtId": 1409011,
  "districtName": "PUJUD",
  "name": "PUJUD SELATAN",
  "postalCode": "28983"
 },
 {
  "id": 1409011037,
  "districtId": 1409011,
  "districtName": "PUJUD",
  "name": "PUJUD UTARA",
  "postalCode": "28983"
 },
 {
  "id": 1409011038,
  "districtId": 1409011,
  "districtName": "PUJUD",
  "name": "PEMATANG GENTING",
  "postalCode": ""
 },
 {
  "id": 1409011039,
  "districtId": 1409011,
  "districtName": "PUJUD",
  "name": "SUKA MULYA",
  "postalCode": "28463"
 },
 {
  "id": 1409011040,
  "districtId": 1409011,
  "districtName": "PUJUD",
  "name": "SIARANG ARANG ROKAN",
  "postalCode": ""
 },
 {
  "id": 1409011041,
  "districtId": 1409011,
  "districtName": "PUJUD",
  "name": "KASANG BANGSAWAN MUDA",
  "postalCode": ""
 },
 {
  "id": 1409011042,
  "districtId": 1409011,
  "districtName": "PUJUD",
  "name": "ULAK KEMBAHANG",
  "postalCode": "30868"
 }
]