[
 {
  "id": 1409023001,
  "districtId": 1409023,
  "districtName": "BALAI JAYA",
  "name": "PASIR PUTIH",
  "postalCode": "24453"
 },
 {
  "id": 1409023002,
  "districtId": 1409023,
  "districtName": "BALAI JAYA",
  "name": "BALAI JAYA",
  "postalCode": "28992"
 },
 {
  "id": 1409023003,
  "districtId": 1409023,
  "districtName": "BALAI JAYA",
  "name": "BALAM SEMPURNA",
  "postalCode": "28992"
 },
 {
  "id": 1409023004,
  "districtId": 1409023,
  "districtName": "BALAI JAYA",
  "name": "BALAM SEMPURNA KOTA",
  "postalCode": "28992"
 },
 {
  "id": 1409023005,
  "districtId": 1409023,
  "districtName": "BALAI JAYA",
  "name": "BALAM JAYA",
  "postalCode": "28992"
 },
 {
  "id": 1409023006,
  "districtId": 1409023,
  "districtName": "BALAI JAYA",
  "name": "BALAI JAYA KOTA",
  "postalCode": "28992"
 },
 {
  "id": 1409023007,
  "districtId": 1409023,
  "districtName": "BALAI JAYA",
  "name": "PASIR PUTIH UTARA",
  "postalCode": "28992"
 },
 {
  "id": 1409023008,
  "districtId": 1409023,
  "districtName": "BALAI JAYA",
  "name": "KENCANA",
  "postalCode": "28992"
 },
 {
  "id": 1409023009,
  "districtId": 1409023,
  "districtName": "BALAI JAYA",
  "name": "BAGAN BHAKTI",
  "postalCode": ""
 },
 {
  "id": 1409023010,
  "districtId": 1409023,
  "districtName": "BALAI JAYA",
  "name": "PASIR PUTIH BARAT",
  "postalCode": "28992"
 },
 {
  "id": 1409023011,
  "districtId": 1409023,
  "districtName": "BALAI JAYA",
  "name": "LUBUK JAWI",
  "postalCode": "28992"
 }
]