[
 {
  "id": 1410050001,
  "districtId": 1410050,
  "districtName": "MERBAU",
  "name": "LUKIT",
  "postalCode": "28752"
 },
 {
  "id": 1410050002,
  "districtId": 1410050,
  "districtName": "MERBAU",
  "name": "MERANTI BUNTING",
  "postalCode": "28752"
 },
 {
  "id": 1410050003,
  "districtId": 1410050,
  "districtName": "MERBAU",
  "name": "TANJUNG KULIM",
  "postalCode": "28752"
 },
 {
  "id": 1410050004,
  "districtId": 1410050,
  "districtName": "MERBAU",
  "name": "PELANTAI",
  "postalCode": "28752"
 },
 {
  "id": 1410050005,
  "districtId": 1410050,
  "districtName": "MERBAU",
  "name": "MEKAR SARI",
  "postalCode": "21261"
 },
 {
  "id": 1410050006,
  "districtId": 1410050,
  "districtName": "MERBAU",
  "name": "TELUK BELITUNG",
  "postalCode": "28752"
 },
 {
  "id": 1410050007,
  "districtId": 1410050,
  "districtName": "MERBAU",
  "name": "BAGAN MELIBUR",
  "postalCode": "28752"
 },
 {
  "id": 1410050016,
  "districtId": 1410050,
  "districtName": "MERBAU",
  "name": "MAYANG SARI",
  "postalCode": "28752"
 },
 {
  "id": 1410050019,
  "districtId": 1410050,
  "districtName": "MERBAU",
  "name": "SUNGAI ANAK KAMAL",
  "postalCode": "28752"
 },
 {
  "id": 1410050020,
  "districtId": 1410050,
  "districtName": "MERBAU",
  "name": "SUNGAI TENGAH",
  "postalCode": "28752"
 }
]