[
 {
  "id": 1501090003,
  "districtId": 1501090,
  "districtName": "KAYU ARO",
  "name": "SUNGAI DALAM",
  "postalCode": "37163"
 },
 {
  "id": 1501090004,
  "districtId": 1501090,
  "districtName": "KAYU ARO",
  "name": "KOTO TUO",
  "postalCode": "26271"
 },
 {
  "id": 1501090005,
  "districtId": 1501090,
  "districtName": "KAYU ARO",
  "name": "KOTO BARU",
  "postalCode": "27561"
 },
 {
  "id": 1501090014,
  "districtId": 1501090,
  "districtName": "KAYU ARO",
  "name": "BEDENG BARU",
  "postalCode": "37163"
 },
 {
  "id": 1501090015,
  "districtId": 1501090,
  "districtName": "KAYU ARO",
  "name": "SUNGAI TANDUK",
  "postalCode": "37163"
 },
 {
  "id": 1501090016,
  "districtId": 1501090,
  "districtName": "KAYU ARO",
  "name": "KOTO PANJANG",
  "postalCode": "26161"
 },
 {
  "id": 1501090017,
  "districtId": 1501090,
  "districtName": "KAYU ARO",
  "name": "SUNGAI SAMPUN",
  "postalCode": "37163"
 },
 {
  "id": 1501090018,
  "districtId": 1501090,
  "districtName": "KAYU ARO",
  "name": "KOTO TENGAH",
  "postalCode": "37161"
 },
 {
  "id": 1501090019,
  "districtId": 1501090,
  "districtName": "KAYU ARO",
  "name": "SUNGAI BENDUNG AIR",
  "postalCode": "37163"
 },
 {
  "id": 1501090023,
  "districtId": 1501090,
  "districtName": "KAYU ARO",
  "name": "SANGIR",
  "postalCode": "24653"
 },
 {
  "id": 1501090024,
  "districtId": 1501090,
  "districtName": "KAYU ARO",
  "name": "BATANG SANGIR",
  "postalCode": "37163"
 },
 {
  "id": 1501090025,
  "districtId": 1501090,
  "districtName": "KAYU ARO",
  "name": "KERSIK TUO",
  "postalCode": "37163"
 },
 {
  "id": 1501090036,
  "districtId": 1501090,
  "districtName": "KAYU ARO",
  "name": "KOTO PERIANG",
  "postalCode": "37163"
 },
 {
  "id": 1501090037,
  "districtId": 1501090,
  "districtName": "KAYU ARO",
  "name": "LINDUNG JAYA",
  "postalCode": "37163"
 },
 {
  "id": 1501090039,
  "districtId": 1501090,
  "districtName": "KAYU ARO",
  "name": "PASAR SUNGAI TANDUK",
  "postalCode": "37163"
 },
 {
  "id": 1501090040,
  "districtId": 1501090,
  "districtName": "KAYU ARO",
  "name": "MEKAR SARI",
  "postalCode": "21261"
 },
 {
  "id": 1501090041,
  "districtId": 1501090,
  "districtName": "KAYU ARO",
  "name": "RENAH KASAH",
  "postalCode": ""
 },
 {
  "id": 1501090043,
  "districtId": 1501090,
  "districtName": "KAYU ARO",
  "name": "MEKAR JAYA",
  "postalCode": "20771"
 },
 {
  "id": 1501090044,
  "districtId": 1501090,
  "districtName": "KAYU ARO",
  "name": "SANGIR TENGAH",
  "postalCode": "37163"
 },
 {
  "id": 1501090045,
  "districtId": 1501090,
  "districtName": "KAYU ARO",
  "name": "BENDUNG AIR TIMUR",
  "postalCode": "37163"
 },
 {
  "id": 1501090046,
  "districtId": 1501090,
  "districtName": "KAYU ARO",
  "name": "TANJUNG BUNGO",
  "postalCode": "28461"
 }
]