[
 {
  "id": 1501030001,
  "districtId": 1501030,
  "districtName": "KELILING DANAU",
  "name": "TANJUNG BATU",
  "postalCode": "37173"
 },
 {
  "id": 1501030002,
  "districtId": 1501030,
  "districtName": "KELILING DANAU",
  "name": "PIDUNG",
  "postalCode": "37173"
 },
 {
  "id": 1501030003,
  "districtId": 1501030,
  "districtName": "KELILING DANAU",
  "name": "KELURU",
  "postalCode": "37173"
 },
 {
  "id": 1501030004,
  "districtId": 1501030,
  "districtName": "KELILING DANAU",
  "name": "TALANG LINDUNG",
  "postalCode": "37173"
 },
 {
  "id": 1501030005,
  "districtId": 1501030,
  "districtName": "KELILING DANAU",
  "name": "KOTO AGUNG",
  "postalCode": "37173"
 },
 {
  "id": 1501030006,
  "districtId": 1501030,
  "districtName": "KELILING DANAU",
  "name": "JUJUN",
  "postalCode": "37173"
 },
 {
  "id": 1501030007,
  "districtId": 1501030,
  "districtName": "KELILING DANAU",
  "name": "BENIK",
  "postalCode": "37173"
 },
 {
  "id": 1501030008,
  "districtId": 1501030,
  "districtName": "KELILING DANAU",
  "name": "KOTO DIAN",
  "postalCode": "37152"
 },
 {
  "id": 1501030009,
  "districtId": 1501030,
  "districtName": "KELILING DANAU",
  "name": "TELAGO",
  "postalCode": ""
 },
 {
  "id": 1501030010,
  "districtId": 1501030,
  "districtName": "KELILING DANAU",
  "name": "KOTO TUO PULO TENGAH",
  "postalCode": ""
 },
 {
  "id": 1501030011,
  "districtId": 1501030,
  "districtName": "KELILING DANAU",
  "name": "DUSUN BARU PULAU TENGAH",
  "postalCode": "37173"
 },
 {
  "id": 1501030012,
  "districtId": 1501030,
  "districtName": "KELILING DANAU",
  "name": "LEMPUR DANAU",
  "postalCode": "37173"
 },
 {
  "id": 1501030013,
  "districtId": 1501030,
  "districtName": "KELILING DANAU",
  "name": "KOTO PATAH",
  "postalCode": "37173"
 },
 {
  "id": 1501030014,
  "districtId": 1501030,
  "districtName": "KELILING DANAU",
  "name": "SEMERAP",
  "postalCode": "37173"
 },
 {
  "id": 1501030015,
  "districtId": 1501030,
  "districtName": "KELILING DANAU",
  "name": "KOTO BARU SEMERAP",
  "postalCode": "37173"
 },
 {
  "id": 1501030016,
  "districtId": 1501030,
  "districtName": "KELILING DANAU",
  "name": "PONDOK SIGUANG",
  "postalCode": "37173"
 },
 {
  "id": 1501030017,
  "districtId": 1501030,
  "districtName": "KELILING DANAU",
  "name": "TANJUNG PAUH HILIR",
  "postalCode": "37173"
 },
 {
  "id": 1501030018,
  "districtId": 1501030,
  "districtName": "KELILING DANAU",
  "name": "PUNAI MERINDU",
  "postalCode": "37173"
 },
 {
  "id": 1501030019,
  "districtId": 1501030,
  "districtName": "KELILING DANAU",
  "name": "TANJUNG PAUH MUDIK",
  "postalCode": "37173"
 },
 {
  "id": 1501030020,
  "districtId": 1501030,
  "districtName": "KELILING DANAU",
  "name": "PANCURAN TIGA",
  "postalCode": "37173"
 },
 {
  "id": 1501030021,
  "districtId": 1501030,
  "districtName": "KELILING DANAU",
  "name": "KOTO BARU",
  "postalCode": "27561"
 },
 {
  "id": 1501030022,
  "districtId": 1501030,
  "districtName": "KELILING DANAU",
  "name": "PULAU TENGAH",
  "postalCode": "37372"
 },
 {
  "id": 1501030023,
  "districtId": 1501030,
  "districtName": "KELILING DANAU",
  "name": "PASAR SEMERAP",
  "postalCode": "37173"
 },
 {
  "id": 1501030024,
  "districtId": 1501030,
  "districtName": "KELILING DANAU",
  "name": "PERMAI BARU",
  "postalCode": "37173"
 },
 {
  "id": 1501030025,
  "districtId": 1501030,
  "districtName": "KELILING DANAU",
  "name": "PASAR JUJUN",
  "postalCode": "37173"
 },
 {
  "id": 1501030026,
  "districtId": 1501030,
  "districtName": "KELILING DANAU",
  "name": "LIMOK MANAIH PULAU TENGAH",
  "postalCode": "37173"
 },
 {
  "id": 1501030027,
  "districtId": 1501030,
  "districtName": "KELILING DANAU",
  "name": "JEMBATAN MERAH PULAU TENGAH",
  "postalCode": "37173"
 },
 {
  "id": 1501030028,
  "districtId": 1501030,
  "districtName": "KELILING DANAU",
  "name": "PANCURAN BANGKO",
  "postalCode": "37173"
 },
 {
  "id": 1501030029,
  "districtId": 1501030,
  "districtName": "KELILING DANAU",
  "name": "KOTO TENGAH",
  "postalCode": "37161"
 },
 {
  "id": 1501030030,
  "districtId": 1501030,
  "districtName": "KELILING DANAU",
  "name": "SERUMPUN PAUH",
  "postalCode": "37173"
 },
 {
  "id": 1501030031,
  "districtId": 1501030,
  "districtName": "KELILING DANAU",
  "name": "SUMUR JAUH",
  "postalCode": "37173"
 },
 {
  "id": 1501030032,
  "districtId": 1501030,
  "districtName": "KELILING DANAU",
  "name": "BUKIT PULAI",
  "postalCode": ""
 }
]