[
 {
  "id": 1502030004,
  "districtId": 1502030,
  "districtName": "PAMENANG",
  "name": "REJOSARI",
  "postalCode": "29353"
 },
 {
  "id": 1502030005,
  "districtId": 1502030,
  "districtName": "PAMENANG",
  "name": "PEMATANG KANCIL",
  "postalCode": "37352"
 },
 {
  "id": 1502030006,
  "districtId": 1502030,
  "districtName": "PAMENANG",
  "name": "TANAH ABANG",
  "postalCode": "20585"
 },
 {
  "id": 1502030007,
  "districtId": 1502030,
  "districtName": "PAMENANG",
  "name": "EMPANG BENAO",
  "postalCode": "37352"
 },
 {
  "id": 1502030008,
  "districtId": 1502030,
  "districtName": "PAMENANG",
  "name": "TANJUNG GEDANG",
  "postalCode": "37352"
 },
 {
  "id": 1502030009,
  "districtId": 1502030,
  "districtName": "PAMENANG",
  "name": "K E R O Y A",
  "postalCode": ""
 },
 {
  "id": 1502030010,
  "districtId": 1502030,
  "districtName": "PAMENANG",
  "name": "PAUH MENANG",
  "postalCode": "37352"
 },
 {
  "id": 1502030011,
  "districtId": 1502030,
  "districtName": "PAMENANG",
  "name": "KELURAHAN PAMENANG",
  "postalCode": ""
 },
 {
  "id": 1502030017,
  "districtId": 1502030,
  "districtName": "PAMENANG",
  "name": "SIALANG",
  "postalCode": "23772"
 },
 {
  "id": 1502030018,
  "districtId": 1502030,
  "districtName": "PAMENANG",
  "name": "MUARA BELENGO",
  "postalCode": ""
 },
 {
  "id": 1502030019,
  "districtId": 1502030,
  "districtName": "PAMENANG",
  "name": "JELATANG",
  "postalCode": "37352"
 },
 {
  "id": 1502030020,
  "districtId": 1502030,
  "districtName": "PAMENANG",
  "name": "KARANG BERAHI",
  "postalCode": ""
 },
 {
  "id": 1502030026,
  "districtId": 1502030,
  "districtName": "PAMENANG",
  "name": "SUNGAI UDANG",
  "postalCode": "37352"
 },
 {
  "id": 1502030027,
  "districtId": 1502030,
  "districtName": "PAMENANG",
  "name": "PELAKAR JAYA",
  "postalCode": "37352"
 }
]