[
 {
  "id": 1502050009,
  "districtId": 1502050,
  "districtName": "SUNGAI MANAU",
  "name": "BUKIT BATU",
  "postalCode": "28761"
 },
 {
  "id": 1502050010,
  "districtId": 1502050,
  "districtName": "SUNGAI MANAU",
  "name": "SUNGAI NILAU",
  "postalCode": "37361"
 },
 {
  "id": 1502050011,
  "districtId": 1502050,
  "districtName": "SUNGAI MANAU",
  "name": "SUNGAI PINANG",
  "postalCode": "25654"
 },
 {
  "id": 1502050012,
  "districtId": 1502050,
  "districtName": "SUNGAI MANAU",
  "name": "PALIPAN",
  "postalCode": "37361"
 },
 {
  "id": 1502050013,
  "districtId": 1502050,
  "districtName": "SUNGAI MANAU",
  "name": "SERINGAT",
  "postalCode": ""
 },
 {
  "id": 1502050014,
  "districtId": 1502050,
  "districtName": "SUNGAI MANAU",
  "name": "TIANGKO",
  "postalCode": "37361"
 },
 {
  "id": 1502050015,
  "districtId": 1502050,
  "districtName": "SUNGAI MANAU",
  "name": "SUNGAI MANAU",
  "postalCode": "37361"
 },
 {
  "id": 1502050016,
  "districtId": 1502050,
  "districtName": "SUNGAI MANAU",
  "name": "DURIAN LECAH",
  "postalCode": "37361"
 },
 {
  "id": 1502050017,
  "districtId": 1502050,
  "districtName": "SUNGAI MANAU",
  "name": "BENTENG",
  "postalCode": "24452"
 },
 {
  "id": 1502050018,
  "districtId": 1502050,
  "districtName": "SUNGAI MANAU",
  "name": "GELANGGANG",
  "postalCode": "37361"
 }
]