[
 {
  "id": 1502051001,
  "districtId": 1502051,
  "districtName": "RENAH PEMBARAP",
  "name": "TALANG SEGEGAH",
  "postalCode": "37361"
 },
 {
  "id": 1502051002,
  "districtId": 1502051,
  "districtName": "RENAH PEMBARAP",
  "name": "DURIAN BATAKUK",
  "postalCode": "37361"
 },
 {
  "id": 1502051003,
  "districtId": 1502051,
  "districtName": "RENAH PEMBARAP",
  "name": "MUARO PANCO BARAT",
  "postalCode": ""
 },
 {
  "id": 1502051004,
  "districtId": 1502051,
  "districtName": "RENAH PEMBARAP",
  "name": "PARIT UJUNG TANJUNG",
  "postalCode": "37361"
 },
 {
  "id": 1502051005,
  "districtId": 1502051,
  "districtName": "RENAH PEMBARAP",
  "name": "GUGUK",
  "postalCode": "27562"
 },
 {
  "id": 1502051006,
  "districtId": 1502051,
  "districtName": "RENAH PEMBARAP",
  "name": "MUARA BANTAN",
  "postalCode": "37361"
 },
 {
  "id": 1502051007,
  "districtId": 1502051,
  "districtName": "RENAH PEMBARAP",
  "name": "MARKEH",
  "postalCode": "37361"
 },
 {
  "id": 1502051008,
  "districtId": 1502051,
  "districtName": "RENAH PEMBARAP",
  "name": "AIR BATU",
  "postalCode": "37361"
 },
 {
  "id": 1502051009,
  "districtId": 1502051,
  "districtName": "RENAH PEMBARAP",
  "name": "MUARO PANCO TIMUR",
  "postalCode": ""
 },
 {
  "id": 1502051010,
  "districtId": 1502051,
  "districtName": "RENAH PEMBARAP",
  "name": "SIMPANG PARIT",
  "postalCode": "37361"
 },
 {
  "id": 1502051011,
  "districtId": 1502051,
  "districtName": "RENAH PEMBARAP",
  "name": "MARUS JAYA",
  "postalCode": "37361"
 },
 {
  "id": 1502051012,
  "districtId": 1502051,
  "districtName": "RENAH PEMBARAP",
  "name": "RENAH MEDAN",
  "postalCode": "37361"
 }
]