[
 {
  "id": 1503020001,
  "districtId": 1503020,
  "districtName": "LIMUN",
  "name": "MERSIP",
  "postalCode": "37382"
 },
 {
  "id": 1503020002,
  "districtId": 1503020,
  "districtName": "LIMUN",
  "name": "DESA BERKUN",
  "postalCode": ""
 },
 {
  "id": 1503020003,
  "districtId": 1503020,
  "districtName": "LIMUN",
  "name": "LUBUK BEDORONG",
  "postalCode": "37382"
 },
 {
  "id": 1503020004,
  "districtId": 1503020,
  "districtName": "LIMUN",
  "name": "MERIBUNG",
  "postalCode": ""
 },
 {
  "id": 1503020005,
  "districtId": 1503020,
  "districtName": "LIMUN",
  "name": "NAPAL MELINTANG",
  "postalCode": "37382"
 },
 {
  "id": 1503020007,
  "districtId": 1503020,
  "districtName": "LIMUN",
  "name": "PANCA KARYA",
  "postalCode": "37382"
 },
 {
  "id": 1503020008,
  "districtId": 1503020,
  "districtName": "LIMUN",
  "name": "RANGGO",
  "postalCode": "37382"
 },
 {
  "id": 1503020009,
  "districtId": 1503020,
  "districtName": "LIMUN",
  "name": "TANJUNG RADEN",
  "postalCode": "36264"
 },
 {
  "id": 1503020010,
  "districtId": 1503020,
  "districtName": "LIMUN",
  "name": "TEMENGGUNG",
  "postalCode": "37382"
 },
 {
  "id": 1503020011,
  "districtId": 1503020,
  "districtName": "LIMUN",
  "name": "PULAU PANDAN",
  "postalCode": "37382"
 },
 {
  "id": 1503020015,
  "districtId": 1503020,
  "districtName": "LIMUN",
  "name": "DEMANG",
  "postalCode": "37382"
 },
 {
  "id": 1503020016,
  "districtId": 1503020,
  "districtName": "LIMUN",
  "name": "MUARA MANSAO",
  "postalCode": "37382"
 },
 {
  "id": 1503020017,
  "districtId": 1503020,
  "districtName": "LIMUN",
  "name": "MOENTI",
  "postalCode": "37382"
 },
 {
  "id": 1503020018,
  "districtId": 1503020,
  "districtName": "LIMUN",
  "name": "MUARA LIMUN",
  "postalCode": "37382"
 },
 {
  "id": 1503020019,
  "districtId": 1503020,
  "districtName": "LIMUN",
  "name": "SUKA DAMAI",
  "postalCode": "24472"
 },
 {
  "id": 1503020020,
  "districtId": 1503020,
  "districtName": "LIMUN",
  "name": "TEMALANG",
  "postalCode": "37382"
 }
]