[
 {
  "id": 1505020005,
  "districtId": 1505020,
  "districtName": "KUMPEH ULU",
  "name": "SUNGAI TERAP",
  "postalCode": "36373"
 },
 {
  "id": 1505020008,
  "districtId": 1505020,
  "districtName": "KUMPEH ULU",
  "name": "KASANG PUDAK",
  "postalCode": "36373"
 },
 {
  "id": 1505020009,
  "districtId": 1505020,
  "districtName": "KUMPEH ULU",
  "name": "KASANG LOPAK ALAI",
  "postalCode": "36373"
 },
 {
  "id": 1505020010,
  "districtId": 1505020,
  "districtName": "KUMPEH ULU",
  "name": "SOLOK",
  "postalCode": "36373"
 },
 {
  "id": 1505020011,
  "districtId": 1505020,
  "districtName": "KUMPEH ULU",
  "name": "SUMBER JAYA",
  "postalCode": "24553"
 },
 {
  "id": 1505020012,
  "districtId": 1505020,
  "districtName": "KUMPEH ULU",
  "name": "ARANG ARANG",
  "postalCode": "36373"
 },
 {
  "id": 1505020013,
  "districtId": 1505020,
  "districtName": "KUMPEH ULU",
  "name": "SIPIN TELUK DUREN",
  "postalCode": "36373"
 },
 {
  "id": 1505020014,
  "districtId": 1505020,
  "districtName": "KUMPEH ULU",
  "name": "PEMUNDURAN",
  "postalCode": "36373"
 },
 {
  "id": 1505020015,
  "districtId": 1505020,
  "districtName": "KUMPEH ULU",
  "name": "TELUK RAYA",
  "postalCode": "36373"
 },
 {
  "id": 1505020016,
  "districtId": 1505020,
  "districtName": "KUMPEH ULU",
  "name": "RAMIN",
  "postalCode": "36373"
 },
 {
  "id": 1505020017,
  "districtId": 1505020,
  "districtName": "KUMPEH ULU",
  "name": "TARIKAN",
  "postalCode": "36373"
 },
 {
  "id": 1505020018,
  "districtId": 1505020,
  "districtName": "KUMPEH ULU",
  "name": "LOPAK ALAI",
  "postalCode": "36373"
 },
 {
  "id": 1505020019,
  "districtId": 1505020,
  "districtName": "KUMPEH ULU",
  "name": "SAKEAN",
  "postalCode": "36373"
 },
 {
  "id": 1505020020,
  "districtId": 1505020,
  "districtName": "KUMPEH ULU",
  "name": "KOTA KARANG",
  "postalCode": "32277"
 },
 {
  "id": 1505020021,
  "districtId": 1505020,
  "districtName": "KUMPEH ULU",
  "name": "PUDAK",
  "postalCode": "36373"
 },
 {
  "id": 1505020022,
  "districtId": 1505020,
  "districtName": "KUMPEH ULU",
  "name": "MUARA KUMPEH",
  "postalCode": "36373"
 },
 {
  "id": 1505020023,
  "districtId": 1505020,
  "districtName": "KUMPEH ULU",
  "name": "KASANG KUMPEH",
  "postalCode": "36373"
 },
 {
  "id": 1505020024,
  "districtId": 1505020,
  "districtName": "KUMPEH ULU",
  "name": "KASANG KOTA KARANG",
  "postalCode": "36373"
 }
]