[
 {
  "id": 1507020005,
  "districtId": 1507020,
  "districtName": "PENGABUAN",
  "name": "TELUK NILAU",
  "postalCode": "36553"
 },
 {
  "id": 1507020006,
  "districtId": 1507020,
  "districtName": "PENGABUAN",
  "name": "SUNGAI SERINDIT",
  "postalCode": ""
 },
 {
  "id": 1507020007,
  "districtId": 1507020,
  "districtName": "PENGABUAN",
  "name": "PARIT PUDIN",
  "postalCode": "36553"
 },
 {
  "id": 1507020008,
  "districtId": 1507020,
  "districtName": "PENGABUAN",
  "name": "MEKAR JATI",
  "postalCode": "36553"
 },
 {
  "id": 1507020010,
  "districtId": 1507020,
  "districtName": "PENGABUAN",
  "name": "PARIT BILAL",
  "postalCode": "36553"
 },
 {
  "id": 1507020011,
  "districtId": 1507020,
  "districtName": "PENGABUAN",
  "name": "SUAK SAMIN",
  "postalCode": "36553"
 },
 {
  "id": 1507020012,
  "districtId": 1507020,
  "districtName": "PENGABUAN",
  "name": "PARIT SIDANG",
  "postalCode": "36553"
 },
 {
  "id": 1507020013,
  "districtId": 1507020,
  "districtName": "PENGABUAN",
  "name": "SUNGAI PAMPANG",
  "postalCode": "36553"
 },
 {
  "id": 1507020014,
  "districtId": 1507020,
  "districtName": "PENGABUAN",
  "name": "SUNGAI JERING",
  "postalCode": "37361"
 },
 {
  "id": 1507020015,
  "districtId": 1507020,
  "districtName": "PENGABUAN",
  "name": "SUNGAI RAYA",
  "postalCode": "22254"
 },
 {
  "id": 1507020016,
  "districtId": 1507020,
  "districtName": "PENGABUAN",
  "name": "SUNGAI BAUNG",
  "postalCode": "29351"
 },
 {
  "id": 1507020017,
  "districtId": 1507020,
  "districtName": "PENGABUAN",
  "name": "KARYA MAJU",
  "postalCode": "20853"
 },
 {
  "id": 1507020018,
  "districtId": 1507020,
  "districtName": "PENGABUAN",
  "name": "PASAR SENIN",
  "postalCode": "36553"
 }
]