[
 {
  "id": 1507021001,
  "districtId": 1507021,
  "districtName": "SENYERANG",
  "name": "MARGO RUKUN",
  "postalCode": "36553"
 },
 {
  "id": 1507021002,
  "districtId": 1507021,
  "districtName": "SENYERANG",
  "name": "SUNGAI RAMBAI",
  "postalCode": "25529"
 },
 {
  "id": 1507021003,
  "districtId": 1507021,
  "districtName": "SENYERANG",
  "name": "TELUK KETAPANG",
  "postalCode": "28752"
 },
 {
  "id": 1507021004,
  "districtId": 1507021,
  "districtName": "SENYERANG",
  "name": "SUNGAI KAYU ARO",
  "postalCode": "36553"
 },
 {
  "id": 1507021005,
  "districtId": 1507021,
  "districtName": "SENYERANG",
  "name": "SENYERANG",
  "postalCode": "36553"
 },
 {
  "id": 1507021006,
  "districtId": 1507021,
  "districtName": "SENYERANG",
  "name": "LUMAHAN",
  "postalCode": "36553"
 },
 {
  "id": 1507021007,
  "districtId": 1507021,
  "districtName": "SENYERANG",
  "name": "KEMPAS JAYA",
  "postalCode": "29261"
 },
 {
  "id": 1507021008,
  "districtId": 1507021,
  "districtName": "SENYERANG",
  "name": "SUNGSANG",
  "postalCode": "36553"
 },
 {
  "id": 1507021009,
  "districtId": 1507021,
  "districtName": "SENYERANG",
  "name": "SUNGAI KEPAYANG",
  "postalCode": "36553"
 },
 {
  "id": 1507021010,
  "districtId": 1507021,
  "districtName": "SENYERANG",
  "name": "SUNGAI LANDAK",
  "postalCode": "36553"
 }
]