[
 {
  "id": 1507013001,
  "districtId": 1507013,
  "districtName": "TEBING TINGGI",
  "name": "PURWODADI",
  "postalCode": "24652"
 },
 {
  "id": 1507013002,
  "districtId": 1507013,
  "districtName": "TEBING TINGGI",
  "name": "SUKADAMAI",
  "postalCode": "24373"
 },
 {
  "id": 1507013003,
  "districtId": 1507013,
  "districtName": "TEBING TINGGI",
  "name": "ADI JAYA",
  "postalCode": "36552"
 },
 {
  "id": 1507013004,
  "districtId": 1507013,
  "districtName": "TEBING TINGGI",
  "name": "TEBING TINGGI",
  "postalCode": "24477"
 },
 {
  "id": 1507013005,
  "districtId": 1507013,
  "districtName": "TEBING TINGGI",
  "name": "KELAGIAN",
  "postalCode": "36552"
 },
 {
  "id": 1507013006,
  "districtId": 1507013,
  "districtName": "TEBING TINGGI",
  "name": "SUNGAI KERUH",
  "postalCode": "37571"
 },
 {
  "id": 1507013007,
  "districtId": 1507013,
  "districtName": "TEBING TINGGI",
  "name": "DATARAN KEMPAS",
  "postalCode": "36552"
 },
 {
  "id": 1507013008,
  "districtId": 1507013,
  "districtName": "TEBING TINGGI",
  "name": "DELIMA",
  "postalCode": "28291"
 },
 {
  "id": 1507013009,
  "districtId": 1507013,
  "districtName": "TEBING TINGGI",
  "name": "TALANG MAKMUR",
  "postalCode": "36552"
 },
 {
  "id": 1507013010,
  "districtId": 1507013,
  "districtName": "TEBING TINGGI",
  "name": "TELUK PENGKAH",
  "postalCode": ""
 }
]