[
 {
  "id": 1507030007,
  "districtId": 1507030,
  "districtName": "TUNGKAL ILIR",
  "name": "TUNGKAL HARAPAN",
  "postalCode": "36555"
 },
 {
  "id": 1507030008,
  "districtId": 1507030,
  "districtName": "TUNGKAL ILIR",
  "name": "TUNGKAL IV KOTA",
  "postalCode": ""
 },
 {
  "id": 1507030009,
  "districtId": 1507030,
  "districtName": "TUNGKAL ILIR",
  "name": "TUNGKAL III",
  "postalCode": "36555"
 },
 {
  "id": 1507030010,
  "districtId": 1507030,
  "districtName": "TUNGKAL ILIR",
  "name": "TUNGKAL II",
  "postalCode": "36555"
 },
 {
  "id": 1507030011,
  "districtId": 1507030,
  "districtName": "TUNGKAL ILIR",
  "name": "TUNGKAL I",
  "postalCode": "36555"
 },
 {
  "id": 1507030014,
  "districtId": 1507030,
  "districtName": "TUNGKAL ILIR",
  "name": "TELUK SIALANG",
  "postalCode": "36555"
 },
 {
  "id": 1507030015,
  "districtId": 1507030,
  "districtName": "TUNGKAL ILIR",
  "name": "SUNGAI NIBUNG",
  "postalCode": "28771"
 },
 {
  "id": 1507030016,
  "districtId": 1507030,
  "districtName": "TUNGKAL ILIR",
  "name": "SRIWIJAYA",
  "postalCode": "24475"
 },
 {
  "id": 1507030017,
  "districtId": 1507030,
  "districtName": "TUNGKAL ILIR",
  "name": "PATUNAS",
  "postalCode": "36555"
 },
 {
  "id": 1507030018,
  "districtId": 1507030,
  "districtName": "TUNGKAL ILIR",
  "name": "KAMPUNG NELAYAN",
  "postalCode": "36555"
 }
]