[
 {
  "id": 1508032001,
  "districtId": 1508032,
  "districtName": "RIMBO ILIR",
  "name": "PULUNG REJO",
  "postalCode": "37553"
 },
 {
  "id": 1508032002,
  "districtId": 1508032,
  "districtName": "RIMBO ILIR",
  "name": "KARANG DADI",
  "postalCode": "37553"
 },
 {
  "id": 1508032003,
  "districtId": 1508032,
  "districtName": "RIMBO ILIR",
  "name": "SIDO REJO",
  "postalCode": "37553"
 },
 {
  "id": 1508032004,
  "districtId": 1508032,
  "districtName": "RIMBO ILIR",
  "name": "SARI MULYA",
  "postalCode": "37257"
 },
 {
  "id": 1508032005,
  "districtId": 1508032,
  "districtName": "RIMBO ILIR",
  "name": "SUMBER AGUNG",
  "postalCode": "37353"
 },
 {
  "id": 1508032006,
  "districtId": 1508032,
  "districtName": "RIMBO ILIR",
  "name": "GIRI PURNO",
  "postalCode": "37553"
 },
 {
  "id": 1508032007,
  "districtId": 1508032,
  "districtName": "RIMBO ILIR",
  "name": "GIRIWINANGUN",
  "postalCode": "37553"
 },
 {
  "id": 1508032008,
  "districtId": 1508032,
  "districtName": "RIMBO ILIR",
  "name": "SEPAKAT BERSATU",
  "postalCode": "37553"
 },
 {
  "id": 1508032009,
  "districtId": 1508032,
  "districtName": "RIMBO ILIR",
  "name": "RANTAU KEMBANG",
  "postalCode": "37553"
 }
]