[
 {
  "id": 1508010007,
  "districtId": 1508010,
  "districtName": "TEBO ILIR",
  "name": "TUO ILIR",
  "postalCode": ""
 },
 {
  "id": 1508010008,
  "districtId": 1508010,
  "districtName": "TEBO ILIR",
  "name": "TELUK RENDAH PASAR",
  "postalCode": "37572"
 },
 {
  "id": 1508010009,
  "districtId": 1508010,
  "districtName": "TEBO ILIR",
  "name": "TELUK RENDAH ILIR",
  "postalCode": "37572"
 },
 {
  "id": 1508010010,
  "districtId": 1508010,
  "districtName": "TEBO ILIR",
  "name": "TELUK RENDAH ULU",
  "postalCode": "37572"
 },
 {
  "id": 1508010011,
  "districtId": 1508010,
  "districtName": "TEBO ILIR",
  "name": "MUARA KETALO",
  "postalCode": "37492"
 },
 {
  "id": 1508010012,
  "districtId": 1508010,
  "districtName": "TEBO ILIR",
  "name": "KELURAHAN SUNGAI BENGKAL",
  "postalCode": ""
 },
 {
  "id": 1508010013,
  "districtId": 1508010,
  "districtName": "TEBO ILIR",
  "name": "BETUNG BEDARAH TIMUR",
  "postalCode": "37572"
 },
 {
  "id": 1508010014,
  "districtId": 1508010,
  "districtName": "TEBO ILIR",
  "name": "BETUNG BEDARAH BARAT",
  "postalCode": "37572"
 },
 {
  "id": 1508010015,
  "districtId": 1508010,
  "districtName": "TEBO ILIR",
  "name": "SUNGAI ARO",
  "postalCode": "37572"
 },
 {
  "id": 1508010016,
  "districtId": 1508010,
  "districtName": "TEBO ILIR",
  "name": "KUNANGAN",
  "postalCode": "36382"
 },
 {
  "id": 1508010018,
  "districtId": 1508010,
  "districtName": "TEBO ILIR",
  "name": "SUNGAI BENGKAL BARAT",
  "postalCode": ""
 }
]