[
 {
  "id": 1508041001,
  "districtId": 1508041,
  "districtName": "VII KOTO",
  "name": "TANJUNG",
  "postalCode": "24562"
 },
 {
  "id": 1508041002,
  "districtId": 1508041,
  "districtName": "VII KOTO",
  "name": "KUAMANG",
  "postalCode": "37257"
 },
 {
  "id": 1508041003,
  "districtId": 1508041,
  "districtName": "VII KOTO",
  "name": "TELUK KAYU PUTIH",
  "postalCode": "37259"
 },
 {
  "id": 1508041006,
  "districtId": 1508041,
  "districtName": "VII KOTO",
  "name": "DUSUN BARU",
  "postalCode": "37162"
 },
 {
  "id": 1508041011,
  "districtId": 1508041,
  "districtName": "VII KOTO",
  "name": "MUARA NIRO",
  "postalCode": "37259"
 },
 {
  "id": 1508041012,
  "districtId": 1508041,
  "districtName": "VII KOTO",
  "name": "AUR CINO",
  "postalCode": "37261"
 },
 {
  "id": 1508041013,
  "districtId": 1508041,
  "districtName": "VII KOTO",
  "name": "SUNGAI ABANG",
  "postalCode": "37481"
 },
 {
  "id": 1508041014,
  "districtId": 1508041,
  "districtName": "VII KOTO",
  "name": "TELUK LANCANG",
  "postalCode": "28671"
 },
 {
  "id": 1508041015,
  "districtId": 1508041,
  "districtName": "VII KOTO",
  "name": "MUARA TABUN",
  "postalCode": "37259"
 },
 {
  "id": 1508041016,
  "districtId": 1508041,
  "districtName": "VII KOTO",
  "name": "TABUN",
  "postalCode": "37259"
 }
]