[
 {
  "id": 1509011001,
  "districtId": 1509011,
  "districtName": "PELEPAT ILIR",
  "name": "PURWOSARI",
  "postalCode": "24582"
 },
 {
  "id": 1509011002,
  "districtId": 1509011,
  "districtName": "PELEPAT ILIR",
  "name": "LEMBAH KUAMANG",
  "postalCode": "37252"
 },
 {
  "id": 1509011003,
  "districtId": 1509011,
  "districtName": "PELEPAT ILIR",
  "name": "SUMBER MULIA",
  "postalCode": "32274"
 },
 {
  "id": 1509011004,
  "districtId": 1509011,
  "districtName": "PELEPAT ILIR",
  "name": "DAYA MURNI",
  "postalCode": "37252"
 },
 {
  "id": 1509011005,
  "districtId": 1509011,
  "districtName": "PELEPAT ILIR",
  "name": "MAJU JAYA",
  "postalCode": "36371"
 },
 {
  "id": 1509011006,
  "districtId": 1509011,
  "districtName": "PELEPAT ILIR",
  "name": "TIRTA MULIA",
  "postalCode": ""
 },
 {
  "id": 1509011007,
  "districtId": 1509011,
  "districtName": "PELEPAT ILIR",
  "name": "LINGGA KUAMANG",
  "postalCode": "37252"
 },
 {
  "id": 1509011008,
  "districtId": 1509011,
  "districtName": "PELEPAT ILIR",
  "name": "SUMBER HARAPAN",
  "postalCode": "21261"
 },
 {
  "id": 1509011009,
  "districtId": 1509011,
  "districtName": "PELEPAT ILIR",
  "name": "BANGUN HARJO",
  "postalCode": "32361"
 },
 {
  "id": 1509011010,
  "districtId": 1509011,
  "districtName": "PELEPAT ILIR",
  "name": "KUNING GADING",
  "postalCode": "37252"
 },
 {
  "id": 1509011011,
  "districtId": 1509011,
  "districtName": "PELEPAT ILIR",
  "name": "KARYA HARAPAN MUKTI",
  "postalCode": "37252"
 },
 {
  "id": 1509011012,
  "districtId": 1509011,
  "districtName": "PELEPAT ILIR",
  "name": "KUAMANG JAYA",
  "postalCode": "37252"
 },
 {
  "id": 1509011013,
  "districtId": 1509011,
  "districtName": "PELEPAT ILIR",
  "name": "MUARA KUAMANG",
  "postalCode": "37252"
 },
 {
  "id": 1509011014,
  "districtId": 1509011,
  "districtName": "PELEPAT ILIR",
  "name": "LUBUK",
  "postalCode": "37252"
 },
 {
  "id": 1509011015,
  "districtId": 1509011,
  "districtName": "PELEPAT ILIR",
  "name": "DANAU",
  "postalCode": "29561"
 },
 {
  "id": 1509011016,
  "districtId": 1509011,
  "districtName": "PELEPAT ILIR",
  "name": "KOTO JAYO",
  "postalCode": "37252"
 },
 {
  "id": 1509011017,
  "districtId": 1509011,
  "districtName": "PELEPAT ILIR",
  "name": "PADANG PALANGEH",
  "postalCode": "37252"
 }
]