[
 {
  "id": 1571080001,
  "districtId": 1571080,
  "districtName": "JAMBI TIMUR",
  "name": "SULAN JANA",
  "postalCode": "36144"
 },
 {
  "id": 1571080002,
  "districtId": 1571080,
  "districtName": "JAMBI TIMUR",
  "name": "BUDIMAN",
  "postalCode": "36145"
 },
 {
  "id": 1571080003,
  "districtId": 1571080,
  "districtName": "JAMBI TIMUR",
  "name": "TALANG BANJAR",
  "postalCode": "36142"
 },
 {
  "id": 1571080005,
  "districtId": 1571080,
  "districtName": "JAMBI TIMUR",
  "name": "TANJUNG SARI",
  "postalCode": "24673"
 },
 {
  "id": 1571080006,
  "districtId": 1571080,
  "districtName": "JAMBI TIMUR",
  "name": "TANJUNG PINANG",
  "postalCode": "36146"
 },
 {
  "id": 1571080007,
  "districtId": 1571080,
  "districtName": "JAMBI TIMUR",
  "name": "RAJAWALI",
  "postalCode": "36143"
 },
 {
  "id": 1571080008,
  "districtId": 1571080,
  "districtName": "JAMBI TIMUR",
  "name": "KASANG",
  "postalCode": "25586"
 },
 {
  "id": 1571080009,
  "districtId": 1571080,
  "districtName": "JAMBI TIMUR",
  "name": "KASANG JAYA",
  "postalCode": "36141"
 },
 {
  "id": 1571080010,
  "districtId": 1571080,
  "districtName": "JAMBI TIMUR",
  "name": "SIJINJANG",
  "postalCode": ""
 }
]