[
 {
  "id": 1572010001,
  "districtId": 1572010,
  "districtName": "TANAH KAMPUNG",
  "name": "DUSUN BARU DEBAI",
  "postalCode": ""
 },
 {
  "id": 1572010002,
  "districtId": 1572010,
  "districtName": "TANAH KAMPUNG",
  "name": "PENDUNG HIANG",
  "postalCode": "37171"
 },
 {
  "id": 1572010003,
  "districtId": 1572010,
  "districtName": "TANAH KAMPUNG",
  "name": "KOTO PADANG",
  "postalCode": "27681"
 },
 {
  "id": 1572010004,
  "districtId": 1572010,
  "districtName": "TANAH KAMPUNG",
  "name": "MEKAR JAYA",
  "postalCode": "20771"
 },
 {
  "id": 1572010005,
  "districtId": 1572010,
  "districtName": "TANAH KAMPUNG",
  "name": "KOTO DUMO",
  "postalCode": "37171"
 },
 {
  "id": 1572010006,
  "districtId": 1572010,
  "districtName": "TANAH KAMPUNG",
  "name": "SEMBILAN",
  "postalCode": "23892"
 },
 {
  "id": 1572010007,
  "districtId": 1572010,
  "districtName": "TANAH KAMPUNG",
  "name": "TANJUNG KARANG",
  "postalCode": "24476"
 },
 {
  "id": 1572010008,
  "districtId": 1572010,
  "districtName": "TANAH KAMPUNG",
  "name": "KOTO PANAP",
  "postalCode": "37171"
 },
 {
  "id": 1572010009,
  "districtId": 1572010,
  "districtName": "TANAH KAMPUNG",
  "name": "KOTO BARU TANAH KAMPUNG",
  "postalCode": "37171"
 },
 {
  "id": 1572010010,
  "districtId": 1572010,
  "districtName": "TANAH KAMPUNG",
  "name": "KOTO PUDUNG",
  "postalCode": "37171"
 },
 {
  "id": 1572010011,
  "districtId": 1572010,
  "districtName": "TANAH KAMPUNG",
  "name": "KOTO TENGAH",
  "postalCode": "37161"
 },
 {
  "id": 1572010012,
  "districtId": 1572010,
  "districtName": "TANAH KAMPUNG",
  "name": "KOTO TUO",
  "postalCode": "26271"
 },
 {
  "id": 1572010013,
  "districtId": 1572010,
  "districtName": "TANAH KAMPUNG",
  "name": "TANJUNG BUNGA",
  "postalCode": "22392"
 }
]