[
 {
  "id": 1601140001,
  "districtId": 1601140,
  "districtName": "BATU RAJA BARAT",
  "name": "BATU PUTIH",
  "postalCode": "37482"
 },
 {
  "id": 1601140002,
  "districtId": 1601140,
  "districtName": "BATU RAJA BARAT",
  "name": "LAYA",
  "postalCode": "32125"
 },
 {
  "id": 1601140003,
  "districtId": 1601140,
  "districtName": "BATU RAJA BARAT",
  "name": "SAUNG NAGA",
  "postalCode": "32124"
 },
 {
  "id": 1601140004,
  "districtId": 1601140,
  "districtName": "BATU RAJA BARAT",
  "name": "TANJUNG AGUNG",
  "postalCode": "37216"
 },
 {
  "id": 1601140005,
  "districtId": 1601140,
  "districtName": "BATU RAJA BARAT",
  "name": "TALANG JAWA",
  "postalCode": "32122"
 },
 {
  "id": 1601140006,
  "districtId": 1601140,
  "districtName": "BATU RAJA BARAT",
  "name": "AIR GADING",
  "postalCode": "32121"
 },
 {
  "id": 1601140007,
  "districtId": 1601140,
  "districtName": "BATU RAJA BARAT",
  "name": "PUSAR",
  "postalCode": "32126"
 },
 {
  "id": 1601140008,
  "districtId": 1601140,
  "districtName": "BATU RAJA BARAT",
  "name": "BATU KUNING",
  "postalCode": "32121"
 },
 {
  "id": 1601140009,
  "districtId": 1601140,
  "districtName": "BATU RAJA BARAT",
  "name": "KARANG AGUNG",
  "postalCode": "31315"
 },
 {
  "id": 1601140010,
  "districtId": 1601140,
  "districtName": "BATU RAJA BARAT",
  "name": "KARANG ENDAH",
  "postalCode": "32121"
 },
 {
  "id": 1601140011,
  "districtId": 1601140,
  "districtName": "BATU RAJA BARAT",
  "name": "TANJUNG KARANG",
  "postalCode": "24476"
 },
 {
  "id": 1601140012,
  "districtId": 1601140,
  "districtName": "BATU RAJA BARAT",
  "name": "SUKA MAJU",
  "postalCode": "24673"
 }
]