[
 {
  "id": 1602031001,
  "districtId": 1602031,
  "districtName": "CENGAL",
  "name": "SUNGAI SOMOR",
  "postalCode": "30658"
 },
 {
  "id": 1602031002,
  "districtId": 1602031,
  "districtName": "CENGAL",
  "name": "SUNGAI PASIR",
  "postalCode": "30658"
 },
 {
  "id": 1602031003,
  "districtId": 1602031,
  "districtName": "CENGAL",
  "name": "SUNGAI JERUJU",
  "postalCode": "30658"
 },
 {
  "id": 1602031004,
  "districtId": 1602031,
  "districtName": "CENGAL",
  "name": "SUNGAI LUMPUR",
  "postalCode": "30658"
 },
 {
  "id": 1602031005,
  "districtId": 1602031,
  "districtName": "CENGAL",
  "name": "ULAK KEDONDONG",
  "postalCode": "30658"
 },
 {
  "id": 1602031006,
  "districtId": 1602031,
  "districtName": "CENGAL",
  "name": "SUNGAI KETUPAK",
  "postalCode": "30658"
 },
 {
  "id": 1602031007,
  "districtId": 1602031,
  "districtName": "CENGAL",
  "name": "PELIMBANGAN",
  "postalCode": "30658"
 },
 {
  "id": 1602031008,
  "districtId": 1602031,
  "districtName": "CENGAL",
  "name": "CENGAL",
  "postalCode": "30658"
 },
 {
  "id": 1602031009,
  "districtId": 1602031,
  "districtName": "CENGAL",
  "name": "TALANG RIMBA",
  "postalCode": "30658"
 },
 {
  "id": 1602031010,
  "districtId": 1602031,
  "districtName": "CENGAL",
  "name": "KUALA SUNGAI PASIR",
  "postalCode": "30658"
 },
 {
  "id": 1602031011,
  "districtId": 1602031,
  "districtName": "CENGAL",
  "name": "KUALA SUNGAI JERUJU",
  "postalCode": "30658"
 },
 {
  "id": 1602031012,
  "districtId": 1602031,
  "districtName": "CENGAL",
  "name": "PARIT RAYA",
  "postalCode": ""
 },
 {
  "id": 1602031013,
  "districtId": 1602031,
  "districtName": "CENGAL",
  "name": "LEBAK BERIANG",
  "postalCode": ""
 },
 {
  "id": 1602031014,
  "districtId": 1602031,
  "districtName": "CENGAL",
  "name": "BALAM JERUJU",
  "postalCode": ""
 },
 {
  "id": 1602031015,
  "districtId": 1602031,
  "districtName": "CENGAL",
  "name": "PANTAI HARAPAN",
  "postalCode": "29872"
 },
 {
  "id": 1602031016,
  "districtId": 1602031,
  "districtName": "CENGAL",
  "name": "ADIL MAKMUR",
  "postalCode": "21183"
 },
 {
  "id": 1602031017,
  "districtId": 1602031,
  "districtName": "CENGAL",
  "name": "KEBON CABE",
  "postalCode": ""
 }
]