[
 {
  "id": 1603033001,
  "districtId": 1603033,
  "districtName": "LUBAI ULU",
  "name": "LUBAI PERSADA",
  "postalCode": "31173"
 },
 {
  "id": 1603033002,
  "districtId": 1603033,
  "districtName": "LUBAI ULU",
  "name": "LUBAI MAKMUR",
  "postalCode": "31173"
 },
 {
  "id": 1603033003,
  "districtId": 1603033,
  "districtName": "LUBAI ULU",
  "name": "MEKAR JAYA",
  "postalCode": "20771"
 },
 {
  "id": 1603033004,
  "districtId": 1603033,
  "districtName": "LUBAI ULU",
  "name": "LECAH",
  "postalCode": "31173"
 },
 {
  "id": 1603033005,
  "districtId": 1603033,
  "districtName": "LUBAI ULU",
  "name": "PRABU MENANG",
  "postalCode": "31173"
 },
 {
  "id": 1603033006,
  "districtId": 1603033,
  "districtName": "LUBAI ULU",
  "name": "PAGAR DEWA",
  "postalCode": "31626"
 },
 {
  "id": 1603033007,
  "districtId": 1603033,
  "districtName": "LUBAI ULU",
  "name": "SUMBER MULYA",
  "postalCode": "36365"
 },
 {
  "id": 1603033008,
  "districtId": 1603033,
  "districtName": "LUBAI ULU",
  "name": "KARANG MULYA",
  "postalCode": "32185"
 },
 {
  "id": 1603033009,
  "districtId": 1603033,
  "districtName": "LUBAI ULU",
  "name": "KARANG AGUNG",
  "postalCode": "31315"
 },
 {
  "id": 1603033010,
  "districtId": 1603033,
  "districtName": "LUBAI ULU",
  "name": "SUMBER ASRI",
  "postalCode": "32361"
 },
 {
  "id": 1603033011,
  "districtId": 1603033,
  "districtName": "LUBAI ULU",
  "name": "KARANG SARI",
  "postalCode": "21174"
 }
]