[
 {
  "id": 1603011001,
  "districtId": 1603011,
  "districtName": "SEMENDO DARAT ULU",
  "name": "SEGAMIT",
  "postalCode": "31355"
 },
 {
  "id": 1603011002,
  "districtId": 1603011,
  "districtName": "SEMENDO DARAT ULU",
  "name": "CAHAYA ALAM",
  "postalCode": "31355"
 },
 {
  "id": 1603011003,
  "districtId": 1603011,
  "districtName": "SEMENDO DARAT ULU",
  "name": "TANJUNG TIGA",
  "postalCode": "30968"
 },
 {
  "id": 1603011004,
  "districtId": 1603011,
  "districtName": "SEMENDO DARAT ULU",
  "name": "TANJUNG AGUNG",
  "postalCode": "37216"
 },
 {
  "id": 1603011005,
  "districtId": 1603011,
  "districtName": "SEMENDO DARAT ULU",
  "name": "DATAR LEBAR",
  "postalCode": "31355"
 },
 {
  "id": 1603011006,
  "districtId": 1603011,
  "districtName": "SEMENDO DARAT ULU",
  "name": "SIRING AGUNG",
  "postalCode": "30138"
 },
 {
  "id": 1603011007,
  "districtId": 1603011,
  "districtName": "SEMENDO DARAT ULU",
  "name": "AREMANTAI",
  "postalCode": "31355"
 },
 {
  "id": 1603011008,
  "districtId": 1603011,
  "districtName": "SEMENDO DARAT ULU",
  "name": "PAJAR BULAN",
  "postalCode": "32279"
 },
 {
  "id": 1603011009,
  "districtId": 1603011,
  "districtName": "SEMENDO DARAT ULU",
  "name": "PELAKAT",
  "postalCode": ""
 },
 {
  "id": 1603011010,
  "districtId": 1603011,
  "districtName": "SEMENDO DARAT ULU",
  "name": "DANAU GERAK",
  "postalCode": ""
 }
]