[
 {
  "id": 1603060001,
  "districtId": 1603060,
  "districtName": "GUNUNG MEGANG",
  "name": "BANGUN SARI",
  "postalCode": "24782"
 },
 {
  "id": 1603060002,
  "districtId": 1603060,
  "districtName": "GUNUNG MEGANG",
  "name": "SUMAJA MAKMUR",
  "postalCode": "31352"
 },
 {
  "id": 1603060003,
  "districtId": 1603060,
  "districtName": "GUNUNG MEGANG",
  "name": "FAJAR INDAH",
  "postalCode": "31352"
 },
 {
  "id": 1603060004,
  "districtId": 1603060,
  "districtName": "GUNUNG MEGANG",
  "name": "KAYU ARA SAKTI",
  "postalCode": "31352"
 },
 {
  "id": 1603060005,
  "districtId": 1603060,
  "districtName": "GUNUNG MEGANG",
  "name": "PENANGGIRAN",
  "postalCode": "31352"
 },
 {
  "id": 1603060006,
  "districtId": 1603060,
  "districtName": "GUNUNG MEGANG",
  "name": "SIDOMULYO",
  "postalCode": "21455"
 },
 {
  "id": 1603060007,
  "districtId": 1603060,
  "districtName": "GUNUNG MEGANG",
  "name": "GUNUNG MEGANG DALAM",
  "postalCode": "31352"
 },
 {
  "id": 1603060008,
  "districtId": 1603060,
  "districtName": "GUNUNG MEGANG",
  "name": "GUNUNG MEGANG LUAR",
  "postalCode": "31352"
 },
 {
  "id": 1603060009,
  "districtId": 1603060,
  "districtName": "GUNUNG MEGANG",
  "name": "LUBUK MUMPO",
  "postalCode": "31352"
 },
 {
  "id": 1603060010,
  "districtId": 1603060,
  "districtName": "GUNUNG MEGANG",
  "name": "PERJITO",
  "postalCode": "31352"
 },
 {
  "id": 1603060011,
  "districtId": 1603060,
  "districtName": "GUNUNG MEGANG",
  "name": "TANJUNG TERANG",
  "postalCode": "31352"
 },
 {
  "id": 1603060012,
  "districtId": 1603060,
  "districtName": "GUNUNG MEGANG",
  "name": "TANJUNG MUNING",
  "postalCode": "31352"
 },
 {
  "id": 1603060021,
  "districtId": 1603060,
  "districtName": "GUNUNG MEGANG",
  "name": "PANANG JAYA",
  "postalCode": "31352"
 }
]