[
 {
  "id": 1603090001,
  "districtId": 1603090,
  "districtName": "GELUMBANG",
  "name": "KARANG ENDAH SELATAN",
  "postalCode": "31171"
 },
 {
  "id": 1603090002,
  "districtId": 1603090,
  "districtName": "GELUMBANG",
  "name": "KARANG ENDAH",
  "postalCode": "32121"
 },
 {
  "id": 1603090003,
  "districtId": 1603090,
  "districtName": "GELUMBANG",
  "name": "TAMBANGAN KELEKAR",
  "postalCode": "31171"
 },
 {
  "id": 1603090004,
  "districtId": 1603090,
  "districtName": "GELUMBANG",
  "name": "SIGAM",
  "postalCode": "31171"
 },
 {
  "id": 1603090005,
  "districtId": 1603090,
  "districtName": "GELUMBANG",
  "name": "MIDAR",
  "postalCode": "31171"
 },
 {
  "id": 1603090006,
  "districtId": 1603090,
  "districtName": "GELUMBANG",
  "name": "JAMBU",
  "postalCode": "20998"
 },
 {
  "id": 1603090007,
  "districtId": 1603090,
  "districtName": "GELUMBANG",
  "name": "GAUNG TELANG",
  "postalCode": "31171"
 },
 {
  "id": 1603090008,
  "districtId": 1603090,
  "districtName": "GELUMBANG",
  "name": "MELILIAN",
  "postalCode": ""
 },
 {
  "id": 1603090009,
  "districtId": 1603090,
  "districtName": "GELUMBANG",
  "name": "PEDATARAN",
  "postalCode": "31171"
 },
 {
  "id": 1603090010,
  "districtId": 1603090,
  "districtName": "GELUMBANG",
  "name": "SEBAU",
  "postalCode": "31171"
 },
 {
  "id": 1603090011,
  "districtId": 1603090,
  "districtName": "GELUMBANG",
  "name": "PAYA BAKAL",
  "postalCode": ""
 },
 {
  "id": 1603090012,
  "districtId": 1603090,
  "districtName": "GELUMBANG",
  "name": "GELUMBANG",
  "postalCode": "31171"
 },
 {
  "id": 1603090013,
  "districtId": 1603090,
  "districtName": "GELUMBANG",
  "name": "TALANG TALING",
  "postalCode": "31171"
 },
 {
  "id": 1603090014,
  "districtId": 1603090,
  "districtName": "GELUMBANG",
  "name": "PINANG BANJAR",
  "postalCode": "31171"
 },
 {
  "id": 1603090015,
  "districtId": 1603090,
  "districtName": "GELUMBANG",
  "name": "SEGAYAM",
  "postalCode": "31171"
 },
 {
  "id": 1603090016,
  "districtId": 1603090,
  "districtName": "GELUMBANG",
  "name": "PUTAK",
  "postalCode": "31171"
 },
 {
  "id": 1603090017,
  "districtId": 1603090,
  "districtName": "GELUMBANG",
  "name": "SUKA MENANG",
  "postalCode": "31171"
 },
 {
  "id": 1603090018,
  "districtId": 1603090,
  "districtName": "GELUMBANG",
  "name": "BITIS",
  "postalCode": "31171"
 },
 {
  "id": 1603090019,
  "districtId": 1603090,
  "districtName": "GELUMBANG",
  "name": "GUMAI",
  "postalCode": "31171"
 },
 {
  "id": 1603090020,
  "districtId": 1603090,
  "districtName": "GELUMBANG",
  "name": "SUKA JAYA",
  "postalCode": "24784"
 },
 {
  "id": 1603090021,
  "districtId": 1603090,
  "districtName": "GELUMBANG",
  "name": "KARTAMULIA",
  "postalCode": ""
 },
 {
  "id": 1603090022,
  "districtId": 1603090,
  "districtName": "GELUMBANG",
  "name": "TELUK LIMAU",
  "postalCode": "31171"
 },
 {
  "id": 1603090023,
  "districtId": 1603090,
  "districtName": "GELUMBANG",
  "name": "BETUNG",
  "postalCode": "28382"
 }
]