[
 {
  "id": 1603051001,
  "districtId": 1603051,
  "districtName": "UJAN MAS",
  "name": "TANJUNG RAMAN",
  "postalCode": "31462"
 },
 {
  "id": 1603051002,
  "districtId": 1603051,
  "districtName": "UJAN MAS",
  "name": "MUARA GULA BARU",
  "postalCode": "31351"
 },
 {
  "id": 1603051003,
  "districtId": 1603051,
  "districtName": "UJAN MAS",
  "name": "MUARA GULA LAMA",
  "postalCode": "31351"
 },
 {
  "id": 1603051004,
  "districtId": 1603051,
  "districtName": "UJAN MAS",
  "name": "PINANG BELARIK",
  "postalCode": "31351"
 },
 {
  "id": 1603051005,
  "districtId": 1603051,
  "districtName": "UJAN MAS",
  "name": "UJAN MAS LAMA",
  "postalCode": "31351"
 },
 {
  "id": 1603051006,
  "districtId": 1603051,
  "districtName": "UJAN MAS",
  "name": "UJAN MAS BARU",
  "postalCode": "31351"
 },
 {
  "id": 1603051007,
  "districtId": 1603051,
  "districtName": "UJAN MAS",
  "name": "GUCI",
  "postalCode": "24171"
 },
 {
  "id": 1603051008,
  "districtId": 1603051,
  "districtName": "UJAN MAS",
  "name": "ULAK BANDUNG",
  "postalCode": "31452"
 }
]