[
 {
  "id": 1603050001,
  "districtId": 1603050,
  "districtName": "MUARA ENIM",
  "name": "TANJUNG RAJA",
  "postalCode": "20582"
 },
 {
  "id": 1603050002,
  "districtId": 1603050,
  "districtName": "MUARA ENIM",
  "name": "KARANG RAJA",
  "postalCode": "31311"
 },
 {
  "id": 1603050003,
  "districtId": 1603050,
  "districtName": "MUARA ENIM",
  "name": "SAKA JAYA",
  "postalCode": "31311"
 },
 {
  "id": 1603050004,
  "districtId": 1603050,
  "districtName": "MUARA ENIM",
  "name": "PASAR I",
  "postalCode": "31311"
 },
 {
  "id": 1603050005,
  "districtId": 1603050,
  "districtName": "MUARA ENIM",
  "name": "PASAR II",
  "postalCode": "31315"
 },
 {
  "id": 1603050006,
  "districtId": 1603050,
  "districtName": "MUARA ENIM",
  "name": "PASAR III",
  "postalCode": "31314"
 },
 {
  "id": 1603050007,
  "districtId": 1603050,
  "districtName": "MUARA ENIM",
  "name": "TUNGKAL",
  "postalCode": "31313"
 },
 {
  "id": 1603050008,
  "districtId": 1603050,
  "districtName": "MUARA ENIM",
  "name": "LUBUK EMPELAS",
  "postalCode": "31311"
 },
 {
  "id": 1603050009,
  "districtId": 1603050,
  "districtName": "MUARA ENIM",
  "name": "TANJUNG JATI",
  "postalCode": "20761"
 },
 {
  "id": 1603050010,
  "districtId": 1603050,
  "districtName": "MUARA ENIM",
  "name": "MUARA LAWAI",
  "postalCode": "31471"
 },
 {
  "id": 1603050011,
  "districtId": 1603050,
  "districtName": "MUARA ENIM",
  "name": "MUARA ENIM",
  "postalCode": "31611"
 },
 {
  "id": 1603050012,
  "districtId": 1603050,
  "districtName": "MUARA ENIM",
  "name": "HARAPAN JAYA",
  "postalCode": "20773"
 },
 {
  "id": 1603050013,
  "districtId": 1603050,
  "districtName": "MUARA ENIM",
  "name": "MUARA HARAPAN",
  "postalCode": "31311"
 },
 {
  "id": 1603050014,
  "districtId": 1603050,
  "districtName": "MUARA ENIM",
  "name": "KEPUR",
  "postalCode": "31311"
 },
 {
  "id": 1603050015,
  "districtId": 1603050,
  "districtName": "MUARA ENIM",
  "name": "TANJUNG SERIAN",
  "postalCode": "31311"
 },
 {
  "id": 1603050016,
  "districtId": 1603050,
  "districtName": "MUARA ENIM",
  "name": "AIR LINTANG",
  "postalCode": "31311"
 }
]