[
 {
  "id": 1604122001,
  "districtId": 1604122,
  "districtName": "PSEKSU",
  "name": "SUKAJADI",
  "postalCode": "24472"
 },
 {
  "id": 1604122002,
  "districtId": 1604122,
  "districtName": "PSEKSU",
  "name": "PENANDINGAN",
  "postalCode": "31453"
 },
 {
  "id": 1604122003,
  "districtId": 1604122,
  "districtName": "PSEKSU",
  "name": "TANJUNG AGUNG",
  "postalCode": "37216"
 },
 {
  "id": 1604122004,
  "districtId": 1604122,
  "districtName": "PSEKSU",
  "name": "TALANG TINGGI",
  "postalCode": "37162"
 },
 {
  "id": 1604122005,
  "districtId": 1604122,
  "districtName": "PSEKSU",
  "name": "BATU NIDING",
  "postalCode": ""
 },
 {
  "id": 1604122006,
  "districtId": 1604122,
  "districtName": "PSEKSU",
  "name": "TANJUNG RAYA",
  "postalCode": "23891"
 },
 {
  "id": 1604122007,
  "districtId": 1604122,
  "districtName": "PSEKSU",
  "name": "LUBUK MABAR",
  "postalCode": "31419"
 },
 {
  "id": 1604122008,
  "districtId": 1604122,
  "districtName": "PSEKSU",
  "name": "PAGAR AGUNG",
  "postalCode": "31417"
 },
 {
  "id": 1604122009,
  "districtId": 1604122,
  "districtName": "PSEKSU",
  "name": "LUBUK TUBA",
  "postalCode": "31419"
 },
 {
  "id": 1604122010,
  "districtId": 1604122,
  "districtName": "PSEKSU",
  "name": "LUBUK ATUNG",
  "postalCode": "31419"
 },
 {
  "id": 1604122011,
  "districtId": 1604122,
  "districtName": "PSEKSU",
  "name": "MUARA CAWANG",
  "postalCode": "31419"
 }
]