[
 {
  "id": 1604011001,
  "districtId": 1604011,
  "districtName": "TANJUNG SAKTI PUMI",
  "name": "TANJUNG SAKTI",
  "postalCode": "31581"
 },
 {
  "id": 1604011002,
  "districtId": 1604011,
  "districtName": "TANJUNG SAKTI PUMI",
  "name": "PENANDINGAN",
  "postalCode": "31453"
 },
 {
  "id": 1604011003,
  "districtId": 1604011,
  "districtName": "TANJUNG SAKTI PUMI",
  "name": "TANJUNG BULAN",
  "postalCode": "32361"
 },
 {
  "id": 1604011004,
  "districtId": 1604011,
  "districtName": "TANJUNG SAKTI PUMI",
  "name": "PAJAR BULAN",
  "postalCode": "32279"
 },
 {
  "id": 1604011005,
  "districtId": 1604011,
  "districtName": "TANJUNG SAKTI PUMI",
  "name": "NEGERI KAYA",
  "postalCode": "31581"
 },
 {
  "id": 1604011006,
  "districtId": 1604011,
  "districtName": "TANJUNG SAKTI PUMI",
  "name": "GUNUNG KERTO",
  "postalCode": "31581"
 },
 {
  "id": 1604011007,
  "districtId": 1604011,
  "districtName": "TANJUNG SAKTI PUMI",
  "name": "PULAU PANGGUNG",
  "postalCode": "32279"
 },
 {
  "id": 1604011008,
  "districtId": 1604011,
  "districtName": "TANJUNG SAKTI PUMI",
  "name": "MASAM BULAU",
  "postalCode": ""
 },
 {
  "id": 1604011009,
  "districtId": 1604011,
  "districtName": "TANJUNG SAKTI PUMI",
  "name": "GUNUNG AGUNG",
  "postalCode": "31471"
 },
 {
  "id": 1604011010,
  "districtId": 1604011,
  "districtName": "TANJUNG SAKTI PUMI",
  "name": "ULAK LEBAR",
  "postalCode": "31419"
 },
 {
  "id": 1604011011,
  "districtId": 1604011,
  "districtName": "TANJUNG SAKTI PUMI",
  "name": "PAGAR AGUNG",
  "postalCode": "31417"
 },
 {
  "id": 1604011012,
  "districtId": 1604011,
  "districtName": "TANJUNG SAKTI PUMI",
  "name": "BENTENG",
  "postalCode": "24452"
 },
 {
  "id": 1604011013,
  "districtId": 1604011,
  "districtName": "TANJUNG SAKTI PUMI",
  "name": "PAGAR JATI",
  "postalCode": "20518"
 },
 {
  "id": 1604011014,
  "districtId": 1604011,
  "districtName": "TANJUNG SAKTI PUMI",
  "name": "LUBUK TABUN",
  "postalCode": "37162"
 },
 {
  "id": 1604011015,
  "districtId": 1604011,
  "districtName": "TANJUNG SAKTI PUMI",
  "name": "LUBUK DALAM",
  "postalCode": "28654"
 },
 {
  "id": 1604011016,
  "districtId": 1604011,
  "districtName": "TANJUNG SAKTI PUMI",
  "name": "GUNUNG KEMBANG",
  "postalCode": "37481"
 },
 {
  "id": 1604011017,
  "districtId": 1604011,
  "districtName": "TANJUNG SAKTI PUMI",
  "name": "PULAU PANAS",
  "postalCode": "31581"
 },
 {
  "id": 1604011018,
  "districtId": 1604011,
  "districtName": "TANJUNG SAKTI PUMI",
  "name": "SINDANG PANJANG",
  "postalCode": "31581"
 }
]