[
 {
  "id": 1604052001,
  "districtId": 1604052,
  "districtName": "GUMAY ULU",
  "name": "SP.II UPT PADANG MUARADUA",
  "postalCode": ""
 },
 {
  "id": 1604052002,
  "districtId": 1604052,
  "districtName": "GUMAY ULU",
  "name": "RINDU HATI",
  "postalCode": "31461"
 },
 {
  "id": 1604052003,
  "districtId": 1604052,
  "districtName": "GUMAY ULU",
  "name": "LUBUK SELO",
  "postalCode": "31461"
 },
 {
  "id": 1604052004,
  "districtId": 1604052,
  "districtName": "GUMAY ULU",
  "name": "SUMBER KARYA",
  "postalCode": "20737"
 },
 {
  "id": 1604052005,
  "districtId": 1604052,
  "districtName": "GUMAY ULU",
  "name": "SINJAR BULAN",
  "postalCode": "31461"
 },
 {
  "id": 1604052006,
  "districtId": 1604052,
  "districtName": "GUMAY ULU",
  "name": "PADANG GUMAY",
  "postalCode": "31461"
 },
 {
  "id": 1604052007,
  "districtId": 1604052,
  "districtName": "GUMAY ULU",
  "name": "TANJUNG AUR",
  "postalCode": "37554"
 },
 {
  "id": 1604052008,
  "districtId": 1604052,
  "districtName": "GUMAY ULU",
  "name": "TANJUNG RAJA",
  "postalCode": "20582"
 },
 {
  "id": 1604052009,
  "districtId": 1604052,
  "districtName": "GUMAY ULU",
  "name": "TINGGI HARI",
  "postalCode": "31461"
 },
 {
  "id": 1604052010,
  "districtId": 1604052,
  "districtName": "GUMAY ULU",
  "name": "SIMPUR",
  "postalCode": "24582"
 }
]