[
 {
  "id": 1604043001,
  "districtId": 1604043,
  "districtName": "MULAK SEBINGKAI",
  "name": "DURIAN DANGKAL",
  "postalCode": "31453"
 },
 {
  "id": 1604043002,
  "districtId": 1604043,
  "districtName": "MULAK SEBINGKAI",
  "name": "PENANDINGAN",
  "postalCode": "31453"
 },
 {
  "id": 1604043003,
  "districtId": 1604043,
  "districtName": "MULAK SEBINGKAI",
  "name": "TALANG PADANG",
  "postalCode": "32265"
 },
 {
  "id": 1604043004,
  "districtId": 1604043,
  "districtName": "MULAK SEBINGKAI",
  "name": "LUBUK DENDAN",
  "postalCode": "31453"
 },
 {
  "id": 1604043005,
  "districtId": 1604043,
  "districtName": "MULAK SEBINGKAI",
  "name": "JADIAN BARU",
  "postalCode": "31453"
 },
 {
  "id": 1604043006,
  "districtId": 1604043,
  "districtName": "MULAK SEBINGKAI",
  "name": "JADIAN LAMA",
  "postalCode": "31453"
 },
 {
  "id": 1604043007,
  "districtId": 1604043,
  "districtName": "MULAK SEBINGKAI",
  "name": "TALANG BERANGIN",
  "postalCode": "31453"
 },
 {
  "id": 1604043008,
  "districtId": 1604043,
  "districtName": "MULAK SEBINGKAI",
  "name": "PADANG BINDU",
  "postalCode": "31626"
 },
 {
  "id": 1604043009,
  "districtId": 1604043,
  "districtName": "MULAK SEBINGKAI",
  "name": "KEBAN AGUNG",
  "postalCode": "31452"
 },
 {
  "id": 1604043010,
  "districtId": 1604043,
  "districtName": "MULAK SEBINGKAI",
  "name": "DANAU BELIDANG",
  "postalCode": "31453"
 }
]