[
 {
  "id": 1604012001,
  "districtId": 1604012,
  "districtName": "TANJUNG SAKTI PUMU",
  "name": "KARANG AGUNG",
  "postalCode": "31315"
 },
 {
  "id": 1604012002,
  "districtId": 1604012,
  "districtName": "TANJUNG SAKTI PUMU",
  "name": "GUNUNG RAYA",
  "postalCode": "31581"
 },
 {
  "id": 1604012003,
  "districtId": 1604012,
  "districtName": "TANJUNG SAKTI PUMU",
  "name": "TALANG TINGGI",
  "postalCode": "37162"
 },
 {
  "id": 1604012004,
  "districtId": 1604012,
  "districtName": "TANJUNG SAKTI PUMU",
  "name": "SIMPANG III PUMU",
  "postalCode": ""
 },
 {
  "id": 1604012005,
  "districtId": 1604012,
  "districtName": "TANJUNG SAKTI PUMU",
  "name": "KEPALA SIRING",
  "postalCode": "31452"
 },
 {
  "id": 1604012006,
  "districtId": 1604012,
  "districtName": "TANJUNG SAKTI PUMU",
  "name": "GENTING",
  "postalCode": "38372"
 },
 {
  "id": 1604012007,
  "districtId": 1604012,
  "districtName": "TANJUNG SAKTI PUMU",
  "name": "SUBAN",
  "postalCode": "36552"
 },
 {
  "id": 1604012008,
  "districtId": 1604012,
  "districtName": "TANJUNG SAKTI PUMU",
  "name": "MUARA CAWANG",
  "postalCode": "31419"
 },
 {
  "id": 1604012009,
  "districtId": 1604012,
  "districtName": "TANJUNG SAKTI PUMU",
  "name": "GUNUNG AYU",
  "postalCode": "31581"
 },
 {
  "id": 1604012010,
  "districtId": 1604012,
  "districtName": "TANJUNG SAKTI PUMU",
  "name": "UJUNG PULAU",
  "postalCode": "31581"
 },
 {
  "id": 1604012011,
  "districtId": 1604012,
  "districtName": "TANJUNG SAKTI PUMU",
  "name": "TANJUNG ALAM",
  "postalCode": "21272"
 },
 {
  "id": 1604012012,
  "districtId": 1604012,
  "districtName": "TANJUNG SAKTI PUMU",
  "name": "BATU RANCING",
  "postalCode": "31581"
 },
 {
  "id": 1604012013,
  "districtId": 1604012,
  "districtName": "TANJUNG SAKTI PUMU",
  "name": "GUNUNG MERAKSA",
  "postalCode": "32192"
 },
 {
  "id": 1604012014,
  "districtId": 1604012,
  "districtName": "TANJUNG SAKTI PUMU",
  "name": "KEMBANG AYUN",
  "postalCode": "31581"
 }
]