[
 {
  "id": 1604050031,
  "districtId": 1604050,
  "districtName": "PULAU PINANG",
  "name": "TANJUNG MULAK",
  "postalCode": "31461"
 },
 {
  "id": 1604050032,
  "districtId": 1604050,
  "districtName": "PULAU PINANG",
  "name": "PULAU PINANG",
  "postalCode": "31461"
 },
 {
  "id": 1604050033,
  "districtId": 1604050,
  "districtName": "PULAU PINANG",
  "name": "LUBUK SEPANG",
  "postalCode": "31593"
 },
 {
  "id": 1604050034,
  "districtId": 1604050,
  "districtName": "PULAU PINANG",
  "name": "TANJUNG SIRIH",
  "postalCode": "31461"
 },
 {
  "id": 1604050039,
  "districtId": 1604050,
  "districtName": "PULAU PINANG",
  "name": "PERIGI",
  "postalCode": "30618"
 },
 {
  "id": 1604050040,
  "districtId": 1604050,
  "districtName": "PULAU PINANG",
  "name": "KARANG DALAM",
  "postalCode": "31461"
 },
 {
  "id": 1604050041,
  "districtId": 1604050,
  "districtName": "PULAU PINANG",
  "name": "PAGAR BATU",
  "postalCode": "22383"
 },
 {
  "id": 1604050042,
  "districtId": 1604050,
  "districtName": "PULAU PINANG",
  "name": "KUBA",
  "postalCode": "31461"
 },
 {
  "id": 1604050043,
  "districtId": 1604050,
  "districtName": "PULAU PINANG",
  "name": "JATI",
  "postalCode": "20152"
 },
 {
  "id": 1604050044,
  "districtId": 1604050,
  "districtName": "PULAU PINANG",
  "name": "MUARA SIBAN",
  "postalCode": "31521"
 }
]