[
 {
  "id": 1605090001,
  "districtId": 1605090,
  "districtName": "MEGANG SAKTI",
  "name": "WONOSARI",
  "postalCode": "24582"
 },
 {
  "id": 1605090002,
  "districtId": 1605090,
  "districtName": "MEGANG SAKTI",
  "name": "MEGANG SAKTI II",
  "postalCode": "31657"
 },
 {
  "id": 1605090003,
  "districtId": 1605090,
  "districtName": "MEGANG SAKTI",
  "name": "MEGANG SAKTI IV",
  "postalCode": "31657"
 },
 {
  "id": 1605090004,
  "districtId": 1605090,
  "districtName": "MEGANG SAKTI",
  "name": "MEGANG SAKTI III",
  "postalCode": "31657"
 },
 {
  "id": 1605090005,
  "districtId": 1605090,
  "districtName": "MEGANG SAKTI",
  "name": "PAGAR AYU",
  "postalCode": "31657"
 },
 {
  "id": 1605090006,
  "districtId": 1605090,
  "districtName": "MEGANG SAKTI",
  "name": "MEGANG SAKTI I",
  "postalCode": "31657"
 },
 {
  "id": 1605090007,
  "districtId": 1605090,
  "districtName": "MEGANG SAKTI",
  "name": "SUMBER REJO",
  "postalCode": "21255"
 },
 {
  "id": 1605090008,
  "districtId": 1605090,
  "districtName": "MEGANG SAKTI",
  "name": "MEGANG SAKTI V",
  "postalCode": "31657"
 },
 {
  "id": 1605090009,
  "districtId": 1605090,
  "districtName": "MEGANG SAKTI",
  "name": "JAJARAN BARU II",
  "postalCode": "31657"
 },
 {
  "id": 1605090010,
  "districtId": 1605090,
  "districtName": "MEGANG SAKTI",
  "name": "MUARA MEGANG",
  "postalCode": "31657"
 },
 {
  "id": 1605090011,
  "districtId": 1605090,
  "districtName": "MEGANG SAKTI",
  "name": "MARGA PUSPITA",
  "postalCode": "31657"
 },
 {
  "id": 1605090012,
  "districtId": 1605090,
  "districtName": "MEGANG SAKTI",
  "name": "TEGAL SARI",
  "postalCode": "23681"
 },
 {
  "id": 1605090013,
  "districtId": 1605090,
  "districtName": "MEGANG SAKTI",
  "name": "CAMPUR SARI",
  "postalCode": "31657"
 },
 {
  "id": 1605090014,
  "districtId": 1605090,
  "districtName": "MEGANG SAKTI",
  "name": "MEKARSARI",
  "postalCode": "37482"
 },
 {
  "id": 1605090015,
  "districtId": 1605090,
  "districtName": "MEGANG SAKTI",
  "name": "KARYA MULYA",
  "postalCode": "28565"
 },
 {
  "id": 1605090016,
  "districtId": 1605090,
  "districtName": "MEGANG SAKTI",
  "name": "REJOSARI",
  "postalCode": "29353"
 },
 {
  "id": 1605090017,
  "districtId": 1605090,
  "districtName": "MEGANG SAKTI",
  "name": "TRISAKTI",
  "postalCode": "31657"
 },
 {
  "id": 1605090018,
  "districtId": 1605090,
  "districtName": "MEGANG SAKTI",
  "name": "JAJARAN BARU I",
  "postalCode": ""
 },
 {
  "id": 1605090020,
  "districtId": 1605090,
  "districtName": "MEGANG SAKTI",
  "name": "MULYO SARI",
  "postalCode": "31657"
 },
 {
  "id": 1605090021,
  "districtId": 1605090,
  "districtName": "MEGANG SAKTI",
  "name": "MUARA MEGANG I",
  "postalCode": "31657"
 },
 {
  "id": 1605090022,
  "districtId": 1605090,
  "districtName": "MEGANG SAKTI",
  "name": "TALANG UBI",
  "postalCode": ""
 }
]