[
 {
  "id": 1605030003,
  "districtId": 1605030,
  "districtName": "SUKU TENGAH LAKITAN ULU",
  "name": "PASENAN",
  "postalCode": "30771"
 },
 {
  "id": 1605030015,
  "districtId": 1605030,
  "districtName": "SUKU TENGAH LAKITAN ULU",
  "name": "SUKARAYA",
  "postalCode": "32112"
 },
 {
  "id": 1605030016,
  "districtId": 1605030,
  "districtName": "SUKU TENGAH LAKITAN ULU",
  "name": "TERAWAS",
  "postalCode": "30771"
 },
 {
  "id": 1605030018,
  "districtId": 1605030,
  "districtName": "SUKU TENGAH LAKITAN ULU",
  "name": "BABAT",
  "postalCode": "30752"
 },
 {
  "id": 1605030019,
  "districtId": 1605030,
  "districtName": "SUKU TENGAH LAKITAN ULU",
  "name": "SUKA MANA",
  "postalCode": ""
 },
 {
  "id": 1605030020,
  "districtId": 1605030,
  "districtName": "SUKU TENGAH LAKITAN ULU",
  "name": "PADU RAKSA",
  "postalCode": ""
 },
 {
  "id": 1605030021,
  "districtId": 1605030,
  "districtName": "SUKU TENGAH LAKITAN ULU",
  "name": "SUMBER KARYA",
  "postalCode": "20737"
 },
 {
  "id": 1605030022,
  "districtId": 1605030,
  "districtName": "SUKU TENGAH LAKITAN ULU",
  "name": "SRI MULYO",
  "postalCode": "30752"
 },
 {
  "id": 1605030023,
  "districtId": 1605030,
  "districtName": "SUKU TENGAH LAKITAN ULU",
  "name": "SUKAKARYA",
  "postalCode": "30771"
 },
 {
  "id": 1605030024,
  "districtId": 1605030,
  "districtName": "SUKU TENGAH LAKITAN ULU",
  "name": "SUKAREJO",
  "postalCode": "24411"
 },
 {
  "id": 1605030027,
  "districtId": 1605030,
  "districtName": "SUKU TENGAH LAKITAN ULU",
  "name": "SUKAMERINDU",
  "postalCode": "30771"
 },
 {
  "id": 1605030035,
  "districtId": 1605030,
  "districtName": "SUKU TENGAH LAKITAN ULU",
  "name": "KOSGORO",
  "postalCode": "30771"
 },
 {
  "id": 1605030036,
  "districtId": 1605030,
  "districtName": "SUKU TENGAH LAKITAN ULU",
  "name": "SUKARAYA BARU",
  "postalCode": "30771"
 }
]