[
 {
  "id": 1606092001,
  "districtId": 1606092,
  "districtName": "BABAT SUPAT",
  "name": "GAJAH MATI",
  "postalCode": "30755"
 },
 {
  "id": 1606092002,
  "districtId": 1606092,
  "districtName": "BABAT SUPAT",
  "name": "TANJUNG KERANG",
  "postalCode": "30755"
 },
 {
  "id": 1606092003,
  "districtId": 1606092,
  "districtName": "BABAT SUPAT",
  "name": "BABAT BANYUASIN",
  "postalCode": "30755"
 },
 {
  "id": 1606092004,
  "districtId": 1606092,
  "districtName": "BABAT SUPAT",
  "name": "SUPAT",
  "postalCode": "30755"
 },
 {
  "id": 1606092005,
  "districtId": 1606092,
  "districtName": "BABAT SUPAT",
  "name": "LETANG",
  "postalCode": "30755"
 },
 {
  "id": 1606092006,
  "districtId": 1606092,
  "districtName": "BABAT SUPAT",
  "name": "SUKA MAJU",
  "postalCode": "24673"
 },
 {
  "id": 1606092007,
  "districtId": 1606092,
  "districtName": "BABAT SUPAT",
  "name": "LANGKAP",
  "postalCode": "30755"
 },
 {
  "id": 1606092008,
  "districtId": 1606092,
  "districtName": "BABAT SUPAT",
  "name": "TENGGULANG JAYA",
  "postalCode": ""
 },
 {
  "id": 1606092009,
  "districtId": 1606092,
  "districtName": "BABAT SUPAT",
  "name": "BANDAR TENGGULANG",
  "postalCode": "30755"
 },
 {
  "id": 1606092010,
  "districtId": 1606092,
  "districtName": "BABAT SUPAT",
  "name": "SUMBER JAYA",
  "postalCode": "24553"
 },
 {
  "id": 1606092011,
  "districtId": 1606092,
  "districtName": "BABAT SUPAT",
  "name": "TENGGULANG BARU",
  "postalCode": "30755"
 },
 {
  "id": 1606092012,
  "districtId": 1606092,
  "districtName": "BABAT SUPAT",
  "name": "SERATUS LAPAN",
  "postalCode": "30755"
 },
 {
  "id": 1606092013,
  "districtId": 1606092,
  "districtName": "BABAT SUPAT",
  "name": "BABAT RAMBA JAYA",
  "postalCode": "30755"
 },
 {
  "id": 1606092014,
  "districtId": 1606092,
  "districtName": "BABAT SUPAT",
  "name": "SUPAT BARAT",
  "postalCode": "30755"
 },
 {
  "id": 1606092015,
  "districtId": 1606092,
  "districtName": "BABAT SUPAT",
  "name": "SUPAT TIMUR",
  "postalCode": "30755"
 },
 {
  "id": 1606092016,
  "districtId": 1606092,
  "districtName": "BABAT SUPAT",
  "name": "GAJAH MUDA",
  "postalCode": ""
 }
]