[
 {
  "id": 1606020026,
  "districtId": 1606020,
  "districtName": "BABAT TOMAN",
  "name": "KASMARAN",
  "postalCode": "30752"
 },
 {
  "id": 1606020027,
  "districtId": 1606020,
  "districtName": "BABAT TOMAN",
  "name": "TOMAN",
  "postalCode": "30752"
 },
 {
  "id": 1606020028,
  "districtId": 1606020,
  "districtName": "BABAT TOMAN",
  "name": "BABAT",
  "postalCode": "30752"
 },
 {
  "id": 1606020029,
  "districtId": 1606020,
  "districtName": "BABAT TOMAN",
  "name": "MANGUN JAYA",
  "postalCode": "30752"
 },
 {
  "id": 1606020030,
  "districtId": 1606020,
  "districtName": "BABAT TOMAN",
  "name": "MUARA PUNJUNG",
  "postalCode": "30752"
 },
 {
  "id": 1606020031,
  "districtId": 1606020,
  "districtName": "BABAT TOMAN",
  "name": "BERUGA",
  "postalCode": ""
 },
 {
  "id": 1606020032,
  "districtId": 1606020,
  "districtName": "BABAT TOMAN",
  "name": "SUGIWARAS",
  "postalCode": "30752"
 },
 {
  "id": 1606020033,
  "districtId": 1606020,
  "districtName": "BABAT TOMAN",
  "name": "SUGI RAYA",
  "postalCode": "30752"
 },
 {
  "id": 1606020034,
  "districtId": 1606020,
  "districtName": "BABAT TOMAN",
  "name": "SEREKA",
  "postalCode": "30752"
 },
 {
  "id": 1606020035,
  "districtId": 1606020,
  "districtName": "BABAT TOMAN",
  "name": "SRI MULYO",
  "postalCode": "30752"
 },
 {
  "id": 1606020036,
  "districtId": 1606020,
  "districtName": "BABAT TOMAN",
  "name": "SUNGAI ANGIT",
  "postalCode": "30752"
 },
 {
  "id": 1606020037,
  "districtId": 1606020,
  "districtName": "BABAT TOMAN",
  "name": "BANGUN SARI",
  "postalCode": "24782"
 },
 {
  "id": 1606020038,
  "districtId": 1606020,
  "districtName": "BABAT TOMAN",
  "name": "PANGKALAN JAYA",
  "postalCode": ""
 }
]