[
 {
  "id": 1606040001,
  "districtId": 1606040,
  "districtName": "SEKAYU",
  "name": "RIMBAH UKUR",
  "postalCode": "30711"
 },
 {
  "id": 1606040002,
  "districtId": 1606040,
  "districtName": "SEKAYU",
  "name": "SUNGAI MEDAK",
  "postalCode": "30711"
 },
 {
  "id": 1606040003,
  "districtId": 1606040,
  "districtName": "SEKAYU",
  "name": "SUNGAI BATANG/ C.6",
  "postalCode": ""
 },
 {
  "id": 1606040004,
  "districtId": 1606040,
  "districtName": "SEKAYU",
  "name": "SUKARAMI",
  "postalCode": "32382"
 },
 {
  "id": 1606040005,
  "districtId": 1606040,
  "districtName": "SEKAYU",
  "name": "SOAK BARU",
  "postalCode": "30711"
 },
 {
  "id": 1606040006,
  "districtId": 1606040,
  "districtName": "SEKAYU",
  "name": "BALAI AGUNG",
  "postalCode": "30711"
 },
 {
  "id": 1606040007,
  "districtId": 1606040,
  "districtName": "SEKAYU",
  "name": "SERASAN JAYA",
  "postalCode": "30711"
 },
 {
  "id": 1606040008,
  "districtId": 1606040,
  "districtName": "SEKAYU",
  "name": "KAYUARA",
  "postalCode": "30711"
 },
 {
  "id": 1606040009,
  "districtId": 1606040,
  "districtName": "SEKAYU",
  "name": "LUMPATAN",
  "postalCode": "30711"
 },
 {
  "id": 1606040010,
  "districtId": 1606040,
  "districtName": "SEKAYU",
  "name": "BAILANGU",
  "postalCode": "30711"
 },
 {
  "id": 1606040022,
  "districtId": 1606040,
  "districtName": "SEKAYU",
  "name": "MUARA TELADAN",
  "postalCode": "30711"
 },
 {
  "id": 1606040023,
  "districtId": 1606040,
  "districtName": "SEKAYU",
  "name": "BANDAR JAYA",
  "postalCode": "28771"
 },
 {
  "id": 1606040024,
  "districtId": 1606040,
  "districtName": "SEKAYU",
  "name": "LUMPATAN II",
  "postalCode": ""
 },
 {
  "id": 1606040025,
  "districtId": 1606040,
  "districtName": "SEKAYU",
  "name": "BAILANGU TIMUR",
  "postalCode": "30711"
 }
]