[
 {
  "id": 1607031001,
  "districtId": 1607031,
  "districtName": "TUNGKAL ILIR",
  "name": "TELUK TENGGULANG",
  "postalCode": "30959"
 },
 {
  "id": 1607031002,
  "districtId": 1607031,
  "districtName": "TUNGKAL ILIR",
  "name": "SUKAMULYA UPT I K A ULU",
  "postalCode": ""
 },
 {
  "id": 1607031003,
  "districtId": 1607031,
  "districtName": "TUNGKAL ILIR",
  "name": "SUKARAJA P.RIMAU",
  "postalCode": ""
 },
 {
  "id": 1607031004,
  "districtId": 1607031,
  "districtName": "TUNGKAL ILIR",
  "name": "KARANG ANYAR",
  "postalCode": "24415"
 },
 {
  "id": 1607031005,
  "districtId": 1607031,
  "districtName": "TUNGKAL ILIR",
  "name": "KARANG MULYA/SUMBER JAYA",
  "postalCode": ""
 },
 {
  "id": 1607031006,
  "districtId": 1607031,
  "districtName": "TUNGKAL ILIR",
  "name": "KARANG ASEM",
  "postalCode": "30959"
 },
 {
  "id": 1607031007,
  "districtId": 1607031,
  "districtName": "TUNGKAL ILIR",
  "name": "MARGA RAHAYU",
  "postalCode": "31626"
 },
 {
  "id": 1607031008,
  "districtId": 1607031,
  "districtName": "TUNGKAL ILIR",
  "name": "BUMI SERDANG",
  "postalCode": "30959"
 },
 {
  "id": 1607031009,
  "districtId": 1607031,
  "districtName": "TUNGKAL ILIR",
  "name": "SIDOMULYO",
  "postalCode": "21455"
 },
 {
  "id": 1607031010,
  "districtId": 1607031,
  "districtName": "TUNGKAL ILIR",
  "name": "KELUANG",
  "postalCode": "30754"
 },
 {
  "id": 1607031011,
  "districtId": 1607031,
  "districtName": "TUNGKAL ILIR",
  "name": "BENTAYAN",
  "postalCode": "24182"
 },
 {
  "id": 1607031012,
  "districtId": 1607031,
  "districtName": "TUNGKAL ILIR",
  "name": "PANCAMULYA PERTAK II SP 2",
  "postalCode": ""
 },
 {
  "id": 1607031013,
  "districtId": 1607031,
  "districtName": "TUNGKAL ILIR",
  "name": "SUKA JAYA PERTAK III",
  "postalCode": ""
 },
 {
  "id": 1607031014,
  "districtId": 1607031,
  "districtName": "TUNGKAL ILIR",
  "name": "SUKA KARYA",
  "postalCode": "23891"
 }
]