[
 {
  "id": 1607021001,
  "districtId": 1607021,
  "districtName": "SUAK TAPEH",
  "name": "TALANG IPUH",
  "postalCode": "30958"
 },
 {
  "id": 1607021002,
  "districtId": 1607021,
  "districtName": "SUAK TAPEH",
  "name": "AIR SENGGERIS",
  "postalCode": "30958"
 },
 {
  "id": 1607021003,
  "districtId": 1607021,
  "districtName": "SUAK TAPEH",
  "name": "LUBUK LANCANG",
  "postalCode": "30958"
 },
 {
  "id": 1607021004,
  "districtId": 1607021,
  "districtName": "SUAK TAPEH",
  "name": "BIYUKU",
  "postalCode": "30958"
 },
 {
  "id": 1607021005,
  "districtId": 1607021,
  "districtName": "SUAK TAPEH",
  "name": "RIMBA TERAB",
  "postalCode": "30958"
 },
 {
  "id": 1607021006,
  "districtId": 1607021,
  "districtName": "SUAK TAPEH",
  "name": "SEDANG",
  "postalCode": "30958"
 },
 {
  "id": 1607021007,
  "districtId": 1607021,
  "districtName": "SUAK TAPEH",
  "name": "TANJUNG LAUT",
  "postalCode": "30958"
 },
 {
  "id": 1607021008,
  "districtId": 1607021,
  "districtName": "SUAK TAPEH",
  "name": "BENGKUANG",
  "postalCode": "30958"
 },
 {
  "id": 1607021009,
  "districtId": 1607021,
  "districtName": "SUAK TAPEH",
  "name": "DURIAN DAUN",
  "postalCode": "30958"
 },
 {
  "id": 1607021010,
  "districtId": 1607021,
  "districtName": "SUAK TAPEH",
  "name": "MERANTI",
  "postalCode": "24673"
 },
 {
  "id": 1607021011,
  "districtId": 1607021,
  "districtName": "SUAK TAPEH",
  "name": "SUKA RAJA",
  "postalCode": "23662"
 }
]