[
 {
  "id": 1607041001,
  "districtId": 1607041,
  "districtName": "SEMBAWA",
  "name": "PULAU",
  "postalCode": "28463"
 },
 {
  "id": 1607041002,
  "districtId": 1607041,
  "districtName": "SEMBAWA",
  "name": "LALANG SEMBAWA",
  "postalCode": "30953"
 },
 {
  "id": 1607041003,
  "districtId": 1607041,
  "districtName": "SEMBAWA",
  "name": "REJODADI",
  "postalCode": "32361"
 },
 {
  "id": 1607041004,
  "districtId": 1607041,
  "districtName": "SEMBAWA",
  "name": "MAINAN",
  "postalCode": "30953"
 },
 {
  "id": 1607041005,
  "districtId": 1607041,
  "districtName": "SEMBAWA",
  "name": "LIMAU",
  "postalCode": "30953"
 },
 {
  "id": 1607041006,
  "districtId": 1607041,
  "districtName": "SEMBAWA",
  "name": "PURWOSARI",
  "postalCode": "24582"
 },
 {
  "id": 1607041007,
  "districtId": 1607041,
  "districtName": "SEMBAWA",
  "name": "LIMBANG MULYA",
  "postalCode": "30953"
 },
 {
  "id": 1607041008,
  "districtId": 1607041,
  "districtName": "SEMBAWA",
  "name": "SAKOMAKMUR",
  "postalCode": ""
 },
 {
  "id": 1607041009,
  "districtId": 1607041,
  "districtName": "SEMBAWA",
  "name": "AIR RENGIT / PULAU MUNING",
  "postalCode": ""
 },
 {
  "id": 1607041010,
  "districtId": 1607041,
  "districtName": "SEMBAWA",
  "name": "MUARA DAMAI",
  "postalCode": "30953"
 },
 {
  "id": 1607041011,
  "districtId": 1607041,
  "districtName": "SEMBAWA",
  "name": "SANTAN SARI",
  "postalCode": ""
 }
]