[
 {
  "id": 1607100016,
  "districtId": 1607100,
  "districtName": "BANYUASIN II",
  "name": "TELUK PAYO",
  "postalCode": "30971"
 },
 {
  "id": 1607100022,
  "districtId": 1607100,
  "districtName": "BANYUASIN II",
  "name": "SUNGSANG III",
  "postalCode": "30971"
 },
 {
  "id": 1607100023,
  "districtId": 1607100,
  "districtName": "BANYUASIN II",
  "name": "SUNGSANG I",
  "postalCode": "30971"
 },
 {
  "id": 1607100024,
  "districtId": 1607100,
  "districtName": "BANYUASIN II",
  "name": "SUNGSANG II",
  "postalCode": "30971"
 },
 {
  "id": 1607100025,
  "districtId": 1607100,
  "districtName": "BANYUASIN II",
  "name": "SUMBER REJEKI",
  "postalCode": "30971"
 },
 {
  "id": 1607100026,
  "districtId": 1607100,
  "districtName": "BANYUASIN II",
  "name": "SRI AGUNG",
  "postalCode": "36552"
 },
 {
  "id": 1607100027,
  "districtId": 1607100,
  "districtName": "BANYUASIN II",
  "name": "KARANG SARI",
  "postalCode": "21174"
 },
 {
  "id": 1607100028,
  "districtId": 1607100,
  "districtName": "BANYUASIN II",
  "name": "MAJURIA",
  "postalCode": "30971"
 },
 {
  "id": 1607100029,
  "districtId": 1607100,
  "districtName": "BANYUASIN II",
  "name": "TABALA JAYA",
  "postalCode": "30971"
 },
 {
  "id": 1607100030,
  "districtId": 1607100,
  "districtName": "BANYUASIN II",
  "name": "SUNGSANG IV",
  "postalCode": "30971"
 },
 {
  "id": 1607100031,
  "districtId": 1607100,
  "districtName": "BANYUASIN II",
  "name": "TANAH PILIH",
  "postalCode": "30971"
 },
 {
  "id": 1607100032,
  "districtId": 1607100,
  "districtName": "BANYUASIN II",
  "name": "JATI SARI",
  "postalCode": "20852"
 },
 {
  "id": 1607100033,
  "districtId": 1607100,
  "districtName": "BANYUASIN II",
  "name": "PERAJEN JAYA",
  "postalCode": "30971"
 },
 {
  "id": 1607100034,
  "districtId": 1607100,
  "districtName": "BANYUASIN II",
  "name": "RIMAU SUNGSANG",
  "postalCode": "30971"
 },
 {
  "id": 1607100037,
  "districtId": 1607100,
  "districtName": "BANYUASIN II",
  "name": "MUARA SUNGSANG",
  "postalCode": "30971"
 },
 {
  "id": 1607100038,
  "districtId": 1607100,
  "districtName": "BANYUASIN II",
  "name": "MARGA SUNGSANG",
  "postalCode": "30971"
 },
 {
  "id": 1607100039,
  "districtId": 1607100,
  "districtName": "BANYUASIN II",
  "name": "MEKAR SARI",
  "postalCode": "21261"
 }
]