[
 {
  "id": 1607060017,
  "districtId": 1607060,
  "districtName": "BANYUASIN I",
  "name": "SUNGAI REBO",
  "postalCode": "30962"
 },
 {
  "id": 1607060018,
  "districtId": 1607060,
  "districtName": "BANYUASIN I",
  "name": "SUNGAI GERONG",
  "postalCode": "30962"
 },
 {
  "id": 1607060019,
  "districtId": 1607060,
  "districtName": "BANYUASIN I",
  "name": "MARIANA",
  "postalCode": "30962"
 },
 {
  "id": 1607060026,
  "districtId": 1607060,
  "districtName": "BANYUASIN I",
  "name": "TIRTO SARI",
  "postalCode": "30962"
 },
 {
  "id": 1607060027,
  "districtId": 1607060,
  "districtName": "BANYUASIN I",
  "name": "PEMATANG PALAS",
  "postalCode": "30962"
 },
 {
  "id": 1607060028,
  "districtId": 1607060,
  "districtName": "BANYUASIN I",
  "name": "PERAJEN",
  "postalCode": "30962"
 },
 {
  "id": 1607060029,
  "districtId": 1607060,
  "districtName": "BANYUASIN I",
  "name": "PULAU BORANG",
  "postalCode": "30962"
 },
 {
  "id": 1607060030,
  "districtId": 1607060,
  "districtName": "BANYUASIN I",
  "name": "MERAH MATA",
  "postalCode": "30962"
 },
 {
  "id": 1607060031,
  "districtId": 1607060,
  "districtName": "BANYUASIN I",
  "name": "CINTA MANIS",
  "postalCode": "78871"
 },
 {
  "id": 1607060032,
  "districtId": 1607060,
  "districtName": "BANYUASIN I",
  "name": "PERAMBAHAN",
  "postalCode": "30962"
 },
 {
  "id": 1607060044,
  "districtId": 1607060,
  "districtName": "BANYUASIN I",
  "name": "MARIANA ILIR",
  "postalCode": "30962"
 },
 {
  "id": 1607060045,
  "districtId": 1607060,
  "districtName": "BANYUASIN I",
  "name": "DUREN IJO",
  "postalCode": "30962"
 },
 {
  "id": 1607060051,
  "districtId": 1607060,
  "districtName": "BANYUASIN I",
  "name": "PERAMBAHAN BARU",
  "postalCode": "30962"
 }
]