[
 {
  "id": 1608030001,
  "districtId": 1608030,
  "districtName": "BUAY PEMACA",
  "name": "SIPIN",
  "postalCode": "32265"
 },
 {
  "id": 1608030002,
  "districtId": 1608030,
  "districtName": "BUAY PEMACA",
  "name": "TANJUNG DURIAN",
  "postalCode": "22763"
 },
 {
  "id": 1608030003,
  "districtId": 1608030,
  "districtName": "BUAY PEMACA",
  "name": "KOTA WAY",
  "postalCode": "32265"
 },
 {
  "id": 1608030004,
  "districtId": 1608030,
  "districtName": "BUAY PEMACA",
  "name": "KARET JAYA",
  "postalCode": "32265"
 },
 {
  "id": 1608030005,
  "districtId": 1608030,
  "districtName": "BUAY PEMACA",
  "name": "SRI MENANTI",
  "postalCode": "32265"
 },
 {
  "id": 1608030006,
  "districtId": 1608030,
  "districtName": "BUAY PEMACA",
  "name": "TALANG PADANG",
  "postalCode": "32265"
 },
 {
  "id": 1608030007,
  "districtId": 1608030,
  "districtName": "BUAY PEMACA",
  "name": "SERAKAT JAYA",
  "postalCode": "32265"
 },
 {
  "id": 1608030008,
  "districtId": 1608030,
  "districtName": "BUAY PEMACA",
  "name": "DURIAN SEMBILAN",
  "postalCode": "32265"
 },
 {
  "id": 1608030010,
  "districtId": 1608030,
  "districtName": "BUAY PEMACA",
  "name": "SUMBER RINGIN",
  "postalCode": "32265"
 },
 {
  "id": 1608030011,
  "districtId": 1608030,
  "districtName": "BUAY PEMACA",
  "name": "KEMBANG TINGGI",
  "postalCode": "32265"
 },
 {
  "id": 1608030012,
  "districtId": 1608030,
  "districtName": "BUAY PEMACA",
  "name": "DANAU JAYA",
  "postalCode": "32265"
 },
 {
  "id": 1608030013,
  "districtId": 1608030,
  "districtName": "BUAY PEMACA",
  "name": "SIDO RAHAYU",
  "postalCode": "32382"
 },
 {
  "id": 1608030014,
  "districtId": 1608030,
  "districtName": "BUAY PEMACA",
  "name": "SIDODADI",
  "postalCode": "24582"
 },
 {
  "id": 1608030020,
  "districtId": 1608030,
  "districtName": "BUAY PEMACA",
  "name": "SUMBER RAYA",
  "postalCode": "32265"
 },
 {
  "id": 1608030021,
  "districtId": 1608030,
  "districtName": "BUAY PEMACA",
  "name": "SINAR NAPALAN",
  "postalCode": "32265"
 },
 {
  "id": 1608030022,
  "districtId": 1608030,
  "districtName": "BUAY PEMACA",
  "name": "TANJUNG JAYA",
  "postalCode": "32265"
 },
 {
  "id": 1608030023,
  "districtId": 1608030,
  "districtName": "BUAY PEMACA",
  "name": "SINAR BARU",
  "postalCode": "22874"
 },
 {
  "id": 1608030024,
  "districtId": 1608030,
  "districtName": "BUAY PEMACA",
  "name": "MEKAR JAYA",
  "postalCode": "20771"
 },
 {
  "id": 1608030025,
  "districtId": 1608030,
  "districtName": "BUAY PEMACA",
  "name": "AIR KELIAN",
  "postalCode": "32265"
 },
 {
  "id": 1608030026,
  "districtId": 1608030,
  "districtName": "BUAY PEMACA",
  "name": "TANJUNG SARI",
  "postalCode": "24673"
 },
 {
  "id": 1608030027,
  "districtId": 1608030,
  "districtName": "BUAY PEMACA",
  "name": "TANJUNG BARU",
  "postalCode": "22742"
 },
 {
  "id": 1608030028,
  "districtId": 1608030,
  "districtName": "BUAY PEMACA",
  "name": "TANJUNG MENANG",
  "postalCode": "30953"
 }
]