[
 {
  "id": 1609050011,
  "districtId": 1609050,
  "districtName": "MADANG SUKU I",
  "name": "JAYA BAKTI",
  "postalCode": "32362"
 },
 {
  "id": 1609050012,
  "districtId": 1609050,
  "districtName": "MADANG SUKU I",
  "name": "HARJO MULYO",
  "postalCode": "32362"
 },
 {
  "id": 1609050013,
  "districtId": 1609050,
  "districtName": "MADANG SUKU I",
  "name": "JATISARI",
  "postalCode": "32362"
 },
 {
  "id": 1609050014,
  "districtId": 1609050,
  "districtName": "MADANG SUKU I",
  "name": "MENDAYUN",
  "postalCode": "32362"
 },
 {
  "id": 1609050015,
  "districtId": 1609050,
  "districtName": "MADANG SUKU I",
  "name": "GUNUNG TERANG",
  "postalCode": "32277"
 },
 {
  "id": 1609050016,
  "districtId": 1609050,
  "districtName": "MADANG SUKU I",
  "name": "RASUAN",
  "postalCode": "32362"
 },
 {
  "id": 1609050017,
  "districtId": 1609050,
  "districtName": "MADANG SUKU I",
  "name": "MENGULAK",
  "postalCode": "32362"
 },
 {
  "id": 1609050018,
  "districtId": 1609050,
  "districtName": "MADANG SUKU I",
  "name": "SP KARTA MULYA",
  "postalCode": ""
 },
 {
  "id": 1609050019,
  "districtId": 1609050,
  "districtName": "MADANG SUKU I",
  "name": "KARTA MULYA",
  "postalCode": "32362"
 },
 {
  "id": 1609050021,
  "districtId": 1609050,
  "districtName": "MADANG SUKU I",
  "name": "AGUNG JATI",
  "postalCode": "32362"
 },
 {
  "id": 1609050022,
  "districtId": 1609050,
  "districtName": "MADANG SUKU I",
  "name": "TRIDADI",
  "postalCode": "32362"
 },
 {
  "id": 1609050023,
  "districtId": 1609050,
  "districtName": "MADANG SUKU I",
  "name": "RASUAN DARAT",
  "postalCode": "32362"
 },
 {
  "id": 1609050024,
  "districtId": 1609050,
  "districtName": "MADANG SUKU I",
  "name": "HARJOMULYO JAYA",
  "postalCode": ""
 }
]