[
 {
  "id": 1609041001,
  "districtId": 1609041,
  "districtName": "MADANG SUKU III",
  "name": "BATU MARTA X",
  "postalCode": ""
 },
 {
  "id": 1609041002,
  "districtId": 1609041,
  "districtName": "MADANG SUKU III",
  "name": "BINA AMARTA",
  "postalCode": "32366"
 },
 {
  "id": 1609041003,
  "districtId": 1609041,
  "districtName": "MADANG SUKU III",
  "name": "BATU MARTA VI",
  "postalCode": ""
 },
 {
  "id": 1609041004,
  "districtId": 1609041,
  "districtName": "MADANG SUKU III",
  "name": "BANDING AGUNG",
  "postalCode": "32274"
 },
 {
  "id": 1609041005,
  "districtId": 1609041,
  "districtName": "MADANG SUKU III",
  "name": "NIKAN",
  "postalCode": "32366"
 },
 {
  "id": 1609041006,
  "districtId": 1609041,
  "districtName": "MADANG SUKU III",
  "name": "KARYA MAKMUR VIII",
  "postalCode": ""
 },
 {
  "id": 1609041007,
  "districtId": 1609041,
  "districtName": "MADANG SUKU III",
  "name": "WANA BAKTI",
  "postalCode": ""
 },
 {
  "id": 1609041008,
  "districtId": 1609041,
  "districtName": "MADANG SUKU III",
  "name": "SUKA DAMAI",
  "postalCode": "24472"
 },
 {
  "id": 1609041009,
  "districtId": 1609041,
  "districtName": "MADANG SUKU III",
  "name": "SURABAYA",
  "postalCode": "32274"
 },
 {
  "id": 1609041010,
  "districtId": 1609041,
  "districtName": "MADANG SUKU III",
  "name": "MARTA V JAYA",
  "postalCode": ""
 },
 {
  "id": 1609041011,
  "districtId": 1609041,
  "districtName": "MADANG SUKU III",
  "name": "MARTA MULYA",
  "postalCode": ""
 },
 {
  "id": 1609041012,
  "districtId": 1609041,
  "districtName": "MADANG SUKU III",
  "name": "TRI MARTA JAYA",
  "postalCode": ""
 },
 {
  "id": 1609041013,
  "districtId": 1609041,
  "districtName": "MADANG SUKU III",
  "name": "SUKA DAMAI TIMUR",
  "postalCode": "20854"
 },
 {
  "id": 1609041014,
  "districtId": 1609041,
  "districtName": "MADANG SUKU III",
  "name": "SIDO MULYO",
  "postalCode": "24371"
 },
 {
  "id": 1609041015,
  "districtId": 1609041,
  "districtName": "MADANG SUKU III",
  "name": "BANJAR AGUNG",
  "postalCode": "32211"
 }
]