[
 {
  "id": 1609060001,
  "districtId": 1609060,
  "districtName": "BELITANG",
  "name": "SIDO RAHAYU",
  "postalCode": "32382"
 },
 {
  "id": 1609060002,
  "districtId": 1609060,
  "districtName": "BELITANG",
  "name": "SUKARAMI",
  "postalCode": "32382"
 },
 {
  "id": 1609060003,
  "districtId": 1609060,
  "districtName": "BELITANG",
  "name": "TAWANG REJO",
  "postalCode": "32382"
 },
 {
  "id": 1609060012,
  "districtId": 1609060,
  "districtName": "BELITANG",
  "name": "TRIYOSO",
  "postalCode": "32382"
 },
 {
  "id": 1609060013,
  "districtId": 1609060,
  "districtName": "BELITANG",
  "name": "SERBAGUNA",
  "postalCode": "32382"
 },
 {
  "id": 1609060014,
  "districtId": 1609060,
  "districtName": "BELITANG",
  "name": "SUMBER SUKO",
  "postalCode": "32382"
 },
 {
  "id": 1609060015,
  "districtId": 1609060,
  "districtName": "BELITANG",
  "name": "SUKAJADI",
  "postalCode": "24472"
 },
 {
  "id": 1609060016,
  "districtId": 1609060,
  "districtName": "BELITANG",
  "name": "SUKOSARI",
  "postalCode": "32382"
 },
 {
  "id": 1609060017,
  "districtId": 1609060,
  "districtName": "BELITANG",
  "name": "PUJORAHAYU",
  "postalCode": "32382"
 },
 {
  "id": 1609060018,
  "districtId": 1609060,
  "districtName": "BELITANG",
  "name": "SIDOMULYO",
  "postalCode": "21455"
 },
 {
  "id": 1609060022,
  "districtId": 1609060,
  "districtName": "BELITANG",
  "name": "TANJUNG RAYA",
  "postalCode": "23891"
 },
 {
  "id": 1609060023,
  "districtId": 1609060,
  "districtName": "BELITANG",
  "name": "HARJO WINANGUN",
  "postalCode": "32382"
 },
 {
  "id": 1609060024,
  "districtId": 1609060,
  "districtName": "BELITANG",
  "name": "TEGAL REJO",
  "postalCode": "20237"
 },
 {
  "id": 1609060025,
  "districtId": 1609060,
  "districtName": "BELITANG",
  "name": "GUMAWANG",
  "postalCode": "32382"
 },
 {
  "id": 1609060026,
  "districtId": 1609060,
  "districtName": "BELITANG",
  "name": "BEDILAN",
  "postalCode": "32382"
 },
 {
  "id": 1609060027,
  "districtId": 1609060,
  "districtName": "BELITANG",
  "name": "SIDOGEDE",
  "postalCode": "32382"
 },
 {
  "id": 1609060028,
  "districtId": 1609060,
  "districtName": "BELITANG",
  "name": "SIDO MAKMUR",
  "postalCode": "20772"
 },
 {
  "id": 1609060029,
  "districtId": 1609060,
  "districtName": "BELITANG",
  "name": "GUNUNG MAS",
  "postalCode": "32382"
 },
 {
  "id": 1609060030,
  "districtId": 1609060,
  "districtName": "BELITANG",
  "name": "KARANG KEMIRI",
  "postalCode": "32382"
 },
 {
  "id": 1609060031,
  "districtId": 1609060,
  "districtName": "BELITANG",
  "name": "SIDODADI",
  "postalCode": "24582"
 },
 {
  "id": 1609060032,
  "districtId": 1609060,
  "districtName": "BELITANG",
  "name": "SUMBER SUKO JAYA",
  "postalCode": "32382"
 },
 {
  "id": 1609060033,
  "districtId": 1609060,
  "districtName": "BELITANG",
  "name": "GEDUNG REJO",
  "postalCode": "32382"
 },
 {
  "id": 1609060034,
  "districtId": 1609060,
  "districtName": "BELITANG",
  "name": "MOJOSARI",
  "postalCode": "56265"
 },
 {
  "id": 1609060035,
  "districtId": 1609060,
  "districtName": "BELITANG",
  "name": "KETAPANG",
  "postalCode": "35596"
 }
]