[
 {
  "id": 1609020001,
  "districtId": 1609020,
  "districtName": "BUAY PEMUKA PELIUNG",
  "name": "NEGERI AGUNG",
  "postalCode": "32367"
 },
 {
  "id": 1609020002,
  "districtId": 1609020,
  "districtName": "BUAY PEMUKA PELIUNG",
  "name": "BANUMAS",
  "postalCode": "32367"
 },
 {
  "id": 1609020003,
  "districtId": 1609020,
  "districtName": "BUAY PEMUKA PELIUNG",
  "name": "BANUAYU",
  "postalCode": "32367"
 },
 {
  "id": 1609020004,
  "districtId": 1609020,
  "districtName": "BUAY PEMUKA PELIUNG",
  "name": "PULAU NEGARA",
  "postalCode": "32367"
 },
 {
  "id": 1609020005,
  "districtId": 1609020,
  "districtName": "BUAY PEMUKA PELIUNG",
  "name": "BANTAN",
  "postalCode": "23671"
 },
 {
  "id": 1609020006,
  "districtId": 1609020,
  "districtName": "BUAY PEMUKA PELIUNG",
  "name": "NEGERI PAKUAN",
  "postalCode": "32367"
 },
 {
  "id": 1609020007,
  "districtId": 1609020,
  "districtName": "BUAY PEMUKA PELIUNG",
  "name": "BANDAR JAYA",
  "postalCode": "28771"
 },
 {
  "id": 1609020008,
  "districtId": 1609020,
  "districtName": "BUAY PEMUKA PELIUNG",
  "name": "PAHANG ASRI",
  "postalCode": "32367"
 },
 {
  "id": 1609020009,
  "districtId": 1609020,
  "districtName": "BUAY PEMUKA PELIUNG",
  "name": "PEMETUNG BASUKI",
  "postalCode": "32367"
 },
 {
  "id": 1609020010,
  "districtId": 1609020,
  "districtName": "BUAY PEMUKA PELIUNG",
  "name": "SAUNG DADI",
  "postalCode": "32367"
 },
 {
  "id": 1609020011,
  "districtId": 1609020,
  "districtName": "BUAY PEMUKA PELIUNG",
  "name": "TERANTANG SAKTI",
  "postalCode": ""
 },
 {
  "id": 1609020012,
  "districtId": 1609020,
  "districtName": "BUAY PEMUKA PELIUNG",
  "name": "NEGERI AGUNG JAYA",
  "postalCode": "32367"
 },
 {
  "id": 1609020013,
  "districtId": 1609020,
  "districtName": "BUAY PEMUKA PELIUNG",
  "name": "BANTAN PELITA",
  "postalCode": "32367"
 }
]