[
 {
  "id": 1609061001,
  "districtId": 1609061,
  "districtName": "BELITANG JAYA",
  "name": "REJOSARI",
  "postalCode": "29353"
 },
 {
  "id": 1609061002,
  "districtId": 1609061,
  "districtName": "BELITANG JAYA",
  "name": "REJOSARI JAYA",
  "postalCode": "32385"
 },
 {
  "id": 1609061003,
  "districtId": 1609061,
  "districtName": "BELITANG JAYA",
  "name": "SUMBER AGUNG",
  "postalCode": "37353"
 },
 {
  "id": 1609061004,
  "districtId": 1609061,
  "districtName": "BELITANG JAYA",
  "name": "BANJAR REJO",
  "postalCode": "32382"
 },
 {
  "id": 1609061005,
  "districtId": 1609061,
  "districtName": "BELITANG JAYA",
  "name": "PANCA TUNGGAL",
  "postalCode": "32382"
 },
 {
  "id": 1609061006,
  "districtId": 1609061,
  "districtName": "BELITANG JAYA",
  "name": "SIDOREJO",
  "postalCode": "24784"
 },
 {
  "id": 1609061007,
  "districtId": 1609061,
  "districtName": "BELITANG JAYA",
  "name": "MARGO KOYO",
  "postalCode": "32382"
 },
 {
  "id": 1609061008,
  "districtId": 1609061,
  "districtName": "BELITANG JAYA",
  "name": "KARSA JAYA",
  "postalCode": "32385"
 },
 {
  "id": 1609061009,
  "districtId": 1609061,
  "districtName": "BELITANG JAYA",
  "name": "WINDU SARI",
  "postalCode": ""
 },
 {
  "id": 1609061010,
  "districtId": 1609061,
  "districtName": "BELITANG JAYA",
  "name": "KARYA MAKMUR",
  "postalCode": "32385"
 },
 {
  "id": 1609061011,
  "districtId": 1609061,
  "districtName": "BELITANG JAYA",
  "name": "GIRI MULYO",
  "postalCode": "37163"
 },
 {
  "id": 1609061012,
  "districtId": 1609061,
  "districtName": "BELITANG JAYA",
  "name": "MADUGONDO",
  "postalCode": "56163"
 },
 {
  "id": 1609061013,
  "districtId": 1609061,
  "districtName": "BELITANG JAYA",
  "name": "ARGO MULYO",
  "postalCode": "32385"
 },
 {
  "id": 1609061014,
  "districtId": 1609061,
  "districtName": "BELITANG JAYA",
  "name": "TUNGGAL JAYA",
  "postalCode": "38768"
 },
 {
  "id": 1609061015,
  "districtId": 1609061,
  "districtName": "BELITANG JAYA",
  "name": "PANCA JAYA",
  "postalCode": "74281"
 },
 {
  "id": 1609061016,
  "districtId": 1609061,
  "districtName": "BELITANG JAYA",
  "name": "SUMBER MAKMUR",
  "postalCode": "23662"
 },
 {
  "id": 1609061017,
  "districtId": 1609061,
  "districtName": "BELITANG JAYA",
  "name": "SUMBER JAYA",
  "postalCode": "24553"
 }
]