[
 {
  "id": 1610041001,
  "districtId": 1610041,
  "districtName": "RANTAU PANJANG",
  "name": "KETAPANG I",
  "postalCode": "30661"
 },
 {
  "id": 1610041002,
  "districtId": 1610041,
  "districtName": "RANTAU PANJANG",
  "name": "JAGALANA",
  "postalCode": ""
 },
 {
  "id": 1610041003,
  "districtId": 1610041,
  "districtName": "RANTAU PANJANG",
  "name": "KOTA DARO I",
  "postalCode": "30661"
 },
 {
  "id": 1610041004,
  "districtId": 1610041,
  "districtName": "RANTAU PANJANG",
  "name": "KOTA DARO II",
  "postalCode": "30661"
 },
 {
  "id": 1610041005,
  "districtId": 1610041,
  "districtName": "RANTAU PANJANG",
  "name": "RANTAU PANJANG ILIR",
  "postalCode": "30661"
 },
 {
  "id": 1610041006,
  "districtId": 1610041,
  "districtName": "RANTAU PANJANG",
  "name": "JAGARAJA",
  "postalCode": ""
 },
 {
  "id": 1610041007,
  "districtId": 1610041,
  "districtName": "RANTAU PANJANG",
  "name": "SEJANGKO I",
  "postalCode": "30661"
 },
 {
  "id": 1610041008,
  "districtId": 1610041,
  "districtName": "RANTAU PANJANG",
  "name": "SUNGAI ROTAN",
  "postalCode": "30661"
 },
 {
  "id": 1610041009,
  "districtId": 1610041,
  "districtName": "RANTAU PANJANG",
  "name": "SEJANGKO II",
  "postalCode": "30661"
 },
 {
  "id": 1610041010,
  "districtId": 1610041,
  "districtName": "RANTAU PANJANG",
  "name": "RANTAU PANJANG ULU",
  "postalCode": "30661"
 },
 {
  "id": 1610041011,
  "districtId": 1610041,
  "districtName": "RANTAU PANJANG",
  "name": "KETAPANG II",
  "postalCode": "30661"
 },
 {
  "id": 1610041012,
  "districtId": 1610041,
  "districtName": "RANTAU PANJANG",
  "name": "ARISAN DERAS",
  "postalCode": "30661"
 }
]