[
 {
  "id": 1611071001,
  "districtId": 1611071,
  "districtName": "SALING",
  "name": "LUBUK KELUMPANG",
  "postalCode": "31453"
 },
 {
  "id": 1611071002,
  "districtId": 1611071,
  "districtName": "SALING",
  "name": "SAWAH",
  "postalCode": "28461"
 },
 {
  "id": 1611071003,
  "districtId": 1611071,
  "districtName": "SALING",
  "name": "TANJUNG NING SIMPANG",
  "postalCode": "31453"
 },
 {
  "id": 1611071004,
  "districtId": 1611071,
  "districtName": "SALING",
  "name": "TANJUNG NING JAYA",
  "postalCode": "31453"
 },
 {
  "id": 1611071005,
  "districtId": 1611071,
  "districtName": "SALING",
  "name": "TANJUNG NING LAMA",
  "postalCode": "31453"
 },
 {
  "id": 1611071006,
  "districtId": 1611071,
  "districtName": "SALING",
  "name": "TANJUNG NING TENGAH",
  "postalCode": "31453"
 },
 {
  "id": 1611071007,
  "districtId": 1611071,
  "districtName": "SALING",
  "name": "KEBON",
  "postalCode": "31453"
 },
 {
  "id": 1611071008,
  "districtId": 1611071,
  "districtName": "SALING",
  "name": "SUKA KAYA",
  "postalCode": "31453"
 },
 {
  "id": 1611071009,
  "districtId": 1611071,
  "districtName": "SALING",
  "name": "TABA",
  "postalCode": "31453"
 },
 {
  "id": 1611071010,
  "districtId": 1611071,
  "districtName": "SALING",
  "name": "MUARA SALING",
  "postalCode": "31453"
 }
]