[
 {
  "id": 1612040001,
  "districtId": 1612040,
  "districtName": "PENUKAL",
  "name": "PURUN TIMUR",
  "postalCode": ""
 },
 {
  "id": 1612040002,
  "districtId": 1612040,
  "districtName": "PENUKAL",
  "name": "PURUN",
  "postalCode": "31315"
 },
 {
  "id": 1612040003,
  "districtId": 1612040,
  "districtName": "PENUKAL",
  "name": "BABAT",
  "postalCode": "30752"
 },
 {
  "id": 1612040004,
  "districtId": 1612040,
  "districtName": "PENUKAL",
  "name": "SUNGAI LANGAN",
  "postalCode": "31315"
 },
 {
  "id": 1612040005,
  "districtId": 1612040,
  "districtName": "PENUKAL",
  "name": "SEPANTAN JAYA",
  "postalCode": ""
 },
 {
  "id": 1612040006,
  "districtId": 1612040,
  "districtName": "PENUKAL",
  "name": "GUNUNG RAJA",
  "postalCode": "31173"
 },
 {
  "id": 1612040007,
  "districtId": 1612040,
  "districtName": "PENUKAL",
  "name": "SUKA RAJA",
  "postalCode": "23662"
 },
 {
  "id": 1612040008,
  "districtId": 1612040,
  "districtName": "PENUKAL",
  "name": "GUNUNG MENANG",
  "postalCode": "31315"
 },
 {
  "id": 1612040009,
  "districtId": 1612040,
  "districtName": "PENUKAL",
  "name": "MANGKUNEGARA",
  "postalCode": "31315"
 },
 {
  "id": 1612040010,
  "districtId": 1612040,
  "districtName": "PENUKAL",
  "name": "RAJA JAYA",
  "postalCode": ""
 },
 {
  "id": 1612040011,
  "districtId": 1612040,
  "districtName": "PENUKAL",
  "name": "MANGKUNEGARA TIMUR",
  "postalCode": ""
 },
 {
  "id": 1612040012,
  "districtId": 1612040,
  "districtName": "PENUKAL",
  "name": "AIR ITAM",
  "postalCode": "30652"
 },
 {
  "id": 1612040013,
  "districtId": 1612040,
  "districtName": "PENUKAL",
  "name": "AIR ITAM TIMUR",
  "postalCode": "31315"
 },
 {
  "id": 1612040014,
  "districtId": 1612040,
  "districtName": "PENUKAL",
  "name": "SIMPANG TIGA BABAT",
  "postalCode": ""
 },
 {
  "id": 1612040015,
  "districtId": 1612040,
  "districtName": "PENUKAL",
  "name": "SIMPANG BABAT",
  "postalCode": ""
 }
]