[
 {
  "id": 1612020001,
  "districtId": 1612020,
  "districtName": "TANAH ABANG",
  "name": "BUMIAYU",
  "postalCode": "31314"
 },
 {
  "id": 1612020002,
  "districtId": 1612020,
  "districtName": "TANAH ABANG",
  "name": "TANAH ABANG SELATAN",
  "postalCode": "31314"
 },
 {
  "id": 1612020003,
  "districtId": 1612020,
  "districtName": "TANAH ABANG",
  "name": "SUKA MANIS",
  "postalCode": ""
 },
 {
  "id": 1612020004,
  "districtId": 1612020,
  "districtName": "TANAH ABANG",
  "name": "MUARA DUA",
  "postalCode": "28771"
 },
 {
  "id": 1612020005,
  "districtId": 1612020,
  "districtName": "TANAH ABANG",
  "name": "PETULAI",
  "postalCode": ""
 },
 {
  "id": 1612020006,
  "districtId": 1612020,
  "districtName": "TANAH ABANG",
  "name": "TANAH ABANG UTARA",
  "postalCode": "31314"
 },
 {
  "id": 1612020007,
  "districtId": 1612020,
  "districtName": "TANAH ABANG",
  "name": "MUARA SUNGAI",
  "postalCode": "31144"
 },
 {
  "id": 1612020008,
  "districtId": 1612020,
  "districtName": "TANAH ABANG",
  "name": "CURUP",
  "postalCode": "31314"
 },
 {
  "id": 1612020009,
  "districtId": 1612020,
  "districtName": "TANAH ABANG",
  "name": "RAJA",
  "postalCode": "24472"
 },
 {
  "id": 1612020010,
  "districtId": 1612020,
  "districtName": "TANAH ABANG",
  "name": "RAJA BARAT",
  "postalCode": "31314"
 },
 {
  "id": 1612020011,
  "districtId": 1612020,
  "districtName": "TANAH ABANG",
  "name": "HARAPAN JAYA",
  "postalCode": "20773"
 },
 {
  "id": 1612020012,
  "districtId": 1612020,
  "districtName": "TANAH ABANG",
  "name": "LUNAS JAYA",
  "postalCode": "31314"
 },
 {
  "id": 1612020013,
  "districtId": 1612020,
  "districtName": "TANAH ABANG",
  "name": "SUKARAJA",
  "postalCode": "21256"
 },
 {
  "id": 1612020014,
  "districtId": 1612020,
  "districtName": "TANAH ABANG",
  "name": "SEDUPI",
  "postalCode": "31314"
 },
 {
  "id": 1612020015,
  "districtId": 1612020,
  "districtName": "TANAH ABANG",
  "name": "TANJUNG DALAM",
  "postalCode": "37372"
 },
 {
  "id": 1612020016,
  "districtId": 1612020,
  "districtName": "TANAH ABANG",
  "name": "PANDAN",
  "postalCode": "22611"
 },
 {
  "id": 1612020017,
  "districtId": 1612020,
  "districtName": "TANAH ABANG",
  "name": "MODONG",
  "postalCode": "31357"
 }
]