[
 {
  "id": 1612010001,
  "districtId": 1612010,
  "districtName": "TALANG UBI",
  "name": "SEMANGUS",
  "postalCode": "31666"
 },
 {
  "id": 1612010002,
  "districtId": 1612010,
  "districtName": "TALANG UBI",
  "name": "BENAKAT MINYAK",
  "postalCode": "31214"
 },
 {
  "id": 1612010003,
  "districtId": 1612010,
  "districtName": "TALANG UBI",
  "name": "SUNGAI BAUNG",
  "postalCode": "29351"
 },
 {
  "id": 1612010004,
  "districtId": 1612010,
  "districtName": "TALANG UBI",
  "name": "TALANG UBI BARAT",
  "postalCode": "31211"
 },
 {
  "id": 1612010005,
  "districtId": 1612010,
  "districtName": "TALANG UBI",
  "name": "PASAR BHAYANGKARA",
  "postalCode": ""
 },
 {
  "id": 1612010006,
  "districtId": 1612010,
  "districtName": "TALANG UBI",
  "name": "TALANG UBI SELATAN",
  "postalCode": "31212"
 },
 {
  "id": 1612010007,
  "districtId": 1612010,
  "districtName": "TALANG UBI",
  "name": "TALANG UBI TIMUR",
  "postalCode": "31213"
 },
 {
  "id": 1612010008,
  "districtId": 1612010,
  "districtName": "TALANG UBI",
  "name": "HANDAYANI MULIA",
  "postalCode": ""
 },
 {
  "id": 1612010009,
  "districtId": 1612010,
  "districtName": "TALANG UBI",
  "name": "SIMPANG TAIS",
  "postalCode": ""
 },
 {
  "id": 1612010010,
  "districtId": 1612010,
  "districtName": "TALANG UBI",
  "name": "TALANG BULANG",
  "postalCode": "31214"
 },
 {
  "id": 1612010011,
  "districtId": 1612010,
  "districtName": "TALANG UBI",
  "name": "BENUANG",
  "postalCode": "31214"
 },
 {
  "id": 1612010012,
  "districtId": 1612010,
  "districtName": "TALANG UBI",
  "name": "BERUGE DARAT",
  "postalCode": ""
 },
 {
  "id": 1612010013,
  "districtId": 1612010,
  "districtName": "TALANG UBI",
  "name": "KERTADEWA",
  "postalCode": "31214"
 },
 {
  "id": 1612010014,
  "districtId": 1612010,
  "districtName": "TALANG UBI",
  "name": "SINAR DEWA",
  "postalCode": "31214"
 },
 {
  "id": 1612010015,
  "districtId": 1612010,
  "districtName": "TALANG UBI",
  "name": "PANTA DEWA",
  "postalCode": "31214"
 },
 {
  "id": 1612010016,
  "districtId": 1612010,
  "districtName": "TALANG UBI",
  "name": "SUNGAI IBUL",
  "postalCode": "31214"
 },
 {
  "id": 1612010017,
  "districtId": 1612010,
  "districtName": "TALANG UBI",
  "name": "SUKAMAJU",
  "postalCode": "22465"
 },
 {
  "id": 1612010018,
  "districtId": 1612010,
  "districtName": "TALANG UBI",
  "name": "TALANG UBI UTARA",
  "postalCode": "31214"
 },
 {
  "id": 1612010019,
  "districtId": 1612010,
  "districtName": "TALANG UBI",
  "name": "SUKA DAMAI",
  "postalCode": "24472"
 },
 {
  "id": 1612010020,
  "districtId": 1612010,
  "districtName": "TALANG UBI",
  "name": "TALANG AKAR",
  "postalCode": "31471"
 }
]