[
 {
  "id": 1613070001,
  "districtId": 1613070,
  "districtName": "NIBUNG",
  "name": "JADI MULYA I",
  "postalCode": "31667"
 },
 {
  "id": 1613070002,
  "districtId": 1613070,
  "districtName": "NIBUNG",
  "name": "KERANI JAYA",
  "postalCode": ""
 },
 {
  "id": 1613070003,
  "districtId": 1613070,
  "districtName": "NIBUNG",
  "name": "JADI MULYA",
  "postalCode": "30656"
 },
 {
  "id": 1613070004,
  "districtId": 1613070,
  "districtName": "NIBUNG",
  "name": "SUMBER MAKMUR",
  "postalCode": "23662"
 },
 {
  "id": 1613070005,
  "districtId": 1613070,
  "districtName": "NIBUNG",
  "name": "MULYA JAYA",
  "postalCode": "36365"
 },
 {
  "id": 1613070006,
  "districtId": 1613070,
  "districtName": "NIBUNG",
  "name": "KELUMPANG JAYA",
  "postalCode": "31667"
 },
 {
  "id": 1613070007,
  "districtId": 1613070,
  "districtName": "NIBUNG",
  "name": "SRIJAYA MAKMUR",
  "postalCode": "31667"
 },
 {
  "id": 1613070008,
  "districtId": 1613070,
  "districtName": "NIBUNG",
  "name": "KARYA MAKMUR",
  "postalCode": "32385"
 },
 {
  "id": 1613070009,
  "districtId": 1613070,
  "districtName": "NIBUNG",
  "name": "BUMI MAKMUR",
  "postalCode": "30681"
 },
 {
  "id": 1613070010,
  "districtId": 1613070,
  "districtName": "NIBUNG",
  "name": "SUMBER SARI",
  "postalCode": "21343"
 },
 {
  "id": 1613070011,
  "districtId": 1613070,
  "districtName": "NIBUNG",
  "name": "TEBING TINGGI",
  "postalCode": "24477"
 }
]