[
 {
  "id": 1613050001,
  "districtId": 1613050,
  "districtName": "KARANG DAPO",
  "name": "KERTASARI",
  "postalCode": "31658"
 },
 {
  "id": 1613050002,
  "districtId": 1613050,
  "districtName": "KARANG DAPO",
  "name": "RANTAU KADAM",
  "postalCode": "31658"
 },
 {
  "id": 1613050003,
  "districtId": 1613050,
  "districtName": "KARANG DAPO",
  "name": "KARANG DAPO I",
  "postalCode": "31658"
 },
 {
  "id": 1613050004,
  "districtId": 1613050,
  "districtName": "KARANG DAPO",
  "name": "KARANG DAPO",
  "postalCode": "32191"
 },
 {
  "id": 1613050005,
  "districtId": 1613050,
  "districtName": "KARANG DAPO",
  "name": "SETIA MARGA",
  "postalCode": "31658"
 },
 {
  "id": 1613050006,
  "districtId": 1613050,
  "districtName": "KARANG DAPO",
  "name": "BIARO BARU",
  "postalCode": "31658"
 },
 {
  "id": 1613050007,
  "districtId": 1613050,
  "districtName": "KARANG DAPO",
  "name": "BIARO LAMA",
  "postalCode": "31658"
 },
 {
  "id": 1613050008,
  "districtId": 1613050,
  "districtName": "KARANG DAPO",
  "name": "ARINGIN",
  "postalCode": "31658"
 },
 {
  "id": 1613050009,
  "districtId": 1613050,
  "districtName": "KARANG DAPO",
  "name": "BINA KARYA",
  "postalCode": "31658"
 }
]