[
 {
  "id": 1673040001,
  "districtId": 1673040,
  "districtName": "PAGAR ALAM UTARA",
  "name": "DEMPO MAKMUR",
  "postalCode": "31519"
 },
 {
  "id": 1673040002,
  "districtId": 1673040,
  "districtName": "PAGAR ALAM UTARA",
  "name": "BANGUN REJO",
  "postalCode": "21454"
 },
 {
  "id": 1673040003,
  "districtId": 1673040,
  "districtName": "PAGAR ALAM UTARA",
  "name": "CURUP JARE",
  "postalCode": "31516"
 },
 {
  "id": 1673040004,
  "districtId": 1673040,
  "districtName": "PAGAR ALAM UTARA",
  "name": "PAGAR ALAM",
  "postalCode": "31512"
 },
 {
  "id": 1673040005,
  "districtId": 1673040,
  "districtName": "PAGAR ALAM UTARA",
  "name": "SUKOREJO",
  "postalCode": "31551"
 },
 {
  "id": 1673040006,
  "districtId": 1673040,
  "districtName": "PAGAR ALAM UTARA",
  "name": "BANGUN JAYA",
  "postalCode": "28558"
 },
 {
  "id": 1673040007,
  "districtId": 1673040,
  "districtName": "PAGAR ALAM UTARA",
  "name": "BERINGIN JAYA",
  "postalCode": "21464"
 },
 {
  "id": 1673040008,
  "districtId": 1673040,
  "districtName": "PAGAR ALAM UTARA",
  "name": "ALUN DUA",
  "postalCode": "32272"
 },
 {
  "id": 1673040009,
  "districtId": 1673040,
  "districtName": "PAGAR ALAM UTARA",
  "name": "KURIPAN BABAS",
  "postalCode": "31514"
 },
 {
  "id": 1673040010,
  "districtId": 1673040,
  "districtName": "PAGAR ALAM UTARA",
  "name": "SELIBAR",
  "postalCode": "31515"
 }
]