[
 {
  "id": 1702047001,
  "districtId": 1702047,
  "districtName": "CURUP TIMUR",
  "name": "DUKU ULU",
  "postalCode": "39125"
 },
 {
  "id": 1702047002,
  "districtId": 1702047,
  "districtName": "CURUP TIMUR",
  "name": "DUKU ILIR",
  "postalCode": "39125"
 },
 {
  "id": 1702047003,
  "districtId": 1702047,
  "districtName": "CURUP TIMUR",
  "name": "KAMPUNG DELIMA",
  "postalCode": "39125"
 },
 {
  "id": 1702047004,
  "districtId": 1702047,
  "districtName": "CURUP TIMUR",
  "name": "KESAMBE LAMA",
  "postalCode": "39125"
 },
 {
  "id": 1702047005,
  "districtId": 1702047,
  "districtName": "CURUP TIMUR",
  "name": "KARANG ANYAR",
  "postalCode": "24415"
 },
 {
  "id": 1702047006,
  "districtId": 1702047,
  "districtName": "CURUP TIMUR",
  "name": "AIR MELES BAWAH",
  "postalCode": "39115"
 },
 {
  "id": 1702047007,
  "districtId": 1702047,
  "districtName": "CURUP TIMUR",
  "name": "SUKARAJA",
  "postalCode": "21256"
 },
 {
  "id": 1702047008,
  "districtId": 1702047,
  "districtName": "CURUP TIMUR",
  "name": "KESAMBE BARU",
  "postalCode": "39125"
 },
 {
  "id": 1702047009,
  "districtId": 1702047,
  "districtName": "CURUP TIMUR",
  "name": "TALANG ULU",
  "postalCode": "38653"
 }
]