[
 {
  "id": 1702031001,
  "districtId": 1702031,
  "districtName": "SINDANG KELINGI",
  "name": "SINDANG JAYA",
  "postalCode": "31666"
 },
 {
  "id": 1702031006,
  "districtId": 1702031,
  "districtName": "SINDANG KELINGI",
  "name": "SINDANG JATI",
  "postalCode": "39153"
 },
 {
  "id": 1702031007,
  "districtId": 1702031,
  "districtName": "SINDANG KELINGI",
  "name": "AIR DINGIN",
  "postalCode": "23891"
 },
 {
  "id": 1702031008,
  "districtId": 1702031,
  "districtName": "SINDANG KELINGI",
  "name": "KAYU MANIS",
  "postalCode": "39153"
 },
 {
  "id": 1702031011,
  "districtId": 1702031,
  "districtName": "SINDANG KELINGI",
  "name": "BERINGIN TIGA",
  "postalCode": "39153"
 },
 {
  "id": 1702031012,
  "districtId": 1702031,
  "districtName": "SINDANG KELINGI",
  "name": "PELALO",
  "postalCode": "39153"
 },
 {
  "id": 1702031013,
  "districtId": 1702031,
  "districtName": "SINDANG KELINGI",
  "name": "BELITAR MUKA",
  "postalCode": "39153"
 },
 {
  "id": 1702031014,
  "districtId": 1702031,
  "districtName": "SINDANG KELINGI",
  "name": "BELITAR SEBERANG",
  "postalCode": "39153"
 },
 {
  "id": 1702031015,
  "districtId": 1702031,
  "districtName": "SINDANG KELINGI",
  "name": "TANJUNG AUR",
  "postalCode": "37554"
 },
 {
  "id": 1702031016,
  "districtId": 1702031,
  "districtName": "SINDANG KELINGI",
  "name": "CAHAYA NEGERI",
  "postalCode": "39153"
 }
]