[
 {
  "id": 1702040012,
  "districtId": 1702040,
  "districtName": "CURUP",
  "name": "AIR PUTIH LAMA",
  "postalCode": "39112"
 },
 {
  "id": 1702040013,
  "districtId": 1702040,
  "districtName": "CURUP",
  "name": "AIR RAMBAI",
  "postalCode": "39111"
 },
 {
  "id": 1702040014,
  "districtId": 1702040,
  "districtName": "CURUP",
  "name": "DWI TUNGGAL",
  "postalCode": "28755"
 },
 {
  "id": 1702040015,
  "districtId": 1702040,
  "districtName": "CURUP",
  "name": "ADIREJO",
  "postalCode": "39125"
 },
 {
  "id": 1702040016,
  "districtId": 1702040,
  "districtName": "CURUP",
  "name": "TALANG BENIH",
  "postalCode": "39118"
 },
 {
  "id": 1702040017,
  "districtId": 1702040,
  "districtName": "CURUP",
  "name": "JALAN BARU",
  "postalCode": "25515"
 },
 {
  "id": 1702040018,
  "districtId": 1702040,
  "districtName": "CURUP",
  "name": "PASAR BARU",
  "postalCode": "22163"
 },
 {
  "id": 1702040019,
  "districtId": 1702040,
  "districtName": "CURUP",
  "name": "PASAR TENGAH",
  "postalCode": "39117"
 },
 {
  "id": 1702040061,
  "districtId": 1702040,
  "districtName": "CURUP",
  "name": "TIMBUL REJO",
  "postalCode": "39125"
 }
]