[
 {
  "id": 1702030028,
  "districtId": 1702030,
  "districtName": "PADANG ULAK TANDING",
  "name": "KARANG BARU",
  "postalCode": "21254"
 },
 {
  "id": 1702030029,
  "districtId": 1702030,
  "districtName": "PADANG ULAK TANDING",
  "name": "GURU AGUNG",
  "postalCode": "31356"
 },
 {
  "id": 1702030031,
  "districtId": 1702030,
  "districtName": "PADANG ULAK TANDING",
  "name": "TANJUNG SANAI I",
  "postalCode": "39182"
 },
 {
  "id": 1702030032,
  "districtId": 1702030,
  "districtName": "PADANG ULAK TANDING",
  "name": "TANJUNG SANAI II",
  "postalCode": "39182"
 },
 {
  "id": 1702030033,
  "districtId": 1702030,
  "districtName": "PADANG ULAK TANDING",
  "name": "ULAK TANDING",
  "postalCode": "38656"
 },
 {
  "id": 1702030034,
  "districtId": 1702030,
  "districtName": "PADANG ULAK TANDING",
  "name": "PASAR PADANG ULAK TANDING",
  "postalCode": "39182"
 },
 {
  "id": 1702030035,
  "districtId": 1702030,
  "districtName": "PADANG ULAK TANDING",
  "name": "TABA TINGGI",
  "postalCode": "39182"
 },
 {
  "id": 1702030036,
  "districtId": 1702030,
  "districtName": "PADANG ULAK TANDING",
  "name": "MUARA TELITA",
  "postalCode": "39182"
 },
 {
  "id": 1702030037,
  "districtId": 1702030,
  "districtName": "PADANG ULAK TANDING",
  "name": "T A K T O I",
  "postalCode": ""
 },
 {
  "id": 1702030040,
  "districtId": 1702030,
  "districtName": "PADANG ULAK TANDING",
  "name": "UJAN PANAS",
  "postalCode": "39182"
 },
 {
  "id": 1702030041,
  "districtId": 1702030,
  "districtName": "PADANG ULAK TANDING",
  "name": "KASIE KASUBUN",
  "postalCode": "39182"
 },
 {
  "id": 1702030042,
  "districtId": 1702030,
  "districtName": "PADANG ULAK TANDING",
  "name": "BELUMAI II",
  "postalCode": "39182"
 },
 {
  "id": 1702030043,
  "districtId": 1702030,
  "districtName": "PADANG ULAK TANDING",
  "name": "BELUMAI I",
  "postalCode": "39182"
 },
 {
  "id": 1702030044,
  "districtId": 1702030,
  "districtName": "PADANG ULAK TANDING",
  "name": "BUKIT BATU",
  "postalCode": "28761"
 },
 {
  "id": 1702030045,
  "districtId": 1702030,
  "districtName": "PADANG ULAK TANDING",
  "name": "AIR KATI",
  "postalCode": "31626"
 }
]