[
 {
  "id": 1702043001,
  "districtId": 1702043,
  "districtName": "CURUP SELATAN",
  "name": "AIR LANANG",
  "postalCode": "39125"
 },
 {
  "id": 1702043002,
  "districtId": 1702043,
  "districtName": "CURUP SELATAN",
  "name": "TANJUNG DALAM",
  "postalCode": "37372"
 },
 {
  "id": 1702043003,
  "districtId": 1702043,
  "districtName": "CURUP SELATAN",
  "name": "TURAN BARU",
  "postalCode": "39125"
 },
 {
  "id": 1702043004,
  "districtId": 1702043,
  "districtName": "CURUP SELATAN",
  "name": "PUNGGUK LALANG",
  "postalCode": "39125"
 },
 {
  "id": 1702043005,
  "districtId": 1702043,
  "districtName": "CURUP SELATAN",
  "name": "WATAS MARGA",
  "postalCode": "39125"
 },
 {
  "id": 1702043006,
  "districtId": 1702043,
  "districtName": "CURUP SELATAN",
  "name": "LUBUK UBAR",
  "postalCode": "39125"
 },
 {
  "id": 1702043007,
  "districtId": 1702043,
  "districtName": "CURUP SELATAN",
  "name": "RIMBO RECAP",
  "postalCode": "39125"
 },
 {
  "id": 1702043008,
  "districtId": 1702043,
  "districtName": "CURUP SELATAN",
  "name": "SUKA MARGA",
  "postalCode": "31471"
 },
 {
  "id": 1702043009,
  "districtId": 1702043,
  "districtName": "CURUP SELATAN",
  "name": "TEMPEL REJO",
  "postalCode": "39124"
 },
 {
  "id": 1702043010,
  "districtId": 1702043,
  "districtName": "CURUP SELATAN",
  "name": "AIR PUTIH BARU",
  "postalCode": "39112"
 },
 {
  "id": 1702043011,
  "districtId": 1702043,
  "districtName": "CURUP SELATAN",
  "name": "DESA TELADAN",
  "postalCode": ""
 }
]