[
 {
  "id": 1703054001,
  "districtId": 1703054,
  "districtName": "TANJUNG AGUNG PALIK",
  "name": "LUBUK SEMATUNG",
  "postalCode": "38373"
 },
 {
  "id": 1703054002,
  "districtId": 1703054,
  "districtName": "TANJUNG AGUNG PALIK",
  "name": "KETAPI",
  "postalCode": "38373"
 },
 {
  "id": 1703054003,
  "districtId": 1703054,
  "districtName": "TANJUNG AGUNG PALIK",
  "name": "SAWANG LEBAR",
  "postalCode": "38373"
 },
 {
  "id": 1703054004,
  "districtId": 1703054,
  "districtName": "TANJUNG AGUNG PALIK",
  "name": "LUBUK GADING",
  "postalCode": "38373"
 },
 {
  "id": 1703054005,
  "districtId": 1703054,
  "districtName": "TANJUNG AGUNG PALIK",
  "name": "SAWANG LEBAR ILIR",
  "postalCode": "38575"
 },
 {
  "id": 1703054006,
  "districtId": 1703054,
  "districtName": "TANJUNG AGUNG PALIK",
  "name": "LUBUK PENDAM",
  "postalCode": "38383"
 },
 {
  "id": 1703054007,
  "districtId": 1703054,
  "districtName": "TANJUNG AGUNG PALIK",
  "name": "ALUNDDUA",
  "postalCode": ""
 },
 {
  "id": 1703054008,
  "districtId": 1703054,
  "districtName": "TANJUNG AGUNG PALIK",
  "name": "SENGKUANG",
  "postalCode": "31471"
 },
 {
  "id": 1703054009,
  "districtId": 1703054,
  "districtName": "TANJUNG AGUNG PALIK",
  "name": "TANJUNG AGUNG",
  "postalCode": "37216"
 },
 {
  "id": 1703054010,
  "districtId": 1703054,
  "districtName": "TANJUNG AGUNG PALIK",
  "name": "PADANG SEPAN",
  "postalCode": "38575"
 }
]