[
 {
  "id": 1703101001,
  "districtId": 1703101,
  "districtName": "MARGA SAKTI SEBELAT",
  "name": "SUKA NEGARA",
  "postalCode": "38326"
 },
 {
  "id": 1703101002,
  "districtId": 1703101,
  "districtName": "MARGA SAKTI SEBELAT",
  "name": "KARYA JAYA",
  "postalCode": "20611"
 },
 {
  "id": 1703101003,
  "districtId": 1703101,
  "districtName": "MARGA SAKTI SEBELAT",
  "name": "KARYA BAKTI",
  "postalCode": "23893"
 },
 {
  "id": 1703101004,
  "districtId": 1703101,
  "districtName": "MARGA SAKTI SEBELAT",
  "name": "SUKA MEDAN",
  "postalCode": "38326"
 },
 {
  "id": 1703101005,
  "districtId": 1703101,
  "districtName": "MARGA SAKTI SEBELAT",
  "name": "SUKA MERINDU",
  "postalCode": "31452"
 },
 {
  "id": 1703101006,
  "districtId": 1703101,
  "districtName": "MARGA SAKTI SEBELAT",
  "name": "SUKA MAJU",
  "postalCode": "24673"
 },
 {
  "id": 1703101007,
  "districtId": 1703101,
  "districtName": "MARGA SAKTI SEBELAT",
  "name": "SUKA BARU",
  "postalCode": "32387"
 },
 {
  "id": 1703101008,
  "districtId": 1703101,
  "districtName": "MARGA SAKTI SEBELAT",
  "name": "KARYA PELITA",
  "postalCode": "38326"
 },
 {
  "id": 1703101009,
  "districtId": 1703101,
  "districtName": "MARGA SAKTI SEBELAT",
  "name": "SUKA MAKMUR",
  "postalCode": "24784"
 },
 {
  "id": 1703101010,
  "districtId": 1703101,
  "districtName": "MARGA SAKTI SEBELAT",
  "name": "AIR PUTIH",
  "postalCode": "21264"
 }
]