[
 {
  "id": 1703091006,
  "districtId": 1703091,
  "districtName": "NAPAL PUTIH",
  "name": "TANJUNG ALAI",
  "postalCode": "22998"
 },
 {
  "id": 1703091007,
  "districtId": 1703091,
  "districtName": "NAPAL PUTIH",
  "name": "DUSUN JABI",
  "postalCode": ""
 },
 {
  "id": 1703091008,
  "districtId": 1703091,
  "districtName": "NAPAL PUTIH",
  "name": "NAPAL PUTIH",
  "postalCode": "37554"
 },
 {
  "id": 1703091013,
  "districtId": 1703091,
  "districtName": "NAPAL PUTIH",
  "name": "LEBONG TANDAI",
  "postalCode": "38363"
 },
 {
  "id": 1703091014,
  "districtId": 1703091,
  "districtName": "NAPAL PUTIH",
  "name": "AIR TENANG",
  "postalCode": "37161"
 },
 {
  "id": 1703091015,
  "districtId": 1703091,
  "districtName": "NAPAL PUTIH",
  "name": "TELUK ANGGUNG",
  "postalCode": "38363"
 },
 {
  "id": 1703091016,
  "districtId": 1703091,
  "districtName": "NAPAL PUTIH",
  "name": "TANJUNG KEMENYAN",
  "postalCode": ""
 },
 {
  "id": 1703091017,
  "districtId": 1703091,
  "districtName": "NAPAL PUTIH",
  "name": "MUARA SANTAN",
  "postalCode": "38363"
 },
 {
  "id": 1703091019,
  "districtId": 1703091,
  "districtName": "NAPAL PUTIH",
  "name": "GEMBUNG RAYA",
  "postalCode": "38363"
 },
 {
  "id": 1703091020,
  "districtId": 1703091,
  "districtName": "NAPAL PUTIH",
  "name": "KINAL JAYA",
  "postalCode": "38363"
 }
]