[
 {
  "id": 1704031001,
  "districtId": 1704031,
  "districtName": "TETAP",
  "name": "SUKA BANJAR",
  "postalCode": "32211"
 },
 {
  "id": 1704031002,
  "districtId": 1704031,
  "districtName": "TETAP",
  "name": "TANJUNG BUNGA",
  "postalCode": "22392"
 },
 {
  "id": 1704031003,
  "districtId": 1704031,
  "districtName": "TETAP",
  "name": "TANJUNG AGUNG",
  "postalCode": "37216"
 },
 {
  "id": 1704031004,
  "districtId": 1704031,
  "districtName": "TETAP",
  "name": "BABAT",
  "postalCode": "30752"
 },
 {
  "id": 1704031005,
  "districtId": 1704031,
  "districtName": "TETAP",
  "name": "CUCUPAN",
  "postalCode": "38963"
 },
 {
  "id": 1704031006,
  "districtId": 1704031,
  "districtName": "TETAP",
  "name": "KEPAHYANG",
  "postalCode": "30657"
 },
 {
  "id": 1704031007,
  "districtId": 1704031,
  "districtName": "TETAP",
  "name": "TANJUNG DALAM",
  "postalCode": "37372"
 },
 {
  "id": 1704031008,
  "districtId": 1704031,
  "districtName": "TETAP",
  "name": "PAGAR DEWA",
  "postalCode": "31626"
 },
 {
  "id": 1704031009,
  "districtId": 1704031,
  "districtName": "TETAP",
  "name": "MUARA TETAP",
  "postalCode": "38963"
 },
 {
  "id": 1704031010,
  "districtId": 1704031,
  "districtName": "TETAP",
  "name": "KASUK BARU",
  "postalCode": "38963"
 },
 {
  "id": 1704031011,
  "districtId": 1704031,
  "districtName": "TETAP",
  "name": "SUKA RAJA",
  "postalCode": "23662"
 },
 {
  "id": 1704031012,
  "districtId": 1704031,
  "districtName": "TETAP",
  "name": "PADANG BINJAI",
  "postalCode": "38963"
 }
]