[
 {
  "id": 1704040007,
  "districtId": 1704040,
  "districtName": "KAUR TENGAH",
  "name": "PADANG BARU",
  "postalCode": "23761"
 },
 {
  "id": 1704040008,
  "districtId": 1704040,
  "districtName": "KAUR TENGAH",
  "name": "TANJUNG PANDAN",
  "postalCode": "38961"
 },
 {
  "id": 1704040009,
  "districtId": 1704040,
  "districtName": "KAUR TENGAH",
  "name": "TANJUNG IMAN",
  "postalCode": "32277"
 },
 {
  "id": 1704040010,
  "districtId": 1704040,
  "districtName": "KAUR TENGAH",
  "name": "PENYANDINGAN",
  "postalCode": "30862"
 },
 {
  "id": 1704040011,
  "districtId": 1704040,
  "districtName": "KAUR TENGAH",
  "name": "KEMANG MANIS",
  "postalCode": "36554"
 },
 {
  "id": 1704040012,
  "districtId": 1704040,
  "districtName": "KAUR TENGAH",
  "name": "PADANG HANGAT",
  "postalCode": "38961"
 },
 {
  "id": 1704040013,
  "districtId": 1704040,
  "districtName": "KAUR TENGAH",
  "name": "PAJAR BULAN",
  "postalCode": "32279"
 },
 {
  "id": 1704040014,
  "districtId": 1704040,
  "districtName": "KAUR TENGAH",
  "name": "SUKA RAMI",
  "postalCode": "39152"
 },
 {
  "id": 1704040015,
  "districtId": 1704040,
  "districtName": "KAUR TENGAH",
  "name": "SINAR JAYA",
  "postalCode": "30757"
 }
]