[
 {
  "id": 1705032001,
  "districtId": 1705032,
  "districtName": "TALO KECIL",
  "name": "PERING BARU",
  "postalCode": "38888"
 },
 {
  "id": 1705032002,
  "districtId": 1705032,
  "districtName": "TALO KECIL",
  "name": "SUKA MERINDU",
  "postalCode": "31452"
 },
 {
  "id": 1705032003,
  "districtId": 1705032,
  "districtName": "TALO KECIL",
  "name": "SUKA BULAN",
  "postalCode": "38888"
 },
 {
  "id": 1705032004,
  "districtId": 1705032,
  "districtName": "TALO KECIL",
  "name": "TALANG PADANG",
  "postalCode": "32265"
 },
 {
  "id": 1705032005,
  "districtId": 1705032,
  "districtName": "TALO KECIL",
  "name": "TABA",
  "postalCode": "31453"
 },
 {
  "id": 1705032006,
  "districtId": 1705032,
  "districtName": "TALO KECIL",
  "name": "BAKAL DALAM",
  "postalCode": "38888"
 },
 {
  "id": 1705032007,
  "districtId": 1705032,
  "districtName": "TALO KECIL",
  "name": "SUNGAI PETAI",
  "postalCode": "28471"
 },
 {
  "id": 1705032008,
  "districtId": 1705032,
  "districtName": "TALO KECIL",
  "name": "LUBUK LAGAN",
  "postalCode": "38883"
 },
 {
  "id": 1705032009,
  "districtId": 1705032,
  "districtName": "TALO KECIL",
  "name": "NAPALAN",
  "postalCode": "38873"
 },
 {
  "id": 1705032010,
  "districtId": 1705032,
  "districtName": "TALO KECIL",
  "name": "TEBAT SIBUN",
  "postalCode": "38888"
 },
 {
  "id": 1705032011,
  "districtId": 1705032,
  "districtName": "TALO KECIL",
  "name": "BATU BALAI",
  "postalCode": "75654"
 }
]