[
 {
  "id": 1705051001,
  "districtId": 1705051,
  "districtName": "AIR PERIUKAN",
  "name": "PASAR NGALAM",
  "postalCode": "38881"
 },
 {
  "id": 1705051002,
  "districtId": 1705051,
  "districtName": "AIR PERIUKAN",
  "name": "SUKASARI",
  "postalCode": "20986"
 },
 {
  "id": 1705051003,
  "districtId": 1705051,
  "districtName": "AIR PERIUKAN",
  "name": "TAWANG REJO",
  "postalCode": "32382"
 },
 {
  "id": 1705051004,
  "districtId": 1705051,
  "districtName": "AIR PERIUKAN",
  "name": "KUNGKAI BARU",
  "postalCode": "38881"
 },
 {
  "id": 1705051005,
  "districtId": 1705051,
  "districtName": "AIR PERIUKAN",
  "name": "KEBAN AGUNG",
  "postalCode": "31452"
 },
 {
  "id": 1705051006,
  "districtId": 1705051,
  "districtName": "AIR PERIUKAN",
  "name": "LAWANG AGUNG",
  "postalCode": "37111"
 },
 {
  "id": 1705051007,
  "districtId": 1705051,
  "districtName": "AIR PERIUKAN",
  "name": "PADANG PELASAN",
  "postalCode": "38881"
 },
 {
  "id": 1705051008,
  "districtId": 1705051,
  "districtName": "AIR PERIUKAN",
  "name": "AIR PERIUKAN",
  "postalCode": "38881"
 },
 {
  "id": 1705051009,
  "districtId": 1705051,
  "districtName": "AIR PERIUKAN",
  "name": "DERMAYU",
  "postalCode": "38881"
 },
 {
  "id": 1705051010,
  "districtId": 1705051,
  "districtName": "AIR PERIUKAN",
  "name": "SUKA MAJU",
  "postalCode": "24673"
 },
 {
  "id": 1705051011,
  "districtId": 1705051,
  "districtName": "AIR PERIUKAN",
  "name": "TALANG BENUANG",
  "postalCode": "38881"
 },
 {
  "id": 1705051012,
  "districtId": 1705051,
  "districtName": "AIR PERIUKAN",
  "name": "TALANG ALAI",
  "postalCode": "38881"
 },
 {
  "id": 1705051013,
  "districtId": 1705051,
  "districtName": "AIR PERIUKAN",
  "name": "LUBUK GILANG",
  "postalCode": "38881"
 },
 {
  "id": 1705051014,
  "districtId": 1705051,
  "districtName": "AIR PERIUKAN",
  "name": "TALANG SEBARIS",
  "postalCode": "38881"
 },
 {
  "id": 1705051015,
  "districtId": 1705051,
  "districtName": "AIR PERIUKAN",
  "name": "LOKASI BARU",
  "postalCode": "38881"
 },
 {
  "id": 1705051016,
  "districtId": 1705051,
  "districtName": "AIR PERIUKAN",
  "name": "TABA LUBUK PUDING",
  "postalCode": "38881"
 }
]