[
 {
  "id": 1705043001,
  "districtId": 1705043,
  "districtName": "SELUMA TIMUR",
  "name": "TENANGAN",
  "postalCode": "38885"
 },
 {
  "id": 1705043002,
  "districtId": 1705043,
  "districtName": "SELUMA TIMUR",
  "name": "RAWASARI",
  "postalCode": "24185"
 },
 {
  "id": 1705043003,
  "districtId": 1705043,
  "districtName": "SELUMA TIMUR",
  "name": "TALANG SALI",
  "postalCode": "38885"
 },
 {
  "id": 1705043004,
  "districtId": 1705043,
  "districtName": "SELUMA TIMUR",
  "name": "KUNDURAN",
  "postalCode": "31594"
 },
 {
  "id": 1705043005,
  "districtId": 1705043,
  "districtName": "SELUMA TIMUR",
  "name": "KOTA AGUNG",
  "postalCode": "31462"
 },
 {
  "id": 1705043006,
  "districtId": 1705043,
  "districtName": "SELUMA TIMUR",
  "name": "SELEBAR",
  "postalCode": "38885"
 },
 {
  "id": 1705043007,
  "districtId": 1705043,
  "districtName": "SELUMA TIMUR",
  "name": "SEMBAYAT",
  "postalCode": "38885"
 },
 {
  "id": 1705043008,
  "districtId": 1705043,
  "districtName": "SELUMA TIMUR",
  "name": "BUNGA MAS",
  "postalCode": "32277"
 }
]