[
 {
  "id": 1705041001,
  "districtId": 1705041,
  "districtName": "SELUMA SELATAN",
  "name": "TANJUNG SELUAI",
  "postalCode": "38878"
 },
 {
  "id": 1705041002,
  "districtId": 1705041,
  "districtName": "SELUMA SELATAN",
  "name": "RIMBO KEDUI",
  "postalCode": "38878"
 },
 {
  "id": 1705041003,
  "districtId": 1705041,
  "districtName": "SELUMA SELATAN",
  "name": "SIDO MULYO",
  "postalCode": "24371"
 },
 {
  "id": 1705041004,
  "districtId": 1705041,
  "districtName": "SELUMA SELATAN",
  "name": "PADANG RAMBUN",
  "postalCode": "38878"
 },
 {
  "id": 1705041005,
  "districtId": 1705041,
  "districtName": "SELUMA SELATAN",
  "name": "PASAR SELUMA",
  "postalCode": "38878"
 },
 {
  "id": 1705041006,
  "districtId": 1705041,
  "districtName": "SELUMA SELATAN",
  "name": "SUKA RAMI",
  "postalCode": "39152"
 },
 {
  "id": 1705041007,
  "districtId": 1705041,
  "districtName": "SELUMA SELATAN",
  "name": "TANGGA BATU",
  "postalCode": "22742"
 },
 {
  "id": 1705041008,
  "districtId": 1705041,
  "districtName": "SELUMA SELATAN",
  "name": "PADANG GENTING",
  "postalCode": "21254"
 },
 {
  "id": 1705041009,
  "districtId": 1705041,
  "districtName": "SELUMA SELATAN",
  "name": "SENGKUANG",
  "postalCode": "31471"
 },
 {
  "id": 1705041010,
  "districtId": 1705041,
  "districtName": "SELUMA SELATAN",
  "name": "TANJUNG SERU",
  "postalCode": "38878"
 },
 {
  "id": 1705041011,
  "districtId": 1705041,
  "districtName": "SELUMA SELATAN",
  "name": "TANJUNGAN",
  "postalCode": "22395"
 },
 {
  "id": 1705041012,
  "districtId": 1705041,
  "districtName": "SELUMA SELATAN",
  "name": "PADANG MERBAU",
  "postalCode": "20624"
 }
]