[
 {
  "id": 1706022001,
  "districtId": 1706022,
  "districtName": "TERAMANG JAYA",
  "name": "PASAR BANTAL",
  "postalCode": "38766"
 },
 {
  "id": 1706022002,
  "districtId": 1706022,
  "districtName": "TERAMANG JAYA",
  "name": "TERAMANG JAYA",
  "postalCode": "38766"
 },
 {
  "id": 1706022003,
  "districtId": 1706022,
  "districtName": "TERAMANG JAYA",
  "name": "NENGGALO",
  "postalCode": "38766"
 },
 {
  "id": 1706022004,
  "districtId": 1706022,
  "districtName": "TERAMANG JAYA",
  "name": "PONDOK BARU",
  "postalCode": "24582"
 },
 {
  "id": 1706022005,
  "districtId": 1706022,
  "districtName": "TERAMANG JAYA",
  "name": "BUNGA TANJUNG",
  "postalCode": "24782"
 },
 {
  "id": 1706022006,
  "districtId": 1706022,
  "districtName": "TERAMANG JAYA",
  "name": "SIDO MAKMUR",
  "postalCode": "20772"
 },
 {
  "id": 1706022007,
  "districtId": 1706022,
  "districtName": "TERAMANG JAYA",
  "name": "LUBUK SELANDAK",
  "postalCode": "38766"
 },
 {
  "id": 1706022008,
  "districtId": 1706022,
  "districtName": "TERAMANG JAYA",
  "name": "BANDAR JAYA",
  "postalCode": "28771"
 },
 {
  "id": 1706022009,
  "districtId": 1706022,
  "districtName": "TERAMANG JAYA",
  "name": "MANDI ANGIN JAYA",
  "postalCode": "38766"
 },
 {
  "id": 1706022010,
  "districtId": 1706022,
  "districtName": "TERAMANG JAYA",
  "name": "NELAN INDAH",
  "postalCode": "38766"
 },
 {
  "id": 1706022011,
  "districtId": 1706022,
  "districtName": "TERAMANG JAYA",
  "name": "PERNYAH",
  "postalCode": "38766"
 },
 {
  "id": 1706022012,
  "districtId": 1706022,
  "districtName": "TERAMANG JAYA",
  "name": "BATU EJUNG",
  "postalCode": "38766"
 },
 {
  "id": 1706022013,
  "districtId": 1706022,
  "districtName": "TERAMANG JAYA",
  "name": "BRANGAN MULYA",
  "postalCode": "38766"
 }
]