[
 {
  "id": 1707031001,
  "districtId": 1707031,
  "districtName": "LEBONG SAKTI",
  "name": "UJUNG TANJUNG I",
  "postalCode": "39263"
 },
 {
  "id": 1707031002,
  "districtId": 1707031,
  "districtName": "LEBONG SAKTI",
  "name": "MUNING AGUNG",
  "postalCode": "39267"
 },
 {
  "id": 1707031003,
  "districtId": 1707031,
  "districtName": "LEBONG SAKTI",
  "name": "UJUNG TANJUNG II",
  "postalCode": "39263"
 },
 {
  "id": 1707031004,
  "districtId": 1707031,
  "districtName": "LEBONG SAKTI",
  "name": "UJUNG TANJUNG III",
  "postalCode": ""
 },
 {
  "id": 1707031005,
  "districtId": 1707031,
  "districtName": "LEBONG SAKTI",
  "name": "MAGELANG BARU",
  "postalCode": "39267"
 },
 {
  "id": 1707031006,
  "districtId": 1707031,
  "districtName": "LEBONG SAKTI",
  "name": "LEMEU PIT",
  "postalCode": "39267"
 },
 {
  "id": 1707031007,
  "districtId": 1707031,
  "districtName": "LEBONG SAKTI",
  "name": "TABEAK KAUK",
  "postalCode": "39267"
 },
 {
  "id": 1707031008,
  "districtId": 1707031,
  "districtName": "LEBONG SAKTI",
  "name": "TABEAK DIPOA",
  "postalCode": "39267"
 },
 {
  "id": 1707031009,
  "districtId": 1707031,
  "districtName": "LEBONG SAKTI",
  "name": "SUKA BUMI",
  "postalCode": "39267"
 }
]