[
 {
  "id": 1708040001,
  "districtId": 1708040,
  "districtName": "TEBAT KARAI",
  "name": "TERTIK",
  "postalCode": "39373"
 },
 {
  "id": 1708040002,
  "districtId": 1708040,
  "districtName": "TEBAT KARAI",
  "name": "TABA AIR PAUH",
  "postalCode": "39373"
 },
 {
  "id": 1708040003,
  "districtId": 1708040,
  "districtName": "TEBAT KARAI",
  "name": "PENANJUNG PANJANG",
  "postalCode": "39373"
 },
 {
  "id": 1708040004,
  "districtId": 1708040,
  "districtName": "TEBAT KARAI",
  "name": "PERADUAN BINJAI",
  "postalCode": "39373"
 },
 {
  "id": 1708040005,
  "districtId": 1708040,
  "districtName": "TEBAT KARAI",
  "name": "TALANG KARET",
  "postalCode": "39373"
 },
 {
  "id": 1708040006,
  "districtId": 1708040,
  "districtName": "TEBAT KARAI",
  "name": "TEBAT KARAI",
  "postalCode": "39373"
 },
 {
  "id": 1708040007,
  "districtId": 1708040,
  "districtName": "TEBAT KARAI",
  "name": "TABA SATING",
  "postalCode": ""
 },
 {
  "id": 1708040008,
  "districtId": 1708040,
  "districtName": "TEBAT KARAI",
  "name": "NANTI AGUNG",
  "postalCode": "38887"
 },
 {
  "id": 1708040009,
  "districtId": 1708040,
  "districtName": "TEBAT KARAI",
  "name": "KARANG TENGAH",
  "postalCode": "20991"
 },
 {
  "id": 1708040010,
  "districtId": 1708040,
  "districtName": "TEBAT KARAI",
  "name": "TAPAK GEDUNG",
  "postalCode": "39373"
 },
 {
  "id": 1708040011,
  "districtId": 1708040,
  "districtName": "TEBAT KARAI",
  "name": "TEBING PENYAMUN",
  "postalCode": "39373"
 },
 {
  "id": 1708040012,
  "districtId": 1708040,
  "districtName": "TEBAT KARAI",
  "name": "SINAR GUNUNG",
  "postalCode": "39153"
 },
 {
  "id": 1708040013,
  "districtId": 1708040,
  "districtName": "TEBAT KARAI",
  "name": "TABA SALING",
  "postalCode": "39373"
 },
 {
  "id": 1708040014,
  "districtId": 1708040,
  "districtName": "TEBAT KARAI",
  "name": "PENANJUNG PANJANG ATAS",
  "postalCode": "39373"
 }
]