[
 {
  "id": 1709020001,
  "districtId": 1709020,
  "districtName": "KARANG TINGGI",
  "name": "KARANG NANDING",
  "postalCode": "38382"
 },
 {
  "id": 1709020002,
  "districtId": 1709020,
  "districtName": "KARANG TINGGI",
  "name": "PENANDING",
  "postalCode": "38382"
 },
 {
  "id": 1709020003,
  "districtId": 1709020,
  "districtName": "KARANG TINGGI",
  "name": "DURIAN DEMANG",
  "postalCode": "38382"
 },
 {
  "id": 1709020004,
  "districtId": 1709020,
  "districtName": "KARANG TINGGI",
  "name": "DUSUN BARU II",
  "postalCode": "38382"
 },
 {
  "id": 1709020005,
  "districtId": 1709020,
  "districtName": "KARANG TINGGI",
  "name": "KARANG TINGGI",
  "postalCode": "38382"
 },
 {
  "id": 1709020006,
  "districtId": 1709020,
  "districtName": "KARANG TINGGI",
  "name": "TABA MUTUNG",
  "postalCode": "38382"
 },
 {
  "id": 1709020007,
  "districtId": 1709020,
  "districtName": "KARANG TINGGI",
  "name": "KANCING",
  "postalCode": "38382"
 },
 {
  "id": 1709020008,
  "districtId": 1709020,
  "districtName": "KARANG TINGGI",
  "name": "UJUNG KARANG",
  "postalCode": "23753"
 },
 {
  "id": 1709020009,
  "districtId": 1709020,
  "districtName": "KARANG TINGGI",
  "name": "TALANG EMPAT",
  "postalCode": "38385"
 },
 {
  "id": 1709020010,
  "districtId": 1709020,
  "districtName": "KARANG TINGGI",
  "name": "TABA TERUNJAM",
  "postalCode": "38382"
 },
 {
  "id": 1709020011,
  "districtId": 1709020,
  "districtName": "KARANG TINGGI",
  "name": "PADANG TAMBAK",
  "postalCode": "38382"
 },
 {
  "id": 1709020012,
  "districtId": 1709020,
  "districtName": "KARANG TINGGI",
  "name": "RENA LEBAR",
  "postalCode": "38382"
 },
 {
  "id": 1709020013,
  "districtId": 1709020,
  "districtName": "KARANG TINGGI",
  "name": "PELAJAU",
  "postalCode": "30953"
 },
 {
  "id": 1709020014,
  "districtId": 1709020,
  "districtName": "KARANG TINGGI",
  "name": "RENA SEMANEK",
  "postalCode": "38382"
 },
 {
  "id": 1709020015,
  "districtId": 1709020,
  "districtName": "KARANG TINGGI",
  "name": "GAJAH MATI",
  "postalCode": "30755"
 },
 {
  "id": 1709020016,
  "districtId": 1709020,
  "districtName": "KARANG TINGGI",
  "name": "SEMIDANG",
  "postalCode": ""
 },
 {
  "id": 1709020017,
  "districtId": 1709020,
  "districtName": "KARANG TINGGI",
  "name": "PAGAR GUNUNG",
  "postalCode": "22753"
 },
 {
  "id": 1709020018,
  "districtId": 1709020,
  "districtName": "KARANG TINGGI",
  "name": "PADANG SIRING",
  "postalCode": "38382"
 }
]