[
 {
  "id": 1709051001,
  "districtId": 1709051,
  "districtName": "PONDOK KUBANG",
  "name": "TANJUNG TERDANA",
  "postalCode": "38375"
 },
 {
  "id": 1709051002,
  "districtId": 1709051,
  "districtName": "PONDOK KUBANG",
  "name": "PONDOK KUBANG",
  "postalCode": "38375"
 },
 {
  "id": 1709051003,
  "districtId": 1709051,
  "districtName": "PONDOK KUBANG",
  "name": "ANYAR",
  "postalCode": "32361"
 },
 {
  "id": 1709051004,
  "districtId": 1709051,
  "districtName": "PONDOK KUBANG",
  "name": "BATU RAJA",
  "postalCode": "23661"
 },
 {
  "id": 1709051005,
  "districtId": 1709051,
  "districtName": "PONDOK KUBANG",
  "name": "TANJUNG DALAM",
  "postalCode": "37372"
 },
 {
  "id": 1709051006,
  "districtId": 1709051,
  "districtName": "PONDOK KUBANG",
  "name": "TALANG TENGAH I",
  "postalCode": ""
 },
 {
  "id": 1709051007,
  "districtId": 1709051,
  "districtName": "PONDOK KUBANG",
  "name": "LINGGAR GALING",
  "postalCode": "38375"
 },
 {
  "id": 1709051008,
  "districtId": 1709051,
  "districtName": "PONDOK KUBANG",
  "name": "PAKU HAJI",
  "postalCode": "38375"
 },
 {
  "id": 1709051009,
  "districtId": 1709051,
  "districtName": "PONDOK KUBANG",
  "name": "DUSUN BARU I",
  "postalCode": "38376"
 },
 {
  "id": 1709051010,
  "districtId": 1709051,
  "districtName": "PONDOK KUBANG",
  "name": "HARAPAN MAKMUR",
  "postalCode": "20773"
 },
 {
  "id": 1709051011,
  "districtId": 1709051,
  "districtName": "PONDOK KUBANG",
  "name": "TABA JAMBU",
  "postalCode": "38378"
 },
 {
  "id": 1709051012,
  "districtId": 1709051,
  "districtName": "PONDOK KUBANG",
  "name": "MARGO MULYO",
  "postalCode": "32383"
 }
]