[
 {
  "id": 1709060011,
  "districtId": 1709060,
  "districtName": "PEMATANG TIGA",
  "name": "KOTA TITIK",
  "postalCode": "38372"
 },
 {
  "id": 1709060012,
  "districtId": 1709060,
  "districtName": "PEMATANG TIGA",
  "name": "ATURAN MUMPO",
  "postalCode": "38372"
 },
 {
  "id": 1709060013,
  "districtId": 1709060,
  "districtName": "PEMATANG TIGA",
  "name": "SENABAH",
  "postalCode": ""
 },
 {
  "id": 1709060014,
  "districtId": 1709060,
  "districtName": "PEMATANG TIGA",
  "name": "TALANG TENGAH II",
  "postalCode": "38372"
 },
 {
  "id": 1709060015,
  "districtId": 1709060,
  "districtName": "PEMATANG TIGA",
  "name": "TANJUNG KEPAYANG",
  "postalCode": "30953"
 },
 {
  "id": 1709060016,
  "districtId": 1709060,
  "districtName": "PEMATANG TIGA",
  "name": "KEBUN LEBAR",
  "postalCode": "38372"
 },
 {
  "id": 1709060017,
  "districtId": 1709060,
  "districtName": "PEMATANG TIGA",
  "name": "TIAMBANG",
  "postalCode": "38372"
 },
 {
  "id": 1709060018,
  "districtId": 1709060,
  "districtName": "PEMATANG TIGA",
  "name": "PEMATANG TIGA",
  "postalCode": "38372"
 },
 {
  "id": 1709060019,
  "districtId": 1709060,
  "districtName": "PEMATANG TIGA",
  "name": "BATU BARIANG",
  "postalCode": ""
 },
 {
  "id": 1709060020,
  "districtId": 1709060,
  "districtName": "PEMATANG TIGA",
  "name": "AIR KOTOK",
  "postalCode": "38372"
 },
 {
  "id": 1709060021,
  "districtId": 1709060,
  "districtName": "PEMATANG TIGA",
  "name": "ATURAN MUMPO II",
  "postalCode": "38372"
 },
 {
  "id": 1709060022,
  "districtId": 1709060,
  "districtName": "PEMATANG TIGA",
  "name": "GENTING DABUK",
  "postalCode": "38372"
 },
 {
  "id": 1709060023,
  "districtId": 1709060,
  "districtName": "PEMATANG TIGA",
  "name": "PEMATANG TIGA LAMA",
  "postalCode": "38372"
 }
]