[
 {
  "id": 1771021001,
  "districtId": 1771021,
  "districtName": "RATU AGUNG",
  "name": "TANAH PATAH",
  "postalCode": "38224"
 },
 {
  "id": 1771021002,
  "districtId": 1771021,
  "districtName": "RATU AGUNG",
  "name": "KEBUN TEBENG",
  "postalCode": "38227"
 },
 {
  "id": 1771021003,
  "districtId": 1771021,
  "districtName": "RATU AGUNG",
  "name": "SAWAH LEBAR BARU",
  "postalCode": "38223"
 },
 {
  "id": 1771021004,
  "districtId": 1771021,
  "districtName": "RATU AGUNG",
  "name": "SAWAH LEBAR",
  "postalCode": "38228"
 },
 {
  "id": 1771021005,
  "districtId": 1771021,
  "districtName": "RATU AGUNG",
  "name": "NUSA INDAH",
  "postalCode": "38224"
 },
 {
  "id": 1771021006,
  "districtId": 1771021,
  "districtName": "RATU AGUNG",
  "name": "KEBUN KENANGA",
  "postalCode": "38223"
 },
 {
  "id": 1771021007,
  "districtId": 1771021,
  "districtName": "RATU AGUNG",
  "name": "KEBUN BELER",
  "postalCode": "38223"
 },
 {
  "id": 1771021008,
  "districtId": 1771021,
  "districtName": "RATU AGUNG",
  "name": "LEMPUING",
  "postalCode": "38223"
 }
]