[
 {
  "id": 1801055001,
  "districtId": 1801055,
  "districtName": "BATU KETULIS",
  "name": "ARGOMULYO",
  "postalCode": "34766"
 },
 {
  "id": 1801055002,
  "districtId": 1801055,
  "districtName": "BATU KETULIS",
  "name": "BATU KEBAYAN",
  "postalCode": "34872"
 },
 {
  "id": 1801055003,
  "districtId": 1801055,
  "districtName": "BATU KETULIS",
  "name": "ATAR BAWANG",
  "postalCode": "34872"
 },
 {
  "id": 1801055004,
  "districtId": 1801055,
  "districtName": "BATU KETULIS",
  "name": "CAMPANG TIGA",
  "postalCode": "34872"
 },
 {
  "id": 1801055005,
  "districtId": 1801055,
  "districtName": "BATU KETULIS",
  "name": "LUAS",
  "postalCode": "34872"
 },
 {
  "id": 1801055006,
  "districtId": 1801055,
  "districtName": "BATU KETULIS",
  "name": "BAKHU",
  "postalCode": "34872"
 },
 {
  "id": 1801055007,
  "districtId": 1801055,
  "districtName": "BATU KETULIS",
  "name": "WAY NGISON",
  "postalCode": "34872"
 },
 {
  "id": 1801055008,
  "districtId": 1801055,
  "districtName": "BATU KETULIS",
  "name": "KUBU LIKU JAYA",
  "postalCode": "34872"
 },
 {
  "id": 1801055009,
  "districtId": 1801055,
  "districtName": "BATU KETULIS",
  "name": "SUMBER REJO",
  "postalCode": "21255"
 },
 {
  "id": 1801055010,
  "districtId": 1801055,
  "districtName": "BATU KETULIS",
  "name": "ATAR KUWAU",
  "postalCode": "34872"
 }
]