[
 {
  "id": 1801056001,
  "districtId": 1801056,
  "districtName": "BANDAR NEGERI SUOH",
  "name": "SUOH",
  "postalCode": "34882"
 },
 {
  "id": 1801056002,
  "districtId": 1801056,
  "districtName": "BANDAR NEGERI SUOH",
  "name": "SRIMULYO",
  "postalCode": "30975"
 },
 {
  "id": 1801056003,
  "districtId": 1801056,
  "districtName": "BANDAR NEGERI SUOH",
  "name": "BANDAR AGUNG",
  "postalCode": "31414"
 },
 {
  "id": 1801056004,
  "districtId": 1801056,
  "districtName": "BANDAR NEGERI SUOH",
  "name": "RINGIN JAYA",
  "postalCode": "34882"
 },
 {
  "id": 1801056005,
  "districtId": 1801056,
  "districtName": "BANDAR NEGERI SUOH",
  "name": "BUMI HANTATAI",
  "postalCode": "34882"
 },
 {
  "id": 1801056006,
  "districtId": 1801056,
  "districtName": "BANDAR NEGERI SUOH",
  "name": "GUNUNG RATU",
  "postalCode": "34882"
 },
 {
  "id": 1801056007,
  "districtId": 1801056,
  "districtName": "BANDAR NEGERI SUOH",
  "name": "TANJUNG SARI",
  "postalCode": "24673"
 },
 {
  "id": 1801056008,
  "districtId": 1801056,
  "districtName": "BANDAR NEGERI SUOH",
  "name": "NEGERI JAYA",
  "postalCode": "34882"
 },
 {
  "id": 1801056009,
  "districtId": 1801056,
  "districtName": "BANDAR NEGERI SUOH",
  "name": "TEMBELANG",
  "postalCode": "34882"
 },
 {
  "id": 1801056010,
  "districtId": 1801056,
  "districtName": "BANDAR NEGERI SUOH",
  "name": "TRI MEKAR JAYA",
  "postalCode": "34882"
 }
]