[
 {
  "id": 1801040001,
  "districtId": 1801040,
  "districtName": "BALIK BUKIT",
  "name": "KUBU PERAHU",
  "postalCode": "34813"
 },
 {
  "id": 1801040002,
  "districtId": 1801040,
  "districtName": "BALIK BUKIT",
  "name": "WAY EMPULAU ULU",
  "postalCode": "34811"
 },
 {
  "id": 1801040003,
  "districtId": 1801040,
  "districtName": "BALIK BUKIT",
  "name": "WATAS",
  "postalCode": "34817"
 },
 {
  "id": 1801040004,
  "districtId": 1801040,
  "districtName": "BALIK BUKIT",
  "name": "PADANG DALOM",
  "postalCode": "34818"
 },
 {
  "id": 1801040005,
  "districtId": 1801040,
  "districtName": "BALIK BUKIT",
  "name": "GUNUNG SUGIH",
  "postalCode": "32386"
 },
 {
  "id": 1801040006,
  "districtId": 1801040,
  "districtName": "BALIK BUKIT",
  "name": "SEBARUS",
  "postalCode": "34815"
 },
 {
  "id": 1801040007,
  "districtId": 1801040,
  "districtName": "BALIK BUKIT",
  "name": "PASAR LIWA",
  "postalCode": "34814"
 },
 {
  "id": 1801040008,
  "districtId": 1801040,
  "districtName": "BALIK BUKIT",
  "name": "WAY MENGAKU",
  "postalCode": "34812"
 },
 {
  "id": 1801040009,
  "districtId": 1801040,
  "districtName": "BALIK BUKIT",
  "name": "PADANG CAHYA",
  "postalCode": "34811"
 },
 {
  "id": 1801040012,
  "districtId": 1801040,
  "districtName": "BALIK BUKIT",
  "name": "SUKARAME",
  "postalCode": "24357"
 },
 {
  "id": 1801040013,
  "districtId": 1801040,
  "districtName": "BALIK BUKIT",
  "name": "BAHWAY",
  "postalCode": "34811"
 },
 {
  "id": 1801040014,
  "districtId": 1801040,
  "districtName": "BALIK BUKIT",
  "name": "SEDAMPAH INDAH",
  "postalCode": "34811"
 }
]