[
 {
  "id": 1801064001,
  "districtId": 1801064,
  "districtName": "AIR HITAM",
  "name": "SIDODADI",
  "postalCode": "24582"
 },
 {
  "id": 1801064002,
  "districtId": 1801064,
  "districtName": "AIR HITAM",
  "name": "SEMARANG JAYA",
  "postalCode": "34876"
 },
 {
  "id": 1801064003,
  "districtId": 1801064,
  "districtName": "AIR HITAM",
  "name": "SUMBER ALAM",
  "postalCode": "34876"
 },
 {
  "id": 1801064004,
  "districtId": 1801064,
  "districtName": "AIR HITAM",
  "name": "GUNUNG TERANG",
  "postalCode": "32277"
 },
 {
  "id": 1801064005,
  "districtId": 1801064,
  "districtName": "AIR HITAM",
  "name": "SUKA JADI",
  "postalCode": "23662"
 },
 {
  "id": 1801064006,
  "districtId": 1801064,
  "districtName": "AIR HITAM",
  "name": "SRI MENANTI",
  "postalCode": "32265"
 },
 {
  "id": 1801064007,
  "districtId": 1801064,
  "districtName": "AIR HITAM",
  "name": "SINAR JAYA",
  "postalCode": "30757"
 },
 {
  "id": 1801064008,
  "districtId": 1801064,
  "districtName": "AIR HITAM",
  "name": "RIGIS JAYA",
  "postalCode": "34876"
 },
 {
  "id": 1801064009,
  "districtId": 1801064,
  "districtName": "AIR HITAM",
  "name": "SUKA DAMAI",
  "postalCode": "24472"
 },
 {
  "id": 1801064010,
  "districtId": 1801064,
  "districtName": "AIR HITAM",
  "name": "MANGGARAI",
  "postalCode": "12850"
 }
]