[
 {
  "id": 1802040019,
  "districtId": 1802040,
  "districtName": "TALANG PADANG",
  "name": "KALIBENING",
  "postalCode": "35377"
 },
 {
  "id": 1802040022,
  "districtId": 1802040,
  "districtName": "TALANG PADANG",
  "name": "KEJAYAAN",
  "postalCode": "35377"
 },
 {
  "id": 1802040023,
  "districtId": 1802040,
  "districtName": "TALANG PADANG",
  "name": "SUKABUMI",
  "postalCode": "32274"
 },
 {
  "id": 1802040024,
  "districtId": 1802040,
  "districtName": "TALANG PADANG",
  "name": "SUKANEGERI JAYA",
  "postalCode": "35377"
 },
 {
  "id": 1802040025,
  "districtId": 1802040,
  "districtName": "TALANG PADANG",
  "name": "BANJARSARI",
  "postalCode": "35377"
 },
 {
  "id": 1802040026,
  "districtId": 1802040,
  "districtName": "TALANG PADANG",
  "name": "SINGOSARI",
  "postalCode": "35377"
 },
 {
  "id": 1802040031,
  "districtId": 1802040,
  "districtName": "TALANG PADANG",
  "name": "SINAR BANTEN",
  "postalCode": "38964"
 },
 {
  "id": 1802040032,
  "districtId": 1802040,
  "districtName": "TALANG PADANG",
  "name": "SUKARAME",
  "postalCode": "24357"
 },
 {
  "id": 1802040033,
  "districtId": 1802040,
  "districtName": "TALANG PADANG",
  "name": "BANDING AGUNG",
  "postalCode": "32274"
 },
 {
  "id": 1802040034,
  "districtId": 1802040,
  "districtName": "TALANG PADANG",
  "name": "TALANG PADANG",
  "postalCode": "32265"
 },
 {
  "id": 1802040035,
  "districtId": 1802040,
  "districtName": "TALANG PADANG",
  "name": "SUKA NEGERI",
  "postalCode": "32274"
 },
 {
  "id": 1802040036,
  "districtId": 1802040,
  "districtName": "TALANG PADANG",
  "name": "SUKA BANDUNG",
  "postalCode": "38571"
 },
 {
  "id": 1802040037,
  "districtId": 1802040,
  "districtName": "TALANG PADANG",
  "name": "SUKA MERINDU",
  "postalCode": "31452"
 },
 {
  "id": 1802040038,
  "districtId": 1802040,
  "districtName": "TALANG PADANG",
  "name": "SINAR SEMENDO",
  "postalCode": "35377"
 },
 {
  "id": 1802040039,
  "districtId": 1802040,
  "districtName": "TALANG PADANG",
  "name": "NEGERI AGUNG",
  "postalCode": "32367"
 },
 {
  "id": 1802040040,
  "districtId": 1802040,
  "districtName": "TALANG PADANG",
  "name": "SINAR PETIR",
  "postalCode": "35377"
 },
 {
  "id": 1802040041,
  "districtId": 1802040,
  "districtName": "TALANG PADANG",
  "name": "WAY HALOM",
  "postalCode": "32361"
 },
 {
  "id": 1802040042,
  "districtId": 1802040,
  "districtName": "TALANG PADANG",
  "name": "TALANG SEPUH",
  "postalCode": "35377"
 },
 {
  "id": 1802040043,
  "districtId": 1802040,
  "districtName": "TALANG PADANG",
  "name": "SINAR HARAPAN",
  "postalCode": "30756"
 },
 {
  "id": 1802040044,
  "districtId": 1802040,
  "districtName": "TALANG PADANG",
  "name": "SINAR BETUNG",
  "postalCode": "35377"
 }
]