[
 {
  "id": 1802010003,
  "districtId": 1802010,
  "districtName": "WONOSOBO",
  "name": "KARANG ANYAR",
  "postalCode": "24415"
 },
 {
  "id": 1802010008,
  "districtId": 1802010,
  "districtName": "WONOSOBO",
  "name": "KALIREJO",
  "postalCode": "35353"
 },
 {
  "id": 1802010009,
  "districtId": 1802010,
  "districtName": "WONOSOBO",
  "name": "DADIREJO",
  "postalCode": "35686"
 },
 {
  "id": 1802010010,
  "districtId": 1802010,
  "districtName": "WONOSOBO",
  "name": "BANYU URIP",
  "postalCode": "30961"
 },
 {
  "id": 1802010011,
  "districtId": 1802010,
  "districtName": "WONOSOBO",
  "name": "WONOSOBO",
  "postalCode": "24581"
 },
 {
  "id": 1802010012,
  "districtId": 1802010,
  "districtName": "WONOSOBO",
  "name": "SOPONYONO",
  "postalCode": "35686"
 },
 {
  "id": 1802010013,
  "districtId": 1802010,
  "districtName": "WONOSOBO",
  "name": "BANDAR KEJADIAN",
  "postalCode": "35686"
 },
 {
  "id": 1802010014,
  "districtId": 1802010,
  "districtName": "WONOSOBO",
  "name": "WAY PANAS",
  "postalCode": "35686"
 },
 {
  "id": 1802010015,
  "districtId": 1802010,
  "districtName": "WONOSOBO",
  "name": "SINAR SAUDARA",
  "postalCode": "35686"
 },
 {
  "id": 1802010016,
  "districtId": 1802010,
  "districtName": "WONOSOBO",
  "name": "SRIDADI",
  "postalCode": "36614"
 },
 {
  "id": 1802010017,
  "districtId": 1802010,
  "districtName": "WONOSOBO",
  "name": "LAKARAN",
  "postalCode": "35686"
 },
 {
  "id": 1802010018,
  "districtId": 1802010,
  "districtName": "WONOSOBO",
  "name": "PADANG RATU",
  "postalCode": "32274"
 },
 {
  "id": 1802010019,
  "districtId": 1802010,
  "districtName": "WONOSOBO",
  "name": "PARDA SUKA",
  "postalCode": "38965"
 },
 {
  "id": 1802010020,
  "districtId": 1802010,
  "districtName": "WONOSOBO",
  "name": "TANJUNG KURUNG",
  "postalCode": "31315"
 },
 {
  "id": 1802010021,
  "districtId": 1802010,
  "districtName": "WONOSOBO",
  "name": "PADANG MANIS",
  "postalCode": "38956"
 },
 {
  "id": 1802010022,
  "districtId": 1802010,
  "districtName": "WONOSOBO",
  "name": "KEJADIAN",
  "postalCode": "34872"
 },
 {
  "id": 1802010023,
  "districtId": 1802010,
  "districtName": "WONOSOBO",
  "name": "DADISARI",
  "postalCode": "35686"
 },
 {
  "id": 1802010024,
  "districtId": 1802010,
  "districtName": "WONOSOBO",
  "name": "KALISARI",
  "postalCode": "35686"
 },
 {
  "id": 1802010029,
  "districtId": 1802010,
  "districtName": "WONOSOBO",
  "name": "BANJAR NEGORO",
  "postalCode": "35686"
 },
 {
  "id": 1802010030,
  "districtId": 1802010,
  "districtName": "WONOSOBO",
  "name": "PEKON BALAK",
  "postalCode": "34881"
 },
 {
  "id": 1802010031,
  "districtId": 1802010,
  "districtName": "WONOSOBO",
  "name": "KUNYAYAN",
  "postalCode": "35686"
 },
 {
  "id": 1802010032,
  "districtId": 1802010,
  "districtName": "WONOSOBO",
  "name": "BANJARSARI",
  "postalCode": "35377"
 },
 {
  "id": 1802010037,
  "districtId": 1802010,
  "districtName": "WONOSOBO",
  "name": "NEGERI NGARIP",
  "postalCode": "35686"
 },
 {
  "id": 1802010038,
  "districtId": 1802010,
  "districtName": "WONOSOBO",
  "name": "SAMPANG TURUS",
  "postalCode": "35686"
 },
 {
  "id": 1802010039,
  "districtId": 1802010,
  "districtName": "WONOSOBO",
  "name": "WAY LIWOK",
  "postalCode": "35686"
 },
 {
  "id": 1802010040,
  "districtId": 1802010,
  "districtName": "WONOSOBO",
  "name": "SUMUR TUJUH",
  "postalCode": "35686"
 },
 {
  "id": 1802010041,
  "districtId": 1802010,
  "districtName": "WONOSOBO",
  "name": "DADI MULYO",
  "postalCode": "21212"
 },
 {
  "id": 1802010042,
  "districtId": 1802010,
  "districtName": "WONOSOBO",
  "name": "SRI MELATI",
  "postalCode": "35686"
 }
]