[
 {
  "id": 1802032001,
  "districtId": 1802032,
  "districtName": "AIR NANINGAN",
  "name": "WAY HARONG",
  "postalCode": "35679"
 },
 {
  "id": 1802032002,
  "districtId": 1802032,
  "districtName": "AIR NANINGAN",
  "name": "AIR KUBANG",
  "postalCode": "35679"
 },
 {
  "id": 1802032003,
  "districtId": 1802032,
  "districtName": "AIR NANINGAN",
  "name": "KARANG SARI",
  "postalCode": "21174"
 },
 {
  "id": 1802032004,
  "districtId": 1802032,
  "districtName": "AIR NANINGAN",
  "name": "SIDOMULYO",
  "postalCode": "21455"
 },
 {
  "id": 1802032005,
  "districtId": 1802032,
  "districtName": "AIR NANINGAN",
  "name": "AIR NANINGAN",
  "postalCode": "35679"
 },
 {
  "id": 1802032006,
  "districtId": 1802032,
  "districtName": "AIR NANINGAN",
  "name": "SINAR JAWA",
  "postalCode": "35679"
 },
 {
  "id": 1802032007,
  "districtId": 1802032,
  "districtName": "AIR NANINGAN",
  "name": "DATAR LEBUAY",
  "postalCode": "35679"
 },
 {
  "id": 1802032008,
  "districtId": 1802032,
  "districtName": "AIR NANINGAN",
  "name": "BATU TEGI",
  "postalCode": ""
 },
 {
  "id": 1802032009,
  "districtId": 1802032,
  "districtName": "AIR NANINGAN",
  "name": "SINAR SEKAMPUNG",
  "postalCode": "35679"
 },
 {
  "id": 1802032010,
  "districtId": 1802032,
  "districtName": "AIR NANINGAN",
  "name": "MARGO MULYO",
  "postalCode": "32383"
 }
]