[
 {
  "id": 1802043001,
  "districtId": 1802043,
  "districtName": "GUNUNG ALIP",
  "name": "BANJAR NEGERI",
  "postalCode": "35683"
 },
 {
  "id": 1802043002,
  "districtId": 1802043,
  "districtName": "GUNUNG ALIP",
  "name": "CIHERANG",
  "postalCode": "35379"
 },
 {
  "id": 1802043003,
  "districtId": 1802043,
  "districtName": "GUNUNG ALIP",
  "name": "SUKARAJA",
  "postalCode": "21256"
 },
 {
  "id": 1802043004,
  "districtId": 1802043,
  "districtName": "GUNUNG ALIP",
  "name": "BANJAR AGUNG",
  "postalCode": "32211"
 },
 {
  "id": 1802043005,
  "districtId": 1802043,
  "districtName": "GUNUNG ALIP",
  "name": "KEDALOMAN",
  "postalCode": "35379"
 },
 {
  "id": 1802043006,
  "districtId": 1802043,
  "districtName": "GUNUNG ALIP",
  "name": "SUKABANJAR",
  "postalCode": "35366"
 },
 {
  "id": 1802043007,
  "districtId": 1802043,
  "districtName": "GUNUNG ALIP",
  "name": "SUKAMERNAH",
  "postalCode": ""
 },
 {
  "id": 1802043008,
  "districtId": 1802043,
  "districtName": "GUNUNG ALIP",
  "name": "PARIAMAN",
  "postalCode": "35379"
 },
 {
  "id": 1802043009,
  "districtId": 1802043,
  "districtName": "GUNUNG ALIP",
  "name": "SUKADAMAI",
  "postalCode": "24373"
 },
 {
  "id": 1802043010,
  "districtId": 1802043,
  "districtName": "GUNUNG ALIP",
  "name": "WAY HALOM",
  "postalCode": "32361"
 },
 {
  "id": 1802043011,
  "districtId": 1802043,
  "districtName": "GUNUNG ALIP",
  "name": "PENANGGUNGAN",
  "postalCode": "32278"
 },
 {
  "id": 1802043012,
  "districtId": 1802043,
  "districtName": "GUNUNG ALIP",
  "name": "DARUS SALAM",
  "postalCode": ""
 }
]