[
 {
  "id": 1803091001,
  "districtId": 1803091,
  "districtName": "MERBAU MATARAM",
  "name": "TANJUNG BARU",
  "postalCode": "22742"
 },
 {
  "id": 1803091002,
  "districtId": 1803091,
  "districtName": "MERBAU MATARAM",
  "name": "BARU RANJI",
  "postalCode": "35357"
 },
 {
  "id": 1803091003,
  "districtId": 1803091,
  "districtName": "MERBAU MATARAM",
  "name": "KARANG RAJA",
  "postalCode": "31311"
 },
 {
  "id": 1803091004,
  "districtId": 1803091,
  "districtName": "MERBAU MATARAM",
  "name": "MEKAR JAYA",
  "postalCode": "20771"
 },
 {
  "id": 1803091005,
  "districtId": 1803091,
  "districtName": "MERBAU MATARAM",
  "name": "SUBAN",
  "postalCode": "36552"
 },
 {
  "id": 1803091006,
  "districtId": 1803091,
  "districtName": "MERBAU MATARAM",
  "name": "MERBAU MATARAM",
  "postalCode": "35357"
 },
 {
  "id": 1803091007,
  "districtId": 1803091,
  "districtName": "MERBAU MATARAM",
  "name": "TRIHARJO",
  "postalCode": "35357"
 },
 {
  "id": 1803091008,
  "districtId": 1803091,
  "districtName": "MERBAU MATARAM",
  "name": "PANCA TUNGGAL",
  "postalCode": "32382"
 },
 {
  "id": 1803091009,
  "districtId": 1803091,
  "districtName": "MERBAU MATARAM",
  "name": "TALANG JAWA",
  "postalCode": "32122"
 },
 {
  "id": 1803091010,
  "districtId": 1803091,
  "districtName": "MERBAU MATARAM",
  "name": "LEBUNGSARI",
  "postalCode": "35357"
 },
 {
  "id": 1803091011,
  "districtId": 1803091,
  "districtName": "MERBAU MATARAM",
  "name": "PUJIRAHAYU",
  "postalCode": "35357"
 },
 {
  "id": 1803091012,
  "districtId": 1803091,
  "districtName": "MERBAU MATARAM",
  "name": "BATUAGUNG",
  "postalCode": "35357"
 },
 {
  "id": 1803091013,
  "districtId": 1803091,
  "districtName": "MERBAU MATARAM",
  "name": "SINAR KARYA",
  "postalCode": "35357"
 },
 {
  "id": 1803091014,
  "districtId": 1803091,
  "districtName": "MERBAU MATARAM",
  "name": "TANJUNG HARAPAN",
  "postalCode": "23754"
 },
 {
  "id": 1803091015,
  "districtId": 1803091,
  "districtName": "MERBAU MATARAM",
  "name": "KARANG JAYA",
  "postalCode": "32383"
 }
]