[
 {
  "id": 1803111001,
  "districtId": 1803111,
  "districtName": "RAJABASA",
  "name": "TEJANG PULAU SEBESI",
  "postalCode": "35552"
 },
 {
  "id": 1803111002,
  "districtId": 1803111,
  "districtName": "RAJABASA",
  "name": "HARGO PANCORAN",
  "postalCode": "35552"
 },
 {
  "id": 1803111003,
  "districtId": 1803111,
  "districtName": "RAJABASA",
  "name": "KERINJING",
  "postalCode": "30661"
 },
 {
  "id": 1803111004,
  "districtId": 1803111,
  "districtName": "RAJABASA",
  "name": "CUGUNG",
  "postalCode": "35552"
 },
 {
  "id": 1803111005,
  "districtId": 1803111,
  "districtName": "RAJABASA",
  "name": "BATU BALAK",
  "postalCode": "35552"
 },
 {
  "id": 1803111006,
  "districtId": 1803111,
  "districtName": "RAJABASA",
  "name": "KUNJIR",
  "postalCode": ""
 },
 {
  "id": 1803111007,
  "districtId": 1803111,
  "districtName": "RAJABASA",
  "name": "WAYMULI",
  "postalCode": "35552"
 },
 {
  "id": 1803111008,
  "districtId": 1803111,
  "districtName": "RAJABASA",
  "name": "SUKARAJA",
  "postalCode": "21256"
 },
 {
  "id": 1803111009,
  "districtId": 1803111,
  "districtName": "RAJABASA",
  "name": "RAJABASA",
  "postalCode": "35144"
 },
 {
  "id": 1803111010,
  "districtId": 1803111,
  "districtName": "RAJABASA",
  "name": "BANDING",
  "postalCode": "35686"
 },
 {
  "id": 1803111011,
  "districtId": 1803111,
  "districtName": "RAJABASA",
  "name": "CANTI",
  "postalCode": "35552"
 },
 {
  "id": 1803111012,
  "districtId": 1803111,
  "districtName": "RAJABASA",
  "name": "CANGGUNG",
  "postalCode": "35552"
 },
 {
  "id": 1803111013,
  "districtId": 1803111,
  "districtName": "RAJABASA",
  "name": "BETUNG",
  "postalCode": "28382"
 },
 {
  "id": 1803111014,
  "districtId": 1803111,
  "districtName": "RAJABASA",
  "name": "TANJUNG GADING",
  "postalCode": "29352"
 },
 {
  "id": 1803111015,
  "districtId": 1803111,
  "districtName": "RAJABASA",
  "name": "KOTA GURING",
  "postalCode": "35552"
 },
 {
  "id": 1803111016,
  "districtId": 1803111,
  "districtName": "RAJABASA",
  "name": "WAI MULI TIMUR",
  "postalCode": "35552"
 }
]