[
 {
  "id": 1803081001,
  "districtId": 1803081,
  "districtName": "TANJUNG SARI",
  "name": "SIDOMUKTI",
  "postalCode": "21217"
 },
 {
  "id": 1803081002,
  "districtId": 1803081,
  "districtName": "TANJUNG SARI",
  "name": "WAWASAN",
  "postalCode": "35361"
 },
 {
  "id": 1803081003,
  "districtId": 1803081,
  "districtName": "TANJUNG SARI",
  "name": "BANGUNSARI",
  "postalCode": "35361"
 },
 {
  "id": 1803081004,
  "districtId": 1803081,
  "districtName": "TANJUNG SARI",
  "name": "MULYO SARI",
  "postalCode": "31657"
 },
 {
  "id": 1803081005,
  "districtId": 1803081,
  "districtName": "TANJUNG SARI",
  "name": "KERTOSARI",
  "postalCode": "31668"
 },
 {
  "id": 1803081006,
  "districtId": 1803081,
  "districtName": "TANJUNG SARI",
  "name": "WONODADI",
  "postalCode": "30959"
 },
 {
  "id": 1803081007,
  "districtId": 1803081,
  "districtName": "TANJUNG SARI",
  "name": "PURWODADI DALAM",
  "postalCode": "35361"
 },
 {
  "id": 1803081008,
  "districtId": 1803081,
  "districtName": "TANJUNG SARI",
  "name": "MALANG SARI",
  "postalCode": "35361"
 }
]