[
 {
  "id": 1803131001,
  "districtId": 1803131,
  "districtName": "KETAPANG",
  "name": "SUMUR",
  "postalCode": "31356"
 },
 {
  "id": 1803131002,
  "districtId": 1803131,
  "districtName": "KETAPANG",
  "name": "RUGUK",
  "postalCode": "35596"
 },
 {
  "id": 1803131003,
  "districtId": 1803131,
  "districtName": "KETAPANG",
  "name": "TRIDARMAYOGA",
  "postalCode": "35596"
 },
 {
  "id": 1803131004,
  "districtId": 1803131,
  "districtName": "KETAPANG",
  "name": "LEGUNDI",
  "postalCode": "35596"
 },
 {
  "id": 1803131005,
  "districtId": 1803131,
  "districtName": "KETAPANG",
  "name": "KETAPANG",
  "postalCode": "35596"
 },
 {
  "id": 1803131006,
  "districtId": 1803131,
  "districtName": "KETAPANG",
  "name": "BANGUN REJO",
  "postalCode": "21454"
 },
 {
  "id": 1803131007,
  "districtId": 1803131,
  "districtName": "KETAPANG",
  "name": "KARANG SARI",
  "postalCode": "21174"
 },
 {
  "id": 1803131008,
  "districtId": 1803131,
  "districtName": "KETAPANG",
  "name": "SRI PENDOWO",
  "postalCode": "34389"
 },
 {
  "id": 1803131009,
  "districtId": 1803131,
  "districtName": "KETAPANG",
  "name": "SUMBERNADI",
  "postalCode": "35596"
 },
 {
  "id": 1803131010,
  "districtId": 1803131,
  "districtName": "KETAPANG",
  "name": "TAMAN SARI",
  "postalCode": "21264"
 },
 {
  "id": 1803131011,
  "districtId": 1803131,
  "districtName": "KETAPANG",
  "name": "KEMUKUS",
  "postalCode": "35596"
 },
 {
  "id": 1803131012,
  "districtId": 1803131,
  "districtName": "KETAPANG",
  "name": "LEBUNG NALA",
  "postalCode": ""
 },
 {
  "id": 1803131013,
  "districtId": 1803131,
  "districtName": "KETAPANG",
  "name": "SIDOASIH",
  "postalCode": "35596"
 },
 {
  "id": 1803131014,
  "districtId": 1803131,
  "districtName": "KETAPANG",
  "name": "PEMATANG PASIR",
  "postalCode": "21333"
 },
 {
  "id": 1803131015,
  "districtId": 1803131,
  "districtName": "KETAPANG",
  "name": "BERUNDUNG",
  "postalCode": "35596"
 },
 {
  "id": 1803131016,
  "districtId": 1803131,
  "districtName": "KETAPANG",
  "name": "SIDOLUHUR",
  "postalCode": "34173"
 },
 {
  "id": 1803131017,
  "districtId": 1803131,
  "districtName": "KETAPANG",
  "name": "WAI SIDOMUKTI",
  "postalCode": "35596"
 }
]