[
 {
  "id": 1803100001,
  "districtId": 1803100,
  "districtName": "SIDOMULYO",
  "name": "SUAK",
  "postalCode": "35353"
 },
 {
  "id": 1803100002,
  "districtId": 1803100,
  "districtName": "SIDOMULYO",
  "name": "SIRING JAHA",
  "postalCode": "35353"
 },
 {
  "id": 1803100003,
  "districtId": 1803100,
  "districtName": "SIDOMULYO",
  "name": "BUDI DAYA",
  "postalCode": "35353"
 },
 {
  "id": 1803100004,
  "districtId": 1803100,
  "districtName": "SIDOMULYO",
  "name": "SUKAMAJU",
  "postalCode": "22465"
 },
 {
  "id": 1803100005,
  "districtId": 1803100,
  "districtName": "SIDOMULYO",
  "name": "SUKAMARGA",
  "postalCode": "32274"
 },
 {
  "id": 1803100006,
  "districtId": 1803100,
  "districtName": "SIDOMULYO",
  "name": "SIDOWALUYO",
  "postalCode": "32386"
 },
 {
  "id": 1803100012,
  "districtId": 1803100,
  "districtName": "SIDOMULYO",
  "name": "SIDOREJO",
  "postalCode": "24784"
 },
 {
  "id": 1803100013,
  "districtId": 1803100,
  "districtName": "SIDOMULYO",
  "name": "SIDODADI",
  "postalCode": "24582"
 },
 {
  "id": 1803100014,
  "districtId": 1803100,
  "districtName": "SIDOMULYO",
  "name": "SELORETNO",
  "postalCode": ""
 },
 {
  "id": 1803100015,
  "districtId": 1803100,
  "districtName": "SIDOMULYO",
  "name": "KOTA DALAM",
  "postalCode": "32276"
 },
 {
  "id": 1803100016,
  "districtId": 1803100,
  "districtName": "SIDOMULYO",
  "name": "SUKABANJAR",
  "postalCode": "35366"
 },
 {
  "id": 1803100017,
  "districtId": 1803100,
  "districtName": "SIDOMULYO",
  "name": "TALANG BARU",
  "postalCode": "32277"
 },
 {
  "id": 1803100018,
  "districtId": 1803100,
  "districtName": "SIDOMULYO",
  "name": "BANDAR DALAM",
  "postalCode": "34883"
 },
 {
  "id": 1803100019,
  "districtId": 1803100,
  "districtName": "SIDOMULYO",
  "name": "CAMPANG TIGA",
  "postalCode": "34872"
 },
 {
  "id": 1803100020,
  "districtId": 1803100,
  "districtName": "SIDOMULYO",
  "name": "SIDOMULYO",
  "postalCode": "21455"
 },
 {
  "id": 1803100021,
  "districtId": 1803100,
  "districtName": "SIDOMULYO",
  "name": "BANJAR SURI",
  "postalCode": "35353"
 }
]