[
 {
  "id": 1804040001,
  "districtId": 1804040,
  "districtName": "MARGATIGA",
  "name": "JAYA GUNA",
  "postalCode": "34386"
 },
 {
  "id": 1804040002,
  "districtId": 1804040,
  "districtName": "MARGATIGA",
  "name": "SUKARAJA TIGA",
  "postalCode": "34386"
 },
 {
  "id": 1804040003,
  "districtId": 1804040,
  "districtName": "MARGATIGA",
  "name": "GEDUNG WANI",
  "postalCode": "32278"
 },
 {
  "id": 1804040004,
  "districtId": 1804040,
  "districtName": "MARGATIGA",
  "name": "GEDUNG WANI TIMUR",
  "postalCode": "34386"
 },
 {
  "id": 1804040005,
  "districtId": 1804040,
  "districtName": "MARGATIGA",
  "name": "SURYA MATARAM",
  "postalCode": "34386"
 },
 {
  "id": 1804040006,
  "districtId": 1804040,
  "districtName": "MARGATIGA",
  "name": "NABANG BARU",
  "postalCode": "34386"
 },
 {
  "id": 1804040007,
  "districtId": 1804040,
  "districtName": "MARGATIGA",
  "name": "NEGERI JEMANTEN",
  "postalCode": "34386"
 },
 {
  "id": 1804040008,
  "districtId": 1804040,
  "districtName": "MARGATIGA",
  "name": "NEGERI AGUNG",
  "postalCode": "32367"
 },
 {
  "id": 1804040009,
  "districtId": 1804040,
  "districtName": "MARGATIGA",
  "name": "NEGERI KATON",
  "postalCode": "34386"
 },
 {
  "id": 1804040010,
  "districtId": 1804040,
  "districtName": "MARGATIGA",
  "name": "SUKADANA BARU",
  "postalCode": "34386"
 },
 {
  "id": 1804040011,
  "districtId": 1804040,
  "districtName": "MARGATIGA",
  "name": "TANJUNG HARAPAN",
  "postalCode": "23754"
 },
 {
  "id": 1804040012,
  "districtId": 1804040,
  "districtName": "MARGATIGA",
  "name": "NEGERI TUA",
  "postalCode": "34386"
 },
 {
  "id": 1804040013,
  "districtId": 1804040,
  "districtName": "MARGATIGA",
  "name": "TRI SINAR",
  "postalCode": ""
 }
]