[
 {
  "id": 1804100001,
  "districtId": 1804100,
  "districtName": "PEKALONGAN",
  "name": "ADIREJO",
  "postalCode": "39125"
 },
 {
  "id": 1804100002,
  "districtId": 1804100,
  "districtName": "PEKALONGAN",
  "name": "SIDODADI",
  "postalCode": "24582"
 },
 {
  "id": 1804100003,
  "districtId": 1804100,
  "districtName": "PEKALONGAN",
  "name": "GONDANG REJO",
  "postalCode": "34391"
 },
 {
  "id": 1804100004,
  "districtId": 1804100,
  "districtName": "PEKALONGAN",
  "name": "SIRAMAN",
  "postalCode": "34391"
 },
 {
  "id": 1804100005,
  "districtId": 1804100,
  "districtName": "PEKALONGAN",
  "name": "PEKALONGAN",
  "postalCode": "39371"
 },
 {
  "id": 1804100006,
  "districtId": 1804100,
  "districtName": "PEKALONGAN",
  "name": "TULUS REJO",
  "postalCode": "34391"
 },
 {
  "id": 1804100007,
  "districtId": 1804100,
  "districtName": "PEKALONGAN",
  "name": "JOJOG",
  "postalCode": "34391"
 },
 {
  "id": 1804100008,
  "districtId": 1804100,
  "districtName": "PEKALONGAN",
  "name": "GANTI WARNO",
  "postalCode": "32385"
 },
 {
  "id": 1804100009,
  "districtId": 1804100,
  "districtName": "PEKALONGAN",
  "name": "KALI BENING",
  "postalCode": "31662"
 },
 {
  "id": 1804100010,
  "districtId": 1804100,
  "districtName": "PEKALONGAN",
  "name": "WONO SARI",
  "postalCode": "24478"
 },
 {
  "id": 1804100011,
  "districtId": 1804100,
  "districtName": "PEKALONGAN",
  "name": "ADIJAYA",
  "postalCode": "34391"
 },
 {
  "id": 1804100012,
  "districtId": 1804100,
  "districtName": "PEKALONGAN",
  "name": "GANTIMULYO",
  "postalCode": "34391"
 }
]