[
 {
  "id": 1805020002,
  "districtId": 1805020,
  "districtName": "KALIREJO",
  "name": "SRI WAY LANGSEP",
  "postalCode": "34174"
 },
 {
  "id": 1805020003,
  "districtId": 1805020,
  "districtName": "KALIREJO",
  "name": "WAYAKROY",
  "postalCode": "34174"
 },
 {
  "id": 1805020004,
  "districtId": 1805020,
  "districtName": "KALIREJO",
  "name": "KALI REJO",
  "postalCode": "34174"
 },
 {
  "id": 1805020005,
  "districtId": 1805020,
  "districtName": "KALIREJO",
  "name": "BALAI REJO",
  "postalCode": "34174"
 },
 {
  "id": 1805020006,
  "districtId": 1805020,
  "districtName": "KALIREJO",
  "name": "SRI BASUKI",
  "postalCode": "34381"
 },
 {
  "id": 1805020007,
  "districtId": 1805020,
  "districtName": "KALIREJO",
  "name": "KALI WUNGU",
  "postalCode": "34174"
 },
 {
  "id": 1805020008,
  "districtId": 1805020,
  "districtName": "KALIREJO",
  "name": "KALI DADI",
  "postalCode": "34174"
 },
 {
  "id": 1805020017,
  "districtId": 1805020,
  "districtName": "KALIREJO",
  "name": "SRI MULYO",
  "postalCode": "30752"
 },
 {
  "id": 1805020018,
  "districtId": 1805020,
  "districtName": "KALIREJO",
  "name": "SRI DADI",
  "postalCode": "34174"
 },
 {
  "id": 1805020019,
  "districtId": 1805020,
  "districtName": "KALIREJO",
  "name": "SUKOSARI",
  "postalCode": "32382"
 },
 {
  "id": 1805020020,
  "districtId": 1805020,
  "districtName": "KALIREJO",
  "name": "WATU AGUNG",
  "postalCode": "34174"
 },
 {
  "id": 1805020021,
  "districtId": 1805020,
  "districtName": "KALIREJO",
  "name": "SINAR SARI",
  "postalCode": "34174"
 },
 {
  "id": 1805020022,
  "districtId": 1805020,
  "districtName": "KALIREJO",
  "name": "PONCO WARNO",
  "postalCode": "34174"
 },
 {
  "id": 1805020023,
  "districtId": 1805020,
  "districtName": "KALIREJO",
  "name": "SRI PURNOMO",
  "postalCode": "34174"
 },
 {
  "id": 1805020024,
  "districtId": 1805020,
  "districtName": "KALIREJO",
  "name": "AGUNG TIMUR",
  "postalCode": "34174"
 },
 {
  "id": 1805020025,
  "districtId": 1805020,
  "districtName": "KALIREJO",
  "name": "SINAR REJO",
  "postalCode": "34174"
 },
 {
  "id": 1805020026,
  "districtId": 1805020,
  "districtName": "KALIREJO",
  "name": "KALI SARI",
  "postalCode": "35362"
 }
]