[
 {
  "id": 1805120006,
  "districtId": 1805120,
  "districtName": "RUMBIA",
  "name": "BINA KARYA BUANA",
  "postalCode": "34157"
 },
 {
  "id": 1805120007,
  "districtId": 1805120,
  "districtName": "RUMBIA",
  "name": "BINAKARYA PUTRA",
  "postalCode": "34157"
 },
 {
  "id": 1805120009,
  "districtId": 1805120,
  "districtName": "RUMBIA",
  "name": "RUKTI BASUKI",
  "postalCode": "34157"
 },
 {
  "id": 1805120010,
  "districtId": 1805120,
  "districtName": "RUMBIA",
  "name": "RESTU BARU",
  "postalCode": "34157"
 },
 {
  "id": 1805120011,
  "districtId": 1805120,
  "districtName": "RUMBIA",
  "name": "RESTU BUANA",
  "postalCode": "34157"
 },
 {
  "id": 1805120013,
  "districtId": 1805120,
  "districtName": "RUMBIA",
  "name": "RENO BASUKI",
  "postalCode": "34157"
 },
 {
  "id": 1805120014,
  "districtId": 1805120,
  "districtName": "RUMBIA",
  "name": "REKSO BINANGUN",
  "postalCode": "34157"
 },
 {
  "id": 1805120015,
  "districtId": 1805120,
  "districtName": "RUMBIA",
  "name": "TELUK DALEM ILIR",
  "postalCode": "34157"
 },
 {
  "id": 1805120016,
  "districtId": 1805120,
  "districtName": "RUMBIA",
  "name": "BINA KARYA MANDIRI",
  "postalCode": ""
 }
]