[
 {
  "id": 1805070001,
  "districtId": 1805070,
  "districtName": "SEPUTIH RAMAN",
  "name": "REJO BASUKI",
  "postalCode": "34155"
 },
 {
  "id": 1805070002,
  "districtId": 1805070,
  "districtName": "SEPUTIH RAMAN",
  "name": "REJO ASRI",
  "postalCode": "34155"
 },
 {
  "id": 1805070003,
  "districtId": 1805070,
  "districtName": "SEPUTIH RAMAN",
  "name": "RUKTI ENDAH",
  "postalCode": "34155"
 },
 {
  "id": 1805070004,
  "districtId": 1805070,
  "districtName": "SEPUTIH RAMAN",
  "name": "RAMA GUNAWAN",
  "postalCode": "34155"
 },
 {
  "id": 1805070005,
  "districtId": 1805070,
  "districtName": "SEPUTIH RAMAN",
  "name": "RAMA DEWA",
  "postalCode": "34155"
 },
 {
  "id": 1805070006,
  "districtId": 1805070,
  "districtName": "SEPUTIH RAMAN",
  "name": "RATNA KHATON",
  "postalCode": "34155"
 },
 {
  "id": 1805070007,
  "districtId": 1805070,
  "districtName": "SEPUTIH RAMAN",
  "name": "RAMAYANA",
  "postalCode": "34155"
 },
 {
  "id": 1805070008,
  "districtId": 1805070,
  "districtName": "SEPUTIH RAMAN",
  "name": "RAMA INDERA",
  "postalCode": "34155"
 },
 {
  "id": 1805070009,
  "districtId": 1805070,
  "districtName": "SEPUTIH RAMAN",
  "name": "RUKTI HARJO",
  "postalCode": "34155"
 },
 {
  "id": 1805070010,
  "districtId": 1805070,
  "districtName": "SEPUTIH RAMAN",
  "name": "RAMA MURTI",
  "postalCode": "34155"
 },
 {
  "id": 1805070011,
  "districtId": 1805070,
  "districtName": "SEPUTIH RAMAN",
  "name": "RAMA UTAMA",
  "postalCode": ""
 },
 {
  "id": 1805070012,
  "districtId": 1805070,
  "districtName": "SEPUTIH RAMAN",
  "name": "RAMA NIRWANA",
  "postalCode": "34155"
 },
 {
  "id": 1805070013,
  "districtId": 1805070,
  "districtName": "SEPUTIH RAMAN",
  "name": "BUYUT BARU",
  "postalCode": "34155"
 },
 {
  "id": 1805070014,
  "districtId": 1805070,
  "districtName": "SEPUTIH RAMAN",
  "name": "RAMA KELANDUNGAN",
  "postalCode": "34155"
 }
]