[
 {
  "id": 1805021001,
  "districtId": 1805021,
  "districtName": "SENDANG AGUNG",
  "name": "SENDANG MULYO",
  "postalCode": "34174"
 },
 {
  "id": 1805021002,
  "districtId": 1805021,
  "districtName": "SENDANG AGUNG",
  "name": "SENDANG REJO",
  "postalCode": "20761"
 },
 {
  "id": 1805021003,
  "districtId": 1805021,
  "districtName": "SENDANG AGUNG",
  "name": "SENDANG AGUNG",
  "postalCode": "34174"
 },
 {
  "id": 1805021004,
  "districtId": 1805021,
  "districtName": "SENDANG AGUNG",
  "name": "SENDANG RETNO",
  "postalCode": "34174"
 },
 {
  "id": 1805021005,
  "districtId": 1805021,
  "districtName": "SENDANG AGUNG",
  "name": "SENDANG BARU",
  "postalCode": "34174"
 },
 {
  "id": 1805021006,
  "districtId": 1805021,
  "districtName": "SENDANG AGUNG",
  "name": "SENDANG ASIH",
  "postalCode": "34174"
 },
 {
  "id": 1805021007,
  "districtId": 1805021,
  "districtName": "SENDANG AGUNG",
  "name": "SENDANG ASRI",
  "postalCode": ""
 },
 {
  "id": 1805021008,
  "districtId": 1805021,
  "districtName": "SENDANG AGUNG",
  "name": "SENDANG MUKTI",
  "postalCode": "34174"
 },
 {
  "id": 1805021009,
  "districtId": 1805021,
  "districtName": "SENDANG AGUNG",
  "name": "KUTOWINANGUN",
  "postalCode": "34174"
 }
]