[
 {
  "id": 1805060001,
  "districtId": 1805060,
  "districtName": "PUNGGUR",
  "name": "NUNGGAL REJO",
  "postalCode": "34152"
 },
 {
  "id": 1805060002,
  "districtId": 1805060,
  "districtName": "PUNGGUR",
  "name": "BADRAN SARI",
  "postalCode": "34152"
 },
 {
  "id": 1805060003,
  "districtId": 1805060,
  "districtName": "PUNGGUR",
  "name": "SRI SAWAHAN",
  "postalCode": "34152"
 },
 {
  "id": 1805060007,
  "districtId": 1805060,
  "districtName": "PUNGGUR",
  "name": "TOTO KATON",
  "postalCode": "34683"
 },
 {
  "id": 1805060008,
  "districtId": 1805060,
  "districtName": "PUNGGUR",
  "name": "TANGGUL ANGIN",
  "postalCode": "34152"
 },
 {
  "id": 1805060009,
  "districtId": 1805060,
  "districtName": "PUNGGUR",
  "name": "NGESTI RAHAYU",
  "postalCode": "34152"
 },
 {
  "id": 1805060010,
  "districtId": 1805060,
  "districtName": "PUNGGUR",
  "name": "MOJO PAHIT",
  "postalCode": "34152"
 },
 {
  "id": 1805060011,
  "districtId": 1805060,
  "districtName": "PUNGGUR",
  "name": "ASTO MULYO",
  "postalCode": "34152"
 },
 {
  "id": 1805060012,
  "districtId": 1805060,
  "districtName": "PUNGGUR",
  "name": "SIDO MULYO",
  "postalCode": "24371"
 }
]