[
 {
  "id": 1805122001,
  "districtId": 1805122,
  "districtName": "PUTRA RUMBIA",
  "name": "JOHARAN",
  "postalCode": "34157"
 },
 {
  "id": 1805122002,
  "districtId": 1805122,
  "districtName": "PUTRA RUMBIA",
  "name": "RANTAU JAYA ILIR",
  "postalCode": "34157"
 },
 {
  "id": 1805122003,
  "districtId": 1805122,
  "districtName": "PUTRA RUMBIA",
  "name": "BINA KARYA SAKTI",
  "postalCode": "34157"
 },
 {
  "id": 1805122004,
  "districtId": 1805122,
  "districtName": "PUTRA RUMBIA",
  "name": "BINA KARYA JAYA",
  "postalCode": "34157"
 },
 {
  "id": 1805122005,
  "districtId": 1805122,
  "districtName": "PUTRA RUMBIA",
  "name": "BINA KARYA UTAMA",
  "postalCode": "34157"
 },
 {
  "id": 1805122006,
  "districtId": 1805122,
  "districtName": "PUTRA RUMBIA",
  "name": "RANTAU JAYA BARU",
  "postalCode": "34157"
 },
 {
  "id": 1805122007,
  "districtId": 1805122,
  "districtName": "PUTRA RUMBIA",
  "name": "MERANGGI JAYA",
  "postalCode": ""
 },
 {
  "id": 1805122008,
  "districtId": 1805122,
  "districtName": "PUTRA RUMBIA",
  "name": "MEKAR JAYA",
  "postalCode": "20771"
 },
 {
  "id": 1805122009,
  "districtId": 1805122,
  "districtName": "PUTRA RUMBIA",
  "name": "BINA KARYA BARU",
  "postalCode": ""
 },
 {
  "id": 1805122010,
  "districtId": 1805122,
  "districtName": "PUTRA RUMBIA",
  "name": "RANTAU JAYA MAKMUR",
  "postalCode": "34157"
 }
]