[
 {
  "id": 1805042001,
  "districtId": 1805042,
  "districtName": "BUMI RATU NUBAN",
  "name": "SUKAJAWA",
  "postalCode": "34161"
 },
 {
  "id": 1805042002,
  "districtId": 1805042,
  "districtName": "BUMI RATU NUBAN",
  "name": "SIDOKERTO",
  "postalCode": "34161"
 },
 {
  "id": 1805042003,
  "districtId": 1805042,
  "districtName": "BUMI RATU NUBAN",
  "name": "SUKAJADI",
  "postalCode": "24472"
 },
 {
  "id": 1805042004,
  "districtId": 1805042,
  "districtName": "BUMI RATU NUBAN",
  "name": "WATES",
  "postalCode": "32273"
 },
 {
  "id": 1805042005,
  "districtId": 1805042,
  "districtName": "BUMI RATU NUBAN",
  "name": "BUMIRATU",
  "postalCode": "34161"
 },
 {
  "id": 1805042006,
  "districtId": 1805042,
  "districtName": "BUMI RATU NUBAN",
  "name": "BUMIRAHARJO",
  "postalCode": "34161"
 },
 {
  "id": 1805042007,
  "districtId": 1805042,
  "districtName": "BUMI RATU NUBAN",
  "name": "BUMIRAHAYU",
  "postalCode": "34161"
 },
 {
  "id": 1805042008,
  "districtId": 1805042,
  "districtName": "BUMI RATU NUBAN",
  "name": "SIDOWARAS",
  "postalCode": "34161"
 },
 {
  "id": 1805042009,
  "districtId": 1805042,
  "districtName": "BUMI RATU NUBAN",
  "name": "BULUSARI",
  "postalCode": "34161"
 },
 {
  "id": 1805042010,
  "districtId": 1805042,
  "districtName": "BUMI RATU NUBAN",
  "name": "TULUNG KAKAN",
  "postalCode": ""
 }
]