[
 {
  "id": 1806042001,
  "districtId": 1806042,
  "districtName": "KOTABUMI SELATAN",
  "name": "TAMAN JAYA",
  "postalCode": "34511"
 },
 {
  "id": 1806042002,
  "districtId": 1806042,
  "districtName": "KOTABUMI SELATAN",
  "name": "JERANGKANG",
  "postalCode": "34511"
 },
 {
  "id": 1806042003,
  "districtId": 1806042,
  "districtName": "KOTABUMI SELATAN",
  "name": "WAY MELAN",
  "postalCode": "34511"
 },
 {
  "id": 1806042004,
  "districtId": 1806042,
  "districtName": "KOTABUMI SELATAN",
  "name": "BANDAR PUTIH",
  "postalCode": "34511"
 },
 {
  "id": 1806042005,
  "districtId": 1806042,
  "districtName": "KOTABUMI SELATAN",
  "name": "KARANG AGUNG",
  "postalCode": "31315"
 },
 {
  "id": 1806042006,
  "districtId": 1806042,
  "districtName": "KOTABUMI SELATAN",
  "name": "MULANG MAYA",
  "postalCode": "34883"
 },
 {
  "id": 1806042007,
  "districtId": 1806042,
  "districtName": "KOTABUMI SELATAN",
  "name": "CURUP GURUH KAGUNGAN",
  "postalCode": "34511"
 },
 {
  "id": 1806042008,
  "districtId": 1806042,
  "districtName": "KOTABUMI SELATAN",
  "name": "KOTA ALAM",
  "postalCode": "34519"
 },
 {
  "id": 1806042009,
  "districtId": 1806042,
  "districtName": "KOTABUMI SELATAN",
  "name": "KELAPA TUJUH",
  "postalCode": "34513"
 },
 {
  "id": 1806042010,
  "districtId": 1806042,
  "districtName": "KOTABUMI SELATAN",
  "name": "TANJUNG AMAN",
  "postalCode": "24653"
 },
 {
  "id": 1806042011,
  "districtId": 1806042,
  "districtName": "KOTABUMI SELATAN",
  "name": "TANJUNG SENANG",
  "postalCode": "34511"
 },
 {
  "id": 1806042012,
  "districtId": 1806042,
  "districtName": "KOTABUMI SELATAN",
  "name": "TANJUNG HARAPAN",
  "postalCode": "23754"
 },
 {
  "id": 1806042013,
  "districtId": 1806042,
  "districtName": "KOTABUMI SELATAN",
  "name": "ALAM JAYA",
  "postalCode": "24553"
 },
 {
  "id": 1806042014,
  "districtId": 1806042,
  "districtName": "KOTABUMI SELATAN",
  "name": "SINAR MAS ALAM",
  "postalCode": "34511"
 }
]