[
 {
  "id": 1806070011,
  "districtId": 1806070,
  "districtName": "SUNGKAI SELATAN",
  "name": "BUMI RATU",
  "postalCode": "34764"
 },
 {
  "id": 1806070014,
  "districtId": 1806070,
  "districtName": "SUNGKAI SELATAN",
  "name": "SIRNA GALIH",
  "postalCode": "34554"
 },
 {
  "id": 1806070015,
  "districtId": 1806070,
  "districtName": "SUNGKAI SELATAN",
  "name": "LABUHAN RATU PASAR",
  "postalCode": "34554"
 },
 {
  "id": 1806070016,
  "districtId": 1806070,
  "districtName": "SUNGKAI SELATAN",
  "name": "LABUHAN RATU KAMPUNG",
  "postalCode": ""
 },
 {
  "id": 1806070017,
  "districtId": 1806070,
  "districtName": "SUNGKAI SELATAN",
  "name": "GEDUNG KETAPANG",
  "postalCode": "34554"
 },
 {
  "id": 1806070018,
  "districtId": 1806070,
  "districtName": "SUNGKAI SELATAN",
  "name": "BANJAR KETAPANG",
  "postalCode": "34554"
 },
 {
  "id": 1806070019,
  "districtId": 1806070,
  "districtName": "SUNGKAI SELATAN",
  "name": "KOTA AGUNG",
  "postalCode": "31462"
 },
 {
  "id": 1806070020,
  "districtId": 1806070,
  "districtName": "SUNGKAI SELATAN",
  "name": "KETAPANG",
  "postalCode": "35596"
 },
 {
  "id": 1806070021,
  "districtId": 1806070,
  "districtName": "SUNGKAI SELATAN",
  "name": "KARANG REJO",
  "postalCode": "24581"
 },
 {
  "id": 1806070022,
  "districtId": 1806070,
  "districtName": "SUNGKAI SELATAN",
  "name": "SIDODADI",
  "postalCode": "24582"
 },
 {
  "id": 1806070023,
  "districtId": 1806070,
  "districtName": "SUNGKAI SELATAN",
  "name": "GUNUNG LABUHAN",
  "postalCode": "34768"
 }
]