[
 {
  "id": 1806073001,
  "districtId": 1806073,
  "districtName": "SUNGKAI  BARAT",
  "name": "COMOK SINAR JAYA",
  "postalCode": "34558"
 },
 {
  "id": 1806073002,
  "districtId": 1806073,
  "districtName": "SUNGKAI  BARAT",
  "name": "WAY ISEM",
  "postalCode": "34558"
 },
 {
  "id": 1806073003,
  "districtId": 1806073,
  "districtName": "SUNGKAI  BARAT",
  "name": "SINAR HARAPAN",
  "postalCode": "30756"
 },
 {
  "id": 1806073004,
  "districtId": 1806073,
  "districtName": "SUNGKAI  BARAT",
  "name": "CAHAYA MAS",
  "postalCode": "30681"
 },
 {
  "id": 1806073005,
  "districtId": 1806073,
  "districtName": "SUNGKAI  BARAT",
  "name": "GUNUNG MAKNIBAI",
  "postalCode": "34558"
 },
 {
  "id": 1806073006,
  "districtId": 1806073,
  "districtName": "SUNGKAI  BARAT",
  "name": "NEGERI SAKTI",
  "postalCode": "30656"
 },
 {
  "id": 1806073007,
  "districtId": 1806073,
  "districtName": "SUNGKAI  BARAT",
  "name": "GUNUNG RAJA",
  "postalCode": "31173"
 },
 {
  "id": 1806073008,
  "districtId": 1806073,
  "districtName": "SUNGKAI  BARAT",
  "name": "KUBUHITU",
  "postalCode": "34554"
 },
 {
  "id": 1806073009,
  "districtId": 1806073,
  "districtName": "SUNGKAI  BARAT",
  "name": "TANJUNG JAYA",
  "postalCode": "32265"
 },
 {
  "id": 1806073010,
  "districtId": 1806073,
  "districtName": "SUNGKAI  BARAT",
  "name": "NEGERI BATIN JAYA",
  "postalCode": "34558"
 }
]