[
 {
  "id": 1806033001,
  "districtId": 1806033,
  "districtName": "ABUNG PEKURUN",
  "name": "CAMPANG GIJUL",
  "postalCode": "34582"
 },
 {
  "id": 1806033002,
  "districtId": 1806033,
  "districtName": "ABUNG PEKURUN",
  "name": "NYAPAH BANYU",
  "postalCode": "34582"
 },
 {
  "id": 1806033003,
  "districtId": 1806033,
  "districtName": "ABUNG PEKURUN",
  "name": "SINAR GUNUNG",
  "postalCode": "39153"
 },
 {
  "id": 1806033004,
  "districtId": 1806033,
  "districtName": "ABUNG PEKURUN",
  "name": "OGAN CAMPANG",
  "postalCode": "34582"
 },
 {
  "id": 1806033005,
  "districtId": 1806033,
  "districtName": "ABUNG PEKURUN",
  "name": "SUMBER TANI",
  "postalCode": "21254"
 },
 {
  "id": 1806033006,
  "districtId": 1806033,
  "districtName": "ABUNG PEKURUN",
  "name": "OGAN JAYA",
  "postalCode": "34582"
 },
 {
  "id": 1806033007,
  "districtId": 1806033,
  "districtName": "ABUNG PEKURUN",
  "name": "PEKURUN UDIK",
  "postalCode": "34582"
 },
 {
  "id": 1806033008,
  "districtId": 1806033,
  "districtName": "ABUNG PEKURUN",
  "name": "PEKURUN TENGAH",
  "postalCode": "34582"
 },
 {
  "id": 1806033009,
  "districtId": 1806033,
  "districtName": "ABUNG PEKURUN",
  "name": "PEKURUN",
  "postalCode": "34582"
 }
]