[
 {
  "id": 1806020001,
  "districtId": 1806020,
  "districtName": "TANJUNG RAJA",
  "name": "TULUNG BALAK",
  "postalCode": "34372"
 },
 {
  "id": 1806020002,
  "districtId": 1806020,
  "districtName": "TANJUNG RAJA",
  "name": "SUKA MULYA",
  "postalCode": "28463"
 },
 {
  "id": 1806020003,
  "districtId": 1806020,
  "districtName": "TANJUNG RAJA",
  "name": "GUNUNG KATON",
  "postalCode": "34557"
 },
 {
  "id": 1806020004,
  "districtId": 1806020,
  "districtName": "TANJUNG RAJA",
  "name": "KARANG WARINGIN",
  "postalCode": "34557"
 },
 {
  "id": 1806020005,
  "districtId": 1806020,
  "districtName": "TANJUNG RAJA",
  "name": "SUKASARI",
  "postalCode": "20986"
 },
 {
  "id": 1806020006,
  "districtId": 1806020,
  "districtName": "TANJUNG RAJA",
  "name": "SIDO MULYO",
  "postalCode": "24371"
 },
 {
  "id": 1806020007,
  "districtId": 1806020,
  "districtName": "TANJUNG RAJA",
  "name": "TANJUNG BERINGIN",
  "postalCode": "22161"
 },
 {
  "id": 1806020008,
  "districtId": 1806020,
  "districtName": "TANJUNG RAJA",
  "name": "MERAMBUNG",
  "postalCode": "38571"
 },
 {
  "id": 1806020009,
  "districtId": 1806020,
  "districtName": "TANJUNG RAJA",
  "name": "SINAR JAYA",
  "postalCode": "30757"
 },
 {
  "id": 1806020010,
  "districtId": 1806020,
  "districtName": "TANJUNG RAJA",
  "name": "SINDANG AGUNG",
  "postalCode": "34557"
 },
 {
  "id": 1806020011,
  "districtId": 1806020,
  "districtName": "TANJUNG RAJA",
  "name": "MEKAR JAYA",
  "postalCode": "20771"
 },
 {
  "id": 1806020012,
  "districtId": 1806020,
  "districtName": "TANJUNG RAJA",
  "name": "SRI MENANTI",
  "postalCode": "32265"
 },
 {
  "id": 1806020013,
  "districtId": 1806020,
  "districtName": "TANJUNG RAJA",
  "name": "TANJUNG RAJA",
  "postalCode": "20582"
 },
 {
  "id": 1806020014,
  "districtId": 1806020,
  "districtName": "TANJUNG RAJA",
  "name": "TANJUNG RIANG",
  "postalCode": "34557"
 },
 {
  "id": 1806020015,
  "districtId": 1806020,
  "districtName": "TANJUNG RAJA",
  "name": "KEMALA RAJA",
  "postalCode": "32111"
 },
 {
  "id": 1806020016,
  "districtId": 1806020,
  "districtName": "TANJUNG RAJA",
  "name": "ULAK ATA",
  "postalCode": "34557"
 },
 {
  "id": 1806020017,
  "districtId": 1806020,
  "districtName": "TANJUNG RAJA",
  "name": "SINDANG MARGA",
  "postalCode": "30756"
 },
 {
  "id": 1806020018,
  "districtId": 1806020,
  "districtName": "TANJUNG RAJA",
  "name": "SINAR MULYA",
  "postalCode": ""
 },
 {
  "id": 1806020019,
  "districtId": 1806020,
  "districtName": "TANJUNG RAJA",
  "name": "PRIANGAN BARU",
  "postalCode": ""
 }
]