[
 {
  "id": 1807061001,
  "districtId": 1807061,
  "districtName": "NEGARA BATIN",
  "name": "SETIA NEGARA",
  "postalCode": "21137"
 },
 {
  "id": 1807061002,
  "districtId": 1807061,
  "districtName": "NEGARA BATIN",
  "name": "PURWA AGUNG",
  "postalCode": "34769"
 },
 {
  "id": 1807061003,
  "districtId": 1807061,
  "districtName": "NEGARA BATIN",
  "name": "SRI MULYO",
  "postalCode": "30752"
 },
 {
  "id": 1807061004,
  "districtId": 1807061,
  "districtName": "NEGARA BATIN",
  "name": "SRI MENANTI",
  "postalCode": "32265"
 },
 {
  "id": 1807061005,
  "districtId": 1807061,
  "districtName": "NEGARA BATIN",
  "name": "NEGARA BATIN",
  "postalCode": "34384"
 },
 {
  "id": 1807061006,
  "districtId": 1807061,
  "districtName": "NEGARA BATIN",
  "name": "PURWA NEGARA",
  "postalCode": "34769"
 },
 {
  "id": 1807061007,
  "districtId": 1807061,
  "districtName": "NEGARA BATIN",
  "name": "MARGA JAYA",
  "postalCode": "38657"
 },
 {
  "id": 1807061008,
  "districtId": 1807061,
  "districtName": "NEGARA BATIN",
  "name": "KARTA JAYA",
  "postalCode": "34769"
 },
 {
  "id": 1807061009,
  "districtId": 1807061,
  "districtName": "NEGARA BATIN",
  "name": "GEDONG JAYA",
  "postalCode": ""
 },
 {
  "id": 1807061010,
  "districtId": 1807061,
  "districtName": "NEGARA BATIN",
  "name": "ADI JAYA",
  "postalCode": "36552"
 },
 {
  "id": 1807061011,
  "districtId": 1807061,
  "districtName": "NEGARA BATIN",
  "name": "SARI JAYA",
  "postalCode": "34769"
 },
 {
  "id": 1807061012,
  "districtId": 1807061,
  "districtName": "NEGARA BATIN",
  "name": "GISTING JAYA",
  "postalCode": "34769"
 },
 {
  "id": 1807061013,
  "districtId": 1807061,
  "districtName": "NEGARA BATIN",
  "name": "BUMI JAYA",
  "postalCode": "34583"
 },
 {
  "id": 1807061014,
  "districtId": 1807061,
  "districtName": "NEGARA BATIN",
  "name": "NEGARA MULYA",
  "postalCode": "34769"
 },
 {
  "id": 1807061015,
  "districtId": 1807061,
  "districtName": "NEGARA BATIN",
  "name": "KOTA JAWA",
  "postalCode": "34883"
 }
]