[
 {
  "id": 1808030007,
  "districtId": 1808030,
  "districtName": "BANJAR AGUNG",
  "name": "BANJAR AGUNG",
  "postalCode": "32211"
 },
 {
  "id": 1808030008,
  "districtId": 1808030,
  "districtName": "BANJAR AGUNG",
  "name": "TUNGGAL WARGA",
  "postalCode": "34682"
 },
 {
  "id": 1808030009,
  "districtId": 1808030,
  "districtName": "BANJAR AGUNG",
  "name": "DWI WARGA TUNGGAL JAYA",
  "postalCode": "34682"
 },
 {
  "id": 1808030010,
  "districtId": 1808030,
  "districtName": "BANJAR AGUNG",
  "name": "MORIS JAYA",
  "postalCode": "34682"
 },
 {
  "id": 1808030011,
  "districtId": 1808030,
  "districtName": "BANJAR AGUNG",
  "name": "TRI DHARMA WIRAJAYA",
  "postalCode": ""
 },
 {
  "id": 1808030012,
  "districtId": 1808030,
  "districtName": "BANJAR AGUNG",
  "name": "TRI MULYA JAYA",
  "postalCode": "28382"
 },
 {
  "id": 1808030013,
  "districtId": 1808030,
  "districtName": "BANJAR AGUNG",
  "name": "TRI MUKTI JAYA",
  "postalCode": "34682"
 },
 {
  "id": 1808030014,
  "districtId": 1808030,
  "districtName": "BANJAR AGUNG",
  "name": "TRI TUNGGAL JAYA",
  "postalCode": "34682"
 },
 {
  "id": 1808030015,
  "districtId": 1808030,
  "districtName": "BANJAR AGUNG",
  "name": "WARGA MAKMUR JAYA",
  "postalCode": "34682"
 },
 {
  "id": 1808030016,
  "districtId": 1808030,
  "districtName": "BANJAR AGUNG",
  "name": "WARGA INDAH JAYA",
  "postalCode": "34682"
 },
 {
  "id": 1808030017,
  "districtId": 1808030,
  "districtName": "BANJAR AGUNG",
  "name": "BANJAR DEWA",
  "postalCode": "34682"
 }
]