[
 {
  "id": 1808054001,
  "districtId": 1808054,
  "districtName": "RAWAJITU TIMUR",
  "name": "BUMI DIPASENA SENTOSA",
  "postalCode": "34596"
 },
 {
  "id": 1808054002,
  "districtId": 1808054,
  "districtName": "RAWAJITU TIMUR",
  "name": "BUMI DIPASENA UTAMA",
  "postalCode": "34596"
 },
 {
  "id": 1808054003,
  "districtId": 1808054,
  "districtName": "RAWAJITU TIMUR",
  "name": "BUMI DIPASENA AGUNG",
  "postalCode": "34596"
 },
 {
  "id": 1808054004,
  "districtId": 1808054,
  "districtName": "RAWAJITU TIMUR",
  "name": "BUMI DIPASENA JAYA",
  "postalCode": "34596"
 },
 {
  "id": 1808054005,
  "districtId": 1808054,
  "districtName": "RAWAJITU TIMUR",
  "name": "BUMI DIPASENA MULYA",
  "postalCode": "34596"
 },
 {
  "id": 1808054006,
  "districtId": 1808054,
  "districtName": "RAWAJITU TIMUR",
  "name": "BUMI DIPASENA MAKMUR",
  "postalCode": "34596"
 },
 {
  "id": 1808054007,
  "districtId": 1808054,
  "districtName": "RAWAJITU TIMUR",
  "name": "BUMI DIPASENA SEJAHTERA",
  "postalCode": "34596"
 },
 {
  "id": 1808054008,
  "districtId": 1808054,
  "districtName": "RAWAJITU TIMUR",
  "name": "BUMI DIPASENA ABADI",
  "postalCode": "34596"
 }
]