[
 {
  "id": 1808052003,
  "districtId": 1808052,
  "districtName": "RAWAJITU SELATAN",
  "name": "BUMI RATU",
  "postalCode": "34764"
 },
 {
  "id": 1808052004,
  "districtId": 1808052,
  "districtName": "RAWAJITU SELATAN",
  "name": "HARGO REJO",
  "postalCode": "34596"
 },
 {
  "id": 1808052005,
  "districtId": 1808052,
  "districtName": "RAWAJITU SELATAN",
  "name": "YUDHA KARYA JITU",
  "postalCode": "34596"
 },
 {
  "id": 1808052010,
  "districtId": 1808052,
  "districtName": "RAWAJITU SELATAN",
  "name": "KARYA JITU MUKTI",
  "postalCode": "34596"
 },
 {
  "id": 1808052011,
  "districtId": 1808052,
  "districtName": "RAWAJITU SELATAN",
  "name": "HARGO MULYO",
  "postalCode": "34596"
 },
 {
  "id": 1808052012,
  "districtId": 1808052,
  "districtName": "RAWAJITU SELATAN",
  "name": "WONO AGUNG",
  "postalCode": "34596"
 },
 {
  "id": 1808052013,
  "districtId": 1808052,
  "districtName": "RAWAJITU SELATAN",
  "name": "MEDASARI",
  "postalCode": ""
 },
 {
  "id": 1808052014,
  "districtId": 1808052,
  "districtName": "RAWAJITU SELATAN",
  "name": "GEDUNG KARYA JITU",
  "postalCode": "34596"
 },
 {
  "id": 1808052015,
  "districtId": 1808052,
  "districtName": "RAWAJITU SELATAN",
  "name": "KARYA CIPTA ABADI",
  "postalCode": "34596"
 }
]