[
 {
  "id": 1809031001,
  "districtId": 1809031,
  "districtName": "WAY KHILAU",
  "name": "BAYAS JAYA",
  "postalCode": "29261"
 },
 {
  "id": 1809031002,
  "districtId": 1809031,
  "districtName": "WAY KHILAU",
  "name": "PADANG CERMIN",
  "postalCode": "20762"
 },
 {
  "id": 1809031003,
  "districtId": 1809031,
  "districtName": "WAY KHILAU",
  "name": "SUKAJAYA",
  "postalCode": "30756"
 },
 {
  "id": 1809031004,
  "districtId": 1809031,
  "districtName": "WAY KHILAU",
  "name": "PENENGAHAN",
  "postalCode": "34878"
 },
 {
  "id": 1809031005,
  "districtId": 1809031,
  "districtName": "WAY KHILAU",
  "name": "TANJUNG KERTA",
  "postalCode": "35368"
 },
 {
  "id": 1809031006,
  "districtId": 1809031,
  "districtName": "WAY KHILAU",
  "name": "KOTAJAWA",
  "postalCode": ""
 },
 {
  "id": 1809031007,
  "districtId": 1809031,
  "districtName": "WAY KHILAU",
  "name": "MADA JAYA",
  "postalCode": "35368"
 },
 {
  "id": 1809031008,
  "districtId": 1809031,
  "districtName": "WAY KHILAU",
  "name": "GUNUNGSARI",
  "postalCode": "35368"
 },
 {
  "id": 1809031009,
  "districtId": 1809031,
  "districtName": "WAY KHILAU",
  "name": "KUBU BATU",
  "postalCode": "35368"
 },
 {
  "id": 1809031010,
  "districtId": 1809031,
  "districtName": "WAY KHILAU",
  "name": "TANJUNG REJO",
  "postalCode": "20122"
 }
]