[
 {
  "id": 1809030010,
  "districtId": 1809030,
  "districtName": "KEDONDONG",
  "name": "SUKAMAJU",
  "postalCode": "22465"
 },
 {
  "id": 1809030011,
  "districtId": 1809030,
  "districtName": "KEDONDONG",
  "name": "WAYKEPAYANG",
  "postalCode": ""
 },
 {
  "id": 1809030012,
  "districtId": 1809030,
  "districtName": "KEDONDONG",
  "name": "KEDONDONG",
  "postalCode": "32191"
 },
 {
  "id": 1809030013,
  "districtId": 1809030,
  "districtName": "KEDONDONG",
  "name": "SINAR HARAPAN",
  "postalCode": "30756"
 },
 {
  "id": 1809030014,
  "districtId": 1809030,
  "districtName": "KEDONDONG",
  "name": "TEMPEL REJO",
  "postalCode": "39124"
 },
 {
  "id": 1809030015,
  "districtId": 1809030,
  "districtName": "KEDONDONG",
  "name": "PASAR BARU",
  "postalCode": "22163"
 },
 {
  "id": 1809030016,
  "districtId": 1809030,
  "districtName": "KEDONDONG",
  "name": "KERTA SANA",
  "postalCode": "35368"
 },
 {
  "id": 1809030017,
  "districtId": 1809030,
  "districtName": "KEDONDONG",
  "name": "GUNUNG SUGIH",
  "postalCode": "32386"
 },
 {
  "id": 1809030032,
  "districtId": 1809030,
  "districtName": "KEDONDONG",
  "name": "BABAKAN LOA",
  "postalCode": "35368"
 },
 {
  "id": 1809030033,
  "districtId": 1809030,
  "districtName": "KEDONDONG",
  "name": "PESAWARAN",
  "postalCode": "35368"
 },
 {
  "id": 1809030034,
  "districtId": 1809030,
  "districtName": "KEDONDONG",
  "name": "TEBAJAWA",
  "postalCode": "35368"
 },
 {
  "id": 1809030035,
  "districtId": 1809030,
  "districtName": "KEDONDONG",
  "name": "HARAPAN JAYA",
  "postalCode": "20773"
 }
]