[
 {
  "id": 1809020021,
  "districtId": 1809020,
  "districtName": "PADANG CERMIN",
  "name": "SANGGI",
  "postalCode": "35686"
 },
 {
  "id": 1809020022,
  "districtId": 1809020,
  "districtName": "PADANG CERMIN",
  "name": "DURIAN",
  "postalCode": "20621"
 },
 {
  "id": 1809020023,
  "districtId": 1809020,
  "districtName": "PADANG CERMIN",
  "name": "BANJARAN",
  "postalCode": "35451"
 },
 {
  "id": 1809020030,
  "districtId": 1809020,
  "districtName": "PADANG CERMIN",
  "name": "WAY URANG",
  "postalCode": "35451"
 },
 {
  "id": 1809020031,
  "districtId": 1809020,
  "districtName": "PADANG CERMIN",
  "name": "PAYA",
  "postalCode": "24152"
 },
 {
  "id": 1809020032,
  "districtId": 1809020,
  "districtName": "PADANG CERMIN",
  "name": "TAMBANGAN",
  "postalCode": "20631"
 },
 {
  "id": 1809020033,
  "districtId": 1809020,
  "districtName": "PADANG CERMIN",
  "name": "HANAU BERAK",
  "postalCode": "35451"
 },
 {
  "id": 1809020034,
  "districtId": 1809020,
  "districtName": "PADANG CERMIN",
  "name": "PADANG CERMIN",
  "postalCode": "20762"
 },
 {
  "id": 1809020042,
  "districtId": 1809020,
  "districtName": "PADANG CERMIN",
  "name": "GAYAU",
  "postalCode": ""
 },
 {
  "id": 1809020043,
  "districtId": 1809020,
  "districtName": "PADANG CERMIN",
  "name": "TRIMULYO",
  "postalCode": "34871"
 },
 {
  "id": 1809020047,
  "districtId": 1809020,
  "districtName": "PADANG CERMIN",
  "name": "KHEPONG JAYA",
  "postalCode": "35451"
 }
]