[
 {
  "id": 1810031013,
  "districtId": 1810031,
  "districtName": "PAGELARAN UTARA",
  "name": "FAJAR BARU",
  "postalCode": "38361"
 },
 {
  "id": 1810031014,
  "districtId": 1810031,
  "districtName": "PAGELARAN UTARA",
  "name": "KEMILIN",
  "postalCode": "35376"
 },
 {
  "id": 1810031015,
  "districtId": 1810031,
  "districtName": "PAGELARAN UTARA",
  "name": "NEGLASARI",
  "postalCode": "35452"
 },
 {
  "id": 1810031016,
  "districtId": 1810031,
  "districtName": "PAGELARAN UTARA",
  "name": "SUMBER BANDUNG",
  "postalCode": "35376"
 },
 {
  "id": 1810031017,
  "districtId": 1810031,
  "districtName": "PAGELARAN UTARA",
  "name": "GIRI TUNGGAL",
  "postalCode": "35376"
 },
 {
  "id": 1810031018,
  "districtId": 1810031,
  "districtName": "PAGELARAN UTARA",
  "name": "MARGOSARI",
  "postalCode": "35376"
 },
 {
  "id": 1810031021,
  "districtId": 1810031,
  "districtName": "PAGELARAN UTARA",
  "name": "FAJAR MULIA",
  "postalCode": ""
 },
 {
  "id": 1810031022,
  "districtId": 1810031,
  "districtName": "PAGELARAN UTARA",
  "name": "MADARAYA",
  "postalCode": "35376"
 },
 {
  "id": 1810031025,
  "districtId": 1810031,
  "districtName": "PAGELARAN UTARA",
  "name": "GUNUNG RAYA",
  "postalCode": "31581"
 },
 {
  "id": 1810031026,
  "districtId": 1810031,
  "districtName": "PAGELARAN UTARA",
  "name": "WAY KUNIR",
  "postalCode": "35376"
 }
]