[
 {
  "id": 1810020001,
  "districtId": 1810020,
  "districtName": "AMBARAWA",
  "name": "KRESNOMULYO",
  "postalCode": "35376"
 },
 {
  "id": 1810020002,
  "districtId": 1810020,
  "districtName": "AMBARAWA",
  "name": "SUMBER AGUNG",
  "postalCode": "37353"
 },
 {
  "id": 1810020003,
  "districtId": 1810020,
  "districtName": "AMBARAWA",
  "name": "AMBARAWA",
  "postalCode": "35376"
 },
 {
  "id": 1810020004,
  "districtId": 1810020,
  "districtName": "AMBARAWA",
  "name": "AMBARAWA BARAT",
  "postalCode": "35376"
 },
 {
  "id": 1810020005,
  "districtId": 1810020,
  "districtName": "AMBARAWA",
  "name": "TANJUNG ANOM",
  "postalCode": "20353"
 },
 {
  "id": 1810020006,
  "districtId": 1810020,
  "districtName": "AMBARAWA",
  "name": "JATI AGUNG",
  "postalCode": "35376"
 },
 {
  "id": 1810020007,
  "districtId": 1810020,
  "districtName": "AMBARAWA",
  "name": "MARGODADI",
  "postalCode": "32386"
 },
 {
  "id": 1810020008,
  "districtId": 1810020,
  "districtName": "AMBARAWA",
  "name": "AMBARAWA TIMUR",
  "postalCode": "35376"
 }
]