[
 {
  "id": 1812070001,
  "districtId": 1812070,
  "districtName": "GUNUNG AGUNG",
  "name": "MARGA JAYA",
  "postalCode": "38657"
 },
 {
  "id": 1812070002,
  "districtId": 1812070,
  "districtName": "GUNUNG AGUNG",
  "name": "MEKAR JAYA",
  "postalCode": "20771"
 },
 {
  "id": 1812070003,
  "districtId": 1812070,
  "districtName": "GUNUNG AGUNG",
  "name": "SUKA JAYA",
  "postalCode": "24784"
 },
 {
  "id": 1812070004,
  "districtId": 1812070,
  "districtName": "GUNUNG AGUNG",
  "name": "MULYA JAYA",
  "postalCode": "36365"
 },
 {
  "id": 1812070005,
  "districtId": 1812070,
  "districtName": "GUNUNG AGUNG",
  "name": "WONO REJO",
  "postalCode": "30756"
 },
 {
  "id": 1812070006,
  "districtId": 1812070,
  "districtName": "GUNUNG AGUNG",
  "name": "SUMBER JAYA",
  "postalCode": "24553"
 },
 {
  "id": 1812070007,
  "districtId": 1812070,
  "districtName": "GUNUNG AGUNG",
  "name": "BANGUN JAYA",
  "postalCode": "28558"
 },
 {
  "id": 1812070008,
  "districtId": 1812070,
  "districtName": "GUNUNG AGUNG",
  "name": "TUNAS JAYA",
  "postalCode": "32264"
 },
 {
  "id": 1812070009,
  "districtId": 1812070,
  "districtName": "GUNUNG AGUNG",
  "name": "JAYA MURNI",
  "postalCode": "34683"
 },
 {
  "id": 1812070010,
  "districtId": 1812070,
  "districtName": "GUNUNG AGUNG",
  "name": "TRI TUNGGAL JAYA",
  "postalCode": "34682"
 },
 {
  "id": 1812070011,
  "districtId": 1812070,
  "districtName": "GUNUNG AGUNG",
  "name": "MULYA SARI",
  "postalCode": "22774"
 },
 {
  "id": 1812070012,
  "districtId": 1812070,
  "districtName": "GUNUNG AGUNG",
  "name": "DWIKORA JAYA",
  "postalCode": ""
 },
 {
  "id": 1812070013,
  "districtId": 1812070,
  "districtName": "GUNUNG AGUNG",
  "name": "SUMBER REJEKI",
  "postalCode": "30971"
 }
]