[
 {
  "id": 1812061001,
  "districtId": 1812061,
  "districtName": "BATU PUTIH",
  "name": "MULYO SARI",
  "postalCode": "31657"
 },
 {
  "id": 1812061002,
  "districtId": 1812061,
  "districtName": "BATU PUTIH",
  "name": "MARGA SARI",
  "postalCode": "34683"
 },
 {
  "id": 1812061003,
  "districtId": 1812061,
  "districtName": "BATU PUTIH",
  "name": "TOTO WONODADI",
  "postalCode": "34683"
 },
 {
  "id": 1812061004,
  "districtId": 1812061,
  "districtName": "BATU PUTIH",
  "name": "SIDO MAKMUR",
  "postalCode": "20772"
 },
 {
  "id": 1812061005,
  "districtId": 1812061,
  "districtName": "BATU PUTIH",
  "name": "PANCA MARGA",
  "postalCode": "34683"
 },
 {
  "id": 1812061006,
  "districtId": 1812061,
  "districtName": "BATU PUTIH",
  "name": "TOTO KATON",
  "postalCode": "34683"
 },
 {
  "id": 1812061007,
  "districtId": 1812061,
  "districtName": "BATU PUTIH",
  "name": "TOTO MAKMUR",
  "postalCode": ""
 },
 {
  "id": 1812061008,
  "districtId": 1812061,
  "districtName": "BATU PUTIH",
  "name": "MARGO DADI",
  "postalCode": "34594"
 },
 {
  "id": 1812061009,
  "districtId": 1812061,
  "districtName": "BATU PUTIH",
  "name": "MARGA MULYO",
  "postalCode": "38956"
 },
 {
  "id": 1812061010,
  "districtId": 1812061,
  "districtName": "BATU PUTIH",
  "name": "SAKTI JAYA",
  "postalCode": "34683"
 }
]