[
 {
  "id": 1812050001,
  "districtId": 1812050,
  "districtName": "LAMBU KIBANG",
  "name": "LESUNG BAKTI JAYA",
  "postalCode": "34388"
 },
 {
  "id": 1812050002,
  "districtId": 1812050,
  "districtName": "LAMBU KIBANG",
  "name": "MEKAR SARI JAYA",
  "postalCode": "34388"
 },
 {
  "id": 1812050003,
  "districtId": 1812050,
  "districtName": "LAMBU KIBANG",
  "name": "PAGAR JAYA",
  "postalCode": "34388"
 },
 {
  "id": 1812050004,
  "districtId": 1812050,
  "districtName": "LAMBU KIBANG",
  "name": "SUMBER REJO",
  "postalCode": "21255"
 },
 {
  "id": 1812050005,
  "districtId": 1812050,
  "districtName": "LAMBU KIBANG",
  "name": "GUNUNG SARI",
  "postalCode": "28471"
 },
 {
  "id": 1812050006,
  "districtId": 1812050,
  "districtName": "LAMBU KIBANG",
  "name": "KIBANG BUDI JAYA",
  "postalCode": "34388"
 },
 {
  "id": 1812050007,
  "districtId": 1812050,
  "districtName": "LAMBU KIBANG",
  "name": "KIBANG YEKTI JAYA",
  "postalCode": "34388"
 },
 {
  "id": 1812050008,
  "districtId": 1812050,
  "districtName": "LAMBU KIBANG",
  "name": "KIBANG TRI JAYA",
  "postalCode": "34388"
 },
 {
  "id": 1812050009,
  "districtId": 1812050,
  "districtName": "LAMBU KIBANG",
  "name": "GILANG TUNGGAL MAKARTA",
  "postalCode": "34388"
 },
 {
  "id": 1812050010,
  "districtId": 1812050,
  "districtName": "LAMBU KIBANG",
  "name": "KIBANG MULYA JAYA",
  "postalCode": ""
 }
]