[
 {
  "id": 1813100001,
  "districtId": 1813100,
  "districtName": "BENGKUNAT",
  "name": "PARDA SUKA",
  "postalCode": "38965"
 },
 {
  "id": 1813100002,
  "districtId": 1813100,
  "districtName": "BENGKUNAT",
  "name": "SUKARAME",
  "postalCode": "24357"
 },
 {
  "id": 1813100003,
  "districtId": 1813100,
  "districtName": "BENGKUNAT",
  "name": "SUKAMAJU",
  "postalCode": "22465"
 },
 {
  "id": 1813100004,
  "districtId": 1813100,
  "districtName": "BENGKUNAT",
  "name": "RAJA BASA",
  "postalCode": "35686"
 },
 {
  "id": 1813100005,
  "districtId": 1813100,
  "districtName": "BENGKUNAT",
  "name": "MULANG MAYA",
  "postalCode": "34883"
 },
 {
  "id": 1813100006,
  "districtId": 1813100,
  "districtName": "BENGKUNAT",
  "name": "PADANG DALAM",
  "postalCode": "34883"
 },
 {
  "id": 1813100007,
  "districtId": 1813100,
  "districtName": "BENGKUNAT",
  "name": "BANDAR JAYA",
  "postalCode": "28771"
 },
 {
  "id": 1813100008,
  "districtId": 1813100,
  "districtName": "BENGKUNAT",
  "name": "NEGERI RATU NGARAS",
  "postalCode": "34883"
 },
 {
  "id": 1813100009,
  "districtId": 1813100,
  "districtName": "BENGKUNAT",
  "name": "KOTA BATU",
  "postalCode": "23891"
 }
]