[
 {
  "id": 1813090001,
  "districtId": 1813090,
  "districtName": "NGAMBUR",
  "name": "GEDUNG CAHYA KUNINGAN",
  "postalCode": "34883"
 },
 {
  "id": 1813090002,
  "districtId": 1813090,
  "districtName": "NGAMBUR",
  "name": "SUKA BANJAR",
  "postalCode": "32211"
 },
 {
  "id": 1813090003,
  "districtId": 1813090,
  "districtName": "NGAMBUR",
  "name": "SUKA NEGARA",
  "postalCode": "38326"
 },
 {
  "id": 1813090004,
  "districtId": 1813090,
  "districtName": "NGAMBUR",
  "name": "PEKON MON",
  "postalCode": "34883"
 },
 {
  "id": 1813090005,
  "districtId": 1813090,
  "districtName": "NGAMBUR",
  "name": "MUARA TEMBULIH",
  "postalCode": ""
 },
 {
  "id": 1813090006,
  "districtId": 1813090,
  "districtName": "NGAMBUR",
  "name": "NEGERI RATU NGAMBUR",
  "postalCode": "34883"
 },
 {
  "id": 1813090007,
  "districtId": 1813090,
  "districtName": "NGAMBUR",
  "name": "BUMI RATU",
  "postalCode": "34764"
 },
 {
  "id": 1813090008,
  "districtId": 1813090,
  "districtName": "NGAMBUR",
  "name": "ULOK MUKTI",
  "postalCode": "34883"
 },
 {
  "id": 1813090009,
  "districtId": 1813090,
  "districtName": "NGAMBUR",
  "name": "SUMBER AGUNG",
  "postalCode": "37353"
 }
]