[
 {
  "id": 1901092001,
  "districtId": 1901092,
  "districtName": "BAKAM",
  "name": "MARAS SENANG",
  "postalCode": "33252"
 },
 {
  "id": 1901092002,
  "districtId": 1901092,
  "districtName": "BAKAM",
  "name": "KAPUK",
  "postalCode": "37356"
 },
 {
  "id": 1901092003,
  "districtId": 1901092,
  "districtName": "BAKAM",
  "name": "NEKNANG",
  "postalCode": "33252"
 },
 {
  "id": 1901092004,
  "districtId": 1901092,
  "districtName": "BAKAM",
  "name": "TIANG TARA",
  "postalCode": "33252"
 },
 {
  "id": 1901092005,
  "districtId": 1901092,
  "districtName": "BAKAM",
  "name": "DALIL",
  "postalCode": "33252"
 },
 {
  "id": 1901092006,
  "districtId": 1901092,
  "districtName": "BAKAM",
  "name": "BAKAM",
  "postalCode": "33252"
 },
 {
  "id": 1901092007,
  "districtId": 1901092,
  "districtName": "BAKAM",
  "name": "MANGKA",
  "postalCode": "33252"
 },
 {
  "id": 1901092008,
  "districtId": 1901092,
  "districtName": "BAKAM",
  "name": "MABAT",
  "postalCode": "33252"
 },
 {
  "id": 1901092009,
  "districtId": 1901092,
  "districtName": "BAKAM",
  "name": "BUKITLAYANG",
  "postalCode": ""
 }
]