[
 {
  "id": 1901080010,
  "districtId": 1901080,
  "districtName": "MERAWANG",
  "name": "KIMAK",
  "postalCode": "33172"
 },
 {
  "id": 1901080011,
  "districtId": 1901080,
  "districtName": "MERAWANG",
  "name": "JADA BAHRIN",
  "postalCode": "33172"
 },
 {
  "id": 1901080012,
  "districtId": 1901080,
  "districtName": "MERAWANG",
  "name": "BALUNIJUK",
  "postalCode": ""
 },
 {
  "id": 1901080013,
  "districtId": 1901080,
  "districtName": "MERAWANG",
  "name": "PAGARAWAN",
  "postalCode": "33172"
 },
 {
  "id": 1901080014,
  "districtId": 1901080,
  "districtName": "MERAWANG",
  "name": "BATURUSA",
  "postalCode": "33172"
 },
 {
  "id": 1901080015,
  "districtId": 1901080,
  "districtName": "MERAWANG",
  "name": "AIR ANYIR",
  "postalCode": "33172"
 },
 {
  "id": 1901080016,
  "districtId": 1901080,
  "districtName": "MERAWANG",
  "name": "RIDING PANJANG",
  "postalCode": "33253"
 },
 {
  "id": 1901080017,
  "districtId": 1901080,
  "districtName": "MERAWANG",
  "name": "DWI MAKMUR",
  "postalCode": "33172"
 },
 {
  "id": 1901080018,
  "districtId": 1901080,
  "districtName": "MERAWANG",
  "name": "JURUNG",
  "postalCode": "33172"
 },
 {
  "id": 1901080019,
  "districtId": 1901080,
  "districtName": "MERAWANG",
  "name": "MERAWANG",
  "postalCode": "33172"
 }
]