[
 {
  "id": 1903050002,
  "districtId": 1903050,
  "districtName": "JEBUS",
  "name": "TUMBAK PETAR",
  "postalCode": "33362"
 },
 {
  "id": 1903050003,
  "districtId": 1903050,
  "districtName": "JEBUS",
  "name": "LIMBUNG",
  "postalCode": "33362"
 },
 {
  "id": 1903050004,
  "districtId": 1903050,
  "districtName": "JEBUS",
  "name": "RUKAM",
  "postalCode": "36371"
 },
 {
  "id": 1903050009,
  "districtId": 1903050,
  "districtName": "JEBUS",
  "name": "RANGGI/ASAM",
  "postalCode": ""
 },
 {
  "id": 1903050010,
  "districtId": 1903050,
  "districtName": "JEBUS",
  "name": "SUNGAI BULUH",
  "postalCode": "25586"
 },
 {
  "id": 1903050011,
  "districtId": 1903050,
  "districtName": "JEBUS",
  "name": "KETAP",
  "postalCode": "33362"
 },
 {
  "id": 1903050018,
  "districtId": 1903050,
  "districtName": "JEBUS",
  "name": "MISLAK",
  "postalCode": "33362"
 },
 {
  "id": 1903050019,
  "districtId": 1903050,
  "districtName": "JEBUS",
  "name": "AIR KUANG",
  "postalCode": "33362"
 },
 {
  "id": 1903050020,
  "districtId": 1903050,
  "districtName": "JEBUS",
  "name": "PEBUAR",
  "postalCode": "33362"
 },
 {
  "id": 1903050021,
  "districtId": 1903050,
  "districtName": "JEBUS",
  "name": "SINAR MANIK",
  "postalCode": "33362"
 }
]