[
 {
  "id": 1903051001,
  "districtId": 1903051,
  "districtName": "PARITTIGA",
  "name": "BAKIT",
  "postalCode": "33362"
 },
 {
  "id": 1903051003,
  "districtId": 1903051,
  "districtName": "PARITTIGA",
  "name": "KAPIT",
  "postalCode": "33362"
 },
 {
  "id": 1903051004,
  "districtId": 1903051,
  "districtName": "PARITTIGA",
  "name": "TELAK",
  "postalCode": "33362"
 },
 {
  "id": 1903051005,
  "districtId": 1903051,
  "districtName": "PARITTIGA",
  "name": "SEKAR BIRU",
  "postalCode": "33362"
 },
 {
  "id": 1903051007,
  "districtId": 1903051,
  "districtName": "PARITTIGA",
  "name": "AIR GANTANG",
  "postalCode": "33362"
 },
 {
  "id": 1903051008,
  "districtId": 1903051,
  "districtName": "PARITTIGA",
  "name": "KELABAT",
  "postalCode": "33362"
 },
 {
  "id": 1903051009,
  "districtId": 1903051,
  "districtName": "PARITTIGA",
  "name": "CUPAT",
  "postalCode": "33362"
 },
 {
  "id": 1903051010,
  "districtId": 1903051,
  "districtName": "PARITTIGA",
  "name": "TELUK LIMAU",
  "postalCode": "31171"
 }
]