[
 {
  "id": 2101030004,
  "districtId": 2101030,
  "districtName": "KARIMUN",
  "name": "PARIT",
  "postalCode": "36373"
 },
 {
  "id": 2101030005,
  "districtId": 2101030,
  "districtName": "KARIMUN",
  "name": "TULANG",
  "postalCode": "29661"
 },
 {
  "id": 2101030006,
  "districtId": 2101030,
  "districtName": "KARIMUN",
  "name": "TANJUNG BALAI",
  "postalCode": "29661"
 },
 {
  "id": 2101030007,
  "districtId": 2101030,
  "districtName": "KARIMUN",
  "name": "TELUK AIR",
  "postalCode": "29661"
 },
 {
  "id": 2101030008,
  "districtId": 2101030,
  "districtName": "KARIMUN",
  "name": "SUNGAI LAKAM TIMUR",
  "postalCode": "29661"
 },
 {
  "id": 2101030010,
  "districtId": 2101030,
  "districtName": "KARIMUN",
  "name": "SELAT MENDAUN",
  "postalCode": "29661"
 },
 {
  "id": 2101030011,
  "districtId": 2101030,
  "districtName": "KARIMUN",
  "name": "TANJUNG BALAI KOTA",
  "postalCode": "29661"
 },
 {
  "id": 2101030012,
  "districtId": 2101030,
  "districtName": "KARIMUN",
  "name": "SUNGAI LAKAM BARAT",
  "postalCode": "29661"
 }
]