[
 {
  "id": 2103041001,
  "districtId": 2103041,
  "districtName": "BUNGURAN UTARA",
  "name": "KELARIK BARAT",
  "postalCode": "29783"
 },
 {
  "id": 2103041002,
  "districtId": 2103041,
  "districtName": "BUNGURAN UTARA",
  "name": "KELARIK",
  "postalCode": "29783"
 },
 {
  "id": 2103041003,
  "districtId": 2103041,
  "districtName": "BUNGURAN UTARA",
  "name": "KELARIK UTARA",
  "postalCode": "29783"
 },
 {
  "id": 2103041004,
  "districtId": 2103041,
  "districtName": "BUNGURAN UTARA",
  "name": "KELARIK AIR MALI",
  "postalCode": "29783"
 },
 {
  "id": 2103041005,
  "districtId": 2103041,
  "districtName": "BUNGURAN UTARA",
  "name": "TELUK BUTON",
  "postalCode": "29783"
 },
 {
  "id": 2103041006,
  "districtId": 2103041,
  "districtName": "BUNGURAN UTARA",
  "name": "BELAKANG GUNUNG",
  "postalCode": "29783"
 },
 {
  "id": 2103041007,
  "districtId": 2103041,
  "districtName": "BUNGURAN UTARA",
  "name": "SELUAN BARAT",
  "postalCode": "29783"
 },
 {
  "id": 2103041008,
  "districtId": 2103041,
  "districtName": "BUNGURAN UTARA",
  "name": "GUNUNG DURIAN",
  "postalCode": "29783"
 }
]