[
 {
  "id": 3201260001,
  "districtId": 3201260,
  "districtName": "RUMPIN",
  "name": "LEUWIBATU",
  "postalCode": "16350"
 },
 {
  "id": 3201260002,
  "districtId": 3201260,
  "districtName": "RUMPIN",
  "name": "CIDOKOM",
  "postalCode": "16340"
 },
 {
  "id": 3201260003,
  "districtId": 3201260,
  "districtName": "RUMPIN",
  "name": "GOBANG",
  "postalCode": "16350"
 },
 {
  "id": 3201260004,
  "districtId": 3201260,
  "districtName": "RUMPIN",
  "name": "RABAK",
  "postalCode": "16350"
 },
 {
  "id": 3201260005,
  "districtId": 3201260,
  "districtName": "RUMPIN",
  "name": "CIBODAS",
  "postalCode": "43353"
 },
 {
  "id": 3201260006,
  "districtId": 3201260,
  "districtName": "RUMPIN",
  "name": "KAMPUNG SAWAH",
  "postalCode": "23772"
 },
 {
  "id": 3201260007,
  "districtId": 3201260,
  "districtName": "RUMPIN",
  "name": "RUMPIN",
  "postalCode": "16350"
 },
 {
  "id": 3201260008,
  "districtId": 3201260,
  "districtName": "RUMPIN",
  "name": "CIPINANG",
  "postalCode": "13240"
 },
 {
  "id": 3201260009,
  "districtId": 3201260,
  "districtName": "RUMPIN",
  "name": "SUKASARI",
  "postalCode": "20986"
 },
 {
  "id": 3201260010,
  "districtId": 3201260,
  "districtName": "RUMPIN",
  "name": "KERTAJAYA",
  "postalCode": "45255"
 },
 {
  "id": 3201260011,
  "districtId": 3201260,
  "districtName": "RUMPIN",
  "name": "TAMAN SARI",
  "postalCode": "21264"
 },
 {
  "id": 3201260012,
  "districtId": 3201260,
  "districtName": "RUMPIN",
  "name": "SUKAMULYA",
  "postalCode": "30657"
 },
 {
  "id": 3201260013,
  "districtId": 3201260,
  "districtName": "RUMPIN",
  "name": "MEKAR SARI",
  "postalCode": "21261"
 },
 {
  "id": 3201260014,
  "districtId": 3201260,
  "districtName": "RUMPIN",
  "name": "MEKARJAYA",
  "postalCode": "30653"
 }
]