[
 {
  "id": 3201241001,
  "districtId": 3201241,
  "districtName": "CISEENG",
  "name": "KARIHKIL",
  "postalCode": "16120"
 },
 {
  "id": 3201241002,
  "districtId": 3201241,
  "districtName": "CISEENG",
  "name": "CIBEUTEUNG UDIK",
  "postalCode": "16120"
 },
 {
  "id": 3201241003,
  "districtId": 3201241,
  "districtName": "CISEENG",
  "name": "BABAKAN",
  "postalCode": "35675"
 },
 {
  "id": 3201241004,
  "districtId": 3201241,
  "districtName": "CISEENG",
  "name": "PUTAT NUTUG",
  "postalCode": "16120"
 },
 {
  "id": 3201241005,
  "districtId": 3201241,
  "districtName": "CISEENG",
  "name": "CIBEUTEUNG MUARA",
  "postalCode": "16120"
 },
 {
  "id": 3201241006,
  "districtId": 3201241,
  "districtName": "CISEENG",
  "name": "CIBENTANG",
  "postalCode": "16120"
 },
 {
  "id": 3201241007,
  "districtId": 3201241,
  "districtName": "CISEENG",
  "name": "PARIGI MEKAR",
  "postalCode": "16120"
 },
 {
  "id": 3201241008,
  "districtId": 3201241,
  "districtName": "CISEENG",
  "name": "CISEENG",
  "postalCode": "16120"
 },
 {
  "id": 3201241009,
  "districtId": 3201241,
  "districtName": "CISEENG",
  "name": "CIHOWE",
  "postalCode": ""
 },
 {
  "id": 3201241010,
  "districtId": 3201241,
  "districtName": "CISEENG",
  "name": "KURIPAN",
  "postalCode": "32384"
 }
]