[
 {
  "id": 3201300001,
  "districtId": 3201300,
  "districtName": "PARUNG PANJANG",
  "name": "JAGABAYA",
  "postalCode": "31452"
 },
 {
  "id": 3201300002,
  "districtId": 3201300,
  "districtName": "PARUNG PANJANG",
  "name": "GOROWONG",
  "postalCode": "16360"
 },
 {
  "id": 3201300003,
  "districtId": 3201300,
  "districtName": "PARUNG PANJANG",
  "name": "DAGO",
  "postalCode": "40135"
 },
 {
  "id": 3201300004,
  "districtId": 3201300,
  "districtName": "PARUNG PANJANG",
  "name": "CIKUDA",
  "postalCode": "16360"
 },
 {
  "id": 3201300005,
  "districtId": 3201300,
  "districtName": "PARUNG PANJANG",
  "name": "PINGKU",
  "postalCode": "16360"
 },
 {
  "id": 3201300006,
  "districtId": 3201300,
  "districtName": "PARUNG PANJANG",
  "name": "LUMPANG",
  "postalCode": "16360"
 },
 {
  "id": 3201300007,
  "districtId": 3201300,
  "districtName": "PARUNG PANJANG",
  "name": "GINTUNG CILEJET",
  "postalCode": "16360"
 },
 {
  "id": 3201300008,
  "districtId": 3201300,
  "districtName": "PARUNG PANJANG",
  "name": "JAGABITA",
  "postalCode": "16360"
 },
 {
  "id": 3201300009,
  "districtId": 3201300,
  "districtName": "PARUNG PANJANG",
  "name": "CIBUNAR",
  "postalCode": "44185"
 },
 {
  "id": 3201300010,
  "districtId": 3201300,
  "districtName": "PARUNG PANJANG",
  "name": "PARUNG PANJANG",
  "postalCode": ""
 },
 {
  "id": 3201300011,
  "districtId": 3201300,
  "districtName": "PARUNG PANJANG",
  "name": "KABASIRAN",
  "postalCode": "16360"
 }
]