[
 {
  "id": 3201060001,
  "districtId": 3201060,
  "districtName": "DRAMAGA",
  "name": "PURWASARI",
  "postalCode": "37252"
 },
 {
  "id": 3201060002,
  "districtId": 3201060,
  "districtName": "DRAMAGA",
  "name": "PETIR",
  "postalCode": "16680"
 },
 {
  "id": 3201060003,
  "districtId": 3201060,
  "districtName": "DRAMAGA",
  "name": "SUKADAMAI",
  "postalCode": "24373"
 },
 {
  "id": 3201060004,
  "districtId": 3201060,
  "districtName": "DRAMAGA",
  "name": "SUKAWENING",
  "postalCode": "46252"
 },
 {
  "id": 3201060005,
  "districtId": 3201060,
  "districtName": "DRAMAGA",
  "name": "NEGLASARI",
  "postalCode": "35452"
 },
 {
  "id": 3201060006,
  "districtId": 3201060,
  "districtName": "DRAMAGA",
  "name": "SINAR SARI",
  "postalCode": "34174"
 },
 {
  "id": 3201060007,
  "districtId": 3201060,
  "districtName": "DRAMAGA",
  "name": "CIHERANG",
  "postalCode": "35379"
 },
 {
  "id": 3201060008,
  "districtId": 3201060,
  "districtName": "DRAMAGA",
  "name": "DRAMAGA",
  "postalCode": "16680"
 },
 {
  "id": 3201060009,
  "districtId": 3201060,
  "districtName": "DRAMAGA",
  "name": "BABAKAN",
  "postalCode": "35675"
 },
 {
  "id": 3201060010,
  "districtId": 3201060,
  "districtName": "DRAMAGA",
  "name": "CIKARAWANG",
  "postalCode": "16680"
 }
]