[
 {
  "id": 3201081001,
  "districtId": 3201081,
  "districtName": "CIGOMBONG",
  "name": "TUGU JAYA",
  "postalCode": "30657"
 },
 {
  "id": 3201081002,
  "districtId": 3201081,
  "districtName": "CIGOMBONG",
  "name": "CIGOMBONG",
  "postalCode": "16110"
 },
 {
  "id": 3201081003,
  "districtId": 3201081,
  "districtName": "CIGOMBONG",
  "name": "WATES JAYA",
  "postalCode": ""
 },
 {
  "id": 3201081004,
  "districtId": 3201081,
  "districtName": "CIGOMBONG",
  "name": "SROGOL",
  "postalCode": "16110"
 },
 {
  "id": 3201081005,
  "districtId": 3201081,
  "districtName": "CIGOMBONG",
  "name": "CIBURUY",
  "postalCode": "44162"
 },
 {
  "id": 3201081006,
  "districtId": 3201081,
  "districtName": "CIGOMBONG",
  "name": "CISALADA",
  "postalCode": "16110"
 },
 {
  "id": 3201081007,
  "districtId": 3201081,
  "districtName": "CIGOMBONG",
  "name": "PASIR JAYA",
  "postalCode": "28557"
 },
 {
  "id": 3201081008,
  "districtId": 3201081,
  "districtName": "CIGOMBONG",
  "name": "CIBURAYUT",
  "postalCode": "16110"
 },
 {
  "id": 3201081009,
  "districtId": 3201081,
  "districtName": "CIGOMBONG",
  "name": "CIADEG",
  "postalCode": "16110"
 }
]