[
 {
  "id": 3201230006,
  "districtId": 3201230,
  "districtName": "KEMANG",
  "name": "SEMPLAK BARAT",
  "postalCode": "16310"
 },
 {
  "id": 3201230007,
  "districtId": 3201230,
  "districtName": "KEMANG",
  "name": "ATANG SENJAYA",
  "postalCode": "16310"
 },
 {
  "id": 3201230008,
  "districtId": 3201230,
  "districtName": "KEMANG",
  "name": "PARAKAN JAYA",
  "postalCode": "16310"
 },
 {
  "id": 3201230009,
  "districtId": 3201230,
  "districtName": "KEMANG",
  "name": "BOJONG",
  "postalCode": "34385"
 },
 {
  "id": 3201230010,
  "districtId": 3201230,
  "districtName": "KEMANG",
  "name": "KEMANG",
  "postalCode": "28382"
 },
 {
  "id": 3201230011,
  "districtId": 3201230,
  "districtName": "KEMANG",
  "name": "PABUARAN",
  "postalCode": "16921"
 },
 {
  "id": 3201230013,
  "districtId": 3201230,
  "districtName": "KEMANG",
  "name": "TEGAL",
  "postalCode": "16310"
 },
 {
  "id": 3201230014,
  "districtId": 3201230,
  "districtName": "KEMANG",
  "name": "PONDOK UDIK",
  "postalCode": "16310"
 },
 {
  "id": 3201230015,
  "districtId": 3201230,
  "districtName": "KEMANG",
  "name": "JAMPANG",
  "postalCode": "16340"
 }
]