[
 {
  "id": 3201180010,
  "districtId": 3201180,
  "districtName": "CILEUNGSI",
  "name": "DAYEUH",
  "postalCode": "16820"
 },
 {
  "id": 3201180011,
  "districtId": 3201180,
  "districtName": "CILEUNGSI",
  "name": "MAMPIR",
  "postalCode": "16820"
 },
 {
  "id": 3201180012,
  "districtId": 3201180,
  "districtName": "CILEUNGSI",
  "name": "SETU SARI",
  "postalCode": "16820"
 },
 {
  "id": 3201180013,
  "districtId": 3201180,
  "districtName": "CILEUNGSI",
  "name": "CIPEUCANG",
  "postalCode": "16820"
 },
 {
  "id": 3201180014,
  "districtId": 3201180,
  "districtName": "CILEUNGSI",
  "name": "JATISARI",
  "postalCode": "32362"
 },
 {
  "id": 3201180015,
  "districtId": 3201180,
  "districtName": "CILEUNGSI",
  "name": "GANDOANG",
  "postalCode": "16820"
 },
 {
  "id": 3201180016,
  "districtId": 3201180,
  "districtName": "CILEUNGSI",
  "name": "MEKARSARI",
  "postalCode": "37482"
 },
 {
  "id": 3201180017,
  "districtId": 3201180,
  "districtName": "CILEUNGSI",
  "name": "CILEUNGSI KIDUL",
  "postalCode": "16820"
 },
 {
  "id": 3201180018,
  "districtId": 3201180,
  "districtName": "CILEUNGSI",
  "name": "CILEUNGSI",
  "postalCode": "16720"
 },
 {
  "id": 3201180019,
  "districtId": 3201180,
  "districtName": "CILEUNGSI",
  "name": "LIMUS NUNGGAL",
  "postalCode": "43363"
 },
 {
  "id": 3201180020,
  "districtId": 3201180,
  "districtName": "CILEUNGSI",
  "name": "PASIR ANGIN",
  "postalCode": "16820"
 },
 {
  "id": 3201180021,
  "districtId": 3201180,
  "districtName": "CILEUNGSI",
  "name": "CIPENJO",
  "postalCode": "16820"
 }
]