[
 {
  "id": 3201050004,
  "districtId": 3201050,
  "districtName": "CIAMPEA",
  "name": "CIAMPEA UDIK",
  "postalCode": "16620"
 },
 {
  "id": 3201050008,
  "districtId": 3201050,
  "districtName": "CIAMPEA",
  "name": "CINANGKA",
  "postalCode": "41181"
 },
 {
  "id": 3201050009,
  "districtId": 3201050,
  "districtName": "CIAMPEA",
  "name": "CIBUNTU",
  "postalCode": "40212"
 },
 {
  "id": 3201050010,
  "districtId": 3201050,
  "districtName": "CIAMPEA",
  "name": "CICADAS",
  "postalCode": "41151"
 },
 {
  "id": 3201050011,
  "districtId": 3201050,
  "districtName": "CIAMPEA",
  "name": "TEGAL WARU",
  "postalCode": "16620"
 },
 {
  "id": 3201050012,
  "districtId": 3201050,
  "districtName": "CIAMPEA",
  "name": "BOJONG JENGKOL",
  "postalCode": "16620"
 },
 {
  "id": 3201050013,
  "districtId": 3201050,
  "districtName": "CIAMPEA",
  "name": "CIHIDEUNG UDIK",
  "postalCode": "16620"
 },
 {
  "id": 3201050014,
  "districtId": 3201050,
  "districtName": "CIAMPEA",
  "name": "CIHIDEUNG ILIR",
  "postalCode": "16620"
 },
 {
  "id": 3201050015,
  "districtId": 3201050,
  "districtName": "CIAMPEA",
  "name": "CIBANTENG",
  "postalCode": "16620"
 },
 {
  "id": 3201050016,
  "districtId": 3201050,
  "districtName": "CIAMPEA",
  "name": "BOJONG RANGKAS",
  "postalCode": "16620"
 },
 {
  "id": 3201050017,
  "districtId": 3201050,
  "districtName": "CIAMPEA",
  "name": "CIBADAK",
  "postalCode": "40241"
 },
 {
  "id": 3201050019,
  "districtId": 3201050,
  "districtName": "CIAMPEA",
  "name": "CIAMPEA",
  "postalCode": "16620"
 }
]