[
 {
  "id": 3202212001,
  "districtId": 3202212,
  "districtName": "CARINGIN",
  "name": "CIJENGKOL",
  "postalCode": "43154"
 },
 {
  "id": 3202212002,
  "districtId": 3202212,
  "districtName": "CARINGIN",
  "name": "MEKARJAYA",
  "postalCode": "30653"
 },
 {
  "id": 3202212003,
  "districtId": 3202212,
  "districtName": "CARINGIN",
  "name": "TALAGA",
  "postalCode": "43154"
 },
 {
  "id": 3202212004,
  "districtId": 3202212,
  "districtName": "CARINGIN",
  "name": "CARINGIN KULON",
  "postalCode": "43154"
 },
 {
  "id": 3202212005,
  "districtId": 3202212,
  "districtName": "CARINGIN",
  "name": "CARINGIN WETAN",
  "postalCode": "43154"
 },
 {
  "id": 3202212006,
  "districtId": 3202212,
  "districtName": "CARINGIN",
  "name": "SEUSEUPAN",
  "postalCode": "43154"
 },
 {
  "id": 3202212007,
  "districtId": 3202212,
  "districtName": "CARINGIN",
  "name": "SUKAMULYA",
  "postalCode": "30657"
 },
 {
  "id": 3202212008,
  "districtId": 3202212,
  "districtName": "CARINGIN",
  "name": "CIKEMBANG",
  "postalCode": "43154"
 },
 {
  "id": 3202212009,
  "districtId": 3202212,
  "districtName": "CARINGIN",
  "name": "PASIRDATAR INDAH",
  "postalCode": ""
 }
]