[
 {
  "id": 3202190001,
  "districtId": 3202190,
  "districtName": "KADUDAMPIT",
  "name": "MUARADUA",
  "postalCode": "43153"
 },
 {
  "id": 3202190002,
  "districtId": 3202190,
  "districtName": "KADUDAMPIT",
  "name": "CITAMIANG",
  "postalCode": "43143"
 },
 {
  "id": 3202190003,
  "districtId": 3202190,
  "districtName": "KADUDAMPIT",
  "name": "CIKAHURIPAN",
  "postalCode": "45364"
 },
 {
  "id": 3202190004,
  "districtId": 3202190,
  "districtName": "KADUDAMPIT",
  "name": "SUKAMANIS",
  "postalCode": "43153"
 },
 {
  "id": 3202190005,
  "districtId": 3202190,
  "districtName": "KADUDAMPIT",
  "name": "KADUDAMPIT",
  "postalCode": "43153"
 },
 {
  "id": 3202190006,
  "districtId": 3202190,
  "districtName": "KADUDAMPIT",
  "name": "GEDE PANGRANGO",
  "postalCode": "43153"
 },
 {
  "id": 3202190007,
  "districtId": 3202190,
  "districtName": "KADUDAMPIT",
  "name": "SUKAMAJU",
  "postalCode": "22465"
 },
 {
  "id": 3202190008,
  "districtId": 3202190,
  "districtName": "KADUDAMPIT",
  "name": "CIPETIR",
  "postalCode": "43262"
 },
 {
  "id": 3202190009,
  "districtId": 3202190,
  "districtName": "KADUDAMPIT",
  "name": "UNDRUS BINANGUN",
  "postalCode": "43153"
 }
]