[
 {
  "id": 3202040001,
  "districtId": 3202040,
  "districtName": "JAMPANG KULON",
  "name": "CIPARAY",
  "postalCode": "46352"
 },
 {
  "id": 3202040002,
  "districtId": 3202040,
  "districtName": "JAMPANG KULON",
  "name": "BOJONG GENTENG",
  "postalCode": "43353"
 },
 {
  "id": 3202040003,
  "districtId": 3202040,
  "districtName": "JAMPANG KULON",
  "name": "BOJONGSARI",
  "postalCode": "40288"
 },
 {
  "id": 3202040004,
  "districtId": 3202040,
  "districtName": "JAMPANG KULON",
  "name": "MEKARJAYA",
  "postalCode": "30653"
 },
 {
  "id": 3202040005,
  "districtId": 3202040,
  "districtName": "JAMPANG KULON",
  "name": "NAGRAKSARI",
  "postalCode": "43178"
 },
 {
  "id": 3202040006,
  "districtId": 3202040,
  "districtName": "JAMPANG KULON",
  "name": "JAMPANG KULON",
  "postalCode": "43178"
 },
 {
  "id": 3202040007,
  "districtId": 3202040,
  "districtName": "JAMPANG KULON",
  "name": "TANJUNG",
  "postalCode": "24562"
 },
 {
  "id": 3202040008,
  "districtId": 3202040,
  "districtName": "JAMPANG KULON",
  "name": "PADAJAYA",
  "postalCode": "43291"
 },
 {
  "id": 3202040013,
  "districtId": 3202040,
  "districtName": "JAMPANG KULON",
  "name": "CIKARANG",
  "postalCode": "43184"
 },
 {
  "id": 3202040014,
  "districtId": 3202040,
  "districtName": "JAMPANG KULON",
  "name": "KARANGANYAR",
  "postalCode": "40241"
 },
 {
  "id": 3202040015,
  "districtId": 3202040,
  "districtName": "JAMPANG KULON",
  "name": "CIKARANGGEUSAN",
  "postalCode": "43178"
 }
]