[
 {
  "id": 3202210001,
  "districtId": 3202210,
  "districtName": "CIBADAK",
  "name": "NEGLASARI",
  "postalCode": "35452"
 },
 {
  "id": 3202210002,
  "districtId": 3202210,
  "districtName": "CIBADAK",
  "name": "TENJOJAYA",
  "postalCode": "43351"
 },
 {
  "id": 3202210003,
  "districtId": 3202210,
  "districtName": "CIBADAK",
  "name": "SEKARWANGI",
  "postalCode": "45392"
 },
 {
  "id": 3202210009,
  "districtId": 3202210,
  "districtName": "CIBADAK",
  "name": "BATUNUNGGAL",
  "postalCode": "40266"
 },
 {
  "id": 3202210010,
  "districtId": 3202210,
  "districtName": "CIBADAK",
  "name": "KARANGTENGAH",
  "postalCode": "43351"
 },
 {
  "id": 3202210011,
  "districtId": 3202210,
  "districtName": "CIBADAK",
  "name": "CIBADAK",
  "postalCode": "40241"
 },
 {
  "id": 3202210012,
  "districtId": 3202210,
  "districtName": "CIBADAK",
  "name": "WARNAJATI",
  "postalCode": "43351"
 },
 {
  "id": 3202210013,
  "districtId": 3202210,
  "districtName": "CIBADAK",
  "name": "SUKASIRNA",
  "postalCode": "43269"
 },
 {
  "id": 3202210014,
  "districtId": 3202210,
  "districtName": "CIBADAK",
  "name": "PAMURUYAN",
  "postalCode": "43351"
 },
 {
  "id": 3202210015,
  "districtId": 3202210,
  "districtName": "CIBADAK",
  "name": "CIHEULANG TONGGOH",
  "postalCode": "43351"
 }
]