[
 {
  "id": 3202240001,
  "districtId": 3202240,
  "districtName": "CIDAHU",
  "name": "PONDOK KASO TENGAH",
  "postalCode": "43358"
 },
 {
  "id": 3202240002,
  "districtId": 3202240,
  "districtName": "CIDAHU",
  "name": "PASIRDOTON",
  "postalCode": "43358"
 },
 {
  "id": 3202240003,
  "districtId": 3202240,
  "districtName": "CIDAHU",
  "name": "PONDOK KASO TONGGOH",
  "postalCode": "43358"
 },
 {
  "id": 3202240004,
  "districtId": 3202240,
  "districtName": "CIDAHU",
  "name": "BABAKAN PARI",
  "postalCode": "43358"
 },
 {
  "id": 3202240005,
  "districtId": 3202240,
  "districtName": "CIDAHU",
  "name": "TANGKIL",
  "postalCode": "37163"
 },
 {
  "id": 3202240006,
  "districtId": 3202240,
  "districtName": "CIDAHU",
  "name": "JAYABAKTI",
  "postalCode": "44172"
 },
 {
  "id": 3202240007,
  "districtId": 3202240,
  "districtName": "CIDAHU",
  "name": "CIDAHU",
  "postalCode": "43172"
 },
 {
  "id": 3202240008,
  "districtId": 3202240,
  "districtName": "CIDAHU",
  "name": "GIRIJAYA",
  "postalCode": "46475"
 }
]