[
 {
  "id": 3202220001,
  "districtId": 3202220,
  "districtName": "NAGRAK",
  "name": "CISARUA",
  "postalCode": "43115"
 },
 {
  "id": 3202220002,
  "districtId": 3202220,
  "districtName": "NAGRAK",
  "name": "BALEKAMBANG",
  "postalCode": "13530"
 },
 {
  "id": 3202220003,
  "districtId": 3202220,
  "districtName": "NAGRAK",
  "name": "NAGRAK SELATAN",
  "postalCode": "43356"
 },
 {
  "id": 3202220004,
  "districtId": 3202220,
  "districtName": "NAGRAK",
  "name": "NAGRAK UTARA",
  "postalCode": "43356"
 },
 {
  "id": 3202220005,
  "districtId": 3202220,
  "districtName": "NAGRAK",
  "name": "KALAPAREA",
  "postalCode": "43356"
 },
 {
  "id": 3202220006,
  "districtId": 3202220,
  "districtName": "NAGRAK",
  "name": "DARMAREJA",
  "postalCode": "43356"
 },
 {
  "id": 3202220007,
  "districtId": 3202220,
  "districtName": "NAGRAK",
  "name": "GIRIJAYA",
  "postalCode": "46475"
 },
 {
  "id": 3202220008,
  "districtId": 3202220,
  "districtName": "NAGRAK",
  "name": "BABAKAN PANJANG",
  "postalCode": "43356"
 },
 {
  "id": 3202220009,
  "districtId": 3202220,
  "districtName": "NAGRAK",
  "name": "PAWENANG",
  "postalCode": "41164"
 },
 {
  "id": 3202220010,
  "districtId": 3202220,
  "districtName": "NAGRAK",
  "name": "CIHANYAWAR",
  "postalCode": "43356"
 }
]