[
 {
  "id": 3202130001,
  "districtId": 3202130,
  "districtName": "JAMPANG TENGAH",
  "name": "BANTARPANJANG",
  "postalCode": "45587"
 },
 {
  "id": 3202130009,
  "districtId": 3202130,
  "districtName": "JAMPANG TENGAH",
  "name": "BOJONGTIPAR",
  "postalCode": "43171"
 },
 {
  "id": 3202130010,
  "districtId": 3202130,
  "districtName": "JAMPANG TENGAH",
  "name": "CIJULANG",
  "postalCode": "46262"
 },
 {
  "id": 3202130011,
  "districtId": 3202130,
  "districtName": "JAMPANG TENGAH",
  "name": "NANGERANG",
  "postalCode": "43171"
 },
 {
  "id": 3202130012,
  "districtId": 3202130,
  "districtName": "JAMPANG TENGAH",
  "name": "BOJONG JENGKOL",
  "postalCode": "16620"
 },
 {
  "id": 3202130013,
  "districtId": 3202130,
  "districtName": "JAMPANG TENGAH",
  "name": "BANTAR AGUNG",
  "postalCode": "43171"
 },
 {
  "id": 3202130014,
  "districtId": 3202130,
  "districtName": "JAMPANG TENGAH",
  "name": "JAMPANG TENGAH",
  "postalCode": "43171"
 },
 {
  "id": 3202130015,
  "districtId": 3202130,
  "districtName": "JAMPANG TENGAH",
  "name": "PANUMBANGAN",
  "postalCode": "43171"
 },
 {
  "id": 3202130016,
  "districtId": 3202130,
  "districtName": "JAMPANG TENGAH",
  "name": "SINDANGRESMI",
  "postalCode": "43171"
 },
 {
  "id": 3202130017,
  "districtId": 3202130,
  "districtName": "JAMPANG TENGAH",
  "name": "TANJUNGSARI",
  "postalCode": "28983"
 },
 {
  "id": 3202130018,
  "districtId": 3202130,
  "districtName": "JAMPANG TENGAH",
  "name": "PADABEUNGHAR",
  "postalCode": "43171"
 }
]