[
 {
  "id": 3203051001,
  "districtId": 3203051,
  "districtName": "CIKADU",
  "name": "PADALUYU",
  "postalCode": "43284"
 },
 {
  "id": 3203051002,
  "districtId": 3203051,
  "districtName": "CIKADU",
  "name": "SUKALUYU",
  "postalCode": "40123"
 },
 {
  "id": 3203051003,
  "districtId": 3203051,
  "districtName": "CIKADU",
  "name": "MEKARLAKSANA",
  "postalCode": "43284"
 },
 {
  "id": 3203051004,
  "districtId": 3203051,
  "districtName": "CIKADU",
  "name": "CIKADU",
  "postalCode": "41181"
 },
 {
  "id": 3203051005,
  "districtId": 3203051,
  "districtName": "CIKADU",
  "name": "KALAPANUNGGAL",
  "postalCode": "43284"
 },
 {
  "id": 3203051006,
  "districtId": 3203051,
  "districtName": "CIKADU",
  "name": "MEKARWANGI",
  "postalCode": "45462"
 },
 {
  "id": 3203051007,
  "districtId": 3203051,
  "districtName": "CIKADU",
  "name": "CISARANTEN",
  "postalCode": "43284"
 },
 {
  "id": 3203051008,
  "districtId": 3203051,
  "districtName": "CIKADU",
  "name": "SUKAMULYA",
  "postalCode": "30657"
 },
 {
  "id": 3203051009,
  "districtId": 3203051,
  "districtName": "CIKADU",
  "name": "MEKARJAYA",
  "postalCode": "30653"
 },
 {
  "id": 3203051010,
  "districtId": 3203051,
  "districtName": "CIKADU",
  "name": "SUKAMANAH",
  "postalCode": "43273"
 }
]