[
 {
  "id": 3203040001,
  "districtId": 3203040,
  "districtName": "NARINGGUL",
  "name": "CINERANG",
  "postalCode": "43274"
 },
 {
  "id": 3203040002,
  "districtId": 3203040,
  "districtName": "NARINGGUL",
  "name": "WANGUNJAYA",
  "postalCode": "43273"
 },
 {
  "id": 3203040003,
  "districtId": 3203040,
  "districtName": "NARINGGUL",
  "name": "MEKARSARI",
  "postalCode": "37482"
 },
 {
  "id": 3203040004,
  "districtId": 3203040,
  "districtName": "NARINGGUL",
  "name": "WANGUNSARI",
  "postalCode": "46187"
 },
 {
  "id": 3203040005,
  "districtId": 3203040,
  "districtName": "NARINGGUL",
  "name": "MALATI",
  "postalCode": "43274"
 },
 {
  "id": 3203040006,
  "districtId": 3203040,
  "districtName": "NARINGGUL",
  "name": "SUKAMULYA",
  "postalCode": "30657"
 },
 {
  "id": 3203040007,
  "districtId": 3203040,
  "districtName": "NARINGGUL",
  "name": "NARINGGUL",
  "postalCode": "43274"
 },
 {
  "id": 3203040008,
  "districtId": 3203040,
  "districtName": "NARINGGUL",
  "name": "WANASARI",
  "postalCode": "43273"
 },
 {
  "id": 3203040009,
  "districtId": 3203040,
  "districtName": "NARINGGUL",
  "name": "SUKABAKTI",
  "postalCode": "35594"
 },
 {
  "id": 3203040010,
  "districtId": 3203040,
  "districtName": "NARINGGUL",
  "name": "BALEGEDE",
  "postalCode": "43274"
 },
 {
  "id": 3203040011,
  "districtId": 3203040,
  "districtName": "NARINGGUL",
  "name": "MARGASARI",
  "postalCode": "34198"
 }
]