[
 {
  "id": 3203070010,
  "districtId": 3203070,
  "districtName": "KADUPANDAK",
  "name": "PASIRDALEM",
  "postalCode": "43268"
 },
 {
  "id": 3203070011,
  "districtId": 3203070,
  "districtName": "KADUPANDAK",
  "name": "SUKARAJA",
  "postalCode": "21256"
 },
 {
  "id": 3203070012,
  "districtId": 3203070,
  "districtName": "KADUPANDAK",
  "name": "KADUPANDAK",
  "postalCode": "43268"
 },
 {
  "id": 3203070013,
  "districtId": 3203070,
  "districtName": "KADUPANDAK",
  "name": "TALAGASARI",
  "postalCode": "44172"
 },
 {
  "id": 3203070014,
  "districtId": 3203070,
  "districtName": "KADUPANDAK",
  "name": "NEGLASARI",
  "postalCode": "35452"
 },
 {
  "id": 3203070015,
  "districtId": 3203070,
  "districtName": "KADUPANDAK",
  "name": "SUKAKERTA",
  "postalCode": "43285"
 },
 {
  "id": 3203070016,
  "districtId": 3203070,
  "districtName": "KADUPANDAK",
  "name": "SUKARAHARJA",
  "postalCode": "43262"
 },
 {
  "id": 3203070017,
  "districtId": 3203070,
  "districtName": "KADUPANDAK",
  "name": "BOJONGKASIH",
  "postalCode": "43268"
 },
 {
  "id": 3203070018,
  "districtId": 3203070,
  "districtName": "KADUPANDAK",
  "name": "SUKASARI",
  "postalCode": "20986"
 },
 {
  "id": 3203070019,
  "districtId": 3203070,
  "districtName": "KADUPANDAK",
  "name": "WARGASARI",
  "postalCode": "43268"
 },
 {
  "id": 3203070020,
  "districtId": 3203070,
  "districtName": "KADUPANDAK",
  "name": "WARGAASIH",
  "postalCode": "43268"
 },
 {
  "id": 3203070021,
  "districtId": 3203070,
  "districtName": "KADUPANDAK",
  "name": "SUKARESMI",
  "postalCode": "17530"
 },
 {
  "id": 3203070022,
  "districtId": 3203070,
  "districtName": "KADUPANDAK",
  "name": "GANDASARI",
  "postalCode": "17530"
 },
 {
  "id": 3203070023,
  "districtId": 3203070,
  "districtName": "KADUPANDAK",
  "name": "SINDANGSARI",
  "postalCode": "46383"
 }
]