[
 {
  "id": 3203110001,
  "districtId": 3203110,
  "districtName": "CAMPAKA",
  "name": "WANGUNJAYA",
  "postalCode": "43273"
 },
 {
  "id": 3203110002,
  "districtId": 3203110,
  "districtName": "CAMPAKA",
  "name": "SUKADANA",
  "postalCode": "30611"
 },
 {
  "id": 3203110003,
  "districtId": 3203110,
  "districtName": "CAMPAKA",
  "name": "KARYAMUKTI",
  "postalCode": "36655"
 },
 {
  "id": 3203110004,
  "districtId": 3203110,
  "districtName": "CAMPAKA",
  "name": "CIMENTENG",
  "postalCode": "43263"
 },
 {
  "id": 3203110005,
  "districtId": 3203110,
  "districtName": "CAMPAKA",
  "name": "GIRIMUKTI",
  "postalCode": "46475"
 },
 {
  "id": 3203110006,
  "districtId": 3203110,
  "districtName": "CAMPAKA",
  "name": "SUSUKAN",
  "postalCode": "13750"
 },
 {
  "id": 3203110007,
  "districtId": 3203110,
  "districtName": "CAMPAKA",
  "name": "SUKAJADI",
  "postalCode": "24472"
 },
 {
  "id": 3203110008,
  "districtId": 3203110,
  "districtName": "CAMPAKA",
  "name": "MARGALUYU",
  "postalCode": "43263"
 },
 {
  "id": 3203110009,
  "districtId": 3203110,
  "districtName": "CAMPAKA",
  "name": "MEKARJAYA",
  "postalCode": "30653"
 },
 {
  "id": 3203110010,
  "districtId": 3203110,
  "districtName": "CAMPAKA",
  "name": "CIDADAP",
  "postalCode": "43263"
 },
 {
  "id": 3203110011,
  "districtId": 3203110,
  "districtName": "CAMPAKA",
  "name": "CAMPAKA",
  "postalCode": "40184"
 }
]