[
 {
  "id": 3203090001,
  "districtId": 3203090,
  "districtName": "SUKANAGARA",
  "name": "JAYAGIRI",
  "postalCode": "40391"
 },
 {
  "id": 3203090002,
  "districtId": 3203090,
  "districtName": "SUKANAGARA",
  "name": "CIGUHA",
  "postalCode": "43264"
 },
 {
  "id": 3203090003,
  "districtId": 3203090,
  "districtName": "SUKANAGARA",
  "name": "SUKAKARYA",
  "postalCode": "30771"
 },
 {
  "id": 3203090004,
  "districtId": 3203090,
  "districtName": "SUKANAGARA",
  "name": "SUKARAME",
  "postalCode": "24357"
 },
 {
  "id": 3203090005,
  "districtId": 3203090,
  "districtName": "SUKANAGARA",
  "name": "SUKALAKSANA",
  "postalCode": "44191"
 },
 {
  "id": 3203090006,
  "districtId": 3203090,
  "districtName": "SUKANAGARA",
  "name": "SUKANAGARA",
  "postalCode": "44174"
 },
 {
  "id": 3203090007,
  "districtId": 3203090,
  "districtName": "SUKANAGARA",
  "name": "GUNUNGSARI",
  "postalCode": "35368"
 },
 {
  "id": 3203090008,
  "districtId": 3203090,
  "districtName": "SUKANAGARA",
  "name": "SINDANGSARI",
  "postalCode": "46383"
 },
 {
  "id": 3203090009,
  "districtId": 3203090,
  "districtName": "SUKANAGARA",
  "name": "SUKAJEMBAR",
  "postalCode": "43264"
 },
 {
  "id": 3203090010,
  "districtId": 3203090,
  "districtName": "SUKANAGARA",
  "name": "SUKAMEKAR",
  "postalCode": "43271"
 }
]