[
 {
  "id": 3203150001,
  "districtId": 3203150,
  "districtName": "SUKALUYU",
  "name": "MEKARJAYA",
  "postalCode": "30653"
 },
 {
  "id": 3203150002,
  "districtId": 3203150,
  "districtName": "SUKALUYU",
  "name": "PANYUSUHAN",
  "postalCode": "43284"
 },
 {
  "id": 3203150003,
  "districtId": 3203150,
  "districtName": "SUKALUYU",
  "name": "SUKALUYU",
  "postalCode": "40123"
 },
 {
  "id": 3203150004,
  "districtId": 3203150,
  "districtName": "SUKALUYU",
  "name": "SUKAMULYA",
  "postalCode": "30657"
 },
 {
  "id": 3203150005,
  "districtId": 3203150,
  "districtName": "SUKALUYU",
  "name": "BABAKANSARI",
  "postalCode": "45464"
 },
 {
  "id": 3203150006,
  "districtId": 3203150,
  "districtName": "SUKALUYU",
  "name": "TANJUNGSARI",
  "postalCode": "28983"
 },
 {
  "id": 3203150007,
  "districtId": 3203150,
  "districtName": "SUKALUYU",
  "name": "SELAJAMBE",
  "postalCode": "43152"
 },
 {
  "id": 3203150008,
  "districtId": 3203150,
  "districtName": "SUKALUYU",
  "name": "HEGARMANAH",
  "postalCode": "41151"
 },
 {
  "id": 3203150009,
  "districtId": 3203150,
  "districtName": "SUKALUYU",
  "name": "SUKASIRNA",
  "postalCode": "43269"
 },
 {
  "id": 3203150010,
  "districtId": 3203150,
  "districtName": "SUKALUYU",
  "name": "SINDANGRAJA",
  "postalCode": "43182"
 }
]