[
 {
  "id": 3203131001,
  "districtId": 3203131,
  "districtName": "GEKBRONG",
  "name": "CINTAASIH",
  "postalCode": "45467"
 },
 {
  "id": 3203131002,
  "districtId": 3203131,
  "districtName": "GEKBRONG",
  "name": "CIKANCANA",
  "postalCode": "43261"
 },
 {
  "id": 3203131003,
  "districtId": 3203131,
  "districtName": "GEKBRONG",
  "name": "SUKARATU",
  "postalCode": "35551"
 },
 {
  "id": 3203131004,
  "districtId": 3203131,
  "districtName": "GEKBRONG",
  "name": "BANGBAYANG",
  "postalCode": "43359"
 },
 {
  "id": 3203131005,
  "districtId": 3203131,
  "districtName": "GEKBRONG",
  "name": "SONGGOM",
  "postalCode": "43261"
 },
 {
  "id": 3203131006,
  "districtId": 3203131,
  "districtName": "GEKBRONG",
  "name": "CIKAHURIPAN",
  "postalCode": "45364"
 },
 {
  "id": 3203131007,
  "districtId": 3203131,
  "districtName": "GEKBRONG",
  "name": "GEKBRONG",
  "postalCode": "43261"
 },
 {
  "id": 3203131008,
  "districtId": 3203131,
  "districtName": "GEKBRONG",
  "name": "KEBONPEUTEUY",
  "postalCode": "43261"
 }
]