[
 {
  "id": 3203071001,
  "districtId": 3203071,
  "districtName": "CIJATI",
  "name": "PADAASIH",
  "postalCode": "41285"
 },
 {
  "id": 3203071002,
  "districtId": 3203071,
  "districtName": "CIJATI",
  "name": "SUKALUYU",
  "postalCode": "40123"
 },
 {
  "id": 3203071003,
  "districtId": 3203071,
  "districtName": "CIJATI",
  "name": "SINARBAKTI",
  "postalCode": "43284"
 },
 {
  "id": 3203071004,
  "districtId": 3203071,
  "districtName": "CIJATI",
  "name": "BOJONGLARANG",
  "postalCode": "43284"
 },
 {
  "id": 3203071005,
  "districtId": 3203071,
  "districtName": "CIJATI",
  "name": "SUKAMAHI",
  "postalCode": "43284"
 },
 {
  "id": 3203071006,
  "districtId": 3203071,
  "districtName": "CIJATI",
  "name": "CIJATI",
  "postalCode": "43284"
 },
 {
  "id": 3203071007,
  "districtId": 3203071,
  "districtName": "CIJATI",
  "name": "CIBODAS",
  "postalCode": "43353"
 },
 {
  "id": 3203071008,
  "districtId": 3203071,
  "districtName": "CIJATI",
  "name": "CARINGIN",
  "postalCode": "40212"
 },
 {
  "id": 3203071009,
  "districtId": 3203071,
  "districtName": "CIJATI",
  "name": "PARAKANTUGU",
  "postalCode": "43284"
 },
 {
  "id": 3203071010,
  "districtId": 3203071,
  "districtName": "CIJATI",
  "name": "SUKAMAJU",
  "postalCode": "22465"
 }
]