[
 {
  "id": 3204130001,
  "districtId": 3204130,
  "districtName": "CIPARAY",
  "name": "BABAKAN",
  "postalCode": "35675"
 },
 {
  "id": 3204130002,
  "districtId": 3204130,
  "districtName": "CIPARAY",
  "name": "CIKONENG",
  "postalCode": "46261"
 },
 {
  "id": 3204130003,
  "districtId": 3204130,
  "districtName": "CIPARAY",
  "name": "SIGARACIPTA",
  "postalCode": "40381"
 },
 {
  "id": 3204130004,
  "districtId": 3204130,
  "districtName": "CIPARAY",
  "name": "PAKUTANDANG",
  "postalCode": "40381"
 },
 {
  "id": 3204130005,
  "districtId": 3204130,
  "districtName": "CIPARAY",
  "name": "MANGGUNGHARJA",
  "postalCode": "40381"
 },
 {
  "id": 3204130006,
  "districtId": 3204130,
  "districtName": "CIPARAY",
  "name": "MEKARSARI",
  "postalCode": "37482"
 },
 {
  "id": 3204130007,
  "districtId": 3204130,
  "districtName": "CIPARAY",
  "name": "CIPARAY",
  "postalCode": "46352"
 },
 {
  "id": 3204130008,
  "districtId": 3204130,
  "districtName": "CIPARAY",
  "name": "SUMBERSARI",
  "postalCode": "34122"
 },
 {
  "id": 3204130009,
  "districtId": 3204130,
  "districtName": "CIPARAY",
  "name": "SARIMAHI",
  "postalCode": "40381"
 },
 {
  "id": 3204130010,
  "districtId": 3204130,
  "districtName": "CIPARAY",
  "name": "SERANGMEKAR",
  "postalCode": "40381"
 },
 {
  "id": 3204130011,
  "districtId": 3204130,
  "districtName": "CIPARAY",
  "name": "GUNUNGLEUTIK",
  "postalCode": "40381"
 },
 {
  "id": 3204130012,
  "districtId": 3204130,
  "districtName": "CIPARAY",
  "name": "CIHEULANG",
  "postalCode": "40381"
 },
 {
  "id": 3204130013,
  "districtId": 3204130,
  "districtName": "CIPARAY",
  "name": "MEKARLAKSANA",
  "postalCode": "43284"
 },
 {
  "id": 3204130014,
  "districtId": 3204130,
  "districtName": "CIPARAY",
  "name": "BUMIWANGI",
  "postalCode": "40381"
 }
]