[
 {
  "id": 3204030001,
  "districtId": 3204030,
  "districtName": "CIMAUNG",
  "name": "CIKALONG",
  "postalCode": "40556"
 },
 {
  "id": 3204030002,
  "districtId": 3204030,
  "districtName": "CIMAUNG",
  "name": "MEKARSARI",
  "postalCode": "37482"
 },
 {
  "id": 3204030003,
  "districtId": 3204030,
  "districtName": "CIMAUNG",
  "name": "CIPINANG",
  "postalCode": "13240"
 },
 {
  "id": 3204030004,
  "districtId": 3204030,
  "districtName": "CIMAUNG",
  "name": "CIMAUNG",
  "postalCode": "40374"
 },
 {
  "id": 3204030005,
  "districtId": 3204030,
  "districtName": "CIMAUNG",
  "name": "CAMPAKAMULYA",
  "postalCode": "43269"
 },
 {
  "id": 3204030006,
  "districtId": 3204030,
  "districtName": "CIMAUNG",
  "name": "PASIRHUNI",
  "postalCode": "46156"
 },
 {
  "id": 3204030007,
  "districtId": 3204030,
  "districtName": "CIMAUNG",
  "name": "JAGABAYA",
  "postalCode": "31452"
 },
 {
  "id": 3204030008,
  "districtId": 3204030,
  "districtName": "CIMAUNG",
  "name": "MALASARI",
  "postalCode": "40374"
 },
 {
  "id": 3204030009,
  "districtId": 3204030,
  "districtName": "CIMAUNG",
  "name": "SUKAMAJU",
  "postalCode": "22465"
 },
 {
  "id": 3204030010,
  "districtId": 3204030,
  "districtName": "CIMAUNG",
  "name": "WARJABAKTI",
  "postalCode": "40374"
 }
]