[
 {
  "id": 3204090001,
  "districtId": 3204090,
  "districtName": "CIKANCUNG",
  "name": "SRIRAHAYU",
  "postalCode": "40396"
 },
 {
  "id": 3204090002,
  "districtId": 3204090,
  "districtName": "CIKANCUNG",
  "name": "CILULUK",
  "postalCode": "40396"
 },
 {
  "id": 3204090003,
  "districtId": 3204090,
  "districtName": "CIKANCUNG",
  "name": "MEKARLAKSANA",
  "postalCode": "43284"
 },
 {
  "id": 3204090004,
  "districtId": 3204090,
  "districtName": "CIKANCUNG",
  "name": "CIHANYIR",
  "postalCode": "40396"
 },
 {
  "id": 3204090005,
  "districtId": 3204090,
  "districtName": "CIKANCUNG",
  "name": "CIKANCUNG",
  "postalCode": "40396"
 },
 {
  "id": 3204090006,
  "districtId": 3204090,
  "districtName": "CIKANCUNG",
  "name": "MANDALASARI",
  "postalCode": "35597"
 },
 {
  "id": 3204090007,
  "districtId": 3204090,
  "districtName": "CIKANCUNG",
  "name": "HEGARMANAH",
  "postalCode": "41151"
 },
 {
  "id": 3204090008,
  "districtId": 3204090,
  "districtName": "CIKANCUNG",
  "name": "CIKASUNGKA",
  "postalCode": "40396"
 },
 {
  "id": 3204090009,
  "districtId": 3204090,
  "districtName": "CIKANCUNG",
  "name": "TANJUNGLAYA",
  "postalCode": "40396"
 }
]