[
 {
  "id": 3204140001,
  "districtId": 3204140,
  "districtName": "BALEENDAH",
  "name": "JELEKONG",
  "postalCode": "40375"
 },
 {
  "id": 3204140002,
  "districtId": 3204140,
  "districtName": "BALEENDAH",
  "name": "MANGGAHANG",
  "postalCode": "40375"
 },
 {
  "id": 3204140003,
  "districtId": 3204140,
  "districtName": "BALEENDAH",
  "name": "BALEENDAH",
  "postalCode": "40375"
 },
 {
  "id": 3204140004,
  "districtId": 3204140,
  "districtName": "BALEENDAH",
  "name": "ANDIR",
  "postalCode": "40375"
 },
 {
  "id": 3204140005,
  "districtId": 3204140,
  "districtName": "BALEENDAH",
  "name": "MALAKASARI",
  "postalCode": "40258"
 },
 {
  "id": 3204140006,
  "districtId": 3204140,
  "districtName": "BALEENDAH",
  "name": "BOJONGMALAKA",
  "postalCode": "40375"
 },
 {
  "id": 3204140007,
  "districtId": 3204140,
  "districtName": "BALEENDAH",
  "name": "RANCAMANYAR",
  "postalCode": "40375"
 },
 {
  "id": 3204140008,
  "districtId": 3204140,
  "districtName": "BALEENDAH",
  "name": "WARGAMEKAR",
  "postalCode": "40375"
 }
]