[
 {
  "id": 3204150001,
  "districtId": 3204150,
  "districtName": "ARJASARI",
  "name": "BATUKARUT",
  "postalCode": "40379"
 },
 {
  "id": 3204150002,
  "districtId": 3204150,
  "districtName": "ARJASARI",
  "name": "MANGUNJAYA",
  "postalCode": "45256"
 },
 {
  "id": 3204150003,
  "districtId": 3204150,
  "districtName": "ARJASARI",
  "name": "MEKARJAYA",
  "postalCode": "30653"
 },
 {
  "id": 3204150004,
  "districtId": 3204150,
  "districtName": "ARJASARI",
  "name": "BAROS",
  "postalCode": "35611"
 },
 {
  "id": 3204150005,
  "districtId": 3204150,
  "districtName": "ARJASARI",
  "name": "LEBAKWANGI",
  "postalCode": "40379"
 },
 {
  "id": 3204150006,
  "districtId": 3204150,
  "districtName": "ARJASARI",
  "name": "WARGALUYU",
  "postalCode": "40379"
 },
 {
  "id": 3204150007,
  "districtId": 3204150,
  "districtName": "ARJASARI",
  "name": "ARJASARI",
  "postalCode": "40379"
 },
 {
  "id": 3204150008,
  "districtId": 3204150,
  "districtName": "ARJASARI",
  "name": "PINGGIRSARI",
  "postalCode": "40379"
 },
 {
  "id": 3204150009,
  "districtId": 3204150,
  "districtName": "ARJASARI",
  "name": "PATROLSARI",
  "postalCode": "40379"
 },
 {
  "id": 3204150010,
  "districtId": 3204150,
  "districtName": "ARJASARI",
  "name": "RANCAKOLE",
  "postalCode": "40379"
 },
 {
  "id": 3204150011,
  "districtId": 3204150,
  "districtName": "ARJASARI",
  "name": "ANCOLMEKAR",
  "postalCode": "40379"
 }
]