[
 {
  "id": 3204191001,
  "districtId": 3204191,
  "districtName": "KUTAWARINGIN",
  "name": "CILAME",
  "postalCode": "40911"
 },
 {
  "id": 3204191002,
  "districtId": 3204191,
  "districtName": "KUTAWARINGIN",
  "name": "BUNINAGARA",
  "postalCode": "40911"
 },
 {
  "id": 3204191003,
  "districtId": 3204191,
  "districtName": "KUTAWARINGIN",
  "name": "PADASUKA",
  "postalCode": "44185"
 },
 {
  "id": 3204191004,
  "districtId": 3204191,
  "districtName": "KUTAWARINGIN",
  "name": "SUKAMULYA",
  "postalCode": "30657"
 },
 {
  "id": 3204191005,
  "districtId": 3204191,
  "districtName": "KUTAWARINGIN",
  "name": "KUTAWARINGIN",
  "postalCode": "40911"
 },
 {
  "id": 3204191006,
  "districtId": 3204191,
  "districtName": "KUTAWARINGIN",
  "name": "KOPO",
  "postalCode": "40233"
 },
 {
  "id": 3204191007,
  "districtId": 3204191,
  "districtName": "KUTAWARINGIN",
  "name": "CIBODAS",
  "postalCode": "43353"
 },
 {
  "id": 3204191008,
  "districtId": 3204191,
  "districtName": "KUTAWARINGIN",
  "name": "JATISARI",
  "postalCode": "32362"
 },
 {
  "id": 3204191009,
  "districtId": 3204191,
  "districtName": "KUTAWARINGIN",
  "name": "JELEGONG",
  "postalCode": "46352"
 },
 {
  "id": 3204191010,
  "districtId": 3204191,
  "districtName": "KUTAWARINGIN",
  "name": "GAJAHMEKAR",
  "postalCode": "40911"
 },
 {
  "id": 3204191011,
  "districtId": 3204191,
  "districtName": "KUTAWARINGIN",
  "name": "PAMEUNTASAN",
  "postalCode": "40911"
 }
]