[
 {
  "id": 3205212001,
  "districtId": 3205212,
  "districtName": "PANGATIKAN",
  "name": "SUKAHURIP",
  "postalCode": "44116"
 },
 {
  "id": 3205212002,
  "districtId": 3205212,
  "districtName": "PANGATIKAN",
  "name": "BABAKANLOA",
  "postalCode": "44183"
 },
 {
  "id": 3205212003,
  "districtId": 3205212,
  "districtName": "PANGATIKAN",
  "name": "SUKARASA",
  "postalCode": "45562"
 },
 {
  "id": 3205212004,
  "districtId": 3205212,
  "districtName": "PANGATIKAN",
  "name": "CIMARAGAS",
  "postalCode": "46381"
 },
 {
  "id": 3205212005,
  "districtId": 3205212,
  "districtName": "PANGATIKAN",
  "name": "CIHUNI",
  "postalCode": "44183"
 },
 {
  "id": 3205212006,
  "districtId": 3205212,
  "districtName": "PANGATIKAN",
  "name": "CITANGTU",
  "postalCode": "45516"
 },
 {
  "id": 3205212007,
  "districtId": 3205212,
  "districtName": "PANGATIKAN",
  "name": "KARANGSARI",
  "postalCode": "35376"
 },
 {
  "id": 3205212008,
  "districtId": 3205212,
  "districtName": "PANGATIKAN",
  "name": "SUKAMULYA",
  "postalCode": "30657"
 }
]