[
 {
  "id": 3205160001,
  "districtId": 3205160,
  "districtName": "CISURUPAN",
  "name": "SUKAWARGI",
  "postalCode": "44163"
 },
 {
  "id": 3205160002,
  "districtId": 3205160,
  "districtName": "CISURUPAN",
  "name": "SUKATANI",
  "postalCode": "41384"
 },
 {
  "id": 3205160003,
  "districtId": 3205160,
  "districtName": "CISURUPAN",
  "name": "CIDATAR",
  "postalCode": "44163"
 },
 {
  "id": 3205160004,
  "districtId": 3205160,
  "districtName": "CISURUPAN",
  "name": "CISERO",
  "postalCode": "44163"
 },
 {
  "id": 3205160005,
  "districtId": 3205160,
  "districtName": "CISURUPAN",
  "name": "CISURUPAN",
  "postalCode": "40614"
 },
 {
  "id": 3205160006,
  "districtId": 3205160,
  "districtName": "CISURUPAN",
  "name": "KARAMATWANGI",
  "postalCode": "44163"
 },
 {
  "id": 3205160007,
  "districtId": 3205160,
  "districtName": "CISURUPAN",
  "name": "BALEWANGI",
  "postalCode": "44163"
 },
 {
  "id": 3205160008,
  "districtId": 3205160,
  "districtName": "CISURUPAN",
  "name": "TAMBAKBAYA",
  "postalCode": "44163"
 },
 {
  "id": 3205160009,
  "districtId": 3205160,
  "districtName": "CISURUPAN",
  "name": "SIRNAJAYA",
  "postalCode": "44163"
 },
 {
  "id": 3205160010,
  "districtId": 3205160,
  "districtName": "CISURUPAN",
  "name": "SIRNAGALIH",
  "postalCode": "35387"
 },
 {
  "id": 3205160011,
  "districtId": 3205160,
  "districtName": "CISURUPAN",
  "name": "PAKUWON",
  "postalCode": "44163"
 },
 {
  "id": 3205160012,
  "districtId": 3205160,
  "districtName": "CISURUPAN",
  "name": "SIMPANGSARI",
  "postalCode": "34871"
 },
 {
  "id": 3205160013,
  "districtId": 3205160,
  "districtName": "CISURUPAN",
  "name": "PANGAUBAN",
  "postalCode": "40561"
 },
 {
  "id": 3205160014,
  "districtId": 3205160,
  "districtName": "CISURUPAN",
  "name": "CIPAGANTI",
  "postalCode": "44163"
 },
 {
  "id": 3205160015,
  "districtId": 3205160,
  "districtName": "CISURUPAN",
  "name": "PAMULIHAN",
  "postalCode": "45592"
 },
 {
  "id": 3205160016,
  "districtId": 3205160,
  "districtName": "CISURUPAN",
  "name": "SITUSARI",
  "postalCode": "44163"
 },
 {
  "id": 3205160017,
  "districtId": 3205160,
  "districtName": "CISURUPAN",
  "name": "CINTAASIH",
  "postalCode": "45467"
 }
]