[
 {
  "id": 3205260001,
  "districtId": 3205260,
  "districtName": "CIBATU",
  "name": "CIBATU",
  "postalCode": "44185"
 },
 {
  "id": 3205260002,
  "districtId": 3205260,
  "districtName": "CIBATU",
  "name": "KERTAJAYA",
  "postalCode": "45255"
 },
 {
  "id": 3205260003,
  "districtId": 3205260,
  "districtName": "CIBATU",
  "name": "WANAKERTA",
  "postalCode": "41181"
 },
 {
  "id": 3205260004,
  "districtId": 3205260,
  "districtName": "CIBATU",
  "name": "KARYAMUKTI",
  "postalCode": "36655"
 },
 {
  "id": 3205260005,
  "districtId": 3205260,
  "districtName": "CIBATU",
  "name": "PADASUKA",
  "postalCode": "44185"
 },
 {
  "id": 3205260007,
  "districtId": 3205260,
  "districtName": "CIBATU",
  "name": "CIBUNAR",
  "postalCode": "44185"
 },
 {
  "id": 3205260008,
  "districtId": 3205260,
  "districtName": "CIBATU",
  "name": "SUKALILAH",
  "postalCode": "44185"
 },
 {
  "id": 3205260009,
  "districtId": 3205260,
  "districtName": "CIBATU",
  "name": "GIRIMUKTI",
  "postalCode": "46475"
 },
 {
  "id": 3205260015,
  "districtId": 3205260,
  "districtName": "CIBATU",
  "name": "MEKARSARI",
  "postalCode": "37482"
 },
 {
  "id": 3205260016,
  "districtId": 3205260,
  "districtName": "CIBATU",
  "name": "SINDANGSUKA",
  "postalCode": "44185"
 }
]