[
 {
  "id": 3205120001,
  "districtId": 3205120,
  "districtName": "CIKAJANG",
  "name": "CIPANGRAMATAN",
  "postalCode": "44171"
 },
 {
  "id": 3205120002,
  "districtId": 3205120,
  "districtName": "CIKAJANG",
  "name": "MEKARJAYA",
  "postalCode": "30653"
 },
 {
  "id": 3205120003,
  "districtId": 3205120,
  "districtName": "CIKAJANG",
  "name": "GIRIJAYA",
  "postalCode": "46475"
 },
 {
  "id": 3205120004,
  "districtId": 3205120,
  "districtName": "CIKAJANG",
  "name": "GIRIAWAS",
  "postalCode": "44171"
 },
 {
  "id": 3205120005,
  "districtId": 3205120,
  "districtName": "CIKAJANG",
  "name": "CIBODAS",
  "postalCode": "43353"
 },
 {
  "id": 3205120006,
  "districtId": 3205120,
  "districtName": "CIKAJANG",
  "name": "CIKAJANG",
  "postalCode": "44171"
 },
 {
  "id": 3205120007,
  "districtId": 3205120,
  "districtName": "CIKAJANG",
  "name": "PADASUKA",
  "postalCode": "44185"
 },
 {
  "id": 3205120008,
  "districtId": 3205120,
  "districtName": "CIKAJANG",
  "name": "MEKARSARI",
  "postalCode": "37482"
 },
 {
  "id": 3205120009,
  "districtId": 3205120,
  "districtName": "CIKAJANG",
  "name": "SIMPANG",
  "postalCode": "23773"
 },
 {
  "id": 3205120010,
  "districtId": 3205120,
  "districtName": "CIKAJANG",
  "name": "CIKANDANG",
  "postalCode": "44171"
 },
 {
  "id": 3205120011,
  "districtId": 3205120,
  "districtName": "CIKAJANG",
  "name": "MARGAMULYA",
  "postalCode": "45255"
 },
 {
  "id": 3205120012,
  "districtId": 3205120,
  "districtName": "CIKAJANG",
  "name": "KARAMATWANGI",
  "postalCode": "44163"
 }
]