[
 {
  "id": 3205190001,
  "districtId": 3205190,
  "districtName": "GARUT KOTA",
  "name": "MARGAWATI",
  "postalCode": "44113"
 },
 {
  "id": 3205190002,
  "districtId": 3205190,
  "districtName": "GARUT KOTA",
  "name": "SUKANEGLA",
  "postalCode": "44111"
 },
 {
  "id": 3205190003,
  "districtId": 3205190,
  "districtName": "GARUT KOTA",
  "name": "CIMUNCANG",
  "postalCode": "44113"
 },
 {
  "id": 3205190004,
  "districtId": 3205190,
  "districtName": "GARUT KOTA",
  "name": "KOTAWETAN",
  "postalCode": "44111"
 },
 {
  "id": 3205190005,
  "districtId": 3205190,
  "districtName": "GARUT KOTA",
  "name": "KOTAKULON",
  "postalCode": "44112"
 },
 {
  "id": 3205190006,
  "districtId": 3205190,
  "districtName": "GARUT KOTA",
  "name": "MUARA SANDING",
  "postalCode": "44119"
 },
 {
  "id": 3205190007,
  "districtId": 3205190,
  "districtName": "GARUT KOTA",
  "name": "PAMINGGIR",
  "postalCode": "44118"
 },
 {
  "id": 3205190008,
  "districtId": 3205190,
  "districtName": "GARUT KOTA",
  "name": "REGOL",
  "postalCode": "44114"
 },
 {
  "id": 3205190009,
  "districtId": 3205190,
  "districtName": "GARUT KOTA",
  "name": "CIWALEN",
  "postalCode": "44115"
 },
 {
  "id": 3205190010,
  "districtId": 3205190,
  "districtName": "GARUT KOTA",
  "name": "PAKUWON",
  "postalCode": "44163"
 },
 {
  "id": 3205190011,
  "districtId": 3205190,
  "districtName": "GARUT KOTA",
  "name": "SUKAMANTRI",
  "postalCode": "46156"
 }
]