[
 {
  "id": 3205090001,
  "districtId": 3205090,
  "districtName": "CISOMPET",
  "name": "DEPOK",
  "postalCode": "44174"
 },
 {
  "id": 3205090002,
  "districtId": 3205090,
  "districtName": "CISOMPET",
  "name": "SUKANAGARA",
  "postalCode": "44174"
 },
 {
  "id": 3205090003,
  "districtId": 3205090,
  "districtName": "CISOMPET",
  "name": "CIHAURKUNING",
  "postalCode": "44174"
 },
 {
  "id": 3205090004,
  "districtId": 3205090,
  "districtName": "CISOMPET",
  "name": "CIKONDANG",
  "postalCode": "43283"
 },
 {
  "id": 3205090005,
  "districtId": 3205090,
  "districtName": "CISOMPET",
  "name": "JATISARI",
  "postalCode": "32362"
 },
 {
  "id": 3205090006,
  "districtId": 3205090,
  "districtName": "CISOMPET",
  "name": "CISOMPET",
  "postalCode": "44174"
 },
 {
  "id": 3205090007,
  "districtId": 3205090,
  "districtName": "CISOMPET",
  "name": "SUKAMUKTI",
  "postalCode": "44191"
 },
 {
  "id": 3205090008,
  "districtId": 3205090,
  "districtName": "CISOMPET",
  "name": "PANYINDANGAN",
  "postalCode": "45468"
 },
 {
  "id": 3205090009,
  "districtId": 3205090,
  "districtName": "CISOMPET",
  "name": "MARGAMULYA",
  "postalCode": "45255"
 },
 {
  "id": 3205090010,
  "districtId": 3205090,
  "districtName": "CISOMPET",
  "name": "SINDANGSARI",
  "postalCode": "46383"
 },
 {
  "id": 3205090011,
  "districtId": 3205090,
  "districtName": "CISOMPET",
  "name": "NEGLASARI",
  "postalCode": "35452"
 }
]