[
 {
  "id": 3205210005,
  "districtId": 3205210,
  "districtName": "WANARAJA",
  "name": "SUKAMENAK",
  "postalCode": "45464"
 },
 {
  "id": 3205210007,
  "districtId": 3205210,
  "districtName": "WANARAJA",
  "name": "SINDANGMEKAR",
  "postalCode": "45652"
 },
 {
  "id": 3205210008,
  "districtId": 3205210,
  "districtName": "WANARAJA",
  "name": "SINDANGRATU",
  "postalCode": "44183"
 },
 {
  "id": 3205210012,
  "districtId": 3205210,
  "districtName": "WANARAJA",
  "name": "CINUNUK",
  "postalCode": "40624"
 },
 {
  "id": 3205210013,
  "districtId": 3205210,
  "districtName": "WANARAJA",
  "name": "WANAMEKAR",
  "postalCode": "44183"
 },
 {
  "id": 3205210014,
  "districtId": 3205210,
  "districtName": "WANARAJA",
  "name": "WANARAJA",
  "postalCode": "44183"
 },
 {
  "id": 3205210015,
  "districtId": 3205210,
  "districtName": "WANARAJA",
  "name": "WANASARI",
  "postalCode": "43273"
 },
 {
  "id": 3205210016,
  "districtId": 3205210,
  "districtName": "WANARAJA",
  "name": "WANAJAYA",
  "postalCode": "17520"
 },
 {
  "id": 3205210017,
  "districtId": 3205210,
  "districtName": "WANARAJA",
  "name": "SINDANGPRABU",
  "postalCode": "44183"
 }
]