[
 {
  "id": 3205250001,
  "districtId": 3205250,
  "districtName": "LEUWIGOONG",
  "name": "MARGAHAYU",
  "postalCode": "17113"
 },
 {
  "id": 3205250002,
  "districtId": 3205250,
  "districtName": "LEUWIGOONG",
  "name": "MARGACINTA",
  "postalCode": "46394"
 },
 {
  "id": 3205250003,
  "districtId": 3205250,
  "districtName": "LEUWIGOONG",
  "name": "DUNGUSIKU",
  "postalCode": "44192"
 },
 {
  "id": 3205250004,
  "districtId": 3205250,
  "districtName": "LEUWIGOONG",
  "name": "TAMBAKSARI",
  "postalCode": "44192"
 },
 {
  "id": 3205250005,
  "districtId": 3205250,
  "districtName": "LEUWIGOONG",
  "name": "KARANGSARI",
  "postalCode": "35376"
 },
 {
  "id": 3205250006,
  "districtId": 3205250,
  "districtName": "LEUWIGOONG",
  "name": "KARANGANYAR",
  "postalCode": "40241"
 },
 {
  "id": 3205250007,
  "districtId": 3205250,
  "districtName": "LEUWIGOONG",
  "name": "SINDANGSARI",
  "postalCode": "46383"
 },
 {
  "id": 3205250008,
  "districtId": 3205250,
  "districtName": "LEUWIGOONG",
  "name": "LEUWIGOONG",
  "postalCode": "44192"
 }
]