[
 {
  "id": 3206100001,
  "districtId": 3206100,
  "districtName": "TARAJU",
  "name": "BANYUASIH",
  "postalCode": "41374"
 },
 {
  "id": 3206100002,
  "districtId": 3206100,
  "districtName": "TARAJU",
  "name": "TARAJU",
  "postalCode": "45573"
 },
 {
  "id": 3206100003,
  "districtId": 3206100,
  "districtName": "TARAJU",
  "name": "RAKSASARI",
  "postalCode": "46474"
 },
 {
  "id": 3206100004,
  "districtId": 3206100,
  "districtName": "TARAJU",
  "name": "SINGASARI",
  "postalCode": "16830"
 },
 {
  "id": 3206100005,
  "districtId": 3206100,
  "districtName": "TARAJU",
  "name": "CIKUBANG",
  "postalCode": "46474"
 },
 {
  "id": 3206100007,
  "districtId": 3206100,
  "districtName": "TARAJU",
  "name": "KERTARAHARJA",
  "postalCode": "43157"
 },
 {
  "id": 3206100008,
  "districtId": 3206100,
  "districtName": "TARAJU",
  "name": "PURWARAHAYU",
  "postalCode": "46474"
 },
 {
  "id": 3206100009,
  "districtId": 3206100,
  "districtName": "TARAJU",
  "name": "PAGERALAM",
  "postalCode": "46474"
 }
]