[
 {
  "id": 3206160007,
  "districtId": 3206160,
  "districtName": "MANONJAYA",
  "name": "BATUSUMUR",
  "postalCode": "46197"
 },
 {
  "id": 3206160008,
  "districtId": 3206160,
  "districtName": "MANONJAYA",
  "name": "CIHAUR",
  "postalCode": "45591"
 },
 {
  "id": 3206160009,
  "districtId": 3206160,
  "districtName": "MANONJAYA",
  "name": "PASIRPANJANG",
  "postalCode": "43176"
 },
 {
  "id": 3206160010,
  "districtId": 3206160,
  "districtName": "MANONJAYA",
  "name": "KALIMANGGIS",
  "postalCode": "46197"
 },
 {
  "id": 3206160011,
  "districtId": 3206160,
  "districtName": "MANONJAYA",
  "name": "CIBEBER",
  "postalCode": "46195"
 },
 {
  "id": 3206160012,
  "districtId": 3206160,
  "districtName": "MANONJAYA",
  "name": "GUNAJAYA",
  "postalCode": "46197"
 },
 {
  "id": 3206160013,
  "districtId": 3206160,
  "districtName": "MANONJAYA",
  "name": "MARGAHAYU",
  "postalCode": "17113"
 },
 {
  "id": 3206160014,
  "districtId": 3206160,
  "districtName": "MANONJAYA",
  "name": "KAMULYAN",
  "postalCode": "46197"
 },
 {
  "id": 3206160015,
  "districtId": 3206160,
  "districtName": "MANONJAYA",
  "name": "MANONJAYA",
  "postalCode": "46197"
 },
 {
  "id": 3206160016,
  "districtId": 3206160,
  "districtName": "MANONJAYA",
  "name": "MARGALUYU",
  "postalCode": "43263"
 },
 {
  "id": 3206160017,
  "districtId": 3206160,
  "districtName": "MANONJAYA",
  "name": "CILANGKAP",
  "postalCode": "13870"
 },
 {
  "id": 3206160018,
  "districtId": 3206160,
  "districtName": "MANONJAYA",
  "name": "PASIRBATANG",
  "postalCode": "46197"
 }
]