[
 {
  "id": 3206271001,
  "districtId": 3206271,
  "districtName": "SUKARESIK",
  "name": "MARGAMULYA",
  "postalCode": "45255"
 },
 {
  "id": 3206271002,
  "districtId": 3206271,
  "districtName": "SUKARESIK",
  "name": "CIPONDOK",
  "postalCode": "45587"
 },
 {
  "id": 3206271003,
  "districtId": 3206271,
  "districtName": "SUKARESIK",
  "name": "SUKAMENAK",
  "postalCode": "45464"
 },
 {
  "id": 3206271004,
  "districtId": 3206271,
  "districtName": "SUKARESIK",
  "name": "SUKARESIK",
  "postalCode": "46365"
 },
 {
  "id": 3206271005,
  "districtId": 3206271,
  "districtName": "SUKARESIK",
  "name": "SUKARATU",
  "postalCode": "35551"
 },
 {
  "id": 3206271006,
  "districtId": 3206271,
  "districtName": "SUKARESIK",
  "name": "BANJARSARI",
  "postalCode": "35377"
 },
 {
  "id": 3206271007,
  "districtId": 3206271,
  "districtName": "SUKARESIK",
  "name": "SUKAPANCAR",
  "postalCode": "46418"
 },
 {
  "id": 3206271008,
  "districtId": 3206271,
  "districtName": "SUKARESIK",
  "name": "TANJUNGSARI",
  "postalCode": "28983"
 }
]