[
 {
  "id": 3206221001,
  "districtId": 3206221,
  "districtName": "SUKARATU",
  "name": "TAWANGBANTENG",
  "postalCode": "46415"
 },
 {
  "id": 3206221002,
  "districtId": 3206221,
  "districtName": "SUKARATU",
  "name": "GUNUNGSARI",
  "postalCode": "35368"
 },
 {
  "id": 3206221003,
  "districtId": 3206221,
  "districtName": "SUKARATU",
  "name": "SUKAMAHI",
  "postalCode": "43284"
 },
 {
  "id": 3206221004,
  "districtId": 3206221,
  "districtName": "SUKARATU",
  "name": "SUKAGALIH",
  "postalCode": "43291"
 },
 {
  "id": 3206221005,
  "districtId": 3206221,
  "districtName": "SUKARATU",
  "name": "INDRAJAYA",
  "postalCode": "46415"
 },
 {
  "id": 3206221006,
  "districtId": 3206221,
  "districtName": "SUKARATU",
  "name": "SUKARATU",
  "postalCode": "35551"
 },
 {
  "id": 3206221007,
  "districtId": 3206221,
  "districtName": "SUKARATU",
  "name": "SINAGAR",
  "postalCode": "46415"
 },
 {
  "id": 3206221008,
  "districtId": 3206221,
  "districtName": "SUKARATU",
  "name": "LINGGAJATI",
  "postalCode": "45365"
 }
]