[
 {
  "id": 3206130001,
  "districtId": 3206130,
  "districtName": "SUKARAJA",
  "name": "MEKARJAYA",
  "postalCode": "30653"
 },
 {
  "id": 3206130002,
  "districtId": 3206130,
  "districtName": "SUKARAJA",
  "name": "SIRNAJAYA",
  "postalCode": "44163"
 },
 {
  "id": 3206130003,
  "districtId": 3206130,
  "districtName": "SUKARAJA",
  "name": "JANGGALA",
  "postalCode": "46352"
 },
 {
  "id": 3206130004,
  "districtId": 3206130,
  "districtName": "SUKARAJA",
  "name": "SUKAPURA",
  "postalCode": "35597"
 },
 {
  "id": 3206130005,
  "districtId": 3206130,
  "districtName": "SUKARAJA",
  "name": "TARUNAJAYA",
  "postalCode": "45372"
 },
 {
  "id": 3206130006,
  "districtId": 3206130,
  "districtName": "SUKARAJA",
  "name": "LEUWIBUDAH",
  "postalCode": "46183"
 },
 {
  "id": 3206130007,
  "districtId": 3206130,
  "districtName": "SUKARAJA",
  "name": "LINGGARAJA",
  "postalCode": "46183"
 },
 {
  "id": 3206130008,
  "districtId": 3206130,
  "districtName": "SUKARAJA",
  "name": "MARGALAKSANA",
  "postalCode": "44165"
 }
]