[
 {
  "id": 3206190007,
  "districtId": 3206190,
  "districtName": "SINGAPARNA",
  "name": "SUKAASIH",
  "postalCode": "46196"
 },
 {
  "id": 3206190008,
  "districtId": 3206190,
  "districtName": "SINGAPARNA",
  "name": "CIKUNTEN",
  "postalCode": "46414"
 },
 {
  "id": 3206190009,
  "districtId": 3206190,
  "districtName": "SINGAPARNA",
  "name": "SUKAHERANG",
  "postalCode": "46413"
 },
 {
  "id": 3206190010,
  "districtId": 3206190,
  "districtName": "SINGAPARNA",
  "name": "SINGASARI",
  "postalCode": "16830"
 },
 {
  "id": 3206190011,
  "districtId": 3206190,
  "districtName": "SINGAPARNA",
  "name": "SINGAPARNA",
  "postalCode": "46411"
 },
 {
  "id": 3206190012,
  "districtId": 3206190,
  "districtName": "SINGAPARNA",
  "name": "SUKAMULYA",
  "postalCode": "30657"
 },
 {
  "id": 3206190013,
  "districtId": 3206190,
  "districtName": "SINGAPARNA",
  "name": "CIPAKAT",
  "postalCode": "46417"
 },
 {
  "id": 3206190020,
  "districtId": 3206190,
  "districtName": "SINGAPARNA",
  "name": "CINTARAJA",
  "postalCode": "46417"
 },
 {
  "id": 3206190021,
  "districtId": 3206190,
  "districtName": "SINGAPARNA",
  "name": "CIKUNIR",
  "postalCode": "46418"
 },
 {
  "id": 3206190022,
  "districtId": 3206190,
  "districtName": "SINGAPARNA",
  "name": "CIKADONGDONG",
  "postalCode": "46475"
 }
]