[
 {
  "id": 3206061001,
  "districtId": 3206061,
  "districtName": "PARUNGPONTENG",
  "name": "KARYABAKTI",
  "postalCode": "41354"
 },
 {
  "id": 3206061002,
  "districtId": 3206061,
  "districtName": "PARUNGPONTENG",
  "name": "CIGUNUNG",
  "postalCode": "46185"
 },
 {
  "id": 3206061003,
  "districtId": 3206061,
  "districtName": "PARUNGPONTENG",
  "name": "CIBUNGUR",
  "postalCode": "41181"
 },
 {
  "id": 3206061004,
  "districtId": 3206061,
  "districtName": "PARUNGPONTENG",
  "name": "PARUNGPONTENG",
  "postalCode": "46185"
 },
 {
  "id": 3206061005,
  "districtId": 3206061,
  "districtName": "PARUNGPONTENG",
  "name": "GIRIKENCANA",
  "postalCode": "46185"
 },
 {
  "id": 3206061006,
  "districtId": 3206061,
  "districtName": "PARUNGPONTENG",
  "name": "BARUMEKAR",
  "postalCode": "46185"
 },
 {
  "id": 3206061007,
  "districtId": 3206061,
  "districtName": "PARUNGPONTENG",
  "name": "CIBANTENG",
  "postalCode": "16620"
 },
 {
  "id": 3206061008,
  "districtId": 3206061,
  "districtName": "PARUNGPONTENG",
  "name": "BURUJULJAYA",
  "postalCode": "46185"
 }
]