[
 {
  "id": 3206150001,
  "districtId": 3206150,
  "districtName": "CINEAM",
  "name": "CISARUA",
  "postalCode": "43115"
 },
 {
  "id": 3206150006,
  "districtId": 3206150,
  "districtName": "CINEAM",
  "name": "PASIRMUKTI",
  "postalCode": "46198"
 },
 {
  "id": 3206150007,
  "districtId": 3206150,
  "districtName": "CINEAM",
  "name": "CIKONDANG",
  "postalCode": "43283"
 },
 {
  "id": 3206150008,
  "districtId": 3206150,
  "districtName": "CINEAM",
  "name": "CIJULANG",
  "postalCode": "46262"
 },
 {
  "id": 3206150009,
  "districtId": 3206150,
  "districtName": "CINEAM",
  "name": "NAGARATENGAH",
  "postalCode": "46198"
 },
 {
  "id": 3206150010,
  "districtId": 3206150,
  "districtName": "CINEAM",
  "name": "CIAMPANAN",
  "postalCode": "46198"
 },
 {
  "id": 3206150011,
  "districtId": 3206150,
  "districtName": "CINEAM",
  "name": "CINEAM",
  "postalCode": "46198"
 },
 {
  "id": 3206150012,
  "districtId": 3206150,
  "districtName": "CINEAM",
  "name": "MADIASARI",
  "postalCode": "46198"
 },
 {
  "id": 3206150013,
  "districtId": 3206150,
  "districtName": "CINEAM",
  "name": "RAJADATU",
  "postalCode": "46198"
 },
 {
  "id": 3206150014,
  "districtId": 3206150,
  "districtName": "CINEAM",
  "name": "ANCOL",
  "postalCode": "14430"
 }
]