[
 {
  "id": 3206040001,
  "districtId": 3206040,
  "districtName": "PANCATENGAH",
  "name": "MARGALUYU",
  "postalCode": "43263"
 },
 {
  "id": 3206040002,
  "districtId": 3206040,
  "districtName": "PANCATENGAH",
  "name": "CIBUNIASIH",
  "postalCode": "46194"
 },
 {
  "id": 3206040003,
  "districtId": 3206040,
  "districtName": "PANCATENGAH",
  "name": "PANGLIARAN",
  "postalCode": "46194"
 },
 {
  "id": 3206040004,
  "districtId": 3206040,
  "districtName": "PANCATENGAH",
  "name": "PANCAWANGI",
  "postalCode": "46194"
 },
 {
  "id": 3206040005,
  "districtId": 3206040,
  "districtName": "PANCATENGAH",
  "name": "JAYAMUKTI",
  "postalCode": "41374"
 },
 {
  "id": 3206040006,
  "districtId": 3206040,
  "districtName": "PANCATENGAH",
  "name": "TONJONG",
  "postalCode": "45414"
 },
 {
  "id": 3206040007,
  "districtId": 3206040,
  "districtName": "PANCATENGAH",
  "name": "CIBONGAS",
  "postalCode": "46194"
 },
 {
  "id": 3206040008,
  "districtId": 3206040,
  "districtName": "PANCATENGAH",
  "name": "CIKAWUNG",
  "postalCode": "46194"
 },
 {
  "id": 3206040009,
  "districtId": 3206040,
  "districtName": "PANCATENGAH",
  "name": "TAWANG",
  "postalCode": "46194"
 },
 {
  "id": 3206040010,
  "districtId": 3206040,
  "districtName": "PANCATENGAH",
  "name": "MEKARSARI",
  "postalCode": "37482"
 },
 {
  "id": 3206040011,
  "districtId": 3206040,
  "districtName": "PANCATENGAH",
  "name": "NEGLASARI",
  "postalCode": "35452"
 }
]