[
 {
  "id": 3206211001,
  "districtId": 3206211,
  "districtName": "SARIWANGI",
  "name": "SIRNASARI",
  "postalCode": "45376"
 },
 {
  "id": 3206211002,
  "districtId": 3206211,
  "districtName": "SARIWANGI",
  "name": "LINGGASIRNA",
  "postalCode": "46465"
 },
 {
  "id": 3206211003,
  "districtId": 3206211,
  "districtName": "SARIWANGI",
  "name": "SELAWANGI",
  "postalCode": "46465"
 },
 {
  "id": 3206211004,
  "districtId": 3206211,
  "districtName": "SARIWANGI",
  "name": "SARIWANGI",
  "postalCode": "40559"
 },
 {
  "id": 3206211005,
  "districtId": 3206211,
  "districtName": "SARIWANGI",
  "name": "JAYAPUTRA",
  "postalCode": "46465"
 },
 {
  "id": 3206211006,
  "districtId": 3206211,
  "districtName": "SARIWANGI",
  "name": "JAYARATU",
  "postalCode": "46465"
 },
 {
  "id": 3206211007,
  "districtId": 3206211,
  "districtName": "SARIWANGI",
  "name": "SUKAMULIH",
  "postalCode": "46465"
 },
 {
  "id": 3206211008,
  "districtId": 3206211,
  "districtName": "SARIWANGI",
  "name": "SUKAHARJA",
  "postalCode": "45587"
 }
]