[
 {
  "id": 3206111001,
  "districtId": 3206111,
  "districtName": "PUSPAHIANG",
  "name": "MANDALASARI",
  "postalCode": "35597"
 },
 {
  "id": 3206111002,
  "districtId": 3206111,
  "districtName": "PUSPAHIANG",
  "name": "SUKASARI",
  "postalCode": "20986"
 },
 {
  "id": 3206111003,
  "districtId": 3206111,
  "districtName": "PUSPAHIANG",
  "name": "PUSPASARI",
  "postalCode": "16810"
 },
 {
  "id": 3206111004,
  "districtId": 3206111,
  "districtName": "PUSPAHIANG",
  "name": "PUSPAHIANG",
  "postalCode": "46471"
 },
 {
  "id": 3206111005,
  "districtId": 3206111,
  "districtName": "PUSPAHIANG",
  "name": "PUSPARAHAYU",
  "postalCode": "46471"
 },
 {
  "id": 3206111006,
  "districtId": 3206111,
  "districtName": "PUSPAHIANG",
  "name": "LUYUBAKTI",
  "postalCode": "46471"
 },
 {
  "id": 3206111007,
  "districtId": 3206111,
  "districtName": "PUSPAHIANG",
  "name": "CIMANGGU",
  "postalCode": "43262"
 },
 {
  "id": 3206111008,
  "districtId": 3206111,
  "districtName": "PUSPAHIANG",
  "name": "PUSPAJAYA",
  "postalCode": "46471"
 }
]