[
 {
  "id": 3206080001,
  "districtId": 3206080,
  "districtName": "BOJONGGAMBIR",
  "name": "CAMPAKASARI",
  "postalCode": "46475"
 },
 {
  "id": 3206080002,
  "districtId": 3206080,
  "districtName": "BOJONGGAMBIR",
  "name": "BOJONGKAPOL",
  "postalCode": "46475"
 },
 {
  "id": 3206080003,
  "districtId": 3206080,
  "districtName": "BOJONGGAMBIR",
  "name": "WANDASARI",
  "postalCode": "46475"
 },
 {
  "id": 3206080004,
  "districtId": 3206080,
  "districtName": "BOJONGGAMBIR",
  "name": "PEDANGKAMULYAN",
  "postalCode": "46475"
 },
 {
  "id": 3206080005,
  "districtId": 3206080,
  "districtName": "BOJONGGAMBIR",
  "name": "KERTANEGLA",
  "postalCode": "46475"
 },
 {
  "id": 3206080006,
  "districtId": 3206080,
  "districtName": "BOJONGGAMBIR",
  "name": "BOJONGGAMBIR",
  "postalCode": "46475"
 },
 {
  "id": 3206080007,
  "districtId": 3206080,
  "districtName": "BOJONGGAMBIR",
  "name": "MANGKONJAYA",
  "postalCode": "46475"
 },
 {
  "id": 3206080008,
  "districtId": 3206080,
  "districtName": "BOJONGGAMBIR",
  "name": "CIROYOM",
  "postalCode": "40182"
 },
 {
  "id": 3206080009,
  "districtId": 3206080,
  "districtName": "BOJONGGAMBIR",
  "name": "PURWARAHARJA",
  "postalCode": "46475"
 },
 {
  "id": 3206080010,
  "districtId": 3206080,
  "districtName": "BOJONGGAMBIR",
  "name": "GIRIMUKTI",
  "postalCode": "46475"
 }
]