[
 {
  "id": 3207221001,
  "districtId": 3207221,
  "districtName": "SINDANGKASIH",
  "name": "SUKAMANAH",
  "postalCode": "43273"
 },
 {
  "id": 3207221002,
  "districtId": 3207221,
  "districtName": "SINDANGKASIH",
  "name": "SUKARAJA",
  "postalCode": "21256"
 },
 {
  "id": 3207221003,
  "districtId": 3207221,
  "districtName": "SINDANGKASIH",
  "name": "BUDIHARJA",
  "postalCode": "40562"
 },
 {
  "id": 3207221004,
  "districtId": 3207221,
  "districtName": "SINDANGKASIH",
  "name": "BUDIASIH",
  "postalCode": "46268"
 },
 {
  "id": 3207221006,
  "districtId": 3207221,
  "districtName": "SINDANGKASIH",
  "name": "SINDANGKASIH",
  "postalCode": "45172"
 },
 {
  "id": 3207221007,
  "districtId": 3207221,
  "districtName": "SINDANGKASIH",
  "name": "SUKASENANG",
  "postalCode": "44191"
 },
 {
  "id": 3207221008,
  "districtId": 3207221,
  "districtName": "SINDANGKASIH",
  "name": "SUKARESIK",
  "postalCode": "46365"
 },
 {
  "id": 3207221009,
  "districtId": 3207221,
  "districtName": "SINDANGKASIH",
  "name": "WANASIGRA",
  "postalCode": "46268"
 }
]