[
 {
  "id": 3207101001,
  "districtId": 3207101,
  "districtName": "BANJARANYAR",
  "name": "CIKUPA",
  "postalCode": "46383"
 },
 {
  "id": 3207101002,
  "districtId": 3207101,
  "districtName": "BANJARANYAR",
  "name": "KARYAMUKTI",
  "postalCode": "36655"
 },
 {
  "id": 3207101003,
  "districtId": 3207101,
  "districtName": "BANJARANYAR",
  "name": "CIGAYAM",
  "postalCode": "46383"
 },
 {
  "id": 3207101004,
  "districtId": 3207101,
  "districtName": "BANJARANYAR",
  "name": "BANJARANYAR",
  "postalCode": "46383"
 },
 {
  "id": 3207101005,
  "districtId": 3207101,
  "districtName": "BANJARANYAR",
  "name": "KALIJAYA",
  "postalCode": "46383"
 },
 {
  "id": 3207101006,
  "districtId": 3207101,
  "districtName": "BANJARANYAR",
  "name": "PASAWAHAN",
  "postalCode": "46383"
 },
 {
  "id": 3207101007,
  "districtId": 3207101,
  "districtName": "BANJARANYAR",
  "name": "CIKASO",
  "postalCode": "46383"
 },
 {
  "id": 3207101008,
  "districtId": 3207101,
  "districtName": "BANJARANYAR",
  "name": "SINDANGRASA",
  "postalCode": "46383"
 },
 {
  "id": 3207101009,
  "districtId": 3207101,
  "districtName": "BANJARANYAR",
  "name": "LANGKAPSARI",
  "postalCode": "46383"
 },
 {
  "id": 3207101010,
  "districtId": 3207101,
  "districtName": "BANJARANYAR",
  "name": "TANJUNGSARI",
  "postalCode": "28983"
 }
]