[
 {
  "id": 3207210001,
  "districtId": 3207210,
  "districtName": "CIAMIS",
  "name": "IMBANAGARA RAYA",
  "postalCode": "46219"
 },
 {
  "id": 3207210002,
  "districtId": 3207210,
  "districtName": "CIAMIS",
  "name": "CISADAP",
  "postalCode": "46215"
 },
 {
  "id": 3207210003,
  "districtId": 3207210,
  "districtName": "CIAMIS",
  "name": "IMBANAGARA",
  "postalCode": "46219"
 },
 {
  "id": 3207210004,
  "districtId": 3207210,
  "districtName": "CIAMIS",
  "name": "SINDANGRASA",
  "postalCode": "46383"
 },
 {
  "id": 3207210005,
  "districtId": 3207210,
  "districtName": "CIAMIS",
  "name": "PANYINGKIRAN",
  "postalCode": "46211"
 },
 {
  "id": 3207210006,
  "districtId": 3207210,
  "districtName": "CIAMIS",
  "name": "PAWINDAN",
  "postalCode": "46218"
 },
 {
  "id": 3207210007,
  "districtId": 3207210,
  "districtName": "CIAMIS",
  "name": "LINGGASARI",
  "postalCode": "46216"
 },
 {
  "id": 3207210008,
  "districtId": 3207210,
  "districtName": "CIAMIS",
  "name": "CIAMIS",
  "postalCode": "34555"
 },
 {
  "id": 3207210010,
  "districtId": 3207210,
  "districtName": "CIAMIS",
  "name": "CIGEMBOR",
  "postalCode": "46212"
 },
 {
  "id": 3207210011,
  "districtId": 3207210,
  "districtName": "CIAMIS",
  "name": "KERTASARI",
  "postalCode": "31658"
 },
 {
  "id": 3207210012,
  "districtId": 3207210,
  "districtName": "CIAMIS",
  "name": "MALEBER",
  "postalCode": "46214"
 }
]