[
 {
  "id": 3207211001,
  "districtId": 3207211,
  "districtName": "BAREGBEG",
  "name": "SUKAMAJU",
  "postalCode": "22465"
 },
 {
  "id": 3207211002,
  "districtId": 3207211,
  "districtName": "BAREGBEG",
  "name": "MEKARJAYA",
  "postalCode": "30653"
 },
 {
  "id": 3207211003,
  "districtId": 3207211,
  "districtName": "BAREGBEG",
  "name": "SAGULING",
  "postalCode": "46274"
 },
 {
  "id": 3207211004,
  "districtId": 3207211,
  "districtName": "BAREGBEG",
  "name": "BAREGBEG",
  "postalCode": "46274"
 },
 {
  "id": 3207211005,
  "districtId": 3207211,
  "districtName": "BAREGBEG",
  "name": "PETIRHILIR",
  "postalCode": "46274"
 },
 {
  "id": 3207211006,
  "districtId": 3207211,
  "districtName": "BAREGBEG",
  "name": "PUSAKANAGARA",
  "postalCode": "46274"
 },
 {
  "id": 3207211007,
  "districtId": 3207211,
  "districtName": "BAREGBEG",
  "name": "KARANGAMPEL",
  "postalCode": "46274"
 },
 {
  "id": 3207211008,
  "districtId": 3207211,
  "districtName": "BAREGBEG",
  "name": "JELAT",
  "postalCode": "46274"
 },
 {
  "id": 3207211009,
  "districtId": 3207211,
  "districtName": "BAREGBEG",
  "name": "SUKAMULYA",
  "postalCode": "30657"
 }
]