[
 {
  "id": 3207240001,
  "districtId": 3207240,
  "districtName": "SADANANYA",
  "name": "MEKARJADI",
  "postalCode": "46256"
 },
 {
  "id": 3207240002,
  "districtId": 3207240,
  "districtName": "SADANANYA",
  "name": "SUKAJADI",
  "postalCode": "24472"
 },
 {
  "id": 3207240003,
  "districtId": 3207240,
  "districtName": "SADANANYA",
  "name": "WERASARI",
  "postalCode": "45464"
 },
 {
  "id": 3207240004,
  "districtId": 3207240,
  "districtName": "SADANANYA",
  "name": "MANGKUBUMI",
  "postalCode": "46181"
 },
 {
  "id": 3207240005,
  "districtId": 3207240,
  "districtName": "SADANANYA",
  "name": "BENDASARI",
  "postalCode": "46256"
 },
 {
  "id": 3207240006,
  "districtId": 3207240,
  "districtName": "SADANANYA",
  "name": "SADANANYA",
  "postalCode": "46256"
 },
 {
  "id": 3207240007,
  "districtId": 3207240,
  "districtName": "SADANANYA",
  "name": "TANJUNGSARI",
  "postalCode": "28983"
 },
 {
  "id": 3207240008,
  "districtId": 3207240,
  "districtName": "SADANANYA",
  "name": "GUNUNGSARI",
  "postalCode": "35368"
 }
]