[
 {
  "id": 3208060001,
  "districtId": 3208060,
  "districtName": "CIWARU",
  "name": "CITUNDUN",
  "postalCode": "45583"
 },
 {
  "id": 3208060006,
  "districtId": 3208060,
  "districtName": "CIWARU",
  "name": "SAGARANTEN",
  "postalCode": "45583"
 },
 {
  "id": 3208060007,
  "districtId": 3208060,
  "districtName": "CIWARU",
  "name": "SUMBERJAYA",
  "postalCode": "46262"
 },
 {
  "id": 3208060008,
  "districtId": 3208060,
  "districtName": "CIWARU",
  "name": "LEBAKHERANG",
  "postalCode": "45583"
 },
 {
  "id": 3208060009,
  "districtId": 3208060,
  "districtName": "CIWARU",
  "name": "CILAYUNG",
  "postalCode": "45583"
 },
 {
  "id": 3208060010,
  "districtId": 3208060,
  "districtName": "CIWARU",
  "name": "CIWARU",
  "postalCode": "43177"
 },
 {
  "id": 3208060011,
  "districtId": 3208060,
  "districtName": "CIWARU",
  "name": "LINGGA JAYA",
  "postalCode": ""
 },
 {
  "id": 3208060013,
  "districtId": 3208060,
  "districtName": "CIWARU",
  "name": "KARANGBARU",
  "postalCode": "45583"
 },
 {
  "id": 3208060014,
  "districtId": 3208060,
  "districtName": "CIWARU",
  "name": "GARAJATI",
  "postalCode": "45583"
 },
 {
  "id": 3208060016,
  "districtId": 3208060,
  "districtName": "CIWARU",
  "name": "BAOK",
  "postalCode": "45583"
 },
 {
  "id": 3208060017,
  "districtId": 3208060,
  "districtName": "CIWARU",
  "name": "ANDAMUI",
  "postalCode": "45583"
 },
 {
  "id": 3208060018,
  "districtId": 3208060,
  "districtName": "CIWARU",
  "name": "CITIKUR",
  "postalCode": ""
 }
]