[
 {
  "id": 3208030009,
  "districtId": 3208030,
  "districtName": "CINIRU",
  "name": "GUNUNGMANIK",
  "postalCode": "45565"
 },
 {
  "id": 3208030010,
  "districtId": 3208030,
  "districtName": "CINIRU",
  "name": "PINARA",
  "postalCode": "45565"
 },
 {
  "id": 3208030011,
  "districtId": 3208030,
  "districtName": "CINIRU",
  "name": "CIPEDES",
  "postalCode": "45565"
 },
 {
  "id": 3208030012,
  "districtId": 3208030,
  "districtName": "CINIRU",
  "name": "PAMUPUKAN",
  "postalCode": "45565"
 },
 {
  "id": 3208030013,
  "districtId": 3208030,
  "districtName": "CINIRU",
  "name": "CIJEMIT",
  "postalCode": "45565"
 },
 {
  "id": 3208030014,
  "districtId": 3208030,
  "districtName": "CINIRU",
  "name": "CINIRU",
  "postalCode": "45565"
 },
 {
  "id": 3208030015,
  "districtId": 3208030,
  "districtName": "CINIRU",
  "name": "RAMBATAN",
  "postalCode": "27271"
 },
 {
  "id": 3208030016,
  "districtId": 3208030,
  "districtName": "CINIRU",
  "name": "LONGKEWANG",
  "postalCode": "45565"
 },
 {
  "id": 3208030017,
  "districtId": 3208030,
  "districtName": "CINIRU",
  "name": "MUNGKALDATAR",
  "postalCode": "45565"
 }
]