[
 {
  "id": 3208120001,
  "districtId": 3208120,
  "districtName": "GARAWANGI",
  "name": "CIRUKEM",
  "postalCode": "45571"
 },
 {
  "id": 3208120002,
  "districtId": 3208120,
  "districtName": "GARAWANGI",
  "name": "GEWOK",
  "postalCode": "45571"
 },
 {
  "id": 3208120003,
  "districtId": 3208120,
  "districtName": "GARAWANGI",
  "name": "KUTAKEMBARAN",
  "postalCode": "45571"
 },
 {
  "id": 3208120004,
  "districtId": 3208120,
  "districtName": "GARAWANGI",
  "name": "PAKEMBANGAN",
  "postalCode": "45572"
 },
 {
  "id": 3208120005,
  "districtId": 3208120,
  "districtName": "GARAWANGI",
  "name": "KADATUAN",
  "postalCode": "45571"
 },
 {
  "id": 3208120006,
  "districtId": 3208120,
  "districtName": "GARAWANGI",
  "name": "TEMBONG",
  "postalCode": "45571"
 },
 {
  "id": 3208120007,
  "districtId": 3208120,
  "districtName": "GARAWANGI",
  "name": "LENGKONG",
  "postalCode": "24415"
 },
 {
  "id": 3208120008,
  "districtId": 3208120,
  "districtName": "GARAWANGI",
  "name": "PURWASARI",
  "postalCode": "37252"
 },
 {
  "id": 3208120009,
  "districtId": 3208120,
  "districtName": "GARAWANGI",
  "name": "GARAWANGI",
  "postalCode": "45571"
 },
 {
  "id": 3208120010,
  "districtId": 3208120,
  "districtName": "GARAWANGI",
  "name": "KARAMATWANGI",
  "postalCode": "44163"
 },
 {
  "id": 3208120011,
  "districtId": 3208120,
  "districtName": "GARAWANGI",
  "name": "SUKAIMUT",
  "postalCode": "45571"
 },
 {
  "id": 3208120012,
  "districtId": 3208120,
  "districtName": "GARAWANGI",
  "name": "CIKANANGA",
  "postalCode": "45571"
 },
 {
  "id": 3208120013,
  "districtId": 3208120,
  "districtName": "GARAWANGI",
  "name": "TAMBAKBAYA",
  "postalCode": "44163"
 },
 {
  "id": 3208120014,
  "districtId": 3208120,
  "districtName": "GARAWANGI",
  "name": "MEKARMULYA",
  "postalCode": "45571"
 },
 {
  "id": 3208120015,
  "districtId": 3208120,
  "districtName": "GARAWANGI",
  "name": "SUKAMULYA",
  "postalCode": "30657"
 },
 {
  "id": 3208120016,
  "districtId": 3208120,
  "districtName": "GARAWANGI",
  "name": "MANCAGAR",
  "postalCode": "45571"
 },
 {
  "id": 3208120017,
  "districtId": 3208120,
  "districtName": "GARAWANGI",
  "name": "CITIUSARI",
  "postalCode": "45571"
 }
]