[
 {
  "id": 3208061001,
  "districtId": 3208061,
  "districtName": "KARANGKANCANA",
  "name": "MARGACINA",
  "postalCode": "45584"
 },
 {
  "id": 3208061002,
  "districtId": 3208061,
  "districtName": "KARANGKANCANA",
  "name": "JABRANTI",
  "postalCode": "45584"
 },
 {
  "id": 3208061003,
  "districtId": 3208061,
  "districtName": "KARANGKANCANA",
  "name": "KARANGKANCANA",
  "postalCode": "45584"
 },
 {
  "id": 3208061004,
  "districtId": 3208061,
  "districtName": "KARANGKANCANA",
  "name": "KADUAGUNG",
  "postalCode": "45584"
 },
 {
  "id": 3208061005,
  "districtId": 3208061,
  "districtName": "KARANGKANCANA",
  "name": "SEGONG",
  "postalCode": "45584"
 },
 {
  "id": 3208061006,
  "districtId": 3208061,
  "districtName": "KARANGKANCANA",
  "name": "TANJUNGKERTA",
  "postalCode": "45584"
 },
 {
  "id": 3208061007,
  "districtId": 3208061,
  "districtName": "KARANGKANCANA",
  "name": "SUKASARI",
  "postalCode": "20986"
 },
 {
  "id": 3208061008,
  "districtId": 3208061,
  "districtName": "KARANGKANCANA",
  "name": "SIMPAY JAYA",
  "postalCode": ""
 },
 {
  "id": 3208061009,
  "districtId": 3208061,
  "districtName": "KARANGKANCANA",
  "name": "CIHANJARO",
  "postalCode": "45584"
 }
]