[
 {
  "id": 3208190001,
  "districtId": 3208190,
  "districtName": "PASAWAHAN",
  "name": "CIBUNTU",
  "postalCode": "40212"
 },
 {
  "id": 3208190002,
  "districtId": 3208190,
  "districtName": "PASAWAHAN",
  "name": "PANIIS",
  "postalCode": "45461"
 },
 {
  "id": 3208190003,
  "districtId": 3208190,
  "districtName": "PASAWAHAN",
  "name": "SINGKUP",
  "postalCode": "45555"
 },
 {
  "id": 3208190004,
  "districtId": 3208190,
  "districtName": "PASAWAHAN",
  "name": "CIDAHU",
  "postalCode": "43172"
 },
 {
  "id": 3208190005,
  "districtId": 3208190,
  "districtName": "PASAWAHAN",
  "name": "PASAWAHAN",
  "postalCode": "46383"
 },
 {
  "id": 3208190006,
  "districtId": 3208190,
  "districtName": "PASAWAHAN",
  "name": "PADABEUNGHAR",
  "postalCode": "43171"
 },
 {
  "id": 3208190007,
  "districtId": 3208190,
  "districtName": "PASAWAHAN",
  "name": "KADUELA",
  "postalCode": "45559"
 },
 {
  "id": 3208190008,
  "districtId": 3208190,
  "districtName": "PASAWAHAN",
  "name": "PADAMATANG",
  "postalCode": "45559"
 },
 {
  "id": 3208190009,
  "districtId": 3208190,
  "districtName": "PASAWAHAN",
  "name": "CIWIRU",
  "postalCode": "45559"
 },
 {
  "id": 3208190010,
  "districtId": 3208190,
  "districtName": "PASAWAHAN",
  "name": "CIMARA",
  "postalCode": "45588"
 }
]