[
 {
  "id": 3209050008,
  "districtId": 3209050,
  "districtName": "KARANGSEMBUNG",
  "name": "TAMBELANG",
  "postalCode": "45186"
 },
 {
  "id": 3209050015,
  "districtId": 3209050,
  "districtName": "KARANGSEMBUNG",
  "name": "KARANGSUWUNG",
  "postalCode": "45186"
 },
 {
  "id": 3209050016,
  "districtId": 3209050,
  "districtName": "KARANGSEMBUNG",
  "name": "KARANGTENGAH",
  "postalCode": "43351"
 },
 {
  "id": 3209050017,
  "districtId": 3209050,
  "districtName": "KARANGSEMBUNG",
  "name": "KALIMEANG",
  "postalCode": "45186"
 },
 {
  "id": 3209050018,
  "districtId": 3209050,
  "districtName": "KARANGSEMBUNG",
  "name": "KARANGMALANG",
  "postalCode": "45213"
 },
 {
  "id": 3209050019,
  "districtId": 3209050,
  "districtName": "KARANGSEMBUNG",
  "name": "KARANGMEKAR",
  "postalCode": "40523"
 },
 {
  "id": 3209050020,
  "districtId": 3209050,
  "districtName": "KARANGSEMBUNG",
  "name": "KUBANGKARANG",
  "postalCode": "45186"
 },
 {
  "id": 3209050021,
  "districtId": 3209050,
  "districtName": "KARANGSEMBUNG",
  "name": "KARANGSEMBUNG",
  "postalCode": "46175"
 }
]