[
 {
  "id": 3209191004,
  "districtId": 3209191,
  "districtName": "JAMBLANG",
  "name": "JAMBLANG",
  "postalCode": "45156"
 },
 {
  "id": 3209191005,
  "districtId": 3209191,
  "districtName": "JAMBLANG",
  "name": "SITIWINANGUN",
  "postalCode": "45156"
 },
 {
  "id": 3209191006,
  "districtId": 3209191,
  "districtName": "JAMBLANG",
  "name": "WANGUNHARJA",
  "postalCode": "17530"
 },
 {
  "id": 3209191014,
  "districtId": 3209191,
  "districtName": "JAMBLANG",
  "name": "BOJONG WETAN",
  "postalCode": "45156"
 },
 {
  "id": 3209191015,
  "districtId": 3209191,
  "districtName": "JAMBLANG",
  "name": "BOJONG LOR",
  "postalCode": "45156"
 },
 {
  "id": 3209191016,
  "districtId": 3209191,
  "districtName": "JAMBLANG",
  "name": "ORIMALANG",
  "postalCode": "45156"
 },
 {
  "id": 3209191017,
  "districtId": 3209191,
  "districtName": "JAMBLANG",
  "name": "BAKUNG KIDUL",
  "postalCode": "45156"
 },
 {
  "id": 3209191018,
  "districtId": 3209191,
  "districtName": "JAMBLANG",
  "name": "BAKUNG LOR",
  "postalCode": "45156"
 }
]