[
 {
  "id": 3209180010,
  "districtId": 3209180,
  "districtName": "KAPETAKAN",
  "name": "BUNGKO",
  "postalCode": "45152"
 },
 {
  "id": 3209180011,
  "districtId": 3209180,
  "districtName": "KAPETAKAN",
  "name": "KERTASURA",
  "postalCode": "45152"
 },
 {
  "id": 3209180012,
  "districtId": 3209180,
  "districtName": "KAPETAKAN",
  "name": "PEGAGAN KIDUL",
  "postalCode": "45152"
 },
 {
  "id": 3209180015,
  "districtId": 3209180,
  "districtName": "KAPETAKAN",
  "name": "PEGAGAN LOR",
  "postalCode": "45152"
 },
 {
  "id": 3209180017,
  "districtId": 3209180,
  "districtName": "KAPETAKAN",
  "name": "KARANGKENDAL",
  "postalCode": "45152"
 },
 {
  "id": 3209180018,
  "districtId": 3209180,
  "districtName": "KAPETAKAN",
  "name": "GROGOL",
  "postalCode": "11450"
 },
 {
  "id": 3209180020,
  "districtId": 3209180,
  "districtName": "KAPETAKAN",
  "name": "KAPETAKAN",
  "postalCode": "45152"
 },
 {
  "id": 3209180021,
  "districtId": 3209180,
  "districtName": "KAPETAKAN",
  "name": "BUNGKO LOR",
  "postalCode": "45152"
 }
]