[
 {
  "id": 3209141001,
  "districtId": 3209141,
  "districtName": "DEPOK",
  "name": "CIKEDUK",
  "postalCode": "45155"
 },
 {
  "id": 3209141002,
  "districtId": 3209141,
  "districtName": "DEPOK",
  "name": "WARUGEDE",
  "postalCode": "45155"
 },
 {
  "id": 3209141003,
  "districtId": 3209141,
  "districtName": "DEPOK",
  "name": "KARANGWANGI",
  "postalCode": "41253"
 },
 {
  "id": 3209141004,
  "districtId": 3209141,
  "districtName": "DEPOK",
  "name": "GETASAN",
  "postalCode": "45155"
 },
 {
  "id": 3209141006,
  "districtId": 3209141,
  "districtName": "DEPOK",
  "name": "KEDUANAN",
  "postalCode": "45155"
 },
 {
  "id": 3209141007,
  "districtId": 3209141,
  "districtName": "DEPOK",
  "name": "WARUROYOM",
  "postalCode": "45155"
 },
 {
  "id": 3209141008,
  "districtId": 3209141,
  "districtName": "DEPOK",
  "name": "WARUKAWUNG",
  "postalCode": "45155"
 },
 {
  "id": 3209141009,
  "districtId": 3209141,
  "districtName": "DEPOK",
  "name": "WARUJAYA",
  "postalCode": "45155"
 },
 {
  "id": 3209141010,
  "districtId": 3209141,
  "districtName": "DEPOK",
  "name": "DEPOK",
  "postalCode": "44174"
 },
 {
  "id": 3209141011,
  "districtId": 3209141,
  "districtName": "DEPOK",
  "name": "KASUGENGAN KIDUL",
  "postalCode": "45155"
 },
 {
  "id": 3209141012,
  "districtId": 3209141,
  "districtName": "DEPOK",
  "name": "KASUGENGAN LOR",
  "postalCode": "45155"
 }
]