[
 {
  "id": 3209040001,
  "districtId": 3209040,
  "districtName": "BABAKAN",
  "name": "CANGKUANG",
  "postalCode": "45191"
 },
 {
  "id": 3209040002,
  "districtId": 3209040,
  "districtName": "BABAKAN",
  "name": "SERANG WETAN",
  "postalCode": "45191"
 },
 {
  "id": 3209040003,
  "districtId": 3209040,
  "districtName": "BABAKAN",
  "name": "BOJONGGEBANG",
  "postalCode": "45191"
 },
 {
  "id": 3209040004,
  "districtId": 3209040,
  "districtName": "BABAKAN",
  "name": "KUDUKERAS",
  "postalCode": "45191"
 },
 {
  "id": 3209040005,
  "districtId": 3209040,
  "districtName": "BABAKAN",
  "name": "SUMBER KIDUL",
  "postalCode": "45191"
 },
 {
  "id": 3209040006,
  "districtId": 3209040,
  "districtName": "BABAKAN",
  "name": "KUDUMULYA",
  "postalCode": "45191"
 },
 {
  "id": 3209040007,
  "districtId": 3209040,
  "districtName": "BABAKAN",
  "name": "SUMBER LOR",
  "postalCode": "45191"
 },
 {
  "id": 3209040008,
  "districtId": 3209040,
  "districtName": "BABAKAN",
  "name": "BABAKAN",
  "postalCode": "35675"
 },
 {
  "id": 3209040009,
  "districtId": 3209040,
  "districtName": "BABAKAN",
  "name": "PAKUSAMBEN",
  "postalCode": "45191"
 },
 {
  "id": 3209040010,
  "districtId": 3209040,
  "districtName": "BABAKAN",
  "name": "KARANGWANGUN",
  "postalCode": "45191"
 },
 {
  "id": 3209040011,
  "districtId": 3209040,
  "districtName": "BABAKAN",
  "name": "BABAKAN GEBANG",
  "postalCode": ""
 },
 {
  "id": 3209040012,
  "districtId": 3209040,
  "districtName": "BABAKAN",
  "name": "GEMBONGAN",
  "postalCode": "45191"
 },
 {
  "id": 3209040013,
  "districtId": 3209040,
  "districtName": "BABAKAN",
  "name": "SERANG KULON",
  "postalCode": "45191"
 },
 {
  "id": 3209040014,
  "districtId": 3209040,
  "districtName": "BABAKAN",
  "name": "GEMBONGAN MEKAR",
  "postalCode": ""
 }
]