[
 {
  "id": 3209161001,
  "districtId": 3209161,
  "districtName": "TENGAH TANI",
  "name": "PALIR",
  "postalCode": "45153"
 },
 {
  "id": 3209161002,
  "districtId": 3209161,
  "districtName": "TENGAH TANI",
  "name": "ASTAPADA",
  "postalCode": "45153"
 },
 {
  "id": 3209161003,
  "districtId": 3209161,
  "districtName": "TENGAH TANI",
  "name": "GESIK",
  "postalCode": "45153"
 },
 {
  "id": 3209161004,
  "districtId": 3209161,
  "districtName": "TENGAH TANI",
  "name": "KEMLAKAGEDE",
  "postalCode": "45153"
 },
 {
  "id": 3209161005,
  "districtId": 3209161,
  "districtName": "TENGAH TANI",
  "name": "DAWUAN",
  "postalCode": "45453"
 },
 {
  "id": 3209161006,
  "districtId": 3209161,
  "districtName": "TENGAH TANI",
  "name": "BATEMBAT",
  "postalCode": "64472"
 },
 {
  "id": 3209161007,
  "districtId": 3209161,
  "districtName": "TENGAH TANI",
  "name": "KALIBARU",
  "postalCode": "16414"
 },
 {
  "id": 3209161008,
  "districtId": 3209161,
  "districtName": "TENGAH TANI",
  "name": "KALITENGAH",
  "postalCode": "45153"
 }
]