[
 {
  "id": 3209081001,
  "districtId": 3209081,
  "districtName": "PANGENAN",
  "name": "ASTANAMUKTI",
  "postalCode": "45182"
 },
 {
  "id": 3209081002,
  "districtId": 3209081,
  "districtName": "PANGENAN",
  "name": "PENGARENGAN",
  "postalCode": "56153"
 },
 {
  "id": 3209081003,
  "districtId": 3209081,
  "districtName": "PANGENAN",
  "name": "JAPURA LOR",
  "postalCode": "45182"
 },
 {
  "id": 3209081004,
  "districtId": 3209081,
  "districtName": "PANGENAN",
  "name": "BERINGIN",
  "postalCode": "20552"
 },
 {
  "id": 3209081005,
  "districtId": 3209081,
  "districtName": "PANGENAN",
  "name": "RAWAURIP",
  "postalCode": "45182"
 },
 {
  "id": 3209081006,
  "districtId": 3209081,
  "districtName": "PANGENAN",
  "name": "BENDUNGAN",
  "postalCode": "16720"
 },
 {
  "id": 3209081007,
  "districtId": 3209081,
  "districtName": "PANGENAN",
  "name": "PANGENAN",
  "postalCode": "45182"
 },
 {
  "id": 3209081008,
  "districtId": 3209081,
  "districtName": "PANGENAN",
  "name": "GETRAKMOYAN",
  "postalCode": "45182"
 }
]