[
 {
  "id": 3210070001,
  "districtId": 3210070,
  "districtName": "MAJALENGKA",
  "name": "BABAKAN JAWA",
  "postalCode": "45419"
 },
 {
  "id": 3210070002,
  "districtId": 3210070,
  "districtName": "MAJALENGKA",
  "name": "CIBODAS",
  "postalCode": "43353"
 },
 {
  "id": 3210070004,
  "districtId": 3210070,
  "districtName": "MAJALENGKA",
  "name": "KAWUNGGIRANG",
  "postalCode": "45411"
 },
 {
  "id": 3210070005,
  "districtId": 3210070,
  "districtName": "MAJALENGKA",
  "name": "SINDANGKASIH",
  "postalCode": "45172"
 },
 {
  "id": 3210070006,
  "districtId": 3210070,
  "districtName": "MAJALENGKA",
  "name": "CICURUG",
  "postalCode": "43359"
 },
 {
  "id": 3210070007,
  "districtId": 3210070,
  "districtName": "MAJALENGKA",
  "name": "MAJALENGKA WETAN",
  "postalCode": "45411"
 },
 {
  "id": 3210070008,
  "districtId": 3210070,
  "districtName": "MAJALENGKA",
  "name": "TONJONG",
  "postalCode": "45414"
 },
 {
  "id": 3210070009,
  "districtId": 3210070,
  "districtName": "MAJALENGKA",
  "name": "TARIKOLOT",
  "postalCode": "45588"
 },
 {
  "id": 3210070010,
  "districtId": 3210070,
  "districtName": "MAJALENGKA",
  "name": "CIKASARUNG",
  "postalCode": "45415"
 },
 {
  "id": 3210070011,
  "districtId": 3210070,
  "districtName": "MAJALENGKA",
  "name": "CIJATI",
  "postalCode": "43284"
 },
 {
  "id": 3210070012,
  "districtId": 3210070,
  "districtName": "MAJALENGKA",
  "name": "MAJALENGKA KULON",
  "postalCode": "45418"
 },
 {
  "id": 3210070014,
  "districtId": 3210070,
  "districtName": "MAJALENGKA",
  "name": "SIDAMUKTI",
  "postalCode": "45411"
 }
]