[
 {
  "id": 3210010001,
  "districtId": 3210010,
  "districtName": "LEMAHSUGIH",
  "name": "CIPASUNG",
  "postalCode": "45562"
 },
 {
  "id": 3210010002,
  "districtId": 3210010,
  "districtName": "LEMAHSUGIH",
  "name": "BOROGOJOL",
  "postalCode": "45465"
 },
 {
  "id": 3210010003,
  "districtId": 3210010,
  "districtName": "LEMAHSUGIH",
  "name": "BANGBAYANG",
  "postalCode": "43359"
 },
 {
  "id": 3210010004,
  "districtId": 3210010,
  "districtName": "LEMAHSUGIH",
  "name": "CIBULAN",
  "postalCode": "45595"
 },
 {
  "id": 3210010005,
  "districtId": 3210010,
  "districtName": "LEMAHSUGIH",
  "name": "LEMAH PUTIH",
  "postalCode": "45465"
 },
 {
  "id": 3210010006,
  "districtId": 3210010,
  "districtName": "LEMAHSUGIH",
  "name": "SADAWANGI",
  "postalCode": "45465"
 },
 {
  "id": 3210010007,
  "districtId": 3210010,
  "districtName": "LEMAHSUGIH",
  "name": "MARGAJAYA",
  "postalCode": "17141"
 },
 {
  "id": 3210010008,
  "districtId": 3210010,
  "districtName": "LEMAHSUGIH",
  "name": "KALAPADUA",
  "postalCode": "45465"
 },
 {
  "id": 3210010009,
  "districtId": 3210010,
  "districtName": "LEMAHSUGIH",
  "name": "CIGALEUH",
  "postalCode": "45465"
 },
 {
  "id": 3210010010,
  "districtId": 3210010,
  "districtName": "LEMAHSUGIH",
  "name": "MEKARMULYA",
  "postalCode": "45571"
 },
 {
  "id": 3210010011,
  "districtId": 3210010,
  "districtName": "LEMAHSUGIH",
  "name": "SINARGALIH",
  "postalCode": "45465"
 },
 {
  "id": 3210010012,
  "districtId": 3210010,
  "districtName": "LEMAHSUGIH",
  "name": "PADAREK",
  "postalCode": "45553"
 },
 {
  "id": 3210010013,
  "districtId": 3210010,
  "districtName": "LEMAHSUGIH",
  "name": "SUKAJADI",
  "postalCode": "24472"
 },
 {
  "id": 3210010015,
  "districtId": 3210010,
  "districtName": "LEMAHSUGIH",
  "name": "MEKAR WANGI",
  "postalCode": "30681"
 },
 {
  "id": 3210010016,
  "districtId": 3210010,
  "districtName": "LEMAHSUGIH",
  "name": "SUKAMAJU",
  "postalCode": "22465"
 },
 {
  "id": 3210010017,
  "districtId": 3210010,
  "districtName": "LEMAHSUGIH",
  "name": "LEMAHSUGIH",
  "postalCode": "45465"
 },
 {
  "id": 3210010018,
  "districtId": 3210010,
  "districtName": "LEMAHSUGIH",
  "name": "DAYEUHWANGI",
  "postalCode": "45465"
 },
 {
  "id": 3210010019,
  "districtId": 3210010,
  "districtName": "LEMAHSUGIH",
  "name": "CISALAK",
  "postalCode": "43262"
 }
]