[
 {
  "id": 3210100001,
  "districtId": 3210100,
  "districtName": "RAJAGALUH",
  "name": "PAJAJAR",
  "postalCode": "45472"
 },
 {
  "id": 3210100002,
  "districtId": 3210100,
  "districtName": "RAJAGALUH",
  "name": "TEJA",
  "postalCode": "45472"
 },
 {
  "id": 3210100003,
  "districtId": 3210100,
  "districtName": "RAJAGALUH",
  "name": "PAYUNG",
  "postalCode": "24582"
 },
 {
  "id": 3210100004,
  "districtId": 3210100,
  "districtName": "RAJAGALUH",
  "name": "SINDANGPANO",
  "postalCode": "45472"
 },
 {
  "id": 3210100005,
  "districtId": 3210100,
  "districtName": "RAJAGALUH",
  "name": "BABAKANKAREO",
  "postalCode": "45472"
 },
 {
  "id": 3210100006,
  "districtId": 3210100,
  "districtName": "RAJAGALUH",
  "name": "SADOMAS",
  "postalCode": "45472"
 },
 {
  "id": 3210100008,
  "districtId": 3210100,
  "districtName": "RAJAGALUH",
  "name": "RAJAGALUH KIDUL",
  "postalCode": "45472"
 },
 {
  "id": 3210100009,
  "districtId": 3210100,
  "districtName": "RAJAGALUH",
  "name": "SINGAWADA",
  "postalCode": "45472"
 },
 {
  "id": 3210100010,
  "districtId": 3210100,
  "districtName": "RAJAGALUH",
  "name": "RAJAGALUH",
  "postalCode": "45472"
 },
 {
  "id": 3210100011,
  "districtId": 3210100,
  "districtName": "RAJAGALUH",
  "name": "RAJAGALUH LOR",
  "postalCode": "45472"
 },
 {
  "id": 3210100012,
  "districtId": 3210100,
  "districtName": "RAJAGALUH",
  "name": "CIPINANG",
  "postalCode": "13240"
 },
 {
  "id": 3210100013,
  "districtId": 3210100,
  "districtName": "RAJAGALUH",
  "name": "CISETU",
  "postalCode": "45472"
 }
]