[
 {
  "id": 3210110001,
  "districtId": 3210110,
  "districtName": "SINDANGWANGI",
  "name": "BANTAR AGUNG",
  "postalCode": "43171"
 },
 {
  "id": 3210110002,
  "districtId": 3210110,
  "districtName": "SINDANGWANGI",
  "name": "PADAHERANG",
  "postalCode": "46384"
 },
 {
  "id": 3210110003,
  "districtId": 3210110,
  "districtName": "SINDANGWANGI",
  "name": "LENGKONGWETAN",
  "postalCode": "45474"
 },
 {
  "id": 3210110004,
  "districtId": 3210110,
  "districtName": "SINDANGWANGI",
  "name": "LENGKONGKULON",
  "postalCode": "45474"
 },
 {
  "id": 3210110006,
  "districtId": 3210110,
  "districtName": "SINDANGWANGI",
  "name": "SINDANGWANGI",
  "postalCode": "46384"
 },
 {
  "id": 3210110007,
  "districtId": 3210110,
  "districtName": "SINDANGWANGI",
  "name": "BUAHKAPAS",
  "postalCode": "45474"
 },
 {
  "id": 3210110009,
  "districtId": 3210110,
  "districtName": "SINDANGWANGI",
  "name": "LEUWILAJA",
  "postalCode": "45474"
 },
 {
  "id": 3210110010,
  "districtId": 3210110,
  "districtName": "SINDANGWANGI",
  "name": "BALAGEDOG",
  "postalCode": "45474"
 }
]