[
 {
  "id": 3211171001,
  "districtId": 3211171,
  "districtName": "TANJUNGMEDAR",
  "name": "WARGALUYU",
  "postalCode": "40379"
 },
 {
  "id": 3211171002,
  "districtId": 3211171,
  "districtName": "TANJUNGMEDAR",
  "name": "TANJUNGWANGI",
  "postalCode": "40395"
 },
 {
  "id": 3211171003,
  "districtId": 3211171,
  "districtName": "TANJUNGMEDAR",
  "name": "SUKAMUKTI",
  "postalCode": "44191"
 },
 {
  "id": 3211171004,
  "districtId": 3211171,
  "districtName": "TANJUNGMEDAR",
  "name": "CIKARAMAS",
  "postalCode": "45354"
 },
 {
  "id": 3211171005,
  "districtId": 3211171,
  "districtName": "TANJUNGMEDAR",
  "name": "KERTAMUKTI",
  "postalCode": "41181"
 },
 {
  "id": 3211171006,
  "districtId": 3211171,
  "districtName": "TANJUNGMEDAR",
  "name": "SUKATANI",
  "postalCode": "41384"
 },
 {
  "id": 3211171007,
  "districtId": 3211171,
  "districtName": "TANJUNGMEDAR",
  "name": "KAMAL",
  "postalCode": "30653"
 },
 {
  "id": 3211171008,
  "districtId": 3211171,
  "districtName": "TANJUNGMEDAR",
  "name": "JINGKANG",
  "postalCode": "45354"
 },
 {
  "id": 3211171009,
  "districtId": 3211171,
  "districtName": "TANJUNGMEDAR",
  "name": "TANJUNGMEDAR",
  "postalCode": "45354"
 }
]