[
 {
  "id": 3211032001,
  "districtId": 3211032,
  "districtName": "PAMULIHAN",
  "name": "MEKARBAKTI",
  "postalCode": "44165"
 },
 {
  "id": 3211032002,
  "districtId": 3211032,
  "districtName": "PAMULIHAN",
  "name": "CILEMBU",
  "postalCode": "45365"
 },
 {
  "id": 3211032003,
  "districtId": 3211032,
  "districtName": "PAMULIHAN",
  "name": "CIMARIAS",
  "postalCode": "34173"
 },
 {
  "id": 3211032004,
  "districtId": 3211032,
  "districtName": "PAMULIHAN",
  "name": "CINANGGERANG",
  "postalCode": "45365"
 },
 {
  "id": 3211032005,
  "districtId": 3211032,
  "districtName": "PAMULIHAN",
  "name": "CIJERUK",
  "postalCode": "16740"
 },
 {
  "id": 3211032006,
  "districtId": 3211032,
  "districtName": "PAMULIHAN",
  "name": "CIGENDEL",
  "postalCode": "45365"
 },
 {
  "id": 3211032007,
  "districtId": 3211032,
  "districtName": "PAMULIHAN",
  "name": "HAURNGOMBONG",
  "postalCode": "45365"
 },
 {
  "id": 3211032008,
  "districtId": 3211032,
  "districtName": "PAMULIHAN",
  "name": "CIPTASARI",
  "postalCode": "45365"
 },
 {
  "id": 3211032009,
  "districtId": 3211032,
  "districtName": "PAMULIHAN",
  "name": "CITALI",
  "postalCode": "45365"
 },
 {
  "id": 3211032010,
  "districtId": 3211032,
  "districtName": "PAMULIHAN",
  "name": "PAMULIHAN",
  "postalCode": "45592"
 },
 {
  "id": 3211032011,
  "districtId": 3211032,
  "districtName": "PAMULIHAN",
  "name": "SUKAWANGI",
  "postalCode": "35376"
 }
]