[
 {
  "id": 3211071001,
  "districtId": 3211071,
  "districtName": "CISITU",
  "name": "SUNDAMEKAR",
  "postalCode": "45363"
 },
 {
  "id": 3211071002,
  "districtId": 3211071,
  "districtName": "CISITU",
  "name": "CIMARGA",
  "postalCode": "45363"
 },
 {
  "id": 3211071003,
  "districtId": 3211071,
  "districtName": "CISITU",
  "name": "CINANGSI",
  "postalCode": "41285"
 },
 {
  "id": 3211071004,
  "districtId": 3211071,
  "districtName": "CISITU",
  "name": "LINGGAJAYA",
  "postalCode": "45363"
 },
 {
  "id": 3211071005,
  "districtId": 3211071,
  "districtName": "CISITU",
  "name": "SITUMEKAR",
  "postalCode": "45363"
 },
 {
  "id": 3211071006,
  "districtId": 3211071,
  "districtName": "CISITU",
  "name": "CISITU",
  "postalCode": "45363"
 },
 {
  "id": 3211071007,
  "districtId": 3211071,
  "districtName": "CISITU",
  "name": "CIGINTUNG",
  "postalCode": "45363"
 },
 {
  "id": 3211071008,
  "districtId": 3211071,
  "districtName": "CISITU",
  "name": "RANJENG",
  "postalCode": "45363"
 },
 {
  "id": 3211071009,
  "districtId": 3211071,
  "districtName": "CISITU",
  "name": "CILOPANG",
  "postalCode": "45363"
 },
 {
  "id": 3211071010,
  "districtId": 3211071,
  "districtName": "CISITU",
  "name": "PAJAGAN",
  "postalCode": "45363"
 }
]