[
 {
  "id": 3211101001,
  "districtId": 3211101,
  "districtName": "JATINUNGGAL",
  "name": "KIRISIK",
  "postalCode": "45376"
 },
 {
  "id": 3211101002,
  "districtId": 3211101,
  "districtName": "JATINUNGGAL",
  "name": "CIPEUNDEUY",
  "postalCode": "45464"
 },
 {
  "id": 3211101003,
  "districtId": 3211101,
  "districtName": "JATINUNGGAL",
  "name": "CIMANINTIN",
  "postalCode": "45376"
 },
 {
  "id": 3211101004,
  "districtId": 3211101,
  "districtName": "JATINUNGGAL",
  "name": "SUKAMANAH",
  "postalCode": "43273"
 },
 {
  "id": 3211101005,
  "districtId": 3211101,
  "districtName": "JATINUNGGAL",
  "name": "BANJARSARI",
  "postalCode": "35377"
 },
 {
  "id": 3211101006,
  "districtId": 3211101,
  "districtName": "JATINUNGGAL",
  "name": "SARIMEKAR",
  "postalCode": "45376"
 },
 {
  "id": 3211101007,
  "districtId": 3211101,
  "districtName": "JATINUNGGAL",
  "name": "TARIKOLOT",
  "postalCode": "45588"
 },
 {
  "id": 3211101008,
  "districtId": 3211101,
  "districtName": "JATINUNGGAL",
  "name": "SIRNASARI",
  "postalCode": "45376"
 },
 {
  "id": 3211101009,
  "districtId": 3211101,
  "districtName": "JATINUNGGAL",
  "name": "PAWENANG",
  "postalCode": "41164"
 }
]