[
 {
  "id": 3211020001,
  "districtId": 3211020,
  "districtName": "CIMANGGUNG",
  "name": "MANGUNARGA",
  "postalCode": "45364"
 },
 {
  "id": 3211020002,
  "districtId": 3211020,
  "districtName": "CIMANGGUNG",
  "name": "SAWAHDADAP",
  "postalCode": "45364"
 },
 {
  "id": 3211020003,
  "districtId": 3211020,
  "districtName": "CIMANGGUNG",
  "name": "SUKADANA",
  "postalCode": "30611"
 },
 {
  "id": 3211020004,
  "districtId": 3211020,
  "districtName": "CIMANGGUNG",
  "name": "CIHANJUANG",
  "postalCode": "45364"
 },
 {
  "id": 3211020005,
  "districtId": 3211020,
  "districtName": "CIMANGGUNG",
  "name": "CIKAHURIPAN",
  "postalCode": "45364"
 },
 {
  "id": 3211020006,
  "districtId": 3211020,
  "districtName": "CIMANGGUNG",
  "name": "SINDANGGALIH",
  "postalCode": "45364"
 },
 {
  "id": 3211020007,
  "districtId": 3211020,
  "districtName": "CIMANGGUNG",
  "name": "SINDANGPAKUON",
  "postalCode": "45364"
 },
 {
  "id": 3211020008,
  "districtId": 3211020,
  "districtName": "CIMANGGUNG",
  "name": "CIMANGGUNG",
  "postalCode": "45364"
 },
 {
  "id": 3211020009,
  "districtId": 3211020,
  "districtName": "CIMANGGUNG",
  "name": "TEGALMANGGUNG",
  "postalCode": "45364"
 },
 {
  "id": 3211020010,
  "districtId": 3211020,
  "districtName": "CIMANGGUNG",
  "name": "SINDULANG",
  "postalCode": "45364"
 },
 {
  "id": 3211020011,
  "districtId": 3211020,
  "districtName": "CIMANGGUNG",
  "name": "PASIRNANJUNG",
  "postalCode": ""
 }
]