[
 {
  "id": 3212020001,
  "districtId": 3212020,
  "districtName": "KROYA",
  "name": "SUKASLAMET",
  "postalCode": "45265"
 },
 {
  "id": 3212020002,
  "districtId": 3212020,
  "districtName": "KROYA",
  "name": "TANJUNGKERTA",
  "postalCode": "45584"
 },
 {
  "id": 3212020003,
  "districtId": 3212020,
  "districtName": "KROYA",
  "name": "KROYA",
  "postalCode": "45265"
 },
 {
  "id": 3212020004,
  "districtId": 3212020,
  "districtName": "KROYA",
  "name": "SUMBON",
  "postalCode": "45265"
 },
 {
  "id": 3212020005,
  "districtId": 3212020,
  "districtName": "KROYA",
  "name": "SUKAMELANG",
  "postalCode": "41283"
 },
 {
  "id": 3212020006,
  "districtId": 3212020,
  "districtName": "KROYA",
  "name": "TEMIYANG",
  "postalCode": "45265"
 },
 {
  "id": 3212020007,
  "districtId": 3212020,
  "districtName": "KROYA",
  "name": "TEMIYANGSARI",
  "postalCode": "45265"
 },
 {
  "id": 3212020008,
  "districtId": 3212020,
  "districtName": "KROYA",
  "name": "JAYAMULYA",
  "postalCode": "41356"
 },
 {
  "id": 3212020009,
  "districtId": 3212020,
  "districtName": "KROYA",
  "name": "SUMBERJAYA",
  "postalCode": "46262"
 }
]