[
 {
  "id": 3212170001,
  "districtId": 3212170,
  "districtName": "LOHBENER",
  "name": "KIAJARAN KULON",
  "postalCode": "45252"
 },
 {
  "id": 3212170002,
  "districtId": 3212170,
  "districtName": "LOHBENER",
  "name": "KIJARAN WETAN",
  "postalCode": "45252"
 },
 {
  "id": 3212170003,
  "districtId": 3212170,
  "districtName": "LOHBENER",
  "name": "LANJAN",
  "postalCode": "45252"
 },
 {
  "id": 3212170004,
  "districtId": 3212170,
  "districtName": "LOHBENER",
  "name": "LANGUT",
  "postalCode": "45252"
 },
 {
  "id": 3212170005,
  "districtId": 3212170,
  "districtName": "LOHBENER",
  "name": "LARANGAN",
  "postalCode": "45141"
 },
 {
  "id": 3212170006,
  "districtId": 3212170,
  "districtName": "LOHBENER",
  "name": "WARU",
  "postalCode": "45252"
 },
 {
  "id": 3212170007,
  "districtId": 3212170,
  "districtName": "LOHBENER",
  "name": "LEGOK",
  "postalCode": "36121"
 },
 {
  "id": 3212170008,
  "districtId": 3212170,
  "districtName": "LOHBENER",
  "name": "BOJONGSLAWI",
  "postalCode": "45252"
 },
 {
  "id": 3212170009,
  "districtId": 3212170,
  "districtName": "LOHBENER",
  "name": "LOHBENER",
  "postalCode": "45252"
 },
 {
  "id": 3212170010,
  "districtId": 3212170,
  "districtName": "LOHBENER",
  "name": "PAMAYAHAN",
  "postalCode": "45252"
 },
 {
  "id": 3212170011,
  "districtId": 3212170,
  "districtName": "LOHBENER",
  "name": "SINDANGKERTA",
  "postalCode": "46189"
 },
 {
  "id": 3212170015,
  "districtId": 3212170,
  "districtName": "LOHBENER",
  "name": "RAMBATAN KULON",
  "postalCode": "45252"
 }
]