[
 {
  "id": 3212100007,
  "districtId": 3212100,
  "districtName": "KARANGAMPEL",
  "name": "KAPLONGANLOR",
  "postalCode": "45283"
 },
 {
  "id": 3212100008,
  "districtId": 3212100,
  "districtName": "KARANGAMPEL",
  "name": "TANJUNGPURA",
  "postalCode": "45283"
 },
 {
  "id": 3212100009,
  "districtId": 3212100,
  "districtName": "KARANGAMPEL",
  "name": "TANJUNGSARI",
  "postalCode": "28983"
 },
 {
  "id": 3212100010,
  "districtId": 3212100,
  "districtName": "KARANGAMPEL",
  "name": "PRINGGACALA",
  "postalCode": "45283"
 },
 {
  "id": 3212100011,
  "districtId": 3212100,
  "districtName": "KARANGAMPEL",
  "name": "BENDA",
  "postalCode": "43359"
 },
 {
  "id": 3212100012,
  "districtId": 3212100,
  "districtName": "KARANGAMPEL",
  "name": "SENDANG",
  "postalCode": "45283"
 },
 {
  "id": 3212100013,
  "districtId": 3212100,
  "districtName": "KARANGAMPEL",
  "name": "KARANGAMPEL KIDUL",
  "postalCode": "45283"
 },
 {
  "id": 3212100014,
  "districtId": 3212100,
  "districtName": "KARANGAMPEL",
  "name": "KARANGAMPEL",
  "postalCode": "46274"
 },
 {
  "id": 3212100016,
  "districtId": 3212100,
  "districtName": "KARANGAMPEL",
  "name": "DUKUHTENGAH",
  "postalCode": "45283"
 }
]