[
 {
  "id": 3212220001,
  "districtId": 3212220,
  "districtName": "SUKRA",
  "name": "BOGOR",
  "postalCode": "45257"
 },
 {
  "id": 3212220002,
  "districtId": 3212220,
  "districtName": "SUKRA",
  "name": "SUKRA",
  "postalCode": "45257"
 },
 {
  "id": 3212220003,
  "districtId": 3212220,
  "districtName": "SUKRA",
  "name": "UJUNGGEBANG",
  "postalCode": "45257"
 },
 {
  "id": 3212220004,
  "districtId": 3212220,
  "districtName": "SUKRA",
  "name": "TEGALTAMAN",
  "postalCode": "45257"
 },
 {
  "id": 3212220005,
  "districtId": 3212220,
  "districtName": "SUKRA",
  "name": "SUKRAWETAN",
  "postalCode": "45257"
 },
 {
  "id": 3212220006,
  "districtId": 3212220,
  "districtName": "SUKRA",
  "name": "SUMURADEM",
  "postalCode": "45257"
 },
 {
  "id": 3212220007,
  "districtId": 3212220,
  "districtName": "SUKRA",
  "name": "SUMURADEM TIMUR",
  "postalCode": "45257"
 },
 {
  "id": 3212220008,
  "districtId": 3212220,
  "districtName": "SUKRA",
  "name": "KARANGLAYUNG",
  "postalCode": "45391"
 }
]