[
 {
  "id": 3212180001,
  "districtId": 3212180,
  "districtName": "LOSARANG",
  "name": "RANJENG",
  "postalCode": "45363"
 },
 {
  "id": 3212180002,
  "districtId": 3212180,
  "districtName": "LOSARANG",
  "name": "KRIMUN",
  "postalCode": "45253"
 },
 {
  "id": 3212180003,
  "districtId": 3212180,
  "districtName": "LOSARANG",
  "name": "PUNTANG",
  "postalCode": "31594"
 },
 {
  "id": 3212180004,
  "districtId": 3212180,
  "districtName": "LOSARANG",
  "name": "PEGAGAN",
  "postalCode": "45253"
 },
 {
  "id": 3212180005,
  "districtId": 3212180,
  "districtName": "LOSARANG",
  "name": "RAJAIYANG",
  "postalCode": "45253"
 },
 {
  "id": 3212180006,
  "districtId": 3212180,
  "districtName": "LOSARANG",
  "name": "JANGGA",
  "postalCode": "45253"
 },
 {
  "id": 3212180008,
  "districtId": 3212180,
  "districtName": "LOSARANG",
  "name": "PANGKALAN",
  "postalCode": "24477"
 },
 {
  "id": 3212180010,
  "districtId": 3212180,
  "districtName": "LOSARANG",
  "name": "LOSARANG",
  "postalCode": "45253"
 },
 {
  "id": 3212180012,
  "districtId": 3212180,
  "districtName": "LOSARANG",
  "name": "SANTING",
  "postalCode": "45253"
 },
 {
  "id": 3212180013,
  "districtId": 3212180,
  "districtName": "LOSARANG",
  "name": "CEMARA KULON",
  "postalCode": "45253"
 }
]