[
 {
  "id": 3212160007,
  "districtId": 3212160,
  "districtName": "SINDANG",
  "name": "PANYINDANGAN KULON",
  "postalCode": "45225"
 },
 {
  "id": 3212160008,
  "districtId": 3212160,
  "districtName": "SINDANG",
  "name": "RAMBATAN WETAN",
  "postalCode": "45221"
 },
 {
  "id": 3212160009,
  "districtId": 3212160,
  "districtName": "SINDANG",
  "name": "PANYINDANGAN WETAN",
  "postalCode": "45225"
 },
 {
  "id": 3212160010,
  "districtId": 3212160,
  "districtName": "SINDANG",
  "name": "KENANGA",
  "postalCode": "31619"
 },
 {
  "id": 3212160011,
  "districtId": 3212160,
  "districtName": "SINDANG",
  "name": "TERUSAN",
  "postalCode": "28471"
 },
 {
  "id": 3212160012,
  "districtId": 3212160,
  "districtName": "SINDANG",
  "name": "DERMAYU",
  "postalCode": "38881"
 },
 {
  "id": 3212160013,
  "districtId": 3212160,
  "districtName": "SINDANG",
  "name": "SINDANG",
  "postalCode": "45466"
 },
 {
  "id": 3212160014,
  "districtId": 3212160,
  "districtName": "SINDANG",
  "name": "PENGANJANG",
  "postalCode": "45221"
 },
 {
  "id": 3212160015,
  "districtId": 3212160,
  "districtName": "SINDANG",
  "name": "BABADAN",
  "postalCode": "45151"
 },
 {
  "id": 3212160016,
  "districtId": 3212160,
  "districtName": "SINDANG",
  "name": "WANANTARA",
  "postalCode": "45227"
 }
]