[
 {
  "id": 3213141001,
  "districtId": 3213141,
  "districtName": "PAGADEN BARAT",
  "name": "BALINGBING",
  "postalCode": "41252"
 },
 {
  "id": 3213141002,
  "districtId": 3213141,
  "districtName": "PAGADEN BARAT",
  "name": "CIDADAP",
  "postalCode": "43263"
 },
 {
  "id": 3213141003,
  "districtId": 3213141,
  "districtName": "PAGADEN BARAT",
  "name": "CIDAHU",
  "postalCode": "43172"
 },
 {
  "id": 3213141004,
  "districtId": 3213141,
  "districtName": "PAGADEN BARAT",
  "name": "PANGSOR",
  "postalCode": "41252"
 },
 {
  "id": 3213141006,
  "districtId": 3213141,
  "districtName": "PAGADEN BARAT",
  "name": "MARGAHAYU",
  "postalCode": "17113"
 },
 {
  "id": 3213141007,
  "districtId": 3213141,
  "districtName": "PAGADEN BARAT",
  "name": "BENDUNGAN",
  "postalCode": "16720"
 },
 {
  "id": 3213141008,
  "districtId": 3213141,
  "districtName": "PAGADEN BARAT",
  "name": "MEKARWANGI",
  "postalCode": "45462"
 },
 {
  "id": 3213141009,
  "districtId": 3213141,
  "districtName": "PAGADEN BARAT",
  "name": "SUMURGINTUNG",
  "postalCode": "41252"
 }
]