[
 {
  "id": 3213030001,
  "districtId": 3213030,
  "districtName": "CISALAK",
  "name": "CUPUNAGARA",
  "postalCode": "41283"
 },
 {
  "id": 3213030002,
  "districtId": 3213030,
  "districtName": "CISALAK",
  "name": "CIMANGGU",
  "postalCode": "43262"
 },
 {
  "id": 3213030003,
  "districtId": 3213030,
  "districtName": "CISALAK",
  "name": "GARDUSAYANG",
  "postalCode": "41283"
 },
 {
  "id": 3213030004,
  "districtId": 3213030,
  "districtName": "CISALAK",
  "name": "MAYANG",
  "postalCode": "21183"
 },
 {
  "id": 3213030005,
  "districtId": 3213030,
  "districtName": "CISALAK",
  "name": "SUKAKERTI",
  "postalCode": "41283"
 },
 {
  "id": 3213030008,
  "districtId": 3213030,
  "districtName": "CISALAK",
  "name": "DARMAGA",
  "postalCode": "41283"
 },
 {
  "id": 3213030009,
  "districtId": 3213030,
  "districtName": "CISALAK",
  "name": "CISALAK",
  "postalCode": "43262"
 },
 {
  "id": 3213030010,
  "districtId": 3213030,
  "districtName": "CISALAK",
  "name": "CIGADOG",
  "postalCode": "44177"
 },
 {
  "id": 3213030014,
  "districtId": 3213030,
  "districtName": "CISALAK",
  "name": "PAKUHAJI",
  "postalCode": "41283"
 }
]