[
 {
  "id": 3213120001,
  "districtId": 3213120,
  "districtName": "PURWADADI",
  "name": "KORANJI",
  "postalCode": "41261"
 },
 {
  "id": 3213120003,
  "districtId": 3213120,
  "districtName": "PURWADADI",
  "name": "WANAKERTA",
  "postalCode": "41181"
 },
 {
  "id": 3213120005,
  "districtId": 3213120,
  "districtName": "PURWADADI",
  "name": "PAGON",
  "postalCode": "41261"
 },
 {
  "id": 3213120006,
  "districtId": 3213120,
  "districtName": "PURWADADI",
  "name": "PARAPATAN",
  "postalCode": "41261"
 },
 {
  "id": 3213120007,
  "districtId": 3213120,
  "districtName": "PURWADADI",
  "name": "PURWADADI TIMUR",
  "postalCode": "41261"
 },
 {
  "id": 3213120008,
  "districtId": 3213120,
  "districtName": "PURWADADI",
  "name": "PURWADADI BARAT",
  "postalCode": "41261"
 },
 {
  "id": 3213120009,
  "districtId": 3213120,
  "districtName": "PURWADADI",
  "name": "PASIRBUNGUR",
  "postalCode": "41261"
 },
 {
  "id": 3213120010,
  "districtId": 3213120,
  "districtName": "PURWADADI",
  "name": "RANCAMAHI",
  "postalCode": "41261"
 },
 {
  "id": 3213120011,
  "districtId": 3213120,
  "districtName": "PURWADADI",
  "name": "PANYINGKIRAN",
  "postalCode": "46211"
 }
]