[
 {
  "id": 3213190006,
  "districtId": 3213190,
  "districtName": "PAMANUKAN",
  "name": "RANCASARI",
  "postalCode": "45272"
 },
 {
  "id": 3213190007,
  "districtId": 3213190,
  "districtName": "PAMANUKAN",
  "name": "PAMANUKAN",
  "postalCode": "41254"
 },
 {
  "id": 3213190008,
  "districtId": 3213190,
  "districtName": "PAMANUKAN",
  "name": "PAMANUKAN HILIR",
  "postalCode": "41254"
 },
 {
  "id": 3213190009,
  "districtId": 3213190,
  "districtName": "PAMANUKAN",
  "name": "LENGKONGJAYA",
  "postalCode": "46463"
 },
 {
  "id": 3213190010,
  "districtId": 3213190,
  "districtName": "PAMANUKAN",
  "name": "PAMANUKAN SEBRANG",
  "postalCode": "41254"
 },
 {
  "id": 3213190012,
  "districtId": 3213190,
  "districtName": "PAMANUKAN",
  "name": "MULYASARI",
  "postalCode": "43273"
 },
 {
  "id": 3213190013,
  "districtId": 3213190,
  "districtName": "PAMANUKAN",
  "name": "RANCAHILIR",
  "postalCode": "41254"
 },
 {
  "id": 3213190014,
  "districtId": 3213190,
  "districtName": "PAMANUKAN",
  "name": "BONGAS",
  "postalCode": "45255"
 }
]