[
 {
  "id": 3213080004,
  "districtId": 3213080,
  "districtName": "KALIJATI",
  "name": "TANGGULUN TIMUR",
  "postalCode": "41271"
 },
 {
  "id": 3213080005,
  "districtId": 3213080,
  "districtName": "KALIJATI",
  "name": "TANGGULUN BARAT",
  "postalCode": "41271"
 },
 {
  "id": 3213080006,
  "districtId": 3213080,
  "districtName": "KALIJATI",
  "name": "MARENGMANG",
  "postalCode": "41271"
 },
 {
  "id": 3213080007,
  "districtId": 3213080,
  "districtName": "KALIJATI",
  "name": "KALIJATI BARAT",
  "postalCode": "41271"
 },
 {
  "id": 3213080008,
  "districtId": 3213080,
  "districtName": "KALIJATI",
  "name": "KALIJATI TIMUR",
  "postalCode": "41271"
 },
 {
  "id": 3213080016,
  "districtId": 3213080,
  "districtName": "KALIJATI",
  "name": "KALIANGSANA",
  "postalCode": "41271"
 },
 {
  "id": 3213080017,
  "districtId": 3213080,
  "districtName": "KALIJATI",
  "name": "BANGGALAMULYA",
  "postalCode": "41272"
 },
 {
  "id": 3213080018,
  "districtId": 3213080,
  "districtName": "KALIJATI",
  "name": "JALUPANG",
  "postalCode": "41272"
 },
 {
  "id": 3213080019,
  "districtId": 3213080,
  "districtName": "KALIJATI",
  "name": "CARACAS",
  "postalCode": "45556"
 },
 {
  "id": 3213080020,
  "districtId": 3213080,
  "districtName": "KALIJATI",
  "name": "CIRULUK",
  "postalCode": "41271"
 }
]