[
 {
  "id": 3213100002,
  "districtId": 3213100,
  "districtName": "PABUARAN",
  "name": "CIHAMBULU",
  "postalCode": "41262"
 },
 {
  "id": 3213100003,
  "districtId": 3213100,
  "districtName": "PABUARAN",
  "name": "SILUMAN",
  "postalCode": "41262"
 },
 {
  "id": 3213100004,
  "districtId": 3213100,
  "districtName": "PABUARAN",
  "name": "PABUARAN",
  "postalCode": "16921"
 },
 {
  "id": 3213100005,
  "districtId": 3213100,
  "districtName": "PABUARAN",
  "name": "SALAMJAYA",
  "postalCode": "41262"
 },
 {
  "id": 3213100006,
  "districtId": 3213100,
  "districtName": "PABUARAN",
  "name": "KADAWUNG",
  "postalCode": "41262"
 },
 {
  "id": 3213100007,
  "districtId": 3213100,
  "districtName": "PABUARAN",
  "name": "PRINGKASAP",
  "postalCode": "41262"
 },
 {
  "id": 3213100008,
  "districtId": 3213100,
  "districtName": "PABUARAN",
  "name": "KARANGHEGAR",
  "postalCode": "41262"
 },
 {
  "id": 3213100011,
  "districtId": 3213100,
  "districtName": "PABUARAN",
  "name": "BALEBANDUNG JAYA",
  "postalCode": "41262"
 }
]