[
 {
  "id": 3214111001,
  "districtId": 3214111,
  "districtName": "CIBATU",
  "name": "WANAWALI",
  "postalCode": "41181"
 },
 {
  "id": 3214111002,
  "districtId": 3214111,
  "districtName": "CIBATU",
  "name": "CIKADU",
  "postalCode": "41181"
 },
 {
  "id": 3214111003,
  "districtId": 3214111,
  "districtName": "CIBATU",
  "name": "CIBUKAMANAH",
  "postalCode": "41181"
 },
 {
  "id": 3214111004,
  "districtId": 3214111,
  "districtName": "CIBATU",
  "name": "CIRANGKONG",
  "postalCode": "41181"
 },
 {
  "id": 3214111005,
  "districtId": 3214111,
  "districtName": "CIBATU",
  "name": "CIPANCUR",
  "postalCode": "41181"
 },
 {
  "id": 3214111006,
  "districtId": 3214111,
  "districtName": "CIBATU",
  "name": "CIPINANG",
  "postalCode": "13240"
 },
 {
  "id": 3214111007,
  "districtId": 3214111,
  "districtName": "CIBATU",
  "name": "CIPARUNGSARI",
  "postalCode": "41181"
 },
 {
  "id": 3214111008,
  "districtId": 3214111,
  "districtName": "CIBATU",
  "name": "KARYAMEKAR",
  "postalCode": "41181"
 },
 {
  "id": 3214111009,
  "districtId": 3214111,
  "districtName": "CIBATU",
  "name": "CIBATU",
  "postalCode": "44185"
 },
 {
  "id": 3214111010,
  "districtId": 3214111,
  "districtName": "CIBATU",
  "name": "CILANDAK",
  "postalCode": "45256"
 }
]