[
 {
  "id": 3214080001,
  "districtId": 3214080,
  "districtName": "WANAYASA",
  "name": "NANGERANG",
  "postalCode": "43171"
 },
 {
  "id": 3214080002,
  "districtId": 3214080,
  "districtName": "WANAYASA",
  "name": "SIMPANG",
  "postalCode": "23773"
 },
 {
  "id": 3214080003,
  "districtId": 3214080,
  "districtName": "WANAYASA",
  "name": "SAKAMBANG",
  "postalCode": "41174"
 },
 {
  "id": 3214080004,
  "districtId": 3214080,
  "districtName": "WANAYASA",
  "name": "NAGROG",
  "postalCode": "40395"
 },
 {
  "id": 3214080005,
  "districtId": 3214080,
  "districtName": "WANAYASA",
  "name": "CIBUNTU",
  "postalCode": "40212"
 },
 {
  "id": 3214080007,
  "districtId": 3214080,
  "districtName": "WANAYASA",
  "name": "RAHARJA",
  "postalCode": "46333"
 },
 {
  "id": 3214080008,
  "districtId": 3214080,
  "districtName": "WANAYASA",
  "name": "WANAYASA",
  "postalCode": "45172"
 },
 {
  "id": 3214080009,
  "districtId": 3214080,
  "districtName": "WANAYASA",
  "name": "BABAKAN",
  "postalCode": "35675"
 },
 {
  "id": 3214080016,
  "districtId": 3214080,
  "districtName": "WANAYASA",
  "name": "WANASARI",
  "postalCode": "43273"
 },
 {
  "id": 3214080017,
  "districtId": 3214080,
  "districtName": "WANAYASA",
  "name": "LEGOKHUNI",
  "postalCode": "41174"
 },
 {
  "id": 3214080018,
  "districtId": 3214080,
  "districtName": "WANAYASA",
  "name": "CIAWI",
  "postalCode": "16720"
 },
 {
  "id": 3214080019,
  "districtId": 3214080,
  "districtName": "WANAYASA",
  "name": "SUKADAMI",
  "postalCode": "17530"
 },
 {
  "id": 3214080020,
  "districtId": 3214080,
  "districtName": "WANAYASA",
  "name": "TARINGGUL TONGGOH",
  "postalCode": "41174"
 },
 {
  "id": 3214080021,
  "districtId": 3214080,
  "districtName": "WANAYASA",
  "name": "TARINGGUL TENGAH",
  "postalCode": "41174"
 }
]