[
 {
  "id": 3215190001,
  "districtId": 3215190,
  "districtName": "BATUJAYA",
  "name": "KUTAAMPEL",
  "postalCode": "41354"
 },
 {
  "id": 3215190002,
  "districtId": 3215190,
  "districtName": "BATUJAYA",
  "name": "KARYAMAKMUR",
  "postalCode": "41354"
 },
 {
  "id": 3215190003,
  "districtId": 3215190,
  "districtName": "BATUJAYA",
  "name": "KARYAMULYA",
  "postalCode": "41354"
 },
 {
  "id": 3215190004,
  "districtId": 3215190,
  "districtName": "BATUJAYA",
  "name": "TELUKBANGO",
  "postalCode": "41354"
 },
 {
  "id": 3215190005,
  "districtId": 3215190,
  "districtName": "BATUJAYA",
  "name": "TELUKAMBULU",
  "postalCode": "41354"
 },
 {
  "id": 3215190006,
  "districtId": 3215190,
  "districtName": "BATUJAYA",
  "name": "KARYABAKTI",
  "postalCode": "41354"
 },
 {
  "id": 3215190007,
  "districtId": 3215190,
  "districtName": "BATUJAYA",
  "name": "BATURADEN",
  "postalCode": "41354"
 },
 {
  "id": 3215190008,
  "districtId": 3215190,
  "districtName": "BATUJAYA",
  "name": "BATUJAYA",
  "postalCode": "41354"
 },
 {
  "id": 3215190009,
  "districtId": 3215190,
  "districtName": "BATUJAYA",
  "name": "SEGARAN",
  "postalCode": "41354"
 },
 {
  "id": 3215190010,
  "districtId": 3215190,
  "districtName": "BATUJAYA",
  "name": "SEGARJAYA",
  "postalCode": "41354"
 }
]