[
 {
  "id": 3215113001,
  "districtId": 3215113,
  "districtName": "KARAWANG BARAT",
  "name": "ADIARSA BARAT",
  "postalCode": "41311"
 },
 {
  "id": 3215113002,
  "districtId": 3215113,
  "districtName": "KARAWANG BARAT",
  "name": "NAGASARI",
  "postalCode": "30865"
 },
 {
  "id": 3215113003,
  "districtId": 3215113,
  "districtName": "KARAWANG BARAT",
  "name": "KARAWANG KULON",
  "postalCode": "41311"
 },
 {
  "id": 3215113004,
  "districtId": 3215113,
  "districtName": "KARAWANG BARAT",
  "name": "TANJUNGPURA",
  "postalCode": "45283"
 },
 {
  "id": 3215113005,
  "districtId": 3215113,
  "districtName": "KARAWANG BARAT",
  "name": "TANJUNGMEKAR",
  "postalCode": "46175"
 },
 {
  "id": 3215113006,
  "districtId": 3215113,
  "districtName": "KARAWANG BARAT",
  "name": "KARANGPAWITAN",
  "postalCode": "44182"
 },
 {
  "id": 3215113007,
  "districtId": 3215113,
  "districtName": "KARAWANG BARAT",
  "name": "MEKARJATI",
  "postalCode": "45264"
 },
 {
  "id": 3215113008,
  "districtId": 3215113,
  "districtName": "KARAWANG BARAT",
  "name": "TUNGGAKJATI",
  "postalCode": "41311"
 }
]