[
 {
  "id": 3215060002,
  "districtId": 3215060,
  "districtName": "TIRTAMULYA",
  "name": "KARANGSINOM",
  "postalCode": "41372"
 },
 {
  "id": 3215060003,
  "districtId": 3215060,
  "districtName": "TIRTAMULYA",
  "name": "KARANGJAYA",
  "postalCode": "43197"
 },
 {
  "id": 3215060004,
  "districtId": 3215060,
  "districtName": "TIRTAMULYA",
  "name": "PARAKANMULYA",
  "postalCode": "41372"
 },
 {
  "id": 3215060005,
  "districtId": 3215060,
  "districtName": "TIRTAMULYA",
  "name": "CITARIK",
  "postalCode": "43364"
 },
 {
  "id": 3215060006,
  "districtId": 3215060,
  "districtName": "TIRTAMULYA",
  "name": "TIRTASARI",
  "postalCode": "41372"
 },
 {
  "id": 3215060007,
  "districtId": 3215060,
  "districtName": "TIRTAMULYA",
  "name": "PARAKAN",
  "postalCode": "16610"
 },
 {
  "id": 3215060008,
  "districtId": 3215060,
  "districtName": "TIRTAMULYA",
  "name": "KAMURANG",
  "postalCode": "43291"
 },
 {
  "id": 3215060009,
  "districtId": 3215060,
  "districtName": "TIRTAMULYA",
  "name": "BOJONGSARI",
  "postalCode": "40288"
 },
 {
  "id": 3215060010,
  "districtId": 3215060,
  "districtName": "TIRTAMULYA",
  "name": "CIPONDOH",
  "postalCode": "41372"
 },
 {
  "id": 3215060011,
  "districtId": 3215060,
  "districtName": "TIRTAMULYA",
  "name": "KERTAWALUYA",
  "postalCode": "41372"
 }
]