[
 {
  "id": 3215040001,
  "districtId": 3215040,
  "districtName": "KLARI",
  "name": "KARANGANYAR",
  "postalCode": "40241"
 },
 {
  "id": 3215040003,
  "districtId": 3215040,
  "districtName": "KLARI",
  "name": "CIMAHI",
  "postalCode": "41181"
 },
 {
  "id": 3215040004,
  "districtId": 3215040,
  "districtName": "KLARI",
  "name": "SUMURKONDANG",
  "postalCode": "45186"
 },
 {
  "id": 3215040005,
  "districtId": 3215040,
  "districtName": "KLARI",
  "name": "WALAHAR",
  "postalCode": "45161"
 },
 {
  "id": 3215040006,
  "districtId": 3215040,
  "districtName": "KLARI",
  "name": "KIARAPAYUNG",
  "postalCode": "41371"
 },
 {
  "id": 3215040007,
  "districtId": 3215040,
  "districtName": "KLARI",
  "name": "GINTUNGKERTA",
  "postalCode": "41371"
 },
 {
  "id": 3215040008,
  "districtId": 3215040,
  "districtName": "KLARI",
  "name": "ANGGADITA",
  "postalCode": "41371"
 },
 {
  "id": 3215040011,
  "districtId": 3215040,
  "districtName": "KLARI",
  "name": "KLARI",
  "postalCode": "41371"
 },
 {
  "id": 3215040012,
  "districtId": 3215040,
  "districtName": "KLARI",
  "name": "CIBALONGSARI",
  "postalCode": "41371"
 },
 {
  "id": 3215040014,
  "districtId": 3215040,
  "districtName": "KLARI",
  "name": "PANCAWATI",
  "postalCode": "16730"
 }
]