[
 {
  "id": 3215011001,
  "districtId": 3215011,
  "districtName": "TEGALWARU",
  "name": "CIPURWASARI",
  "postalCode": "41362"
 },
 {
  "id": 3215011002,
  "districtId": 3215011,
  "districtName": "TEGALWARU",
  "name": "CIGUNUNGSARI",
  "postalCode": "41362"
 },
 {
  "id": 3215011003,
  "districtId": 3215011,
  "districtName": "TEGALWARU",
  "name": "MEKARBUANA",
  "postalCode": "46255"
 },
 {
  "id": 3215011004,
  "districtId": 3215011,
  "districtName": "TEGALWARU",
  "name": "WARGASETRA",
  "postalCode": "41362"
 },
 {
  "id": 3215011005,
  "districtId": 3215011,
  "districtName": "TEGALWARU",
  "name": "CINTALAKSANA",
  "postalCode": "41362"
 },
 {
  "id": 3215011006,
  "districtId": 3215011,
  "districtName": "TEGALWARU",
  "name": "CINTAWARGI",
  "postalCode": "41362"
 },
 {
  "id": 3215011007,
  "districtId": 3215011,
  "districtName": "TEGALWARU",
  "name": "CINTALANGGENG",
  "postalCode": "41362"
 },
 {
  "id": 3215011008,
  "districtId": 3215011,
  "districtName": "TEGALWARU",
  "name": "KUTAMANEUH",
  "postalCode": "41362"
 },
 {
  "id": 3215011009,
  "districtId": 3215011,
  "districtName": "TEGALWARU",
  "name": "KUTALANGGENG",
  "postalCode": "41362"
 }
]