[
 {
  "id": 3215031001,
  "districtId": 3215031,
  "districtName": "TELUKJAMBE TIMUR",
  "name": "SIRNABAYA",
  "postalCode": "46254"
 },
 {
  "id": 3215031002,
  "districtId": 3215031,
  "districtName": "TELUKJAMBE TIMUR",
  "name": "PINAYUNGAN",
  "postalCode": "41361"
 },
 {
  "id": 3215031003,
  "districtId": 3215031,
  "districtName": "TELUKJAMBE TIMUR",
  "name": "TELUKJAMBE",
  "postalCode": "41361"
 },
 {
  "id": 3215031004,
  "districtId": 3215031,
  "districtName": "TELUKJAMBE TIMUR",
  "name": "PUSEURJAYA",
  "postalCode": "41361"
 },
 {
  "id": 3215031005,
  "districtId": 3215031,
  "districtName": "TELUKJAMBE TIMUR",
  "name": "SUKALUYU",
  "postalCode": "40123"
 },
 {
  "id": 3215031006,
  "districtId": 3215031,
  "districtName": "TELUKJAMBE TIMUR",
  "name": "SUKAHARJA",
  "postalCode": "45587"
 },
 {
  "id": 3215031007,
  "districtId": 3215031,
  "districtName": "TELUKJAMBE TIMUR",
  "name": "WADAS",
  "postalCode": "41361"
 },
 {
  "id": 3215031008,
  "districtId": 3215031,
  "districtName": "TELUKJAMBE TIMUR",
  "name": "SUKAMAKMUR",
  "postalCode": "21128"
 },
 {
  "id": 3215031009,
  "districtId": 3215031,
  "districtName": "TELUKJAMBE TIMUR",
  "name": "PURWADANA",
  "postalCode": "41361"
 }
]