[
 {
  "id": 3215081001,
  "districtId": 3215081,
  "districtName": "CILAMAYA WETAN",
  "name": "CIKARANG",
  "postalCode": "43184"
 },
 {
  "id": 3215081002,
  "districtId": 3215081,
  "districtName": "CILAMAYA WETAN",
  "name": "CIKALONG",
  "postalCode": "40556"
 },
 {
  "id": 3215081003,
  "districtId": 3215081,
  "districtName": "CILAMAYA WETAN",
  "name": "TEGALSARI",
  "postalCode": "35372"
 },
 {
  "id": 3215081004,
  "districtId": 3215081,
  "districtName": "CILAMAYA WETAN",
  "name": "TEGALWARU",
  "postalCode": "41384"
 },
 {
  "id": 3215081005,
  "districtId": 3215081,
  "districtName": "CILAMAYA WETAN",
  "name": "MEKARMAYA",
  "postalCode": "41384"
 },
 {
  "id": 3215081006,
  "districtId": 3215081,
  "districtName": "CILAMAYA WETAN",
  "name": "CILAMAYA",
  "postalCode": "41384"
 },
 {
  "id": 3215081007,
  "districtId": 3215081,
  "districtName": "CILAMAYA WETAN",
  "name": "SUKATANI",
  "postalCode": "41384"
 },
 {
  "id": 3215081008,
  "districtId": 3215081,
  "districtName": "CILAMAYA WETAN",
  "name": "SUKAKERTA",
  "postalCode": "43285"
 },
 {
  "id": 3215081009,
  "districtId": 3215081,
  "districtName": "CILAMAYA WETAN",
  "name": "RAWAGEMPOL KULON",
  "postalCode": "41384"
 },
 {
  "id": 3215081010,
  "districtId": 3215081,
  "districtName": "CILAMAYA WETAN",
  "name": "RAWAGEMPOL WETAN",
  "postalCode": "41384"
 },
 {
  "id": 3215081011,
  "districtId": 3215081,
  "districtName": "CILAMAYA WETAN",
  "name": "MUARABARU",
  "postalCode": "30962"
 },
 {
  "id": 3215081012,
  "districtId": 3215081,
  "districtName": "CILAMAYA WETAN",
  "name": "MUARA",
  "postalCode": "41259"
 }
]