[
 {
  "id": 3215151001,
  "districtId": 3215151,
  "districtName": "JAYAKERTA",
  "name": "KEMIRI",
  "postalCode": "41352"
 },
 {
  "id": 3215151002,
  "districtId": 3215151,
  "districtName": "JAYAKERTA",
  "name": "MAKMURJAYA",
  "postalCode": "41352"
 },
 {
  "id": 3215151003,
  "districtId": 3215151,
  "districtName": "JAYAKERTA",
  "name": "JAYAMAKMUR",
  "postalCode": "41352"
 },
 {
  "id": 3215151004,
  "districtId": 3215151,
  "districtName": "JAYAKERTA",
  "name": "JAYAKERTA",
  "postalCode": "41352"
 },
 {
  "id": 3215151005,
  "districtId": 3215151,
  "districtName": "JAYAKERTA",
  "name": "KERTAJAYA",
  "postalCode": "45255"
 },
 {
  "id": 3215151006,
  "districtId": 3215151,
  "districtName": "JAYAKERTA",
  "name": "CIPTAMARGA",
  "postalCode": "41352"
 },
 {
  "id": 3215151007,
  "districtId": 3215151,
  "districtName": "JAYAKERTA",
  "name": "MEDANGASEM",
  "postalCode": "41352"
 },
 {
  "id": 3215151008,
  "districtId": 3215151,
  "districtName": "JAYAKERTA",
  "name": "KAMPUNGSAWAH",
  "postalCode": "41352"
 }
]