[
 {
  "id": 3215170001,
  "districtId": 3215170,
  "districtName": "CIBUAYA",
  "name": "SUKASARI",
  "postalCode": "20986"
 },
 {
  "id": 3215170002,
  "districtId": 3215170,
  "districtName": "CIBUAYA",
  "name": "KERTARAHAYU",
  "postalCode": "41356"
 },
 {
  "id": 3215170003,
  "districtId": 3215170,
  "districtName": "CIBUAYA",
  "name": "CIBUAYA",
  "postalCode": "41356"
 },
 {
  "id": 3215170004,
  "districtId": 3215170,
  "districtName": "CIBUAYA",
  "name": "PEJATEN",
  "postalCode": "41356"
 },
 {
  "id": 3215170006,
  "districtId": 3215170,
  "districtName": "CIBUAYA",
  "name": "KALIDUNGJAYA",
  "postalCode": "41356"
 },
 {
  "id": 3215170007,
  "districtId": 3215170,
  "districtName": "CIBUAYA",
  "name": "KEDUNGJAYA",
  "postalCode": "17610"
 },
 {
  "id": 3215170008,
  "districtId": 3215170,
  "districtName": "CIBUAYA",
  "name": "JAYAMULYA",
  "postalCode": "41356"
 },
 {
  "id": 3215170009,
  "districtId": 3215170,
  "districtName": "CIBUAYA",
  "name": "GEBANGJAYA",
  "postalCode": "41356"
 },
 {
  "id": 3215170010,
  "districtId": 3215170,
  "districtName": "CIBUAYA",
  "name": "CEMARAJAYA",
  "postalCode": "41356"
 },
 {
  "id": 3215170011,
  "districtId": 3215170,
  "districtName": "CIBUAYA",
  "name": "SEDARI",
  "postalCode": "41356"
 }
]