[
 {
  "id": 3215161001,
  "districtId": 3215161,
  "districtName": "CILEBAR",
  "name": "SUKARATU",
  "postalCode": "35551"
 },
 {
  "id": 3215161002,
  "districtId": 3215161,
  "districtName": "CILEBAR",
  "name": "CIPTAMARGI",
  "postalCode": "41385"
 },
 {
  "id": 3215161003,
  "districtId": 3215161,
  "districtName": "CILEBAR",
  "name": "TANJUNGSARI",
  "postalCode": "28983"
 },
 {
  "id": 3215161004,
  "districtId": 3215161,
  "districtName": "CILEBAR",
  "name": "MEKARPOHACI",
  "postalCode": "41385"
 },
 {
  "id": 3215161005,
  "districtId": 3215161,
  "districtName": "CILEBAR",
  "name": "KERTAMUKTI",
  "postalCode": "41181"
 },
 {
  "id": 3215161006,
  "districtId": 3215161,
  "districtName": "CILEBAR",
  "name": "CIKANDE",
  "postalCode": "41353"
 },
 {
  "id": 3215161007,
  "districtId": 3215161,
  "districtName": "CILEBAR",
  "name": "RAWASARI",
  "postalCode": "24185"
 },
 {
  "id": 3215161008,
  "districtId": 3215161,
  "districtName": "CILEBAR",
  "name": "KOSAMBIBATU",
  "postalCode": "41353"
 },
 {
  "id": 3215161009,
  "districtId": 3215161,
  "districtName": "CILEBAR",
  "name": "PUSAKAJAYA SELATAN",
  "postalCode": "41353"
 },
 {
  "id": 3215161010,
  "districtId": 3215161,
  "districtName": "CILEBAR",
  "name": "PUSAKAJAYA UTARA",
  "postalCode": "41353"
 }
]