[
 {
  "id": 3215130001,
  "districtId": 3215130,
  "districtName": "TEMPURAN",
  "name": "DAYEUHLUHUR",
  "postalCode": "46273"
 },
 {
  "id": 3215130002,
  "districtId": 3215130,
  "districtName": "TEMPURAN",
  "name": "LEMAHKARYA",
  "postalCode": "41385"
 },
 {
  "id": 3215130003,
  "districtId": 3215130,
  "districtName": "TEMPURAN",
  "name": "LEMAHDUHUR",
  "postalCode": "41385"
 },
 {
  "id": 3215130004,
  "districtId": 3215130,
  "districtName": "TEMPURAN",
  "name": "LEMAHSUBUR",
  "postalCode": "41385"
 },
 {
  "id": 3215130005,
  "districtId": 3215130,
  "districtName": "TEMPURAN",
  "name": "LEMAHMAKMUR",
  "postalCode": "41385"
 },
 {
  "id": 3215130006,
  "districtId": 3215130,
  "districtName": "TEMPURAN",
  "name": "PAGADUNGAN",
  "postalCode": "41385"
 },
 {
  "id": 3215130007,
  "districtId": 3215130,
  "districtName": "TEMPURAN",
  "name": "PURWAJAYA",
  "postalCode": "34682"
 },
 {
  "id": 3215130008,
  "districtId": 3215130,
  "districtName": "TEMPURAN",
  "name": "JAYANAGARA",
  "postalCode": "41385"
 },
 {
  "id": 3215130009,
  "districtId": 3215130,
  "districtName": "TEMPURAN",
  "name": "TEMPURAN",
  "postalCode": "34172"
 },
 {
  "id": 3215130010,
  "districtId": 3215130,
  "districtName": "TEMPURAN",
  "name": "CIPARAGEJAYA",
  "postalCode": "41385"
 },
 {
  "id": 3215130011,
  "districtId": 3215130,
  "districtName": "TEMPURAN",
  "name": "CIKUNTUL",
  "postalCode": "41385"
 },
 {
  "id": 3215130012,
  "districtId": 3215130,
  "districtName": "TEMPURAN",
  "name": "SUMBERJAYA",
  "postalCode": "46262"
 },
 {
  "id": 3215130013,
  "districtId": 3215130,
  "districtName": "TEMPURAN",
  "name": "PANCAKARYA",
  "postalCode": "41385"
 },
 {
  "id": 3215130014,
  "districtId": 3215130,
  "districtName": "TEMPURAN",
  "name": "TANJUNGJAYA",
  "postalCode": "35613"
 }
]