[
 {
  "id": 3216041001,
  "districtId": 3216041,
  "districtName": "CIKARANG TIMUR",
  "name": "SERTAJAYA",
  "postalCode": "17530"
 },
 {
  "id": 3216041002,
  "districtId": 3216041,
  "districtName": "CIKARANG TIMUR",
  "name": "HEGARMANAH",
  "postalCode": "41151"
 },
 {
  "id": 3216041003,
  "districtId": 3216041,
  "districtName": "CIKARANG TIMUR",
  "name": "CIPAYUNG",
  "postalCode": "13840"
 },
 {
  "id": 3216041004,
  "districtId": 3216041,
  "districtName": "CIKARANG TIMUR",
  "name": "JATIREJA",
  "postalCode": "17530"
 },
 {
  "id": 3216041005,
  "districtId": 3216041,
  "districtName": "CIKARANG TIMUR",
  "name": "JATIBARU",
  "postalCode": "35361"
 },
 {
  "id": 3216041006,
  "districtId": 3216041,
  "districtName": "CIKARANG TIMUR",
  "name": "TANJUNGBARU",
  "postalCode": "30972"
 },
 {
  "id": 3216041007,
  "districtId": 3216041,
  "districtName": "CIKARANG TIMUR",
  "name": "LABANSARI",
  "postalCode": "17530"
 },
 {
  "id": 3216041008,
  "districtId": 3216041,
  "districtName": "CIKARANG TIMUR",
  "name": "KARANGSARI",
  "postalCode": "35376"
 }
]