[
 {
  "id": 3216081001,
  "districtId": 3216081,
  "districtName": "TAMBUN SELATAN",
  "name": "JATIMULYA",
  "postalCode": "45595"
 },
 {
  "id": 3216081002,
  "districtId": 3216081,
  "districtName": "TAMBUN SELATAN",
  "name": "LAMBANGSARI",
  "postalCode": "17510"
 },
 {
  "id": 3216081003,
  "districtId": 3216081,
  "districtName": "TAMBUN SELATAN",
  "name": "LAMBANGJAYA",
  "postalCode": "17510"
 },
 {
  "id": 3216081004,
  "districtId": 3216081,
  "districtName": "TAMBUN SELATAN",
  "name": "TAMBUN",
  "postalCode": "28384"
 },
 {
  "id": 3216081005,
  "districtId": 3216081,
  "districtName": "TAMBUN SELATAN",
  "name": "SETIADARMA",
  "postalCode": "17510"
 },
 {
  "id": 3216081006,
  "districtId": 3216081,
  "districtName": "TAMBUN SELATAN",
  "name": "SETIAMEKAR",
  "postalCode": "17510"
 },
 {
  "id": 3216081007,
  "districtId": 3216081,
  "districtName": "TAMBUN SELATAN",
  "name": "MEKARSARI",
  "postalCode": "37482"
 },
 {
  "id": 3216081008,
  "districtId": 3216081,
  "districtName": "TAMBUN SELATAN",
  "name": "TRIDAYASAKTI",
  "postalCode": ""
 },
 {
  "id": 3216081009,
  "districtId": 3216081,
  "districtName": "TAMBUN SELATAN",
  "name": "MANGUNJAYA",
  "postalCode": "45256"
 },
 {
  "id": 3216081010,
  "districtId": 3216081,
  "districtName": "TAMBUN SELATAN",
  "name": "SUMBERJAYA",
  "postalCode": "46262"
 }
]