[
 {
  "id": 3217050009,
  "districtId": 3217050,
  "districtName": "CIHAMPELAS",
  "name": "SINGAJAYA",
  "postalCode": "46185"
 },
 {
  "id": 3217050011,
  "districtId": 3217050,
  "districtName": "CIHAMPELAS",
  "name": "TANJUNGWANGI",
  "postalCode": "40395"
 },
 {
  "id": 3217050012,
  "districtId": 3217050,
  "districtName": "CIHAMPELAS",
  "name": "SITUWANGI",
  "postalCode": "40562"
 },
 {
  "id": 3217050013,
  "districtId": 3217050,
  "districtName": "CIHAMPELAS",
  "name": "PATARUMAN",
  "postalCode": "40562"
 },
 {
  "id": 3217050014,
  "districtId": 3217050,
  "districtName": "CIHAMPELAS",
  "name": "CIPATIK",
  "postalCode": "40562"
 },
 {
  "id": 3217050015,
  "districtId": 3217050,
  "districtName": "CIHAMPELAS",
  "name": "CITAPEN",
  "postalCode": "16720"
 },
 {
  "id": 3217050016,
  "districtId": 3217050,
  "districtName": "CIHAMPELAS",
  "name": "CIHAMPELAS",
  "postalCode": "40562"
 },
 {
  "id": 3217050017,
  "districtId": 3217050,
  "districtName": "CIHAMPELAS",
  "name": "MEKARMUKTI",
  "postalCode": "45392"
 },
 {
  "id": 3217050020,
  "districtId": 3217050,
  "districtName": "CIHAMPELAS",
  "name": "TANJUNGJAYA",
  "postalCode": "35613"
 },
 {
  "id": 3217050021,
  "districtId": 3217050,
  "districtName": "CIHAMPELAS",
  "name": "MEKARJAYA",
  "postalCode": "30653"
 }
]