[
 {
  "id": 3217090001,
  "districtId": 3217090,
  "districtName": "PADALARANG",
  "name": "LAKSANAMEKAR",
  "postalCode": "40553"
 },
 {
  "id": 3217090002,
  "districtId": 3217090,
  "districtName": "PADALARANG",
  "name": "CIMERANG",
  "postalCode": "40553"
 },
 {
  "id": 3217090003,
  "districtId": 3217090,
  "districtName": "PADALARANG",
  "name": "CIPEUNDEUY",
  "postalCode": "45464"
 },
 {
  "id": 3217090004,
  "districtId": 3217090,
  "districtName": "PADALARANG",
  "name": "KERTAJAYA",
  "postalCode": "45255"
 },
 {
  "id": 3217090005,
  "districtId": 3217090,
  "districtName": "PADALARANG",
  "name": "JAYAMEKAR",
  "postalCode": "43166"
 },
 {
  "id": 3217090006,
  "districtId": 3217090,
  "districtName": "PADALARANG",
  "name": "PADALARANG",
  "postalCode": "40553"
 },
 {
  "id": 3217090007,
  "districtId": 3217090,
  "districtName": "PADALARANG",
  "name": "KERTAMULYA",
  "postalCode": "45255"
 },
 {
  "id": 3217090008,
  "districtId": 3217090,
  "districtName": "PADALARANG",
  "name": "CIBURUY",
  "postalCode": "44162"
 },
 {
  "id": 3217090009,
  "districtId": 3217090,
  "districtName": "PADALARANG",
  "name": "TAGOGAPU",
  "postalCode": "40553"
 },
 {
  "id": 3217090010,
  "districtId": 3217090,
  "districtName": "PADALARANG",
  "name": "CEMPAKAMEKAR",
  "postalCode": "40553"
 }
]