[
 {
  "id": 3217020001,
  "districtId": 3217020,
  "districtName": "GUNUNGHALU",
  "name": "CILANGARI",
  "postalCode": "40565"
 },
 {
  "id": 3217020002,
  "districtId": 3217020,
  "districtName": "GUNUNGHALU",
  "name": "SINDANGJAYA",
  "postalCode": "46195"
 },
 {
  "id": 3217020003,
  "districtId": 3217020,
  "districtName": "GUNUNGHALU",
  "name": "BUNIJAYA",
  "postalCode": "40565"
 },
 {
  "id": 3217020004,
  "districtId": 3217020,
  "districtName": "GUNUNGHALU",
  "name": "SIRNAJAYA",
  "postalCode": "44163"
 },
 {
  "id": 3217020005,
  "districtId": 3217020,
  "districtName": "GUNUNGHALU",
  "name": "GUNUNGHALU",
  "postalCode": "40565"
 },
 {
  "id": 3217020006,
  "districtId": 3217020,
  "districtName": "GUNUNGHALU",
  "name": "CELAK",
  "postalCode": "40565"
 },
 {
  "id": 3217020007,
  "districtId": 3217020,
  "districtName": "GUNUNGHALU",
  "name": "WARGASALUYU",
  "postalCode": "40565"
 },
 {
  "id": 3217020008,
  "districtId": 3217020,
  "districtName": "GUNUNGHALU",
  "name": "SUKASARI",
  "postalCode": "20986"
 },
 {
  "id": 3217020009,
  "districtId": 3217020,
  "districtName": "GUNUNGHALU",
  "name": "TAMANJAYA",
  "postalCode": "43177"
 }
]