[
 {
  "id": 3218070001,
  "districtId": 3218070,
  "districtName": "PANGANDARAN",
  "name": "WONOHARJO",
  "postalCode": "38655"
 },
 {
  "id": 3218070002,
  "districtId": 3218070,
  "districtName": "PANGANDARAN",
  "name": "PANANJUNG",
  "postalCode": "40238"
 },
 {
  "id": 3218070003,
  "districtId": 3218070,
  "districtName": "PANGANDARAN",
  "name": "PANGANDARAN",
  "postalCode": "46396"
 },
 {
  "id": 3218070004,
  "districtId": 3218070,
  "districtName": "PANGANDARAN",
  "name": "BABAKAN",
  "postalCode": "35675"
 },
 {
  "id": 3218070005,
  "districtId": 3218070,
  "districtName": "PANGANDARAN",
  "name": "SUKAHURIP",
  "postalCode": "44116"
 },
 {
  "id": 3218070006,
  "districtId": 3218070,
  "districtName": "PANGANDARAN",
  "name": "PURBAHAYU",
  "postalCode": "46396"
 },
 {
  "id": 3218070007,
  "districtId": 3218070,
  "districtName": "PANGANDARAN",
  "name": "SIDOMULYO",
  "postalCode": "21455"
 },
 {
  "id": 3218070008,
  "districtId": 3218070,
  "districtName": "PANGANDARAN",
  "name": "PAGERGUNUNG",
  "postalCode": "46396"
 }
]