[
 {
  "id": 3271040001,
  "districtId": 3271040,
  "districtName": "BOGOR TENGAH",
  "name": "PALEDANG",
  "postalCode": "16122"
 },
 {
  "id": 3271040002,
  "districtId": 3271040,
  "districtName": "BOGOR TENGAH",
  "name": "GUDANG",
  "postalCode": "23764"
 },
 {
  "id": 3271040003,
  "districtId": 3271040,
  "districtName": "BOGOR TENGAH",
  "name": "BABAKANPASAR",
  "postalCode": ""
 },
 {
  "id": 3271040004,
  "districtId": 3271040,
  "districtName": "BOGOR TENGAH",
  "name": "TEGALLEGA",
  "postalCode": "43184"
 },
 {
  "id": 3271040005,
  "districtId": 3271040,
  "districtName": "BOGOR TENGAH",
  "name": "BABAKAN",
  "postalCode": "35675"
 },
 {
  "id": 3271040007,
  "districtId": 3271040,
  "districtName": "BOGOR TENGAH",
  "name": "PABATON",
  "postalCode": "16121"
 },
 {
  "id": 3271040008,
  "districtId": 3271040,
  "districtName": "BOGOR TENGAH",
  "name": "CIBOGOR",
  "postalCode": "16124"
 },
 {
  "id": 3271040009,
  "districtId": 3271040,
  "districtName": "BOGOR TENGAH",
  "name": "PANARAGAN",
  "postalCode": "34693"
 },
 {
  "id": 3271040010,
  "districtId": 3271040,
  "districtName": "BOGOR TENGAH",
  "name": "KEBONKELAPA",
  "postalCode": ""
 },
 {
  "id": 3271040011,
  "districtId": 3271040,
  "districtName": "BOGOR TENGAH",
  "name": "CIWARINGIN",
  "postalCode": "16124"
 }
]