[
 {
  "id": 3271010001,
  "districtId": 3271010,
  "districtName": "BOGOR SELATAN",
  "name": "MULYAHARJA",
  "postalCode": "16135"
 },
 {
  "id": 3271010002,
  "districtId": 3271010,
  "districtName": "BOGOR SELATAN",
  "name": "PAMOYANAN",
  "postalCode": "16136"
 },
 {
  "id": 3271010003,
  "districtId": 3271010,
  "districtName": "BOGOR SELATAN",
  "name": "RANGGAMEKAR",
  "postalCode": "16136"
 },
 {
  "id": 3271010005,
  "districtId": 3271010,
  "districtName": "BOGOR SELATAN",
  "name": "KERTAMAYA",
  "postalCode": "16138"
 },
 {
  "id": 3271010006,
  "districtId": 3271010,
  "districtName": "BOGOR SELATAN",
  "name": "RANCAMAYA",
  "postalCode": "16139"
 },
 {
  "id": 3271010007,
  "districtId": 3271010,
  "districtName": "BOGOR SELATAN",
  "name": "BOJONGKERTA",
  "postalCode": "16139"
 },
 {
  "id": 3271010008,
  "districtId": 3271010,
  "districtName": "BOGOR SELATAN",
  "name": "HARJASARI",
  "postalCode": "16138"
 },
 {
  "id": 3271010009,
  "districtId": 3271010,
  "districtName": "BOGOR SELATAN",
  "name": "MUARASARI",
  "postalCode": "16137"
 },
 {
  "id": 3271010010,
  "districtId": 3271010,
  "districtName": "BOGOR SELATAN",
  "name": "PAKUAN",
  "postalCode": "16134"
 },
 {
  "id": 3271010011,
  "districtId": 3271010,
  "districtName": "BOGOR SELATAN",
  "name": "CIPAKU",
  "postalCode": "16133"
 },
 {
  "id": 3271010012,
  "districtId": 3271010,
  "districtName": "BOGOR SELATAN",
  "name": "LAWANGGINTUNG",
  "postalCode": ""
 },
 {
  "id": 3271010013,
  "districtId": 3271010,
  "districtName": "BOGOR SELATAN",
  "name": "BATUTULIS",
  "postalCode": "16133"
 },
 {
  "id": 3271010014,
  "districtId": 3271010,
  "districtName": "BOGOR SELATAN",
  "name": "BONDONGAN",
  "postalCode": "16131"
 },
 {
  "id": 3271010015,
  "districtId": 3271010,
  "districtName": "BOGOR SELATAN",
  "name": "EMPANG",
  "postalCode": "16132"
 },
 {
  "id": 3271010016,
  "districtId": 3271010,
  "districtName": "BOGOR SELATAN",
  "name": "CIKARET",
  "postalCode": "16132"
 }
]