[
 {
  "id": 3278060001,
  "districtId": 3278060,
  "districtName": "MANGKUBUMI",
  "name": "KARIKIL",
  "postalCode": "46181"
 },
 {
  "id": 3278060002,
  "districtId": 3278060,
  "districtName": "MANGKUBUMI",
  "name": "CIGANTANG",
  "postalCode": "46181"
 },
 {
  "id": 3278060003,
  "districtId": 3278060,
  "districtName": "MANGKUBUMI",
  "name": "SAMBONGJAYA",
  "postalCode": "46181"
 },
 {
  "id": 3278060004,
  "districtId": 3278060,
  "districtName": "MANGKUBUMI",
  "name": "SAMBONGPARI",
  "postalCode": "46181"
 },
 {
  "id": 3278060005,
  "districtId": 3278060,
  "districtName": "MANGKUBUMI",
  "name": "LINGGAJAYA",
  "postalCode": "45363"
 },
 {
  "id": 3278060006,
  "districtId": 3278060,
  "districtName": "MANGKUBUMI",
  "name": "MANGKUBUMI",
  "postalCode": "46181"
 },
 {
  "id": 3278060007,
  "districtId": 3278060,
  "districtName": "MANGKUBUMI",
  "name": "CIPARI",
  "postalCode": "45552"
 },
 {
  "id": 3278060008,
  "districtId": 3278060,
  "districtName": "MANGKUBUMI",
  "name": "CIPAWITRA",
  "postalCode": "46181"
 }
]