[
 {
  "id": 3278030001,
  "districtId": 3278030,
  "districtName": "CIBEUREUM",
  "name": "CIHERANG",
  "postalCode": "35379"
 },
 {
  "id": 3278030002,
  "districtId": 3278030,
  "districtName": "CIBEUREUM",
  "name": "CIAKAR",
  "postalCode": "46196"
 },
 {
  "id": 3278030003,
  "districtId": 3278030,
  "districtName": "CIBEUREUM",
  "name": "MARGABAKTI",
  "postalCode": "46196"
 },
 {
  "id": 3278030004,
  "districtId": 3278030,
  "districtName": "CIBEUREUM",
  "name": "AWIPARI",
  "postalCode": "46196"
 },
 {
  "id": 3278030005,
  "districtId": 3278030,
  "districtName": "CIBEUREUM",
  "name": "KOTABARU",
  "postalCode": "46196"
 },
 {
  "id": 3278030006,
  "districtId": 3278030,
  "districtName": "CIBEUREUM",
  "name": "KERSANAGARA",
  "postalCode": "46196"
 },
 {
  "id": 3278030007,
  "districtId": 3278030,
  "districtName": "CIBEUREUM",
  "name": "SETIAJAYA",
  "postalCode": "46196"
 },
 {
  "id": 3278030008,
  "districtId": 3278030,
  "districtName": "CIBEUREUM",
  "name": "SETIARATU",
  "postalCode": "46196"
 },
 {
  "id": 3278030009,
  "districtId": 3278030,
  "districtName": "CIBEUREUM",
  "name": "SETIANAGARA",
  "postalCode": "46196"
 }
]