[
 {
  "id": 3278020001,
  "districtId": 3278020,
  "districtName": "TAMANSARI",
  "name": "SETIAMULYA",
  "postalCode": "46196"
 },
 {
  "id": 3278020002,
  "districtId": 3278020,
  "districtName": "TAMANSARI",
  "name": "SETIAWARGI",
  "postalCode": "46196"
 },
 {
  "id": 3278020003,
  "districtId": 3278020,
  "districtName": "TAMANSARI",
  "name": "TAMANSARI",
  "postalCode": "35366"
 },
 {
  "id": 3278020004,
  "districtId": 3278020,
  "districtName": "TAMANSARI",
  "name": "TAMANJAYA",
  "postalCode": "43177"
 },
 {
  "id": 3278020005,
  "districtId": 3278020,
  "districtName": "TAMANSARI",
  "name": "MULYASARI",
  "postalCode": "43273"
 },
 {
  "id": 3278020006,
  "districtId": 3278020,
  "districtName": "TAMANSARI",
  "name": "SUKAHURIP",
  "postalCode": "44116"
 },
 {
  "id": 3278020007,
  "districtId": 3278020,
  "districtName": "TAMANSARI",
  "name": "MUGARSARI",
  "postalCode": "46196"
 },
 {
  "id": 3278020008,
  "districtId": 3278020,
  "districtName": "TAMANSARI",
  "name": "SUMELAP",
  "postalCode": "46196"
 }
]