[
 {
  "id": 3278010001,
  "districtId": 3278010,
  "districtName": "KAWALU",
  "name": "LEUWILIANG",
  "postalCode": "46182"
 },
 {
  "id": 3278010003,
  "districtId": 3278010,
  "districtName": "KAWALU",
  "name": "GUNUNGTANDALA",
  "postalCode": "46182"
 },
 {
  "id": 3278010005,
  "districtId": 3278010,
  "districtName": "KAWALU",
  "name": "TALAGASARI",
  "postalCode": "44172"
 },
 {
  "id": 3278010006,
  "districtId": 3278010,
  "districtName": "KAWALU",
  "name": "TANJUNG",
  "postalCode": "24562"
 },
 {
  "id": 3278010007,
  "districtId": 3278010,
  "districtName": "KAWALU",
  "name": "CIBEUTI",
  "postalCode": "46182"
 },
 {
  "id": 3278010008,
  "districtId": 3278010,
  "districtName": "KAWALU",
  "name": "KARANGANYAR",
  "postalCode": "40241"
 },
 {
  "id": 3278010009,
  "districtId": 3278010,
  "districtName": "KAWALU",
  "name": "CILAMAJANG",
  "postalCode": "46182"
 },
 {
  "id": 3278010010,
  "districtId": 3278010,
  "districtName": "KAWALU",
  "name": "KARSAMENAK",
  "postalCode": "46182"
 }
]