[
 {
  "id": 3279030001,
  "districtId": 3279030,
  "districtName": "PATARUMAN",
  "name": "BINANGUN",
  "postalCode": "46316"
 },
 {
  "id": 3279030002,
  "districtId": 3279030,
  "districtName": "PATARUMAN",
  "name": "BATULAWANG",
  "postalCode": "43271"
 },
 {
  "id": 3279030003,
  "districtId": 3279030,
  "districtName": "PATARUMAN",
  "name": "KARYAMUKTI",
  "postalCode": "36655"
 },
 {
  "id": 3279030004,
  "districtId": 3279030,
  "districtName": "PATARUMAN",
  "name": "MULYASARI",
  "postalCode": "43273"
 },
 {
  "id": 3279030005,
  "districtId": 3279030,
  "districtName": "PATARUMAN",
  "name": "PATARUMAN",
  "postalCode": "40562"
 },
 {
  "id": 3279030006,
  "districtId": 3279030,
  "districtName": "PATARUMAN",
  "name": "HEGARSARI",
  "postalCode": "44153"
 },
 {
  "id": 3279030007,
  "districtId": 3279030,
  "districtName": "PATARUMAN",
  "name": "SUKAMUKTI",
  "postalCode": "44191"
 },
 {
  "id": 3279030008,
  "districtId": 3279030,
  "districtName": "PATARUMAN",
  "name": "SINARTANJUNG",
  "postalCode": "46323"
 }
]