[
 {
  "id": 3301190001,
  "districtId": 3301190,
  "districtName": "BINANGUN",
  "name": "WIDARAPAYUNG KULON",
  "postalCode": "53281"
 },
 {
  "id": 3301190002,
  "districtId": 3301190,
  "districtName": "BINANGUN",
  "name": "SIDAYU",
  "postalCode": "51254"
 },
 {
  "id": 3301190003,
  "districtId": 3301190,
  "districtName": "BINANGUN",
  "name": "WIDARAPAYUNG WETAN",
  "postalCode": "53281"
 },
 {
  "id": 3301190004,
  "districtId": 3301190,
  "districtName": "BINANGUN",
  "name": "SIDAURIP",
  "postalCode": "53281"
 },
 {
  "id": 3301190005,
  "districtId": 3301190,
  "districtName": "BINANGUN",
  "name": "PAGUBUGAN KULON",
  "postalCode": "53281"
 },
 {
  "id": 3301190006,
  "districtId": 3301190,
  "districtName": "BINANGUN",
  "name": "PAGUBUGAN",
  "postalCode": "53281"
 },
 {
  "id": 3301190007,
  "districtId": 3301190,
  "districtName": "BINANGUN",
  "name": "KARANGNANGKA",
  "postalCode": "53281"
 },
 {
  "id": 3301190008,
  "districtId": 3301190,
  "districtName": "BINANGUN",
  "name": "KEMOJING",
  "postalCode": "53281"
 },
 {
  "id": 3301190009,
  "districtId": 3301190,
  "districtName": "BINANGUN",
  "name": "PESAWAHAN",
  "postalCode": "35223"
 },
 {
  "id": 3301190010,
  "districtId": 3301190,
  "districtName": "BINANGUN",
  "name": "PASURUHAN",
  "postalCode": "53281"
 },
 {
  "id": 3301190011,
  "districtId": 3301190,
  "districtName": "BINANGUN",
  "name": "ALANGAMBA",
  "postalCode": "53281"
 },
 {
  "id": 3301190012,
  "districtId": 3301190,
  "districtName": "BINANGUN",
  "name": "BINANGUN",
  "postalCode": "46316"
 },
 {
  "id": 3301190013,
  "districtId": 3301190,
  "districtName": "BINANGUN",
  "name": "BANGKAL",
  "postalCode": "53281"
 },
 {
  "id": 3301190014,
  "districtId": 3301190,
  "districtName": "BINANGUN",
  "name": "JEPARA WETAN",
  "postalCode": "53281"
 },
 {
  "id": 3301190015,
  "districtId": 3301190,
  "districtName": "BINANGUN",
  "name": "JEPARA KULON",
  "postalCode": "53281"
 },
 {
  "id": 3301190016,
  "districtId": 3301190,
  "districtName": "BINANGUN",
  "name": "KEPUDANG",
  "postalCode": "53281"
 },
 {
  "id": 3301190017,
  "districtId": 3301190,
  "districtName": "BINANGUN",
  "name": "JATI",
  "postalCode": "20152"
 }
]