[
 {
  "id": 3302150001,
  "districtId": 3302150,
  "districtName": "GUMELAR",
  "name": "CILANGKAP",
  "postalCode": "13870"
 },
 {
  "id": 3302150002,
  "districtId": 3302150,
  "districtName": "GUMELAR",
  "name": "CIHONJE",
  "postalCode": "53165"
 },
 {
  "id": 3302150003,
  "districtId": 3302150,
  "districtName": "GUMELAR",
  "name": "PANINGKABAN",
  "postalCode": "53165"
 },
 {
  "id": 3302150004,
  "districtId": 3302150,
  "districtName": "GUMELAR",
  "name": "KARANGKEMOJING",
  "postalCode": "53165"
 },
 {
  "id": 3302150005,
  "districtId": 3302150,
  "districtName": "GUMELAR",
  "name": "GANCANG",
  "postalCode": "53165"
 },
 {
  "id": 3302150006,
  "districtId": 3302150,
  "districtName": "GUMELAR",
  "name": "KEDUNGURANG",
  "postalCode": "53165"
 },
 {
  "id": 3302150007,
  "districtId": 3302150,
  "districtName": "GUMELAR",
  "name": "GUMELAR",
  "postalCode": "53165"
 },
 {
  "id": 3302150008,
  "districtId": 3302150,
  "districtName": "GUMELAR",
  "name": "TLAGA",
  "postalCode": "53165"
 },
 {
  "id": 3302150009,
  "districtId": 3302150,
  "districtName": "GUMELAR",
  "name": "SAMUDRA",
  "postalCode": "53165"
 },
 {
  "id": 3302150010,
  "districtId": 3302150,
  "districtName": "GUMELAR",
  "name": "SAMUDRA KULON",
  "postalCode": "53165"
 }
]