[
 {
  "id": 3302210001,
  "districtId": 3302210,
  "districtName": "SUMBANG",
  "name": "KARANGGINTUNG",
  "postalCode": "53254"
 },
 {
  "id": 3302210002,
  "districtId": 3302210,
  "districtName": "SUMBANG",
  "name": "TAMBAKSOGRA",
  "postalCode": "53183"
 },
 {
  "id": 3302210003,
  "districtId": 3302210,
  "districtName": "SUMBANG",
  "name": "KARANGCEGAK",
  "postalCode": "53361"
 },
 {
  "id": 3302210004,
  "districtId": 3302210,
  "districtName": "SUMBANG",
  "name": "KARANGTURI",
  "postalCode": "57455"
 },
 {
  "id": 3302210005,
  "districtId": 3302210,
  "districtName": "SUMBANG",
  "name": "SILADO",
  "postalCode": "53183"
 },
 {
  "id": 3302210006,
  "districtId": 3302210,
  "districtName": "SUMBANG",
  "name": "SUSUKAN",
  "postalCode": "13750"
 },
 {
  "id": 3302210007,
  "districtId": 3302210,
  "districtName": "SUMBANG",
  "name": "SUMBANG",
  "postalCode": "53183"
 },
 {
  "id": 3302210008,
  "districtId": 3302210,
  "districtName": "SUMBANG",
  "name": "KEBANGGAN",
  "postalCode": "52354"
 },
 {
  "id": 3302210009,
  "districtId": 3302210,
  "districtName": "SUMBANG",
  "name": "KAWUNGCARANG",
  "postalCode": "53183"
 },
 {
  "id": 3302210010,
  "districtId": 3302210,
  "districtName": "SUMBANG",
  "name": "DATAR",
  "postalCode": "37216"
 },
 {
  "id": 3302210011,
  "districtId": 3302210,
  "districtName": "SUMBANG",
  "name": "BANJARSARI KULON",
  "postalCode": "53183"
 },
 {
  "id": 3302210012,
  "districtId": 3302210,
  "districtName": "SUMBANG",
  "name": "BANJARSARI WETAN",
  "postalCode": "53183"
 },
 {
  "id": 3302210013,
  "districtId": 3302210,
  "districtName": "SUMBANG",
  "name": "BANTERAN",
  "postalCode": "53183"
 },
 {
  "id": 3302210014,
  "districtId": 3302210,
  "districtName": "SUMBANG",
  "name": "CIBEREM",
  "postalCode": "53183"
 },
 {
  "id": 3302210015,
  "districtId": 3302210,
  "districtName": "SUMBANG",
  "name": "SIKAPAT",
  "postalCode": "53183"
 },
 {
  "id": 3302210016,
  "districtId": 3302210,
  "districtName": "SUMBANG",
  "name": "GANDATAPA",
  "postalCode": "53183"
 },
 {
  "id": 3302210017,
  "districtId": 3302210,
  "districtName": "SUMBANG",
  "name": "KOTAYASA",
  "postalCode": "53183"
 },
 {
  "id": 3302210018,
  "districtId": 3302210,
  "districtName": "SUMBANG",
  "name": "LIMPAKUWUS",
  "postalCode": "53183"
 },
 {
  "id": 3302210019,
  "districtId": 3302210,
  "districtName": "SUMBANG",
  "name": "KEDUNG MALANG",
  "postalCode": "53183"
 }
]