[
 {
  "id": 3303141001,
  "districtId": 3303141,
  "districtName": "KERTANEGARA",
  "name": "MERGASANA",
  "postalCode": ""
 },
 {
  "id": 3303141002,
  "districtId": 3303141,
  "districtName": "KERTANEGARA",
  "name": "KERTANEGARA",
  "postalCode": "32366"
 },
 {
  "id": 3303141003,
  "districtId": 3303141,
  "districtName": "KERTANEGARA",
  "name": "KASIH",
  "postalCode": "53354"
 },
 {
  "id": 3303141004,
  "districtId": 3303141,
  "districtName": "KERTANEGARA",
  "name": "KARANG TENGAH",
  "postalCode": "20991"
 },
 {
  "id": 3303141005,
  "districtId": 3303141,
  "districtName": "KERTANEGARA",
  "name": "CONDONG",
  "postalCode": "32381"
 },
 {
  "id": 3303141006,
  "districtId": 3303141,
  "districtName": "KERTANEGARA",
  "name": "KARANGPUCUNG",
  "postalCode": "53255"
 },
 {
  "id": 3303141007,
  "districtId": 3303141,
  "districtName": "KERTANEGARA",
  "name": "KARANGASEM",
  "postalCode": "45186"
 },
 {
  "id": 3303141008,
  "districtId": 3303141,
  "districtName": "KERTANEGARA",
  "name": "ADIARSA",
  "postalCode": "53354"
 },
 {
  "id": 3303141009,
  "districtId": 3303141,
  "districtName": "KERTANEGARA",
  "name": "LANGKAP",
  "postalCode": "30755"
 },
 {
  "id": 3303141010,
  "districtId": 3303141,
  "districtName": "KERTANEGARA",
  "name": "DARMA",
  "postalCode": "45562"
 },
 {
  "id": 3303141011,
  "districtId": 3303141,
  "districtName": "KERTANEGARA",
  "name": "KRANGEAN",
  "postalCode": "53354"
 }
]