[
 {
  "id": 3303140001,
  "districtId": 3303140,
  "districtName": "KARANGANYAR",
  "name": "KALIORI",
  "postalCode": "53191"
 },
 {
  "id": 3303140005,
  "districtId": 3303140,
  "districtName": "KARANGANYAR",
  "name": "KALIJARAN",
  "postalCode": "53354"
 },
 {
  "id": 3303140006,
  "districtId": 3303140,
  "districtName": "KARANGANYAR",
  "name": "KARANGANYAR",
  "postalCode": "40241"
 },
 {
  "id": 3303140007,
  "districtId": 3303140,
  "districtName": "KARANGANYAR",
  "name": "BANJARKERTA",
  "postalCode": "53354"
 },
 {
  "id": 3303140008,
  "districtId": 3303140,
  "districtName": "KARANGANYAR",
  "name": "KARANGGEDANG",
  "postalCode": "54261"
 },
 {
  "id": 3303140009,
  "districtId": 3303140,
  "districtName": "KARANGANYAR",
  "name": "KABUNDERAN",
  "postalCode": "53354"
 },
 {
  "id": 3303140010,
  "districtId": 3303140,
  "districtName": "KARANGANYAR",
  "name": "JAMBUDESA",
  "postalCode": "53354"
 },
 {
  "id": 3303140016,
  "districtId": 3303140,
  "districtName": "KARANGANYAR",
  "name": "MARIBAYA",
  "postalCode": "53354"
 },
 {
  "id": 3303140017,
  "districtId": 3303140,
  "districtName": "KARANGANYAR",
  "name": "BUNGKANEL",
  "postalCode": "53354"
 },
 {
  "id": 3303140018,
  "districtId": 3303140,
  "districtName": "KARANGANYAR",
  "name": "LUMPANG",
  "postalCode": "16360"
 },
 {
  "id": 3303140019,
  "districtId": 3303140,
  "districtName": "KARANGANYAR",
  "name": "BUARA",
  "postalCode": "53354"
 },
 {
  "id": 3303140020,
  "districtId": 3303140,
  "districtName": "KARANGANYAR",
  "name": "BRAKAS",
  "postalCode": "59573"
 },
 {
  "id": 3303140021,
  "districtId": 3303140,
  "districtName": "KARANGANYAR",
  "name": "PONJEN",
  "postalCode": "53354"
 }
]