[
 {
  "id": 3303040001,
  "districtId": 3303040,
  "districtName": "PENGADEGAN",
  "name": "PASUNGGINGAN",
  "postalCode": "53393"
 },
 {
  "id": 3303040002,
  "districtId": 3303040,
  "districtName": "PENGADEGAN",
  "name": "PENGADEGAN",
  "postalCode": "12770"
 },
 {
  "id": 3303040003,
  "districtId": 3303040,
  "districtName": "PENGADEGAN",
  "name": "KARANGJOHO",
  "postalCode": "57464"
 },
 {
  "id": 3303040004,
  "districtId": 3303040,
  "districtName": "PENGADEGAN",
  "name": "LARANGAN",
  "postalCode": "45141"
 },
 {
  "id": 3303040005,
  "districtId": 3303040,
  "districtName": "PENGADEGAN",
  "name": "PANUNGGALAN",
  "postalCode": "53393"
 },
 {
  "id": 3303040006,
  "districtId": 3303040,
  "districtName": "PENGADEGAN",
  "name": "BEDAGAS",
  "postalCode": "53393"
 },
 {
  "id": 3303040007,
  "districtId": 3303040,
  "districtName": "PENGADEGAN",
  "name": "TUMANGGAL",
  "postalCode": "53393"
 },
 {
  "id": 3303040008,
  "districtId": 3303040,
  "districtName": "PENGADEGAN",
  "name": "TEGALPINGEN",
  "postalCode": "53393"
 }
]