[
 {
  "id": 3303150001,
  "districtId": 3303150,
  "districtName": "KARANGMONCOL",
  "name": "KARANGSARI",
  "postalCode": "35376"
 },
 {
  "id": 3303150002,
  "districtId": 3303150,
  "districtName": "KARANGMONCOL",
  "name": "PEPEDAN",
  "postalCode": "52192"
 },
 {
  "id": 3303150003,
  "districtId": 3303150,
  "districtName": "KARANGMONCOL",
  "name": "PEKIRINGAN",
  "postalCode": "45131"
 },
 {
  "id": 3303150004,
  "districtId": 3303150,
  "districtName": "KARANGMONCOL",
  "name": "GRANTUNG",
  "postalCode": "54224"
 },
 {
  "id": 3303150005,
  "districtId": 3303150,
  "districtName": "KARANGMONCOL",
  "name": "RAJAWANA",
  "postalCode": "53355"
 },
 {
  "id": 3303150006,
  "districtId": 3303150,
  "districtName": "KARANGMONCOL",
  "name": "TAJUG",
  "postalCode": "53355"
 },
 {
  "id": 3303150007,
  "districtId": 3303150,
  "districtName": "KARANGMONCOL",
  "name": "TAMANSARI",
  "postalCode": "35366"
 },
 {
  "id": 3303150008,
  "districtId": 3303150,
  "districtName": "KARANGMONCOL",
  "name": "BALERAKSA",
  "postalCode": "53355"
 },
 {
  "id": 3303150009,
  "districtId": 3303150,
  "districtName": "KARANGMONCOL",
  "name": "TUNJUNGMULI",
  "postalCode": "53355"
 },
 {
  "id": 3303150010,
  "districtId": 3303150,
  "districtName": "KARANGMONCOL",
  "name": "KRAMAT",
  "postalCode": "10450"
 },
 {
  "id": 3303150011,
  "districtId": 3303150,
  "districtName": "KARANGMONCOL",
  "name": "SIRAU",
  "postalCode": "53355"
 }
]