[
 {
  "id": 3304100001,
  "districtId": 3304100,
  "districtName": "WANADADI",
  "name": "TAPEN",
  "postalCode": "54263"
 },
 {
  "id": 3304100002,
  "districtId": 3304100,
  "districtName": "WANADADI",
  "name": "KASILIB",
  "postalCode": ""
 },
 {
  "id": 3304100003,
  "districtId": 3304100,
  "districtName": "WANADADI",
  "name": "KARANGJAMBE",
  "postalCode": "53372"
 },
 {
  "id": 3304100004,
  "districtId": 3304100,
  "districtName": "WANADADI",
  "name": "WANADADI",
  "postalCode": "53461"
 },
 {
  "id": 3304100005,
  "districtId": 3304100,
  "districtName": "WANADADI",
  "name": "WANAKARSA",
  "postalCode": "53461"
 },
 {
  "id": 3304100006,
  "districtId": 3304100,
  "districtName": "WANADADI",
  "name": "KARANGKEMIRI",
  "postalCode": "53252"
 },
 {
  "id": 3304100007,
  "districtId": 3304100,
  "districtName": "WANADADI",
  "name": "GUMINGSIR",
  "postalCode": "53455"
 },
 {
  "id": 3304100008,
  "districtId": 3304100,
  "districtName": "WANADADI",
  "name": "LINGGASARI",
  "postalCode": "46216"
 },
 {
  "id": 3304100009,
  "districtId": 3304100,
  "districtName": "WANADADI",
  "name": "MEDAYU",
  "postalCode": "50776"
 },
 {
  "id": 3304100010,
  "districtId": 3304100,
  "districtName": "WANADADI",
  "name": "KANDANGWANGI",
  "postalCode": "53461"
 },
 {
  "id": 3304100011,
  "districtId": 3304100,
  "districtName": "WANADADI",
  "name": "LEMAHJAYA",
  "postalCode": "53461"
 }
]