[
 {
  "id": 3304030001,
  "districtId": 3304030,
  "districtName": "MANDIRAJA",
  "name": "SALAMERTA",
  "postalCode": "53473"
 },
 {
  "id": 3304030002,
  "districtId": 3304030,
  "districtName": "MANDIRAJA",
  "name": "GLEMPANG",
  "postalCode": "53473"
 },
 {
  "id": 3304030003,
  "districtId": 3304030,
  "districtName": "MANDIRAJA",
  "name": "KEBANARAN",
  "postalCode": "53473"
 },
 {
  "id": 3304030004,
  "districtId": 3304030,
  "districtName": "MANDIRAJA",
  "name": "KALIWUNGU",
  "postalCode": "52464"
 },
 {
  "id": 3304030005,
  "districtId": 3304030,
  "districtName": "MANDIRAJA",
  "name": "SOMAWANGI",
  "postalCode": "53473"
 },
 {
  "id": 3304030006,
  "districtId": 3304030,
  "districtName": "MANDIRAJA",
  "name": "JALATUNDA",
  "postalCode": "53473"
 },
 {
  "id": 3304030007,
  "districtId": 3304030,
  "districtName": "MANDIRAJA",
  "name": "KEBAKALAN",
  "postalCode": "54365"
 },
 {
  "id": 3304030008,
  "districtId": 3304030,
  "districtName": "MANDIRAJA",
  "name": "MANDIRAJA WETAN",
  "postalCode": "53473"
 },
 {
  "id": 3304030009,
  "districtId": 3304030,
  "districtName": "MANDIRAJA",
  "name": "MANDIRAJA KULON",
  "postalCode": "53473"
 },
 {
  "id": 3304030010,
  "districtId": 3304030,
  "districtName": "MANDIRAJA",
  "name": "BANJENGAN",
  "postalCode": "53473"
 },
 {
  "id": 3304030011,
  "districtId": 3304030,
  "districtName": "MANDIRAJA",
  "name": "KERTAYASA",
  "postalCode": "46394"
 },
 {
  "id": 3304030012,
  "districtId": 3304030,
  "districtName": "MANDIRAJA",
  "name": "CANDIWULAN",
  "postalCode": "54317"
 },
 {
  "id": 3304030013,
  "districtId": 3304030,
  "districtName": "MANDIRAJA",
  "name": "SIMBANG",
  "postalCode": "56372"
 },
 {
  "id": 3304030014,
  "districtId": 3304030,
  "districtName": "MANDIRAJA",
  "name": "PURWASABA",
  "postalCode": "53473"
 },
 {
  "id": 3304030015,
  "districtId": 3304030,
  "districtName": "MANDIRAJA",
  "name": "BLIMBING",
  "postalCode": "52364"
 },
 {
  "id": 3304030016,
  "districtId": 3304030,
  "districtName": "MANDIRAJA",
  "name": "PANGGISARI",
  "postalCode": "53473"
 }
]