[
 {
  "id": 3305091001,
  "districtId": 3305091,
  "districtName": "PADURESO",
  "name": "PEJENGKOLAN",
  "postalCode": "54394"
 },
 {
  "id": 3305091002,
  "districtId": 3305091,
  "districtName": "PADURESO",
  "name": "BALINGASAL",
  "postalCode": "54394"
 },
 {
  "id": 3305091004,
  "districtId": 3305091,
  "districtName": "PADURESO",
  "name": "KALIJERING",
  "postalCode": "54394"
 },
 {
  "id": 3305091005,
  "districtId": 3305091,
  "districtName": "PADURESO",
  "name": "KALIGUBUK",
  "postalCode": "54394"
 },
 {
  "id": 3305091006,
  "districtId": 3305091,
  "districtName": "PADURESO",
  "name": "SIDOTOTO",
  "postalCode": "54394"
 },
 {
  "id": 3305091007,
  "districtId": 3305091,
  "districtName": "PADURESO",
  "name": "RAHAYU",
  "postalCode": "40218"
 },
 {
  "id": 3305091008,
  "districtId": 3305091,
  "districtName": "PADURESO",
  "name": "SENDANGDALEM",
  "postalCode": "54394"
 },
 {
  "id": 3305091009,
  "districtId": 3305091,
  "districtName": "PADURESO",
  "name": "PADURESO",
  "postalCode": "56256"
 }
]