[
 {
  "id": 3305060001,
  "districtId": 3305060,
  "districtName": "BULUSPESANTREN",
  "name": "AYAMPUTIH",
  "postalCode": "54391"
 },
 {
  "id": 3305060002,
  "districtId": 3305060,
  "districtName": "BULUSPESANTREN",
  "name": "SETROJENAR",
  "postalCode": "54391"
 },
 {
  "id": 3305060003,
  "districtId": 3305060,
  "districtName": "BULUSPESANTREN",
  "name": "BRECONG",
  "postalCode": "54391"
 },
 {
  "id": 3305060004,
  "districtId": 3305060,
  "districtName": "BULUSPESANTREN",
  "name": "BANJURPASAR",
  "postalCode": "54391"
 },
 {
  "id": 3305060005,
  "districtId": 3305060,
  "districtName": "BULUSPESANTREN",
  "name": "INDROSARI",
  "postalCode": "54391"
 },
 {
  "id": 3305060006,
  "districtId": 3305060,
  "districtName": "BULUSPESANTREN",
  "name": "BULUSPESANTREN",
  "postalCode": "54391"
 },
 {
  "id": 3305060007,
  "districtId": 3305060,
  "districtName": "BULUSPESANTREN",
  "name": "BANJURMUKADAN",
  "postalCode": "54391"
 },
 {
  "id": 3305060008,
  "districtId": 3305060,
  "districtName": "BULUSPESANTREN",
  "name": "WALUYO",
  "postalCode": "54391"
 },
 {
  "id": 3305060009,
  "districtId": 3305060,
  "districtName": "BULUSPESANTREN",
  "name": "BOCOR",
  "postalCode": "54391"
 },
 {
  "id": 3305060010,
  "districtId": 3305060,
  "districtName": "BULUSPESANTREN",
  "name": "MADURETNO",
  "postalCode": "54391"
 },
 {
  "id": 3305060011,
  "districtId": 3305060,
  "districtName": "BULUSPESANTREN",
  "name": "AMBALKUMOLO",
  "postalCode": "54391"
 },
 {
  "id": 3305060012,
  "districtId": 3305060,
  "districtName": "BULUSPESANTREN",
  "name": "RANTEWRINGIN",
  "postalCode": "54391"
 },
 {
  "id": 3305060013,
  "districtId": 3305060,
  "districtName": "BULUSPESANTREN",
  "name": "TAMBAKREJO",
  "postalCode": "54391"
 },
 {
  "id": 3305060014,
  "districtId": 3305060,
  "districtName": "BULUSPESANTREN",
  "name": "SANGUBANYU",
  "postalCode": "51274"
 },
 {
  "id": 3305060015,
  "districtId": 3305060,
  "districtName": "BULUSPESANTREN",
  "name": "ARJOWINANGUN",
  "postalCode": "54391"
 },
 {
  "id": 3305060016,
  "districtId": 3305060,
  "districtName": "BULUSPESANTREN",
  "name": "AMPIH",
  "postalCode": "54391"
 },
 {
  "id": 3305060017,
  "districtId": 3305060,
  "districtName": "BULUSPESANTREN",
  "name": "JOGOPATEN",
  "postalCode": "54391"
 },
 {
  "id": 3305060018,
  "districtId": 3305060,
  "districtName": "BULUSPESANTREN",
  "name": "KLOPOSAWIT",
  "postalCode": "54391"
 },
 {
  "id": 3305060019,
  "districtId": 3305060,
  "districtName": "BULUSPESANTREN",
  "name": "SIDOMORO",
  "postalCode": "54391"
 },
 {
  "id": 3305060020,
  "districtId": 3305060,
  "districtName": "BULUSPESANTREN",
  "name": "TANJUNGREJO",
  "postalCode": "54224"
 },
 {
  "id": 3305060021,
  "districtId": 3305060,
  "districtName": "BULUSPESANTREN",
  "name": "TANJUNGSARI",
  "postalCode": "28983"
 }
]