[
 {
  "id": 3305200001,
  "districtId": 3305200,
  "districtName": "KARANGANYAR",
  "name": "SIDOMULYO",
  "postalCode": "21455"
 },
 {
  "id": 3305200002,
  "districtId": 3305200,
  "districtName": "KARANGANYAR",
  "name": "PANJATAN",
  "postalCode": "54364"
 },
 {
  "id": 3305200003,
  "districtId": 3305200,
  "districtName": "KARANGANYAR",
  "name": "KARANGANYAR",
  "postalCode": "40241"
 },
 {
  "id": 3305200004,
  "districtId": 3305200,
  "districtName": "KARANGANYAR",
  "name": "JATILUHUR",
  "postalCode": "17425"
 },
 {
  "id": 3305200005,
  "districtId": 3305200,
  "districtName": "KARANGANYAR",
  "name": "CANDI",
  "postalCode": "37263"
 },
 {
  "id": 3305200006,
  "districtId": 3305200,
  "districtName": "KARANGANYAR",
  "name": "GIRIPURNO",
  "postalCode": "56553"
 },
 {
  "id": 3305200007,
  "districtId": 3305200,
  "districtName": "KARANGANYAR",
  "name": "PLARANGAN",
  "postalCode": "54364"
 },
 {
  "id": 3305200008,
  "districtId": 3305200,
  "districtName": "KARANGANYAR",
  "name": "KARANGKEMIRI",
  "postalCode": "53252"
 },
 {
  "id": 3305200009,
  "districtId": 3305200,
  "districtName": "KARANGANYAR",
  "name": "WONOREJO",
  "postalCode": "21186"
 },
 {
  "id": 3305200011,
  "districtId": 3305200,
  "districtName": "KARANGANYAR",
  "name": "POHKUMBANG",
  "postalCode": "54364"
 }
]