[
 {
  "id": 3306010001,
  "districtId": 3306010,
  "districtName": "GRABAG",
  "name": "KERTOJAYAN",
  "postalCode": "54265"
 },
 {
  "id": 3306010002,
  "districtId": 3306010,
  "districtName": "GRABAG",
  "name": "UKIRSARI",
  "postalCode": "54265"
 },
 {
  "id": 3306010003,
  "districtId": 3306010,
  "districtName": "GRABAG",
  "name": "PASARANOM",
  "postalCode": "54265"
 },
 {
  "id": 3306010004,
  "districtId": 3306010,
  "districtName": "GRABAG",
  "name": "MUNGGANGSARI",
  "postalCode": "54265"
 },
 {
  "id": 3306010005,
  "districtId": 3306010,
  "districtName": "GRABAG",
  "name": "KETAWANGREJO",
  "postalCode": "54265"
 },
 {
  "id": 3306010006,
  "districtId": 3306010,
  "districtName": "GRABAG",
  "name": "PATUTREJO",
  "postalCode": "54265"
 },
 {
  "id": 3306010007,
  "districtId": 3306010,
  "districtName": "GRABAG",
  "name": "HARJOBINANGUN",
  "postalCode": "54265"
 },
 {
  "id": 3306010008,
  "districtId": 3306010,
  "districtName": "GRABAG",
  "name": "ROWOREJO",
  "postalCode": "35353"
 },
 {
  "id": 3306010009,
  "districtId": 3306010,
  "districtName": "GRABAG",
  "name": "TUNGGULREJO",
  "postalCode": "58183"
 },
 {
  "id": 3306010010,
  "districtId": 3306010,
  "districtName": "GRABAG",
  "name": "AGLIK",
  "postalCode": "54265"
 },
 {
  "id": 3306010011,
  "districtId": 3306010,
  "districtName": "GRABAG",
  "name": "GRABAG",
  "postalCode": "56196"
 },
 {
  "id": 3306010012,
  "districtId": 3306010,
  "districtName": "GRABAG",
  "name": "BANYUYOSO",
  "postalCode": "54265"
 },
 {
  "id": 3306010013,
  "districtId": 3306010,
  "districtName": "GRABAG",
  "name": "WONOENGGAL",
  "postalCode": "54265"
 },
 {
  "id": 3306010014,
  "districtId": 3306010,
  "districtName": "GRABAG",
  "name": "KALIREJO",
  "postalCode": "35353"
 },
 {
  "id": 3306010015,
  "districtId": 3306010,
  "districtName": "GRABAG",
  "name": "TEGALREJO",
  "postalCode": "50733"
 },
 {
  "id": 3306010016,
  "districtId": 3306010,
  "districtName": "GRABAG",
  "name": "REJOSARI",
  "postalCode": "29353"
 },
 {
  "id": 3306010017,
  "districtId": 3306010,
  "districtName": "GRABAG",
  "name": "DUDUWETAN",
  "postalCode": "54265"
 },
 {
  "id": 3306010018,
  "districtId": 3306010,
  "districtName": "GRABAG",
  "name": "DUDUKULON",
  "postalCode": "54265"
 },
 {
  "id": 3306010019,
  "districtId": 3306010,
  "districtName": "GRABAG",
  "name": "BAKUREJO",
  "postalCode": "54265"
 },
 {
  "id": 3306010020,
  "districtId": 3306010,
  "districtName": "GRABAG",
  "name": "SUMBERAGUNG",
  "postalCode": "35452"
 },
 {
  "id": 3306010021,
  "districtId": 3306010,
  "districtName": "GRABAG",
  "name": "NAMBANGAN",
  "postalCode": "54265"
 },
 {
  "id": 3306010022,
  "districtId": 3306010,
  "districtName": "GRABAG",
  "name": "BENDUNGAN",
  "postalCode": "16720"
 },
 {
  "id": 3306010023,
  "districtId": 3306010,
  "districtName": "GRABAG",
  "name": "ROWODADI",
  "postalCode": "32361"
 },
 {
  "id": 3306010024,
  "districtId": 3306010,
  "districtName": "GRABAG",
  "name": "TRIMULYO",
  "postalCode": "34871"
 },
 {
  "id": 3306010025,
  "districtId": 3306010,
  "districtName": "GRABAG",
  "name": "TULUSREJO",
  "postalCode": "54265"
 },
 {
  "id": 3306010026,
  "districtId": 3306010,
  "districtName": "GRABAG",
  "name": "KUMPULREJO",
  "postalCode": "50734"
 },
 {
  "id": 3306010027,
  "districtId": 3306010,
  "districtName": "GRABAG",
  "name": "TLEPOK KULON",
  "postalCode": "54265"
 },
 {
  "id": 3306010029,
  "districtId": 3306010,
  "districtName": "GRABAG",
  "name": "TLEPOK WETAN",
  "postalCode": "54265"
 },
 {
  "id": 3306010031,
  "districtId": 3306010,
  "districtName": "GRABAG",
  "name": "SANGUBANYU",
  "postalCode": "51274"
 },
 {
  "id": 3306010032,
  "districtId": 3306010,
  "districtName": "GRABAG",
  "name": "KEDUNG KAMAL",
  "postalCode": "54265"
 }
]