[
 {
  "id": 3306090001,
  "districtId": 3306090,
  "districtName": "KUTOARJO",
  "name": "PURWOSARI",
  "postalCode": "24582"
 },
 {
  "id": 3306090002,
  "districtId": 3306090,
  "districtName": "KUTOARJO",
  "name": "KARANGWULUH",
  "postalCode": "54212"
 },
 {
  "id": 3306090003,
  "districtId": 3306090,
  "districtName": "KUTOARJO",
  "name": "KEBONDALEM",
  "postalCode": "53471"
 },
 {
  "id": 3306090004,
  "districtId": 3306090,
  "districtName": "KUTOARJO",
  "name": "TUNTUNGPAHIT",
  "postalCode": "54212"
 },
 {
  "id": 3306090005,
  "districtId": 3306090,
  "districtName": "KUTOARJO",
  "name": "KIYANGKONGREJO",
  "postalCode": "54212"
 },
 {
  "id": 3306090006,
  "districtId": 3306090,
  "districtName": "KUTOARJO",
  "name": "PRINGGOWIJAYAN",
  "postalCode": "54212"
 },
 {
  "id": 3306090009,
  "districtId": 3306090,
  "districtName": "KUTOARJO",
  "name": "MAJIR",
  "postalCode": "54212"
 },
 {
  "id": 3306090010,
  "districtId": 3306090,
  "districtName": "KUTOARJO",
  "name": "SEMAWUNG DALEMAN",
  "postalCode": "54212"
 },
 {
  "id": 3306090011,
  "districtId": 3306090,
  "districtName": "KUTOARJO",
  "name": "SEMAWUNG KEMBARAN",
  "postalCode": "54212"
 },
 {
  "id": 3306090012,
  "districtId": 3306090,
  "districtName": "KUTOARJO",
  "name": "KUWUREJO",
  "postalCode": "54212"
 },
 {
  "id": 3306090013,
  "districtId": 3306090,
  "districtName": "KUTOARJO",
  "name": "SIDARUM",
  "postalCode": "54212"
 },
 {
  "id": 3306090014,
  "districtId": 3306090,
  "districtName": "KUTOARJO",
  "name": "BAYEM",
  "postalCode": "54215"
 },
 {
  "id": 3306090015,
  "districtId": 3306090,
  "districtName": "KUTOARJO",
  "name": "KATERBAN",
  "postalCode": "54214"
 },
 {
  "id": 3306090016,
  "districtId": 3306090,
  "districtName": "KUTOARJO",
  "name": "KUTOARJO",
  "postalCode": "35366"
 },
 {
  "id": 3306090017,
  "districtId": 3306090,
  "districtName": "KUTOARJO",
  "name": "BANDUNG",
  "postalCode": "54317"
 },
 {
  "id": 3306090018,
  "districtId": 3306090,
  "districtName": "KUTOARJO",
  "name": "SOKOHARJO",
  "postalCode": "54212"
 },
 {
  "id": 3306090019,
  "districtId": 3306090,
  "districtName": "KUTOARJO",
  "name": "PACOR",
  "postalCode": "54212"
 },
 {
  "id": 3306090020,
  "districtId": 3306090,
  "districtName": "KUTOARJO",
  "name": "TUNGGORONO",
  "postalCode": "54212"
 },
 {
  "id": 3306090021,
  "districtId": 3306090,
  "districtName": "KUTOARJO",
  "name": "TEPUS KULON",
  "postalCode": "54212"
 },
 {
  "id": 3306090022,
  "districtId": 3306090,
  "districtName": "KUTOARJO",
  "name": "TEPUS WETAN",
  "postalCode": "54212"
 },
 {
  "id": 3306090023,
  "districtId": 3306090,
  "districtName": "KUTOARJO",
  "name": "KEMADU LOR",
  "postalCode": "54212"
 },
 {
  "id": 3306090024,
  "districtId": 3306090,
  "districtName": "KUTOARJO",
  "name": "KALIGESING",
  "postalCode": "54212"
 },
 {
  "id": 3306090025,
  "districtId": 3306090,
  "districtName": "KUTOARJO",
  "name": "KARANGREJO",
  "postalCode": "35387"
 },
 {
  "id": 3306090026,
  "districtId": 3306090,
  "districtName": "KUTOARJO",
  "name": "WIRUN",
  "postalCode": "54212"
 },
 {
  "id": 3306090027,
  "districtId": 3306090,
  "districtName": "KUTOARJO",
  "name": "TURSINO",
  "postalCode": "54212"
 }
]