[
 {
  "id": 3307010001,
  "districtId": 3307010,
  "districtName": "WADASLINTANG",
  "name": "KALIGOWONG",
  "postalCode": "56365"
 },
 {
  "id": 3307010002,
  "districtId": 3307010,
  "districtName": "WADASLINTANG",
  "name": "SUMBERSARI",
  "postalCode": "34122"
 },
 {
  "id": 3307010003,
  "districtId": 3307010,
  "districtName": "WADASLINTANG",
  "name": "SUMBEREJO",
  "postalCode": "20551"
 },
 {
  "id": 3307010004,
  "districtId": 3307010,
  "districtName": "WADASLINTANG",
  "name": "EROREJO",
  "postalCode": "56365"
 },
 {
  "id": 3307010005,
  "districtId": 3307010,
  "districtName": "WADASLINTANG",
  "name": "KARANG ANYAR",
  "postalCode": "24415"
 },
 {
  "id": 3307010006,
  "districtId": 3307010,
  "districtName": "WADASLINTANG",
  "name": "PANERUSAN",
  "postalCode": "56365"
 },
 {
  "id": 3307010007,
  "districtId": 3307010,
  "districtName": "WADASLINTANG",
  "name": "WADASLINTANG",
  "postalCode": ""
 },
 {
  "id": 3307010008,
  "districtId": 3307010,
  "districtName": "WADASLINTANG",
  "name": "PLUNJARAN",
  "postalCode": "56365"
 },
 {
  "id": 3307010009,
  "districtId": 3307010,
  "districtName": "WADASLINTANG",
  "name": "KUMEJING",
  "postalCode": "51262"
 },
 {
  "id": 3307010010,
  "districtId": 3307010,
  "districtName": "WADASLINTANG",
  "name": "LANCAR",
  "postalCode": "56365"
 },
 {
  "id": 3307010011,
  "districtId": 3307010,
  "districtName": "WADASLINTANG",
  "name": "SOMOGEDE",
  "postalCode": "54263"
 },
 {
  "id": 3307010012,
  "districtId": 3307010,
  "districtName": "WADASLINTANG",
  "name": "TRIMULYO",
  "postalCode": "34871"
 },
 {
  "id": 3307010013,
  "districtId": 3307010,
  "districtName": "WADASLINTANG",
  "name": "TIRIP",
  "postalCode": "56365"
 },
 {
  "id": 3307010014,
  "districtId": 3307010,
  "districtName": "WADASLINTANG",
  "name": "BESUKI",
  "postalCode": "53177"
 },
 {
  "id": 3307010015,
  "districtId": 3307010,
  "districtName": "WADASLINTANG",
  "name": "GUMELAR",
  "postalCode": "53165"
 },
 {
  "id": 3307010016,
  "districtId": 3307010,
  "districtName": "WADASLINTANG",
  "name": "NGALIAN",
  "postalCode": "56374"
 },
 {
  "id": 3307010017,
  "districtId": 3307010,
  "districtName": "WADASLINTANG",
  "name": "KALIDADAP",
  "postalCode": "56365"
 }
]