[
 {
  "id": 3308210001,
  "districtId": 3308210,
  "districtName": "NGABLAK",
  "name": "MAGERSARI",
  "postalCode": "56126"
 },
 {
  "id": 3308210002,
  "districtId": 3308210,
  "districtName": "NGABLAK",
  "name": "BANDUNGREJO",
  "postalCode": "54222"
 },
 {
  "id": 3308210003,
  "districtId": 3308210,
  "districtName": "NGABLAK",
  "name": "TEJOSARI",
  "postalCode": "56194"
 },
 {
  "id": 3308210004,
  "districtId": 3308210,
  "districtName": "NGABLAK",
  "name": "GENIKAN",
  "postalCode": "56194"
 },
 {
  "id": 3308210005,
  "districtId": 3308210,
  "districtName": "NGABLAK",
  "name": "JOGONAYAN",
  "postalCode": "56194"
 },
 {
  "id": 3308210006,
  "districtId": 3308210,
  "districtName": "NGABLAK",
  "name": "NGABLAK",
  "postalCode": "59157"
 },
 {
  "id": 3308210007,
  "districtId": 3308210,
  "districtName": "NGABLAK",
  "name": "SUMBEREJO",
  "postalCode": "20551"
 },
 {
  "id": 3308210008,
  "districtId": 3308210,
  "districtName": "NGABLAK",
  "name": "MADYOGONDO",
  "postalCode": "56194"
 },
 {
  "id": 3308210009,
  "districtId": 3308210,
  "districtName": "NGABLAK",
  "name": "KANIGORO",
  "postalCode": "56194"
 },
 {
  "id": 3308210010,
  "districtId": 3308210,
  "districtName": "NGABLAK",
  "name": "SELOMIRAH",
  "postalCode": "56194"
 },
 {
  "id": 3308210011,
  "districtId": 3308210,
  "districtName": "NGABLAK",
  "name": "GIRIREJO",
  "postalCode": "56153"
 },
 {
  "id": 3308210012,
  "districtId": 3308210,
  "districtName": "NGABLAK",
  "name": "PANDEAN",
  "postalCode": "56194"
 },
 {
  "id": 3308210013,
  "districtId": 3308210,
  "districtName": "NGABLAK",
  "name": "JOGOYASAN",
  "postalCode": "56194"
 },
 {
  "id": 3308210014,
  "districtId": 3308210,
  "districtName": "NGABLAK",
  "name": "PAGERGUNUNG",
  "postalCode": "46396"
 },
 {
  "id": 3308210015,
  "districtId": 3308210,
  "districtName": "NGABLAK",
  "name": "KEDITAN",
  "postalCode": "56194"
 },
 {
  "id": 3308210016,
  "districtId": 3308210,
  "districtName": "NGABLAK",
  "name": "SELOPROJO",
  "postalCode": "56194"
 }
]