[
 {
  "id": 3308160001,
  "districtId": 3308160,
  "districtName": "WINDUSARI",
  "name": "DAMPIT",
  "postalCode": "40395"
 },
 {
  "id": 3308160002,
  "districtId": 3308160,
  "districtName": "WINDUSARI",
  "name": "TANJUNGSARI",
  "postalCode": "28983"
 },
 {
  "id": 3308160003,
  "districtId": 3308160,
  "districtName": "WINDUSARI",
  "name": "PASANGSARI",
  "postalCode": "56152"
 },
 {
  "id": 3308160004,
  "districtId": 3308160,
  "districtName": "WINDUSARI",
  "name": "KEMBANGKUNING",
  "postalCode": "41152"
 },
 {
  "id": 3308160005,
  "districtId": 3308160,
  "districtName": "WINDUSARI",
  "name": "BALESARI",
  "postalCode": "56265"
 },
 {
  "id": 3308160006,
  "districtId": 3308160,
  "districtName": "WINDUSARI",
  "name": "BANJARSARI",
  "postalCode": "35377"
 },
 {
  "id": 3308160007,
  "districtId": 3308160,
  "districtName": "WINDUSARI",
  "name": "BANDARSEDAYU",
  "postalCode": "56152"
 },
 {
  "id": 3308160008,
  "districtId": 3308160,
  "districtName": "WINDUSARI",
  "name": "WINDUSARI",
  "postalCode": "32385"
 },
 {
  "id": 3308160009,
  "districtId": 3308160,
  "districtName": "WINDUSARI",
  "name": "CANDISARI",
  "postalCode": "57352"
 },
 {
  "id": 3308160010,
  "districtId": 3308160,
  "districtName": "WINDUSARI",
  "name": "GENITO",
  "postalCode": "56152"
 },
 {
  "id": 3308160011,
  "districtId": 3308160,
  "districtName": "WINDUSARI",
  "name": "WONOROTO",
  "postalCode": "54172"
 },
 {
  "id": 3308160012,
  "districtId": 3308160,
  "districtName": "WINDUSARI",
  "name": "GIRIMULYO",
  "postalCode": "57693"
 },
 {
  "id": 3308160013,
  "districtId": 3308160,
  "districtName": "WINDUSARI",
  "name": "NGEMPLAK",
  "postalCode": "54191"
 },
 {
  "id": 3308160014,
  "districtId": 3308160,
  "districtName": "WINDUSARI",
  "name": "KALIJOSO",
  "postalCode": "56195"
 },
 {
  "id": 3308160015,
  "districtId": 3308160,
  "districtName": "WINDUSARI",
  "name": "GUNUNGSARI",
  "postalCode": "35368"
 },
 {
  "id": 3308160016,
  "districtId": 3308160,
  "districtName": "WINDUSARI",
  "name": "MANGUNSARI",
  "postalCode": "50227"
 },
 {
  "id": 3308160017,
  "districtId": 3308160,
  "districtName": "WINDUSARI",
  "name": "KENTENGSARI",
  "postalCode": "56257"
 },
 {
  "id": 3308160018,
  "districtId": 3308160,
  "districtName": "WINDUSARI",
  "name": "UMBULSARI",
  "postalCode": "56152"
 },
 {
  "id": 3308160020,
  "districtId": 3308160,
  "districtName": "WINDUSARI",
  "name": "GONDANGREJO",
  "postalCode": "56152"
 }
]