[
 {
  "id": 3308040001,
  "districtId": 3308040,
  "districtName": "SALAM",
  "name": "SIRAHAN",
  "postalCode": "59157"
 },
 {
  "id": 3308040002,
  "districtId": 3308040,
  "districtName": "SALAM",
  "name": "TERSAN GEDE",
  "postalCode": ""
 },
 {
  "id": 3308040003,
  "districtId": 3308040,
  "districtName": "SALAM",
  "name": "BATURONO",
  "postalCode": "56484"
 },
 {
  "id": 3308040004,
  "districtId": 3308040,
  "districtName": "SALAM",
  "name": "TIRTO",
  "postalCode": "56196"
 },
 {
  "id": 3308040005,
  "districtId": 3308040,
  "districtName": "SALAM",
  "name": "SELOBORO",
  "postalCode": "56484"
 },
 {
  "id": 3308040006,
  "districtId": 3308040,
  "districtName": "SALAM",
  "name": "GULON",
  "postalCode": "56484"
 },
 {
  "id": 3308040007,
  "districtId": 3308040,
  "districtName": "SALAM",
  "name": "JUMOYO",
  "postalCode": "56484"
 },
 {
  "id": 3308040009,
  "districtId": 3308040,
  "districtName": "SALAM",
  "name": "SOMOKETRO",
  "postalCode": "56484"
 },
 {
  "id": 3308040010,
  "districtId": 3308040,
  "districtName": "SALAM",
  "name": "KADILUWIH",
  "postalCode": "56484"
 },
 {
  "id": 3308040011,
  "districtId": 3308040,
  "districtName": "SALAM",
  "name": "MANTINGAN",
  "postalCode": "59255"
 },
 {
  "id": 3308040012,
  "districtId": 3308040,
  "districtName": "SALAM",
  "name": "SALAM",
  "postalCode": "54191"
 }
]