[
 {
  "id": 3308140001,
  "districtId": 3308140,
  "districtName": "KALIANGKRIK",
  "name": "TEMANGGUNG",
  "postalCode": "56153"
 },
 {
  "id": 3308140002,
  "districtId": 3308140,
  "districtName": "KALIANGKRIK",
  "name": "NGAWONGGO",
  "postalCode": "57465"
 },
 {
  "id": 3308140003,
  "districtId": 3308140,
  "districtName": "KALIANGKRIK",
  "name": "KALIANGKRIK",
  "postalCode": "56153"
 },
 {
  "id": 3308140004,
  "districtId": 3308140,
  "districtName": "KALIANGKRIK",
  "name": "GIRIREJO",
  "postalCode": "56153"
 },
 {
  "id": 3308140005,
  "districtId": 3308140,
  "districtName": "KALIANGKRIK",
  "name": "KETANGI",
  "postalCode": "56153"
 },
 {
  "id": 3308140006,
  "districtId": 3308140,
  "districtName": "KALIANGKRIK",
  "name": "BALEKERTO",
  "postalCode": "56153"
 },
 {
  "id": 3308140007,
  "districtId": 3308140,
  "districtName": "KALIANGKRIK",
  "name": "BUMIREJO",
  "postalCode": "59185"
 },
 {
  "id": 3308140008,
  "districtId": 3308140,
  "districtName": "KALIANGKRIK",
  "name": "BESERAN",
  "postalCode": "56153"
 },
 {
  "id": 3308140009,
  "districtId": 3308140,
  "districtName": "KALIANGKRIK",
  "name": "GIRIWARNO",
  "postalCode": "57683"
 },
 {
  "id": 3308140010,
  "districtId": 3308140,
  "districtName": "KALIANGKRIK",
  "name": "MADURETNO",
  "postalCode": "54391"
 },
 {
  "id": 3308140011,
  "districtId": 3308140,
  "districtName": "KALIANGKRIK",
  "name": "BANJAREJO",
  "postalCode": "35373"
 },
 {
  "id": 3308140012,
  "districtId": 3308140,
  "districtName": "KALIANGKRIK",
  "name": "BALEREJO",
  "postalCode": "59573"
 },
 {
  "id": 3308140013,
  "districtId": 3308140,
  "districtName": "KALIANGKRIK",
  "name": "SELOMOYO",
  "postalCode": "56153"
 },
 {
  "id": 3308140014,
  "districtId": 3308140,
  "districtName": "KALIANGKRIK",
  "name": "NGENDROKILO",
  "postalCode": "56153"
 },
 {
  "id": 3308140015,
  "districtId": 3308140,
  "districtName": "KALIANGKRIK",
  "name": "MUNGGANGSARI",
  "postalCode": "54265"
 },
 {
  "id": 3308140016,
  "districtId": 3308140,
  "districtName": "KALIANGKRIK",
  "name": "NGARGOSOKO",
  "postalCode": "56153"
 },
 {
  "id": 3308140017,
  "districtId": 3308140,
  "districtName": "KALIANGKRIK",
  "name": "PENGARENGAN",
  "postalCode": "56153"
 },
 {
  "id": 3308140018,
  "districtId": 3308140,
  "districtName": "KALIANGKRIK",
  "name": "MANGLI",
  "postalCode": "56153"
 },
 {
  "id": 3308140019,
  "districtId": 3308140,
  "districtName": "KALIANGKRIK",
  "name": "KEBONLEGI",
  "postalCode": "56153"
 },
 {
  "id": 3308140020,
  "districtId": 3308140,
  "districtName": "KALIANGKRIK",
  "name": "ADIPURO",
  "postalCode": "34172"
 }
]