[
 {
  "id": 3308030001,
  "districtId": 3308030,
  "districtName": "NGLUWAR",
  "name": "BLIGO",
  "postalCode": "51171"
 },
 {
  "id": 3308030002,
  "districtId": 3308030,
  "districtName": "NGLUWAR",
  "name": "PAKUNDEN",
  "postalCode": "56485"
 },
 {
  "id": 3308030003,
  "districtId": 3308030,
  "districtName": "NGLUWAR",
  "name": "SOMOKATON",
  "postalCode": "57483"
 },
 {
  "id": 3308030004,
  "districtId": 3308030,
  "districtName": "NGLUWAR",
  "name": "NGLUWAR",
  "postalCode": "56485"
 },
 {
  "id": 3308030005,
  "districtId": 3308030,
  "districtName": "NGLUWAR",
  "name": "KARANGTALUN",
  "postalCode": "58253"
 },
 {
  "id": 3308030006,
  "districtId": 3308030,
  "districtName": "NGLUWAR",
  "name": "JAMUSKAUMAN",
  "postalCode": "56485"
 },
 {
  "id": 3308030007,
  "districtId": 3308030,
  "districtName": "NGLUWAR",
  "name": "PLOSOGEDE",
  "postalCode": "56485"
 },
 {
  "id": 3308030008,
  "districtId": 3308030,
  "districtName": "NGLUWAR",
  "name": "BLONGKENG",
  "postalCode": "56485"
 }
]