[
 {
  "id": 3309160002,
  "districtId": 3309160,
  "districtName": "ANDONG",
  "name": "GONDANGRAWE",
  "postalCode": ""
 },
 {
  "id": 3309160003,
  "districtId": 3309160,
  "districtName": "ANDONG",
  "name": "PAKEL",
  "postalCode": "57384"
 },
 {
  "id": 3309160004,
  "districtId": 3309160,
  "districtName": "ANDONG",
  "name": "SENGGRONG",
  "postalCode": "57384"
 },
 {
  "id": 3309160005,
  "districtId": 3309160,
  "districtName": "ANDONG",
  "name": "MOJO",
  "postalCode": "57384"
 },
 {
  "id": 3309160006,
  "districtId": 3309160,
  "districtName": "ANDONG",
  "name": "BEJI",
  "postalCode": "16421"
 },
 {
  "id": 3309160007,
  "districtId": 3309160,
  "districtName": "ANDONG",
  "name": "ANDONG",
  "postalCode": "57384"
 },
 {
  "id": 3309160008,
  "districtId": 3309160,
  "districtName": "ANDONG",
  "name": "KACANGAN",
  "postalCode": "57384"
 },
 {
  "id": 3309160009,
  "districtId": 3309160,
  "districtName": "ANDONG",
  "name": "KEDUNGDOWO",
  "postalCode": "57384"
 },
 {
  "id": 3309160010,
  "districtId": 3309160,
  "districtName": "ANDONG",
  "name": "PRANGGONG",
  "postalCode": "45365"
 },
 {
  "id": 3309160011,
  "districtId": 3309160,
  "districtName": "ANDONG",
  "name": "PAKANG",
  "postalCode": "57384"
 },
 {
  "id": 3309160013,
  "districtId": 3309160,
  "districtName": "ANDONG",
  "name": "KADIPATEN",
  "postalCode": "45452"
 },
 {
  "id": 3309160014,
  "districtId": 3309160,
  "districtName": "ANDONG",
  "name": "SEMAWUNG",
  "postalCode": "57384"
 },
 {
  "id": 3309160015,
  "districtId": 3309160,
  "districtName": "ANDONG",
  "name": "KUNTI",
  "postalCode": "57384"
 },
 {
  "id": 3309160016,
  "districtId": 3309160,
  "districtName": "ANDONG",
  "name": "PELEMREJO",
  "postalCode": "57384"
 }
]