[
 {
  "id": 3309060001,
  "districtId": 3309060,
  "districtName": "MOJOSONGO",
  "name": "SINGOSARI",
  "postalCode": "35377"
 },
 {
  "id": 3309060002,
  "districtId": 3309060,
  "districtName": "MOJOSONGO",
  "name": "TAMBAK",
  "postalCode": "29335"
 },
 {
  "id": 3309060003,
  "districtId": 3309060,
  "districtName": "MOJOSONGO",
  "name": "MANGGIS",
  "postalCode": "22742"
 },
 {
  "id": 3309060005,
  "districtId": 3309060,
  "districtName": "MOJOSONGO",
  "name": "KARANGNONGKO",
  "postalCode": "57322"
 },
 {
  "id": 3309060006,
  "districtId": 3309060,
  "districtName": "MOJOSONGO",
  "name": "MADU",
  "postalCode": "57322"
 },
 {
  "id": 3309060007,
  "districtId": 3309060,
  "districtName": "MOJOSONGO",
  "name": "KEMIRI",
  "postalCode": "41352"
 },
 {
  "id": 3309060009,
  "districtId": 3309060,
  "districtName": "MOJOSONGO",
  "name": "MOJOSONGO",
  "postalCode": "57127"
 },
 {
  "id": 3309060010,
  "districtId": 3309060,
  "districtName": "MOJOSONGO",
  "name": "KRAGILAN",
  "postalCode": "57455"
 },
 {
  "id": 3309060011,
  "districtId": 3309060,
  "districtName": "MOJOSONGO",
  "name": "BRAJAN",
  "postalCode": "57322"
 },
 {
  "id": 3309060013,
  "districtId": 3309060,
  "districtName": "MOJOSONGO",
  "name": "DLINGO",
  "postalCode": "57322"
 }
]