[
 {
  "id": 3309080001,
  "districtId": 3309080,
  "districtName": "SAWIT",
  "name": "TEGALREJO",
  "postalCode": "50733"
 },
 {
  "id": 3309080002,
  "districtId": 3309080,
  "districtName": "SAWIT",
  "name": "GOMBANG",
  "postalCode": "45155"
 },
 {
  "id": 3309080003,
  "districtId": 3309080,
  "districtName": "SAWIT",
  "name": "MANJUNG",
  "postalCode": "57466"
 },
 {
  "id": 3309080004,
  "districtId": 3309080,
  "districtName": "SAWIT",
  "name": "KATEGUHAN",
  "postalCode": "57374"
 },
 {
  "id": 3309080005,
  "districtId": 3309080,
  "districtName": "SAWIT",
  "name": "BENDOSARI",
  "postalCode": "57528"
 },
 {
  "id": 3309080006,
  "districtId": 3309080,
  "districtName": "SAWIT",
  "name": "JATIREJO",
  "postalCode": "23661"
 },
 {
  "id": 3309080007,
  "districtId": 3309080,
  "districtName": "SAWIT",
  "name": "KEMASAN",
  "postalCode": "51156"
 },
 {
  "id": 3309080008,
  "districtId": 3309080,
  "districtName": "SAWIT",
  "name": "TLAWONG",
  "postalCode": "57374"
 },
 {
  "id": 3309080009,
  "districtId": 3309080,
  "districtName": "SAWIT",
  "name": "JENENGAN",
  "postalCode": "58154"
 },
 {
  "id": 3309080010,
  "districtId": 3309080,
  "districtName": "SAWIT",
  "name": "CEPOKOSAWIT",
  "postalCode": "57374"
 },
 {
  "id": 3309080011,
  "districtId": 3309080,
  "districtName": "SAWIT",
  "name": "GUWOKAJEN",
  "postalCode": "57374"
 },
 {
  "id": 3309080012,
  "districtId": 3309080,
  "districtName": "SAWIT",
  "name": "KARANGDUREN",
  "postalCode": "53353"
 }
]