[
 {
  "id": 3309190001,
  "districtId": 3309190,
  "districtName": "JUWANGI",
  "name": "KROBOKAN",
  "postalCode": "57391"
 },
 {
  "id": 3309190002,
  "districtId": 3309190,
  "districtName": "JUWANGI",
  "name": "NGAREN",
  "postalCode": "57391"
 },
 {
  "id": 3309190003,
  "districtId": 3309190,
  "districtName": "JUWANGI",
  "name": "KALIMATI",
  "postalCode": "45555"
 },
 {
  "id": 3309190004,
  "districtId": 3309190,
  "districtName": "JUWANGI",
  "name": "SAMBENG",
  "postalCode": "45151"
 },
 {
  "id": 3309190006,
  "districtId": 3309190,
  "districtName": "JUWANGI",
  "name": "JUWANGI",
  "postalCode": "57391"
 },
 {
  "id": 3309190007,
  "districtId": 3309190,
  "districtName": "JUWANGI",
  "name": "PILANGREJO",
  "postalCode": "57391"
 },
 {
  "id": 3309190008,
  "districtId": 3309190,
  "districtName": "JUWANGI",
  "name": "JERUKAN",
  "postalCode": "57391"
 },
 {
  "id": 3309190009,
  "districtId": 3309190,
  "districtName": "JUWANGI",
  "name": "KAYEN",
  "postalCode": "57391"
 }
]