[
 {
  "id": 3309050001,
  "districtId": 3309050,
  "districtName": "BOYOLALI",
  "name": "PULISEN",
  "postalCode": "57316"
 },
 {
  "id": 3309050002,
  "districtId": 3309050,
  "districtName": "BOYOLALI",
  "name": "SISWODIPURAN",
  "postalCode": "57311"
 },
 {
  "id": 3309050003,
  "districtId": 3309050,
  "districtName": "BOYOLALI",
  "name": "BANARAN",
  "postalCode": "51281"
 },
 {
  "id": 3309050004,
  "districtId": 3309050,
  "districtName": "BOYOLALI",
  "name": "WINONG",
  "postalCode": "45161"
 },
 {
  "id": 3309050006,
  "districtId": 3309050,
  "districtName": "BOYOLALI",
  "name": "KIRINGAN",
  "postalCode": "57314"
 },
 {
  "id": 3309050007,
  "districtId": 3309050,
  "districtName": "BOYOLALI",
  "name": "KARANGGENENG",
  "postalCode": "57312"
 },
 {
  "id": 3309050008,
  "districtId": 3309050,
  "districtName": "BOYOLALI",
  "name": "MUDAL",
  "postalCode": "57316"
 },
 {
  "id": 3309050009,
  "districtId": 3309050,
  "districtName": "BOYOLALI",
  "name": "KEBONBIMO",
  "postalCode": "57316"
 }
]