[
 {
  "id": 3309020001,
  "districtId": 3309020,
  "districtName": "AMPEL",
  "name": "NGAGRONG",
  "postalCode": "57352"
 },
 {
  "id": 3309020002,
  "districtId": 3309020,
  "districtName": "AMPEL",
  "name": "SEBOTO",
  "postalCode": "57352"
 },
 {
  "id": 3309020003,
  "districtId": 3309020,
  "districtName": "AMPEL",
  "name": "TANDUK",
  "postalCode": "57352"
 },
 {
  "id": 3309020004,
  "districtId": 3309020,
  "districtName": "AMPEL",
  "name": "BANYUANYAR",
  "postalCode": "57352"
 },
 {
  "id": 3309020005,
  "districtId": 3309020,
  "districtName": "AMPEL",
  "name": "SIDOMULYO",
  "postalCode": "21455"
 },
 {
  "id": 3309020006,
  "districtId": 3309020,
  "districtName": "AMPEL",
  "name": "NGARGOSARI",
  "postalCode": "57352"
 },
 {
  "id": 3309020007,
  "districtId": 3309020,
  "districtName": "AMPEL",
  "name": "SELODOKO",
  "postalCode": "57352"
 },
 {
  "id": 3309020009,
  "districtId": 3309020,
  "districtName": "AMPEL",
  "name": "NGAMPON",
  "postalCode": "57352"
 },
 {
  "id": 3309020010,
  "districtId": 3309020,
  "districtName": "AMPEL",
  "name": "GONDANGSLAMET",
  "postalCode": ""
 },
 {
  "id": 3309020011,
  "districtId": 3309020,
  "districtName": "AMPEL",
  "name": "CANDI",
  "postalCode": "37263"
 },
 {
  "id": 3309020013,
  "districtId": 3309020,
  "districtName": "AMPEL",
  "name": "KALIGENTONG",
  "postalCode": "57352"
 },
 {
  "id": 3309020014,
  "districtId": 3309020,
  "districtName": "AMPEL",
  "name": "GLADAGSARI",
  "postalCode": "57352"
 },
 {
  "id": 3309020015,
  "districtId": 3309020,
  "districtName": "AMPEL",
  "name": "KEMBANG",
  "postalCode": "57352"
 },
 {
  "id": 3309020016,
  "districtId": 3309020,
  "districtName": "AMPEL",
  "name": "CANDISARI",
  "postalCode": "57352"
 },
 {
  "id": 3309020017,
  "districtId": 3309020,
  "districtName": "AMPEL",
  "name": "NGARGOLOKO",
  "postalCode": "57352"
 },
 {
  "id": 3309020018,
  "districtId": 3309020,
  "districtName": "AMPEL",
  "name": "SAMPETAN",
  "postalCode": "57352"
 },
 {
  "id": 3309020019,
  "districtId": 3309020,
  "districtName": "AMPEL",
  "name": "NGADIROJO",
  "postalCode": "57352"
 },
 {
  "id": 3309020020,
  "districtId": 3309020,
  "districtName": "AMPEL",
  "name": "JLAREM",
  "postalCode": "57352"
 }
]