[
 {
  "id": 3310180001,
  "districtId": 3310180,
  "districtName": "DELANGGU",
  "name": "BOWAN",
  "postalCode": "57471"
 },
 {
  "id": 3310180003,
  "districtId": 3310180,
  "districtName": "DELANGGU",
  "name": "JETIS",
  "postalCode": "57556"
 },
 {
  "id": 3310180004,
  "districtId": 3310180,
  "districtName": "DELANGGU",
  "name": "BUTUHAN",
  "postalCode": "57471"
 },
 {
  "id": 3310180005,
  "districtId": 3310180,
  "districtName": "DELANGGU",
  "name": "BANARAN",
  "postalCode": "51281"
 },
 {
  "id": 3310180006,
  "districtId": 3310180,
  "districtName": "DELANGGU",
  "name": "KARANG",
  "postalCode": "58262"
 },
 {
  "id": 3310180007,
  "districtId": 3310180,
  "districtName": "DELANGGU",
  "name": "SRIBIT",
  "postalCode": "57471"
 },
 {
  "id": 3310180009,
  "districtId": 3310180,
  "districtName": "DELANGGU",
  "name": "MENDAK",
  "postalCode": "57471"
 },
 {
  "id": 3310180010,
  "districtId": 3310180,
  "districtName": "DELANGGU",
  "name": "DELANGGU",
  "postalCode": "57471"
 },
 {
  "id": 3310180011,
  "districtId": 3310180,
  "districtName": "DELANGGU",
  "name": "SABRANG",
  "postalCode": "57471"
 },
 {
  "id": 3310180012,
  "districtId": 3310180,
  "districtName": "DELANGGU",
  "name": "TLOBONG",
  "postalCode": "57471"
 },
 {
  "id": 3310180013,
  "districtId": 3310180,
  "districtName": "DELANGGU",
  "name": "GATAK",
  "postalCode": "57471"
 },
 {
  "id": 3310180014,
  "districtId": 3310180,
  "districtName": "DELANGGU",
  "name": "KEPANJEN",
  "postalCode": "57471"
 },
 {
  "id": 3310180015,
  "districtId": 3310180,
  "districtName": "DELANGGU",
  "name": "SEGARAN",
  "postalCode": "41354"
 },
 {
  "id": 3310180016,
  "districtId": 3310180,
  "districtName": "DELANGGU",
  "name": "SIDOMULYO",
  "postalCode": "21455"
 }
]