[
 {
  "id": 3310120002,
  "districtId": 3310120,
  "districtName": "NGAWEN",
  "name": "GATAK",
  "postalCode": "57471"
 },
 {
  "id": 3310120003,
  "districtId": 3310120,
  "districtName": "NGAWEN",
  "name": "MANJUNG",
  "postalCode": "57466"
 },
 {
  "id": 3310120005,
  "districtId": 3310120,
  "districtName": "NGAWEN",
  "name": "NGAWEN",
  "postalCode": "59157"
 },
 {
  "id": 3310120006,
  "districtId": 3310120,
  "districtName": "NGAWEN",
  "name": "KAHUMAN",
  "postalCode": "57466"
 },
 {
  "id": 3310120007,
  "districtId": 3310120,
  "districtName": "NGAWEN",
  "name": "KWAREN",
  "postalCode": "57466"
 },
 {
  "id": 3310120009,
  "districtId": 3310120,
  "districtName": "NGAWEN",
  "name": "MANJUNGAN",
  "postalCode": "57466"
 },
 {
  "id": 3310120010,
  "districtId": 3310120,
  "districtName": "NGAWEN",
  "name": "TEMPURSARI",
  "postalCode": "56191"
 },
 {
  "id": 3310120011,
  "districtId": 3310120,
  "districtName": "NGAWEN",
  "name": "MAYUNGAN",
  "postalCode": "57466"
 },
 {
  "id": 3310120012,
  "districtId": 3310120,
  "districtName": "NGAWEN",
  "name": "CANDI REJO",
  "postalCode": "20358"
 },
 {
  "id": 3310120013,
  "districtId": 3310120,
  "districtName": "NGAWEN",
  "name": "DRONO",
  "postalCode": "57466"
 }
]