[
 {
  "id": 3310050001,
  "districtId": 3310050,
  "districtName": "CAWAS",
  "name": "KARANGASEM",
  "postalCode": "45186"
 },
 {
  "id": 3310050002,
  "districtId": 3310050,
  "districtName": "CAWAS",
  "name": "BURIKAN",
  "postalCode": "57463"
 },
 {
  "id": 3310050003,
  "districtId": 3310050,
  "districtName": "CAWAS",
  "name": "NANGGULAN",
  "postalCode": "57463"
 },
 {
  "id": 3310050004,
  "districtId": 3310050,
  "districtName": "CAWAS",
  "name": "BENDUNGAN",
  "postalCode": "16720"
 },
 {
  "id": 3310050006,
  "districtId": 3310050,
  "districtName": "CAWAS",
  "name": "KEDUNGAMPEL",
  "postalCode": "57463"
 },
 {
  "id": 3310050007,
  "districtId": 3310050,
  "districtName": "CAWAS",
  "name": "BAWAK",
  "postalCode": "57463"
 },
 {
  "id": 3310050008,
  "districtId": 3310050,
  "districtName": "CAWAS",
  "name": "BAREPAN",
  "postalCode": "57463"
 },
 {
  "id": 3310050009,
  "districtId": 3310050,
  "districtName": "CAWAS",
  "name": "PAKISAN",
  "postalCode": "57463"
 },
 {
  "id": 3310050010,
  "districtId": 3310050,
  "districtName": "CAWAS",
  "name": "BALAK",
  "postalCode": "57463"
 },
 {
  "id": 3310050011,
  "districtId": 3310050,
  "districtName": "CAWAS",
  "name": "CAWAS",
  "postalCode": "57463"
 },
 {
  "id": 3310050012,
  "districtId": 3310050,
  "districtName": "CAWAS",
  "name": "PLOSOWANGI",
  "postalCode": "57463"
 },
 {
  "id": 3310050013,
  "districtId": 3310050,
  "districtName": "CAWAS",
  "name": "BARAN",
  "postalCode": "29873"
 },
 {
  "id": 3310050014,
  "districtId": 3310050,
  "districtName": "CAWAS",
  "name": "TIRTOMARTO",
  "postalCode": "57463"
 },
 {
  "id": 3310050015,
  "districtId": 3310050,
  "districtName": "CAWAS",
  "name": "JAPANAN",
  "postalCode": "57463"
 },
 {
  "id": 3310050016,
  "districtId": 3310050,
  "districtName": "CAWAS",
  "name": "TLINGSING",
  "postalCode": "57463"
 },
 {
  "id": 3310050018,
  "districtId": 3310050,
  "districtName": "CAWAS",
  "name": "GOMBANG",
  "postalCode": "45155"
 },
 {
  "id": 3310050019,
  "districtId": 3310050,
  "districtName": "CAWAS",
  "name": "POGUNG",
  "postalCode": "57463"
 },
 {
  "id": 3310050020,
  "districtId": 3310050,
  "districtName": "CAWAS",
  "name": "BOGOR",
  "postalCode": "45257"
 }
]