[
 {
  "id": 3310130001,
  "districtId": 3310130,
  "districtName": "CEPER",
  "name": "SREBEGAN",
  "postalCode": "57465"
 },
 {
  "id": 3310130002,
  "districtId": 3310130,
  "districtName": "CEPER",
  "name": "PASUNGAN",
  "postalCode": "57465"
 },
 {
  "id": 3310130003,
  "districtId": 3310130,
  "districtName": "CEPER",
  "name": "KAJEN",
  "postalCode": "57465"
 },
 {
  "id": 3310130004,
  "districtId": 3310130,
  "districtName": "CEPER",
  "name": "JAMBU KIDUL",
  "postalCode": "57465"
 },
 {
  "id": 3310130005,
  "districtId": 3310130,
  "districtName": "CEPER",
  "name": "KUJON",
  "postalCode": "57465"
 },
 {
  "id": 3310130006,
  "districtId": 3310130,
  "districtName": "CEPER",
  "name": "POKAK",
  "postalCode": "57465"
 },
 {
  "id": 3310130008,
  "districtId": 3310130,
  "districtName": "CEPER",
  "name": "JOMBOR",
  "postalCode": "57521"
 },
 {
  "id": 3310130009,
  "districtId": 3310130,
  "districtName": "CEPER",
  "name": "DLIMAS",
  "postalCode": "51271"
 },
 {
  "id": 3310130011,
  "districtId": 3310130,
  "districtName": "CEPER",
  "name": "CETAN",
  "postalCode": "57465"
 },
 {
  "id": 3310130012,
  "districtId": 3310130,
  "districtName": "CEPER",
  "name": "TEGALREJO",
  "postalCode": "50733"
 },
 {
  "id": 3310130014,
  "districtId": 3310130,
  "districtName": "CEPER",
  "name": "JAMBU KULON",
  "postalCode": "57465"
 },
 {
  "id": 3310130017,
  "districtId": 3310130,
  "districtName": "CEPER",
  "name": "NGAWONGGO",
  "postalCode": "57465"
 }
]