[
 {
  "id": 3310230001,
  "districtId": 3310230,
  "districtName": "KEMALANG",
  "name": "BAWUKAN",
  "postalCode": "57484"
 },
 {
  "id": 3310230002,
  "districtId": 3310230,
  "districtName": "KEMALANG",
  "name": "PANGGANG",
  "postalCode": "59411"
 },
 {
  "id": 3310230003,
  "districtId": 3310230,
  "districtName": "KEMALANG",
  "name": "TALUN",
  "postalCode": "40384"
 },
 {
  "id": 3310230004,
  "districtId": 3310230,
  "districtName": "KEMALANG",
  "name": "KENDALSARI",
  "postalCode": "57484"
 },
 {
  "id": 3310230005,
  "districtId": 3310230,
  "districtName": "KEMALANG",
  "name": "KEPUTRAN",
  "postalCode": "35674"
 },
 {
  "id": 3310230006,
  "districtId": 3310230,
  "districtName": "KEMALANG",
  "name": "KEMALANG",
  "postalCode": "57484"
 },
 {
  "id": 3310230007,
  "districtId": 3310230,
  "districtName": "KEMALANG",
  "name": "DOMPOL",
  "postalCode": "57484"
 },
 {
  "id": 3310230008,
  "districtId": 3310230,
  "districtName": "KEMALANG",
  "name": "TANGKIL",
  "postalCode": "37163"
 },
 {
  "id": 3310230009,
  "districtId": 3310230,
  "districtName": "KEMALANG",
  "name": "BUMIHARJO",
  "postalCode": "34767"
 },
 {
  "id": 3310230010,
  "districtId": 3310230,
  "districtName": "KEMALANG",
  "name": "TLOGOWATU",
  "postalCode": "57484"
 },
 {
  "id": 3310230011,
  "districtId": 3310230,
  "districtName": "KEMALANG",
  "name": "SIDOREJO",
  "postalCode": "24784"
 },
 {
  "id": 3310230012,
  "districtId": 3310230,
  "districtName": "KEMALANG",
  "name": "BALERANTE",
  "postalCode": "45161"
 },
 {
  "id": 3310230013,
  "districtId": 3310230,
  "districtName": "KEMALANG",
  "name": "TEGALMULYO",
  "postalCode": "57484"
 }
]