[
 {
  "id": 3311110001,
  "districtId": 3311110,
  "districtName": "GATAK",
  "name": "SANGGUNG",
  "postalCode": "57557"
 },
 {
  "id": 3311110002,
  "districtId": 3311110,
  "districtName": "GATAK",
  "name": "KAGOKAN",
  "postalCode": "57557"
 },
 {
  "id": 3311110003,
  "districtId": 3311110,
  "districtName": "GATAK",
  "name": "BLIMBING",
  "postalCode": "52364"
 },
 {
  "id": 3311110004,
  "districtId": 3311110,
  "districtName": "GATAK",
  "name": "KRAJAN",
  "postalCode": "57557"
 },
 {
  "id": 3311110006,
  "districtId": 3311110,
  "districtName": "GATAK",
  "name": "JATI",
  "postalCode": "20152"
 },
 {
  "id": 3311110007,
  "districtId": 3311110,
  "districtName": "GATAK",
  "name": "TROSEMI",
  "postalCode": "57557"
 },
 {
  "id": 3311110008,
  "districtId": 3311110,
  "districtName": "GATAK",
  "name": "LUWANG",
  "postalCode": "57557"
 },
 {
  "id": 3311110009,
  "districtId": 3311110,
  "districtName": "GATAK",
  "name": "KLASEMAN",
  "postalCode": "57557"
 },
 {
  "id": 3311110011,
  "districtId": 3311110,
  "districtName": "GATAK",
  "name": "SRATEN",
  "postalCode": "57557"
 },
 {
  "id": 3311110012,
  "districtId": 3311110,
  "districtName": "GATAK",
  "name": "WIRONANGGAN",
  "postalCode": "57557"
 },
 {
  "id": 3311110013,
  "districtId": 3311110,
  "districtName": "GATAK",
  "name": "TRANGSAN",
  "postalCode": "57557"
 },
 {
  "id": 3311110014,
  "districtId": 3311110,
  "districtName": "GATAK",
  "name": "MAYANG",
  "postalCode": "21183"
 }
]