[
 {
  "id": 3311050001,
  "districtId": 3311050,
  "districtName": "NGUTER",
  "name": "LAWU",
  "postalCode": "57571"
 },
 {
  "id": 3311050002,
  "districtId": 3311050,
  "districtName": "NGUTER",
  "name": "BARAN",
  "postalCode": "29873"
 },
 {
  "id": 3311050004,
  "districtId": 3311050,
  "districtName": "NGUTER",
  "name": "GUPIT",
  "postalCode": "57571"
 },
 {
  "id": 3311050005,
  "districtId": 3311050,
  "districtName": "NGUTER",
  "name": "PENGKOL",
  "postalCode": "57692"
 },
 {
  "id": 3311050006,
  "districtId": 3311050,
  "districtName": "NGUTER",
  "name": "JANGGLENGAN",
  "postalCode": "57571"
 },
 {
  "id": 3311050007,
  "districtId": 3311050,
  "districtName": "NGUTER",
  "name": "TANJUNGREJO",
  "postalCode": "54224"
 },
 {
  "id": 3311050009,
  "districtId": 3311050,
  "districtName": "NGUTER",
  "name": "JURON",
  "postalCode": "57571"
 },
 {
  "id": 3311050011,
  "districtId": 3311050,
  "districtName": "NGUTER",
  "name": "PLESAN",
  "postalCode": "57571"
 },
 {
  "id": 3311050012,
  "districtId": 3311050,
  "districtName": "NGUTER",
  "name": "KEDUNGWINONG",
  "postalCode": "57571"
 },
 {
  "id": 3311050013,
  "districtId": 3311050,
  "districtName": "NGUTER",
  "name": "DALEMAN",
  "postalCode": "57571"
 },
 {
  "id": 3311050015,
  "districtId": 3311050,
  "districtName": "NGUTER",
  "name": "PONDOK",
  "postalCode": "37175"
 },
 {
  "id": 3311050016,
  "districtId": 3311050,
  "districtName": "NGUTER",
  "name": "TANJUNG",
  "postalCode": "24562"
 }
]