[
 {
  "id": 3312190002,
  "districtId": 3312190,
  "districtName": "PURWANTORO",
  "name": "BANGSRI",
  "postalCode": "59453"
 },
 {
  "id": 3312190003,
  "districtId": 3312190,
  "districtName": "PURWANTORO",
  "name": "TEGALREJO",
  "postalCode": "50733"
 },
 {
  "id": 3312190004,
  "districtId": 3312190,
  "districtName": "PURWANTORO",
  "name": "BITING",
  "postalCode": "53454"
 },
 {
  "id": 3312190005,
  "districtId": 3312190,
  "districtName": "PURWANTORO",
  "name": "KEPYAR",
  "postalCode": "57695"
 },
 {
  "id": 3312190006,
  "districtId": 3312190,
  "districtName": "PURWANTORO",
  "name": "PURWANTORO",
  "postalCode": "57695"
 },
 {
  "id": 3312190007,
  "districtId": 3312190,
  "districtName": "PURWANTORO",
  "name": "MIRICINDE",
  "postalCode": "57695"
 },
 {
  "id": 3312190008,
  "districtId": 3312190,
  "districtName": "PURWANTORO",
  "name": "JOHO",
  "postalCode": "54363"
 },
 {
  "id": 3312190009,
  "districtId": 3312190,
  "districtName": "PURWANTORO",
  "name": "SUKOMANGU",
  "postalCode": "57695"
 },
 {
  "id": 3312190010,
  "districtId": 3312190,
  "districtName": "PURWANTORO",
  "name": "TALESAN",
  "postalCode": "57695"
 },
 {
  "id": 3312190011,
  "districtId": 3312190,
  "districtName": "PURWANTORO",
  "name": "SENDANG",
  "postalCode": "45283"
 },
 {
  "id": 3312190013,
  "districtId": 3312190,
  "districtName": "PURWANTORO",
  "name": "PLOSO",
  "postalCode": "59348"
 },
 {
  "id": 3312190014,
  "districtId": 3312190,
  "districtName": "PURWANTORO",
  "name": "GONDANG",
  "postalCode": "51255"
 },
 {
  "id": 3312190015,
  "districtId": 3312190,
  "districtName": "PURWANTORO",
  "name": "BAKALAN",
  "postalCode": "59158"
 }
]