[
 {
  "id": 3312180001,
  "districtId": 3312180,
  "districtName": "KISMANTORO",
  "name": "BUGELAN",
  "postalCode": "57696"
 },
 {
  "id": 3312180002,
  "districtId": 3312180,
  "districtName": "KISMANTORO",
  "name": "PLOSOREJO",
  "postalCode": "58253"
 },
 {
  "id": 3312180004,
  "districtId": 3312180,
  "districtName": "KISMANTORO",
  "name": "MIRI",
  "postalCode": "57696"
 },
 {
  "id": 3312180005,
  "districtId": 3312180,
  "districtName": "KISMANTORO",
  "name": "LEMAHBANG",
  "postalCode": "57783"
 },
 {
  "id": 3312180006,
  "districtId": 3312180,
  "districtName": "KISMANTORO",
  "name": "GESING",
  "postalCode": "56281"
 },
 {
  "id": 3312180007,
  "districtId": 3312180,
  "districtName": "KISMANTORO",
  "name": "KISMANTORO",
  "postalCode": "57696"
 },
 {
  "id": 3312180008,
  "districtId": 3312180,
  "districtName": "KISMANTORO",
  "name": "NGROTO",
  "postalCode": "58314"
 },
 {
  "id": 3312180009,
  "districtId": 3312180,
  "districtName": "KISMANTORO",
  "name": "GEDAWUNG",
  "postalCode": "57696"
 },
 {
  "id": 3312180010,
  "districtId": 3312180,
  "districtName": "KISMANTORO",
  "name": "GAMBIRANOM",
  "postalCode": "57673"
 }
]