[
 {
  "id": 3312070001,
  "districtId": 3312070,
  "districtName": "TIRTOMOYO",
  "name": "HARGOSARI",
  "postalCode": "57672"
 },
 {
  "id": 3312070002,
  "districtId": 3312070,
  "districtName": "TIRTOMOYO",
  "name": "DLEPIH",
  "postalCode": "57672"
 },
 {
  "id": 3312070003,
  "districtId": 3312070,
  "districtName": "TIRTOMOYO",
  "name": "WIROKO",
  "postalCode": "57672"
 },
 {
  "id": 3312070004,
  "districtId": 3312070,
  "districtName": "TIRTOMOYO",
  "name": "SUKOHARJO",
  "postalCode": "32383"
 },
 {
  "id": 3312070005,
  "districtId": 3312070,
  "districtName": "TIRTOMOYO",
  "name": "HARGOREJO",
  "postalCode": "57672"
 },
 {
  "id": 3312070006,
  "districtId": 3312070,
  "districtName": "TIRTOMOYO",
  "name": "SIDOREJO",
  "postalCode": "24784"
 },
 {
  "id": 3312070007,
  "districtId": 3312070,
  "districtName": "TIRTOMOYO",
  "name": "GENENGHARJO",
  "postalCode": "57672"
 },
 {
  "id": 3312070008,
  "districtId": 3312070,
  "districtName": "TIRTOMOYO",
  "name": "GIRIREJO",
  "postalCode": "56153"
 },
 {
  "id": 3312070009,
  "districtId": 3312070,
  "districtName": "TIRTOMOYO",
  "name": "HARGANTORO",
  "postalCode": "57672"
 },
 {
  "id": 3312070010,
  "districtId": 3312070,
  "districtName": "TIRTOMOYO",
  "name": "TIRTOMOYO",
  "postalCode": "54393"
 },
 {
  "id": 3312070011,
  "districtId": 3312070,
  "districtName": "TIRTOMOYO",
  "name": "BANYAKPRODO",
  "postalCode": "57672"
 },
 {
  "id": 3312070012,
  "districtId": 3312070,
  "districtName": "TIRTOMOYO",
  "name": "NGARJOSARI",
  "postalCode": "57672"
 },
 {
  "id": 3312070013,
  "districtId": 3312070,
  "districtName": "TIRTOMOYO",
  "name": "SENDANGMULYO",
  "postalCode": "59255"
 },
 {
  "id": 3312070014,
  "districtId": 3312070,
  "districtName": "TIRTOMOYO",
  "name": "TANJUNGSARI",
  "postalCode": "28983"
 }
]