[
 {
  "id": 3312020001,
  "districtId": 3312020,
  "districtName": "PARANGGUPITO",
  "name": "PARANGGUPITO",
  "postalCode": "57678"
 },
 {
  "id": 3312020002,
  "districtId": 3312020,
  "districtName": "PARANGGUPITO",
  "name": "GUDANGHARJO",
  "postalCode": "57678"
 },
 {
  "id": 3312020003,
  "districtId": 3312020,
  "districtName": "PARANGGUPITO",
  "name": "GUNTURHARJO",
  "postalCode": "57678"
 },
 {
  "id": 3312020004,
  "districtId": 3312020,
  "districtName": "PARANGGUPITO",
  "name": "GENDAYAKAN",
  "postalCode": "57678"
 },
 {
  "id": 3312020005,
  "districtId": 3312020,
  "districtName": "PARANGGUPITO",
  "name": "SAMBIHARJO",
  "postalCode": "57678"
 },
 {
  "id": 3312020006,
  "districtId": 3312020,
  "districtName": "PARANGGUPITO",
  "name": "KETOS",
  "postalCode": "57678"
 },
 {
  "id": 3312020007,
  "districtId": 3312020,
  "districtName": "PARANGGUPITO",
  "name": "SONGBLEDEG",
  "postalCode": "57678"
 },
 {
  "id": 3312020008,
  "districtId": 3312020,
  "districtName": "PARANGGUPITO",
  "name": "JOHUNUT",
  "postalCode": "57678"
 }
]