[
 {
  "id": 3312220001,
  "districtId": 3312220,
  "districtName": "JATISRONO",
  "name": "TASIKHARGO",
  "postalCode": "57691"
 },
 {
  "id": 3312220002,
  "districtId": 3312220,
  "districtName": "JATISRONO",
  "name": "SUMBEREJO",
  "postalCode": "20551"
 },
 {
  "id": 3312220003,
  "districtId": 3312220,
  "districtName": "JATISRONO",
  "name": "REJOSARI",
  "postalCode": "29353"
 },
 {
  "id": 3312220004,
  "districtId": 3312220,
  "districtName": "JATISRONO",
  "name": "GONDANGSARI",
  "postalCode": "57691"
 },
 {
  "id": 3312220005,
  "districtId": 3312220,
  "districtName": "JATISRONO",
  "name": "SIDOREJO",
  "postalCode": "24784"
 },
 {
  "id": 3312220006,
  "districtId": 3312220,
  "districtName": "JATISRONO",
  "name": "NGROMPAK",
  "postalCode": "57691"
 },
 {
  "id": 3312220010,
  "districtId": 3312220,
  "districtName": "JATISRONO",
  "name": "SAMBIREJO",
  "postalCode": "39153"
 },
 {
  "id": 3312220011,
  "districtId": 3312220,
  "districtName": "JATISRONO",
  "name": "GUNUNGSARI",
  "postalCode": "35368"
 },
 {
  "id": 3312220012,
  "districtId": 3312220,
  "districtName": "JATISRONO",
  "name": "JATISARI",
  "postalCode": "32362"
 },
 {
  "id": 3312220013,
  "districtId": 3312220,
  "districtName": "JATISRONO",
  "name": "PANDEYAN",
  "postalCode": "57552"
 },
 {
  "id": 3312220014,
  "districtId": 3312220,
  "districtName": "JATISRONO",
  "name": "WATANGSONO",
  "postalCode": "57691"
 },
 {
  "id": 3312220015,
  "districtId": 3312220,
  "districtName": "JATISRONO",
  "name": "JATISRONO",
  "postalCode": "57691"
 },
 {
  "id": 3312220016,
  "districtId": 3312220,
  "districtName": "JATISRONO",
  "name": "TANJUNGSARI",
  "postalCode": "28983"
 },
 {
  "id": 3312220017,
  "districtId": 3312220,
  "districtName": "JATISRONO",
  "name": "TANGGULANGIN",
  "postalCode": "57691"
 }
]