[
 {
  "id": 3312110001,
  "districtId": 3312110,
  "districtName": "WURYANTORO",
  "name": "GENUKHARJO",
  "postalCode": "57661"
 },
 {
  "id": 3312110002,
  "districtId": 3312110,
  "districtName": "WURYANTORO",
  "name": "SUMBEREJO",
  "postalCode": "20551"
 },
 {
  "id": 3312110003,
  "districtId": 3312110,
  "districtName": "WURYANTORO",
  "name": "MOJOPURA",
  "postalCode": "57692"
 },
 {
  "id": 3312110004,
  "districtId": 3312110,
  "districtName": "WURYANTORO",
  "name": "WURYANTORO",
  "postalCode": "57661"
 },
 {
  "id": 3312110005,
  "districtId": 3312110,
  "districtName": "WURYANTORO",
  "name": "MLOPOHARJO",
  "postalCode": "57661"
 },
 {
  "id": 3312110006,
  "districtId": 3312110,
  "districtName": "WURYANTORO",
  "name": "PULUTANKULON",
  "postalCode": "57661"
 },
 {
  "id": 3312110007,
  "districtId": 3312110,
  "districtName": "WURYANTORO",
  "name": "PULUTANWETAN",
  "postalCode": "57661"
 },
 {
  "id": 3312110008,
  "districtId": 3312110,
  "districtName": "WURYANTORO",
  "name": "GUMIWANGLOR",
  "postalCode": "57661"
 }
]