[
 {
  "id": 3312080001,
  "districtId": 3312080,
  "districtName": "NGUNTORONADI",
  "name": "KEDUNGREJO",
  "postalCode": "57383"
 },
 {
  "id": 3312080002,
  "districtId": 3312080,
  "districtName": "NGUNTORONADI",
  "name": "BULUREJO",
  "postalCode": "35372"
 },
 {
  "id": 3312080003,
  "districtId": 3312080,
  "districtName": "NGUNTORONADI",
  "name": "KULUREJO",
  "postalCode": "57671"
 },
 {
  "id": 3312080004,
  "districtId": 3312080,
  "districtName": "NGUNTORONADI",
  "name": "SEMIN",
  "postalCode": "57671"
 },
 {
  "id": 3312080005,
  "districtId": 3312080,
  "districtName": "NGUNTORONADI",
  "name": "BEJI",
  "postalCode": "16421"
 },
 {
  "id": 3312080006,
  "districtId": 3312080,
  "districtName": "NGUNTORONADI",
  "name": "WONOHARJO",
  "postalCode": "38655"
 },
 {
  "id": 3312080007,
  "districtId": 3312080,
  "districtName": "NGUNTORONADI",
  "name": "BUMIHARJO",
  "postalCode": "34767"
 },
 {
  "id": 3312080008,
  "districtId": 3312080,
  "districtName": "NGUNTORONADI",
  "name": "GEBANG",
  "postalCode": "35451"
 },
 {
  "id": 3312080009,
  "districtId": 3312080,
  "districtName": "NGUNTORONADI",
  "name": "PONDOKSARI",
  "postalCode": "57671"
 },
 {
  "id": 3312080010,
  "districtId": 3312080,
  "districtName": "NGUNTORONADI",
  "name": "NGADIROYO",
  "postalCode": "57671"
 },
 {
  "id": 3312080011,
  "districtId": 3312080,
  "districtName": "NGUNTORONADI",
  "name": "NGADIPIRO",
  "postalCode": "57671"
 }
]