[
 {
  "id": 3312050001,
  "districtId": 3312050,
  "districtName": "BATUWARNO",
  "name": "SELOPURO",
  "postalCode": "57674"
 },
 {
  "id": 3312050002,
  "districtId": 3312050,
  "districtName": "BATUWARNO",
  "name": "SENDANGSARI",
  "postalCode": "57674"
 },
 {
  "id": 3312050003,
  "districtId": 3312050,
  "districtName": "BATUWARNO",
  "name": "TEGIRI",
  "postalCode": "57674"
 },
 {
  "id": 3312050004,
  "districtId": 3312050,
  "districtName": "BATUWARNO",
  "name": "BATUWARNO",
  "postalCode": "57674"
 },
 {
  "id": 3312050005,
  "districtId": 3312050,
  "districtName": "BATUWARNO",
  "name": "SUMBEREJO",
  "postalCode": "20551"
 },
 {
  "id": 3312050006,
  "districtId": 3312050,
  "districtName": "BATUWARNO",
  "name": "RONGGOJATI",
  "postalCode": "57674"
 },
 {
  "id": 3312050007,
  "districtId": 3312050,
  "districtName": "BATUWARNO",
  "name": "SUMBERAGUNG",
  "postalCode": "35452"
 },
 {
  "id": 3312050008,
  "districtId": 3312050,
  "districtName": "BATUWARNO",
  "name": "KUDI",
  "postalCode": "57674"
 }
]