[
 {
  "id": 3312230001,
  "districtId": 3312230,
  "districtName": "JATIPURNO",
  "name": "GIRIYOSO",
  "postalCode": "31665"
 },
 {
  "id": 3312230002,
  "districtId": 3312230,
  "districtName": "JATIPURNO",
  "name": "KOPEN",
  "postalCode": "57693"
 },
 {
  "id": 3312230003,
  "districtId": 3312230,
  "districtName": "JATIPURNO",
  "name": "JATIPURNO",
  "postalCode": "57693"
 },
 {
  "id": 3312230004,
  "districtId": 3312230,
  "districtName": "JATIPURNO",
  "name": "TAWANGREJO",
  "postalCode": "57462"
 },
 {
  "id": 3312230005,
  "districtId": 3312230,
  "districtName": "JATIPURNO",
  "name": "JATIPURWO",
  "postalCode": "57693"
 },
 {
  "id": 3312230006,
  "districtId": 3312230,
  "districtName": "JATIPURNO",
  "name": "SLOGORETNO",
  "postalCode": "57693"
 },
 {
  "id": 3312230007,
  "districtId": 3312230,
  "districtName": "JATIPURNO",
  "name": "KEMBANG",
  "postalCode": "57352"
 },
 {
  "id": 3312230008,
  "districtId": 3312230,
  "districtName": "JATIPURNO",
  "name": "GIRIMULYO",
  "postalCode": "57693"
 },
 {
  "id": 3312230009,
  "districtId": 3312230,
  "districtName": "JATIPURNO",
  "name": "BALEPANJANG",
  "postalCode": "57673"
 },
 {
  "id": 3312230010,
  "districtId": 3312230,
  "districtName": "JATIPURNO",
  "name": "JEPORO",
  "postalCode": "57693"
 },
 {
  "id": 3312230011,
  "districtId": 3312230,
  "districtName": "JATIPURNO",
  "name": "MANGUNHARJO",
  "postalCode": "54363"
 }
]