[
 {
  "id": 3313080001,
  "districtId": 3313080,
  "districtName": "KARANGPANDAN",
  "name": "BANGSRI",
  "postalCode": "59453"
 },
 {
  "id": 3313080002,
  "districtId": 3313080,
  "districtName": "KARANGPANDAN",
  "name": "NGEMPLAK",
  "postalCode": "54191"
 },
 {
  "id": 3313080003,
  "districtId": 3313080,
  "districtName": "KARANGPANDAN",
  "name": "DOPLANG",
  "postalCode": "53271"
 },
 {
  "id": 3313080005,
  "districtId": 3313080,
  "districtName": "KARANGPANDAN",
  "name": "KARANG",
  "postalCode": "58262"
 },
 {
  "id": 3313080006,
  "districtId": 3313080,
  "districtName": "KARANGPANDAN",
  "name": "SALAM",
  "postalCode": "54191"
 },
 {
  "id": 3313080007,
  "districtId": 3313080,
  "districtName": "KARANGPANDAN",
  "name": "KARANGPANDAN",
  "postalCode": "65162"
 },
 {
  "id": 3313080008,
  "districtId": 3313080,
  "districtName": "KARANGPANDAN",
  "name": "TOHKUNING",
  "postalCode": "57791"
 },
 {
  "id": 3313080009,
  "districtId": 3313080,
  "districtName": "KARANGPANDAN",
  "name": "GONDANGMANIS",
  "postalCode": "59327"
 },
 {
  "id": 3313080010,
  "districtId": 3313080,
  "districtName": "KARANGPANDAN",
  "name": "DAYU",
  "postalCode": "57188"
 },
 {
  "id": 3313080011,
  "districtId": 3313080,
  "districtName": "KARANGPANDAN",
  "name": "HARJOSARI",
  "postalCode": "28122"
 }
]