[
 {
  "id": 3313010001,
  "districtId": 3313010,
  "districtName": "JATIPURO",
  "name": "NGEPUNGSARI",
  "postalCode": "57784"
 },
 {
  "id": 3313010002,
  "districtId": 3313010,
  "districtName": "JATIPURO",
  "name": "JATIPURWO",
  "postalCode": "57693"
 },
 {
  "id": 3313010003,
  "districtId": 3313010,
  "districtName": "JATIPURO",
  "name": "JATIPURO",
  "postalCode": "57784"
 },
 {
  "id": 3313010004,
  "districtId": 3313010,
  "districtName": "JATIPURO",
  "name": "JATISOBO",
  "postalCode": "57784"
 },
 {
  "id": 3313010005,
  "districtId": 3313010,
  "districtName": "JATIPURO",
  "name": "JATIWARNO",
  "postalCode": "57784"
 },
 {
  "id": 3313010006,
  "districtId": 3313010,
  "districtName": "JATIPURO",
  "name": "JATIMULYO",
  "postalCode": "35365"
 },
 {
  "id": 3313010007,
  "districtId": 3313010,
  "districtName": "JATIPURO",
  "name": "JATISUKO",
  "postalCode": "57784"
 },
 {
  "id": 3313010008,
  "districtId": 3313010,
  "districtName": "JATIPURO",
  "name": "JATIHARJO",
  "postalCode": "57784"
 },
 {
  "id": 3313010009,
  "districtId": 3313010,
  "districtName": "JATIPURO",
  "name": "JATIKUWUNG",
  "postalCode": "57188"
 },
 {
  "id": 3313010010,
  "districtId": 3313010,
  "districtName": "JATIPURO",
  "name": "JATIROYO",
  "postalCode": "57784"
 }
]