[
 {
  "id": 3313100001,
  "districtId": 3313100,
  "districtName": "TASIKMADU",
  "name": "BURAN",
  "postalCode": "57722"
 },
 {
  "id": 3313100002,
  "districtId": 3313100,
  "districtName": "TASIKMADU",
  "name": "PAPAHAN",
  "postalCode": "38962"
 },
 {
  "id": 3313100003,
  "districtId": 3313100,
  "districtName": "TASIKMADU",
  "name": "NGIJO",
  "postalCode": "50228"
 },
 {
  "id": 3313100004,
  "districtId": 3313100,
  "districtName": "TASIKMADU",
  "name": "GAUM",
  "postalCode": "57722"
 },
 {
  "id": 3313100006,
  "districtId": 3313100,
  "districtName": "TASIKMADU",
  "name": "PANDEYAN",
  "postalCode": "57552"
 },
 {
  "id": 3313100007,
  "districtId": 3313100,
  "districtName": "TASIKMADU",
  "name": "KARANGMOJO",
  "postalCode": "54365"
 },
 {
  "id": 3313100008,
  "districtId": 3313100,
  "districtName": "TASIKMADU",
  "name": "KALING",
  "postalCode": "57722"
 },
 {
  "id": 3313100009,
  "districtId": 3313100,
  "districtName": "TASIKMADU",
  "name": "WONOLOPO",
  "postalCode": "50215"
 },
 {
  "id": 3313100010,
  "districtId": 3313100,
  "districtName": "TASIKMADU",
  "name": "KALIJIRAK",
  "postalCode": "57722"
 }
]