[
 {
  "id": 3313150001,
  "districtId": 3313150,
  "districtName": "MOJOGEDANG",
  "name": "SEWUREJO",
  "postalCode": "57752"
 },
 {
  "id": 3313150002,
  "districtId": 3313150,
  "districtName": "MOJOGEDANG",
  "name": "NGADIREJO",
  "postalCode": "31662"
 },
 {
  "id": 3313150003,
  "districtId": 3313150,
  "districtName": "MOJOGEDANG",
  "name": "MOJOGEDANG",
  "postalCode": "57752"
 },
 {
  "id": 3313150004,
  "districtId": 3313150,
  "districtName": "MOJOGEDANG",
  "name": "POJOK",
  "postalCode": "57752"
 },
 {
  "id": 3313150005,
  "districtId": 3313150,
  "districtName": "MOJOGEDANG",
  "name": "MOJOROTO",
  "postalCode": "57752"
 },
 {
  "id": 3313150006,
  "districtId": 3313150,
  "districtName": "MOJOGEDANG",
  "name": "KALIBOTO",
  "postalCode": "54183"
 },
 {
  "id": 3313150007,
  "districtId": 3313150,
  "districtName": "MOJOGEDANG",
  "name": "BUNTAR",
  "postalCode": "57752"
 },
 {
  "id": 3313150008,
  "districtId": 3313150,
  "districtName": "MOJOGEDANG",
  "name": "GEBYOG",
  "postalCode": "63395"
 },
 {
  "id": 3313150009,
  "districtId": 3313150,
  "districtName": "MOJOGEDANG",
  "name": "GENTUNGAN",
  "postalCode": "57752"
 }
]