[
 {
  "id": 3314060001,
  "districtId": 3314060,
  "districtName": "GONDANG",
  "name": "SRIMULYO",
  "postalCode": "30975"
 },
 {
  "id": 3314060002,
  "districtId": 3314060,
  "districtName": "GONDANG",
  "name": "TEGALREJO",
  "postalCode": "50733"
 },
 {
  "id": 3314060004,
  "districtId": 3314060,
  "districtName": "GONDANG",
  "name": "GLONGGONG",
  "postalCode": "57254"
 },
 {
  "id": 3314060005,
  "districtId": 3314060,
  "districtName": "GONDANG",
  "name": "KALIWEDI",
  "postalCode": "57254"
 },
 {
  "id": 3314060006,
  "districtId": 3314060,
  "districtName": "GONDANG",
  "name": "PLOSOREJO",
  "postalCode": "58253"
 },
 {
  "id": 3314060007,
  "districtId": 3314060,
  "districtName": "GONDANG",
  "name": "WONOTOLO",
  "postalCode": "57254"
 },
 {
  "id": 3314060008,
  "districtId": 3314060,
  "districtName": "GONDANG",
  "name": "BUMIAJI",
  "postalCode": "57254"
 },
 {
  "id": 3314060009,
  "districtId": 3314060,
  "districtName": "GONDANG",
  "name": "GONDANG",
  "postalCode": "51255"
 }
]