[
 {
  "id": 3314050002,
  "districtId": 3314050,
  "districtName": "SAMBIREJO",
  "name": "JETIS",
  "postalCode": "57556"
 },
 {
  "id": 3314050003,
  "districtId": 3314050,
  "districtName": "SAMBIREJO",
  "name": "SUKOREJO",
  "postalCode": "31551"
 },
 {
  "id": 3314050004,
  "districtId": 3314050,
  "districtName": "SAMBIREJO",
  "name": "JAMBEYAN",
  "postalCode": "57475"
 },
 {
  "id": 3314050005,
  "districtId": 3314050,
  "districtName": "SAMBIREJO",
  "name": "SAMBI",
  "postalCode": "57376"
 },
 {
  "id": 3314050006,
  "districtId": 3314050,
  "districtName": "SAMBIREJO",
  "name": "DAWUNG",
  "postalCode": "57256"
 },
 {
  "id": 3314050007,
  "districtId": 3314050,
  "districtName": "SAMBIREJO",
  "name": "BLIMBING",
  "postalCode": "52364"
 },
 {
  "id": 3314050008,
  "districtId": 3314050,
  "districtName": "SAMBIREJO",
  "name": "SAMBIREJO",
  "postalCode": "39153"
 },
 {
  "id": 3314050009,
  "districtId": 3314050,
  "districtName": "SAMBIREJO",
  "name": "KADIPIRO",
  "postalCode": "57136"
 }
]