[
 {
  "id": 3314130001,
  "districtId": 3314130,
  "districtName": "GEMOLONG",
  "name": "KALORAN",
  "postalCode": "57274"
 },
 {
  "id": 3314130002,
  "districtId": 3314130,
  "districtName": "GEMOLONG",
  "name": "NGEMBAT PADAS",
  "postalCode": "57274"
 },
 {
  "id": 3314130003,
  "districtId": 3314130,
  "districtName": "GEMOLONG",
  "name": "KRAGILAN",
  "postalCode": "57455"
 },
 {
  "id": 3314130004,
  "districtId": 3314130,
  "districtName": "GEMOLONG",
  "name": "BRANGKAL",
  "postalCode": "57274"
 },
 {
  "id": 3314130005,
  "districtId": 3314130,
  "districtName": "GEMOLONG",
  "name": "JATIBATUR",
  "postalCode": "57274"
 },
 {
  "id": 3314130006,
  "districtId": 3314130,
  "districtName": "GEMOLONG",
  "name": "PELEMAN",
  "postalCode": "57274"
 },
 {
  "id": 3314130008,
  "districtId": 3314130,
  "districtName": "GEMOLONG",
  "name": "TEGALDOWO",
  "postalCode": "57274"
 },
 {
  "id": 3314130009,
  "districtId": 3314130,
  "districtName": "GEMOLONG",
  "name": "GEMOLONG",
  "postalCode": "57274"
 },
 {
  "id": 3314130010,
  "districtId": 3314130,
  "districtName": "GEMOLONG",
  "name": "KWANGEN",
  "postalCode": "57274"
 },
 {
  "id": 3314130011,
  "districtId": 3314130,
  "districtName": "GEMOLONG",
  "name": "PURWOREJO",
  "postalCode": "23661"
 },
 {
  "id": 3314130012,
  "districtId": 3314130,
  "districtName": "GEMOLONG",
  "name": "JENALAS",
  "postalCode": "57274"
 },
 {
  "id": 3314130013,
  "districtId": 3314130,
  "districtName": "GEMOLONG",
  "name": "KALANGAN",
  "postalCode": "22616"
 },
 {
  "id": 3314130014,
  "districtId": 3314130,
  "districtName": "GEMOLONG",
  "name": "NGANTI",
  "postalCode": "30759"
 }
]