[
 {
  "id": 3315180001,
  "districtId": 3315180,
  "districtName": "TEGOWANU",
  "name": "KEBONAGUNG",
  "postalCode": "56151"
 },
 {
  "id": 3315180002,
  "districtId": 3315180,
  "districtName": "TEGOWANU",
  "name": "TLOGOREJO",
  "postalCode": "54395"
 },
 {
  "id": 3315180003,
  "districtId": 3315180,
  "districtName": "TEGOWANU",
  "name": "MEDANI",
  "postalCode": "59157"
 },
 {
  "id": 3315180004,
  "districtId": 3315180,
  "districtName": "TEGOWANU",
  "name": "SUKOREJO",
  "postalCode": "31551"
 },
 {
  "id": 3315180005,
  "districtId": 3315180,
  "districtName": "TEGOWANU",
  "name": "TANGGIREJO",
  "postalCode": "58165"
 },
 {
  "id": 3315180006,
  "districtId": 3315180,
  "districtName": "TEGOWANU",
  "name": "MANGUNSARI",
  "postalCode": "50227"
 },
 {
  "id": 3315180007,
  "districtId": 3315180,
  "districtName": "TEGOWANU",
  "name": "GEBANGAN",
  "postalCode": "51361"
 },
 {
  "id": 3315180008,
  "districtId": 3315180,
  "districtName": "TEGOWANU",
  "name": "KEJAWAN",
  "postalCode": "58165"
 },
 {
  "id": 3315180009,
  "districtId": 3315180,
  "districtName": "TEGOWANU",
  "name": "TEGOWANU WETAN",
  "postalCode": "58165"
 },
 {
  "id": 3315180010,
  "districtId": 3315180,
  "districtName": "TEGOWANU",
  "name": "TEGOWANU KULON",
  "postalCode": "58165"
 },
 {
  "id": 3315180011,
  "districtId": 3315180,
  "districtName": "TEGOWANU",
  "name": "TAJEMSARI",
  "postalCode": "58165"
 },
 {
  "id": 3315180012,
  "districtId": 3315180,
  "districtName": "TEGOWANU",
  "name": "KARANGPASAR",
  "postalCode": "58165"
 },
 {
  "id": 3315180016,
  "districtId": 3315180,
  "districtName": "TEGOWANU",
  "name": "CANGKRING",
  "postalCode": "45258"
 },
 {
  "id": 3315180017,
  "districtId": 3315180,
  "districtName": "TEGOWANU",
  "name": "GAJI",
  "postalCode": "59565"
 },
 {
  "id": 3315180018,
  "districtId": 3315180,
  "districtName": "TEGOWANU",
  "name": "TUNJUNGHARJO",
  "postalCode": "58165"
 }
]