[
 {
  "id": 3316150001,
  "districtId": 3316150,
  "districtName": "KUNDURAN",
  "name": "BOTORECO",
  "postalCode": "58255"
 },
 {
  "id": 3316150002,
  "districtId": 3316150,
  "districtName": "KUNDURAN",
  "name": "BULOH",
  "postalCode": "24162"
 },
 {
  "id": 3316150003,
  "districtId": 3316150,
  "districtName": "KUNDURAN",
  "name": "KEMIRI",
  "postalCode": "41352"
 },
 {
  "id": 3316150004,
  "districtId": 3316150,
  "districtName": "KUNDURAN",
  "name": "KODOKAN",
  "postalCode": "58255"
 },
 {
  "id": 3316150005,
  "districtId": 3316150,
  "districtName": "KUNDURAN",
  "name": "SONOKIDUL",
  "postalCode": "58255"
 },
 {
  "id": 3316150008,
  "districtId": 3316150,
  "districtName": "KUNDURAN",
  "name": "PLOSO REJO",
  "postalCode": "58255"
 },
 {
  "id": 3316150009,
  "districtId": 3316150,
  "districtName": "KUNDURAN",
  "name": "NGILEN",
  "postalCode": "58255"
 },
 {
  "id": 3316150010,
  "districtId": 3316150,
  "districtName": "KUNDURAN",
  "name": "BAKAH",
  "postalCode": "58255"
 },
 {
  "id": 3316150011,
  "districtId": 3316150,
  "districtName": "KUNDURAN",
  "name": "KALANGREJO",
  "postalCode": "58255"
 },
 {
  "id": 3316150012,
  "districtId": 3316150,
  "districtName": "KUNDURAN",
  "name": "BLUMBANGREJO",
  "postalCode": "58255"
 },
 {
  "id": 3316150013,
  "districtId": 3316150,
  "districtName": "KUNDURAN",
  "name": "TAWANGREJO",
  "postalCode": "57462"
 },
 {
  "id": 3316150014,
  "districtId": 3316150,
  "districtName": "KUNDURAN",
  "name": "KLOKAH",
  "postalCode": "58255"
 },
 {
  "id": 3316150015,
  "districtId": 3316150,
  "districtName": "KUNDURAN",
  "name": "JETAK",
  "postalCode": "50774"
 },
 {
  "id": 3316150016,
  "districtId": 3316150,
  "districtName": "KUNDURAN",
  "name": "MURAHARJO",
  "postalCode": "58255"
 },
 {
  "id": 3316150017,
  "districtId": 3316150,
  "districtName": "KUNDURAN",
  "name": "JAGONG",
  "postalCode": "58255"
 },
 {
  "id": 3316150018,
  "districtId": 3316150,
  "districtName": "KUNDURAN",
  "name": "KUNDURAN",
  "postalCode": "31594"
 },
 {
  "id": 3316150019,
  "districtId": 3316150,
  "districtName": "KUNDURAN",
  "name": "GAGAAN",
  "postalCode": "58255"
 },
 {
  "id": 3316150020,
  "districtId": 3316150,
  "districtName": "KUNDURAN",
  "name": "SAMBIROTO",
  "postalCode": "59581"
 },
 {
  "id": 3316150021,
  "districtId": 3316150,
  "districtName": "KUNDURAN",
  "name": "BEJIREJO",
  "postalCode": "58255"
 },
 {
  "id": 3316150022,
  "districtId": 3316150,
  "districtName": "KUNDURAN",
  "name": "KARANGGENENG",
  "postalCode": "57312"
 },
 {
  "id": 3316150023,
  "districtId": 3316150,
  "districtName": "KUNDURAN",
  "name": "BALONG",
  "postalCode": "45573"
 },
 {
  "id": 3316150024,
  "districtId": 3316150,
  "districtName": "KUNDURAN",
  "name": "NGAWENOMBO",
  "postalCode": "58255"
 },
 {
  "id": 3316150025,
  "districtId": 3316150,
  "districtName": "KUNDURAN",
  "name": "SENDANGWATES",
  "postalCode": "58255"
 },
 {
  "id": 3316150026,
  "districtId": 3316150,
  "districtName": "KUNDURAN",
  "name": "KEDUNGWARU",
  "postalCode": "54353"
 }
]