[
 {
  "id": 3316130001,
  "districtId": 3316130,
  "districtName": "JAPAH",
  "name": "NGAPUS",
  "postalCode": "58257"
 },
 {
  "id": 3316130002,
  "districtId": 3316130,
  "districtName": "JAPAH",
  "name": "KROCOK",
  "postalCode": "58257"
 },
 {
  "id": 3316130004,
  "districtId": 3316130,
  "districtName": "JAPAH",
  "name": "HARJOWINANGUN",
  "postalCode": "52464"
 },
 {
  "id": 3316130005,
  "districtId": 3316130,
  "districtName": "JAPAH",
  "name": "BEGANJING",
  "postalCode": "58257"
 },
 {
  "id": 3316130006,
  "districtId": 3316130,
  "districtName": "JAPAH",
  "name": "NGRAMBITAN",
  "postalCode": "58257"
 },
 {
  "id": 3316130007,
  "districtId": 3316130,
  "districtName": "JAPAH",
  "name": "PENGKOLREJO",
  "postalCode": "58257"
 },
 {
  "id": 3316130008,
  "districtId": 3316130,
  "districtName": "JAPAH",
  "name": "BOGOREJO",
  "postalCode": "35366"
 },
 {
  "id": 3316130009,
  "districtId": 3316130,
  "districtName": "JAPAH",
  "name": "WOTBAKAH",
  "postalCode": "58257"
 },
 {
  "id": 3316130010,
  "districtId": 3316130,
  "districtName": "JAPAH",
  "name": "PADAAN",
  "postalCode": "58257"
 },
 {
  "id": 3316130011,
  "districtId": 3316130,
  "districtName": "JAPAH",
  "name": "JAPAH",
  "postalCode": "58257"
 },
 {
  "id": 3316130012,
  "districtId": 3316130,
  "districtName": "JAPAH",
  "name": "DOLOGAN",
  "postalCode": "58257"
 },
 {
  "id": 3316130013,
  "districtId": 3316130,
  "districtName": "JAPAH",
  "name": "TLOGOWUNGU",
  "postalCode": "58257"
 },
 {
  "id": 3316130014,
  "districtId": 3316130,
  "districtName": "JAPAH",
  "name": "BOGEM",
  "postalCode": "57462"
 },
 {
  "id": 3316130015,
  "districtId": 3316130,
  "districtName": "JAPAH",
  "name": "SUMBEREJO",
  "postalCode": "20551"
 },
 {
  "id": 3316130016,
  "districtId": 3316130,
  "districtName": "JAPAH",
  "name": "NGIYONO",
  "postalCode": "58257"
 },
 {
  "id": 3316130017,
  "districtId": 3316130,
  "districtName": "JAPAH",
  "name": "GAPLOKAN",
  "postalCode": "58257"
 },
 {
  "id": 3316130018,
  "districtId": 3316130,
  "districtName": "JAPAH",
  "name": "KALINANAS",
  "postalCode": "58257"
 }
]