[
 {
  "id": 3317080001,
  "districtId": 3317080,
  "districtName": "SULANG",
  "name": "TANJUNG",
  "postalCode": "24562"
 },
 {
  "id": 3317080002,
  "districtId": 3317080,
  "districtName": "SULANG",
  "name": "KEMADU",
  "postalCode": "59254"
 },
 {
  "id": 3317080003,
  "districtId": 3317080,
  "districtName": "SULANG",
  "name": "SULANG",
  "postalCode": "59254"
 },
 {
  "id": 3317080004,
  "districtId": 3317080,
  "districtName": "SULANG",
  "name": "POMAHAN",
  "postalCode": "59254"
 },
 {
  "id": 3317080006,
  "districtId": 3317080,
  "districtName": "SULANG",
  "name": "KOROWELANG",
  "postalCode": "54393"
 },
 {
  "id": 3317080007,
  "districtId": 3317080,
  "districtName": "SULANG",
  "name": "KARANGHARJO",
  "postalCode": "59273"
 },
 {
  "id": 3317080008,
  "districtId": 3317080,
  "districtName": "SULANG",
  "name": "JATIMUDO",
  "postalCode": "59254"
 },
 {
  "id": 3317080009,
  "districtId": 3317080,
  "districtName": "SULANG",
  "name": "KUNIR",
  "postalCode": "54264"
 },
 {
  "id": 3317080011,
  "districtId": 3317080,
  "districtName": "SULANG",
  "name": "BOGORAME",
  "postalCode": "59254"
 },
 {
  "id": 3317080012,
  "districtId": 3317080,
  "districtName": "SULANG",
  "name": "KALIOMBO",
  "postalCode": "51164"
 },
 {
  "id": 3317080013,
  "districtId": 3317080,
  "districtName": "SULANG",
  "name": "SUDO",
  "postalCode": "59254"
 },
 {
  "id": 3317080014,
  "districtId": 3317080,
  "districtName": "SULANG",
  "name": "KARANGSARI",
  "postalCode": "35376"
 },
 {
  "id": 3317080015,
  "districtId": 3317080,
  "districtName": "SULANG",
  "name": "PRAGU",
  "postalCode": "59254"
 },
 {
  "id": 3317080016,
  "districtId": 3317080,
  "districtName": "SULANG",
  "name": "KEBONAGUNG",
  "postalCode": "56151"
 },
 {
  "id": 3317080018,
  "districtId": 3317080,
  "districtName": "SULANG",
  "name": "PRANTI",
  "postalCode": "45254"
 },
 {
  "id": 3317080019,
  "districtId": 3317080,
  "districtName": "SULANG",
  "name": "PEDAK",
  "postalCode": "59254"
 },
 {
  "id": 3317080020,
  "districtId": 3317080,
  "districtName": "SULANG",
  "name": "LANDOH",
  "postalCode": "59254"
 }
]