[
 {
  "id": 3317040001,
  "districtId": 3317040,
  "districtName": "SALE",
  "name": "TAHUNAN",
  "postalCode": "58183"
 },
 {
  "id": 3317040002,
  "districtId": 3317040,
  "districtName": "SALE",
  "name": "NGAJARAN",
  "postalCode": "59265"
 },
 {
  "id": 3317040003,
  "districtId": 3317040,
  "districtName": "SALE",
  "name": "MRAYUN",
  "postalCode": "59265"
 },
 {
  "id": 3317040004,
  "districtId": 3317040,
  "districtName": "SALE",
  "name": "BANCANG",
  "postalCode": "59265"
 },
 {
  "id": 3317040005,
  "districtId": 3317040,
  "districtName": "SALE",
  "name": "SALE",
  "postalCode": "59265"
 },
 {
  "id": 3317040006,
  "districtId": 3317040,
  "districtName": "SALE",
  "name": "JOHO",
  "postalCode": "54363"
 },
 {
  "id": 3317040007,
  "districtId": 3317040,
  "districtName": "SALE",
  "name": "JINANTEN",
  "postalCode": "59265"
 },
 {
  "id": 3317040008,
  "districtId": 3317040,
  "districtName": "SALE",
  "name": "GADING",
  "postalCode": "22755"
 },
 {
  "id": 3317040009,
  "districtId": 3317040,
  "districtName": "SALE",
  "name": "WONOKERTO",
  "postalCode": "31662"
 },
 {
  "id": 3317040010,
  "districtId": 3317040,
  "districtName": "SALE",
  "name": "SUMBERMULYO",
  "postalCode": "59255"
 },
 {
  "id": 3317040012,
  "districtId": 3317040,
  "districtName": "SALE",
  "name": "BITINGAN",
  "postalCode": "59265"
 },
 {
  "id": 3317040013,
  "districtId": 3317040,
  "districtName": "SALE",
  "name": "PAKIS",
  "postalCode": "50772"
 },
 {
  "id": 3317040014,
  "districtId": 3317040,
  "districtName": "SALE",
  "name": "UKIR",
  "postalCode": "59265"
 }
]