[
 {
  "id": 3317100001,
  "districtId": 3317100,
  "districtName": "REMBANG",
  "name": "KEDUNGREJO",
  "postalCode": "57383"
 },
 {
  "id": 3317100004,
  "districtId": 3317100,
  "districtName": "REMBANG",
  "name": "SRIDADI",
  "postalCode": "36614"
 },
 {
  "id": 3317100005,
  "districtId": 3317100,
  "districtName": "REMBANG",
  "name": "PADARAN",
  "postalCode": "59219"
 },
 {
  "id": 3317100006,
  "districtId": 3317100,
  "districtName": "REMBANG",
  "name": "TLOGOMOJO",
  "postalCode": "59186"
 },
 {
  "id": 3317100007,
  "districtId": 3317100,
  "districtName": "REMBANG",
  "name": "KASREMAN",
  "postalCode": "59219"
 },
 {
  "id": 3317100008,
  "districtId": 3317100,
  "districtName": "REMBANG",
  "name": "PUNJULHARJO",
  "postalCode": "59219"
 },
 {
  "id": 3317100009,
  "districtId": 3317100,
  "districtName": "REMBANG",
  "name": "TRITUNGGAL",
  "postalCode": "59219"
 },
 {
  "id": 3317100010,
  "districtId": 3317100,
  "districtName": "REMBANG",
  "name": "PASARBANGGI",
  "postalCode": "59219"
 },
 {
  "id": 3317100011,
  "districtId": 3317100,
  "districtName": "REMBANG",
  "name": "GEDANGAN",
  "postalCode": "21264"
 },
 {
  "id": 3317100012,
  "districtId": 3317100,
  "districtName": "REMBANG",
  "name": "WETON",
  "postalCode": "59219"
 },
 {
  "id": 3317100013,
  "districtId": 3317100,
  "districtName": "REMBANG",
  "name": "NGOTET",
  "postalCode": "59219"
 },
 {
  "id": 3317100014,
  "districtId": 3317100,
  "districtName": "REMBANG",
  "name": "MONDOTEKO",
  "postalCode": "59219"
 },
 {
  "id": 3317100015,
  "districtId": 3317100,
  "districtName": "REMBANG",
  "name": "NGADEM",
  "postalCode": "59219"
 },
 {
  "id": 3317100016,
  "districtId": 3317100,
  "districtName": "REMBANG",
  "name": "KETANGGI",
  "postalCode": "59219"
 },
 {
  "id": 3317100017,
  "districtId": 3317100,
  "districtName": "REMBANG",
  "name": "PULO",
  "postalCode": "24188"
 },
 {
  "id": 3317100018,
  "districtId": 3317100,
  "districtName": "REMBANG",
  "name": "WARU",
  "postalCode": "45252"
 },
 {
  "id": 3317100019,
  "districtId": 3317100,
  "districtName": "REMBANG",
  "name": "MAGERSARI",
  "postalCode": "56126"
 },
 {
  "id": 3317100020,
  "districtId": 3317100,
  "districtName": "REMBANG",
  "name": "GEGUNUNG KULON",
  "postalCode": "59213"
 },
 {
  "id": 3317100021,
  "districtId": 3317100,
  "districtName": "REMBANG",
  "name": "GEGUNUNG WETAN",
  "postalCode": "59213"
 },
 {
  "id": 3317100022,
  "districtId": 3317100,
  "districtName": "REMBANG",
  "name": "PACAR",
  "postalCode": "59213"
 },
 {
  "id": 3317100023,
  "districtId": 3317100,
  "districtName": "REMBANG",
  "name": "TANJUNGSARI",
  "postalCode": "28983"
 },
 {
  "id": 3317100024,
  "districtId": 3317100,
  "districtName": "REMBANG",
  "name": "SUMBERJO",
  "postalCode": "34396"
 },
 {
  "id": 3317100025,
  "districtId": 3317100,
  "districtName": "REMBANG",
  "name": "TASIKAGUNG",
  "postalCode": "59212"
 },
 {
  "id": 3317100026,
  "districtId": 3317100,
  "districtName": "REMBANG",
  "name": "SAWAHAN",
  "postalCode": "25121"
 },
 {
  "id": 3317100028,
  "districtId": 3317100,
  "districtName": "REMBANG",
  "name": "SIDOWAYAH",
  "postalCode": "59262"
 },
 {
  "id": 3317100029,
  "districtId": 3317100,
  "districtName": "REMBANG",
  "name": "KUTOHARJO",
  "postalCode": "51372"
 },
 {
  "id": 3317100030,
  "districtId": 3317100,
  "districtName": "REMBANG",
  "name": "PANDEAN",
  "postalCode": "56194"
 },
 {
  "id": 3317100031,
  "districtId": 3317100,
  "districtName": "REMBANG",
  "name": "SUKOHARJO",
  "postalCode": "32383"
 },
 {
  "id": 3317100032,
  "districtId": 3317100,
  "districtName": "REMBANG",
  "name": "KABONGAN LOR",
  "postalCode": "59219"
 },
 {
  "id": 3317100033,
  "districtId": 3317100,
  "districtName": "REMBANG",
  "name": "KABONGAN KIDUL",
  "postalCode": "59218"
 },
 {
  "id": 3317100034,
  "districtId": 3317100,
  "districtName": "REMBANG",
  "name": "TIREMAN",
  "postalCode": "59219"
 }
]