[
 {
  "id": 3318130001,
  "districtId": 3318130,
  "districtName": "GEMBONG",
  "name": "BERMI",
  "postalCode": "59162"
 },
 {
  "id": 3318130003,
  "districtId": 3318130,
  "districtName": "GEMBONG",
  "name": "SEMIREJO",
  "postalCode": "59162"
 },
 {
  "id": 3318130004,
  "districtId": 3318130,
  "districtName": "GEMBONG",
  "name": "WONOSEKAR",
  "postalCode": "59162"
 },
 {
  "id": 3318130005,
  "districtId": 3318130,
  "districtName": "GEMBONG",
  "name": "GEMBONG",
  "postalCode": "53362"
 },
 {
  "id": 3318130006,
  "districtId": 3318130,
  "districtName": "GEMBONG",
  "name": "PLUKARAN",
  "postalCode": "59162"
 },
 {
  "id": 3318130007,
  "districtId": 3318130,
  "districtName": "GEMBONG",
  "name": "BAGENG",
  "postalCode": "59162"
 },
 {
  "id": 3318130008,
  "districtId": 3318130,
  "districtName": "GEMBONG",
  "name": "POHGADING",
  "postalCode": "59162"
 },
 {
  "id": 3318130009,
  "districtId": 3318130,
  "districtName": "GEMBONG",
  "name": "KLAKAH KASIAN",
  "postalCode": "59162"
 },
 {
  "id": 3318130010,
  "districtId": 3318130,
  "districtName": "GEMBONG",
  "name": "KETANGGAN",
  "postalCode": "59162"
 },
 {
  "id": 3318130011,
  "districtId": 3318130,
  "districtName": "GEMBONG",
  "name": "SITILUHUR",
  "postalCode": "59162"
 }
]