[
 {
  "id": 3319080001,
  "districtId": 3319080,
  "districtName": "GEBOG",
  "name": "GETASRABI",
  "postalCode": "59333"
 },
 {
  "id": 3319080002,
  "districtId": 3319080,
  "districtName": "GEBOG",
  "name": "KLUMPIT",
  "postalCode": "59333"
 },
 {
  "id": 3319080003,
  "districtId": 3319080,
  "districtName": "GEBOG",
  "name": "GRIBIG",
  "postalCode": "59333"
 },
 {
  "id": 3319080004,
  "districtId": 3319080,
  "districtName": "GEBOG",
  "name": "KARANG MALANG",
  "postalCode": "57282"
 },
 {
  "id": 3319080005,
  "districtId": 3319080,
  "districtName": "GEBOG",
  "name": "PADURENAN",
  "postalCode": "16340"
 },
 {
  "id": 3319080006,
  "districtId": 3319080,
  "districtName": "GEBOG",
  "name": "BESITO",
  "postalCode": "59333"
 },
 {
  "id": 3319080007,
  "districtId": 3319080,
  "districtName": "GEBOG",
  "name": "JURANG",
  "postalCode": "59333"
 },
 {
  "id": 3319080008,
  "districtId": 3319080,
  "districtName": "GEBOG",
  "name": "GONDOSARI",
  "postalCode": "59333"
 },
 {
  "id": 3319080009,
  "districtId": 3319080,
  "districtName": "GEBOG",
  "name": "KEDUNGSARI",
  "postalCode": "28123"
 },
 {
  "id": 3319080010,
  "districtId": 3319080,
  "districtName": "GEBOG",
  "name": "MENAWAN",
  "postalCode": "59333"
 },
 {
  "id": 3319080011,
  "districtId": 3319080,
  "districtName": "GEBOG",
  "name": "RAHTAWU",
  "postalCode": "59333"
 }
]