[
 {
  "id": 3319010001,
  "districtId": 3319010,
  "districtName": "KALIWUNGU",
  "name": "BLIMBING KIDUL",
  "postalCode": "59332"
 },
 {
  "id": 3319010002,
  "districtId": 3319010,
  "districtName": "KALIWUNGU",
  "name": "BANGET",
  "postalCode": "59332"
 },
 {
  "id": 3319010003,
  "districtId": 3319010,
  "districtName": "KALIWUNGU",
  "name": "SETROKALANGAN",
  "postalCode": "59332"
 },
 {
  "id": 3319010004,
  "districtId": 3319010,
  "districtName": "KALIWUNGU",
  "name": "GARUNG KIDUL",
  "postalCode": "59332"
 },
 {
  "id": 3319010005,
  "districtId": 3319010,
  "districtName": "KALIWUNGU",
  "name": "KEDUNG DOWO",
  "postalCode": "68371"
 },
 {
  "id": 3319010006,
  "districtId": 3319010,
  "districtName": "KALIWUNGU",
  "name": "GAMONG",
  "postalCode": "59332"
 },
 {
  "id": 3319010007,
  "districtId": 3319010,
  "districtName": "KALIWUNGU",
  "name": "SIDOREKSO",
  "postalCode": "59332"
 },
 {
  "id": 3319010008,
  "districtId": 3319010,
  "districtName": "KALIWUNGU",
  "name": "PAPRINGAN",
  "postalCode": "53192"
 },
 {
  "id": 3319010009,
  "districtId": 3319010,
  "districtName": "KALIWUNGU",
  "name": "KALIWUNGU",
  "postalCode": "52464"
 },
 {
  "id": 3319010010,
  "districtId": 3319010,
  "districtName": "KALIWUNGU",
  "name": "MIJEN",
  "postalCode": "59332"
 },
 {
  "id": 3319010011,
  "districtId": 3319010,
  "districtName": "KALIWUNGU",
  "name": "KARANG AMPEL",
  "postalCode": ""
 },
 {
  "id": 3319010012,
  "districtId": 3319010,
  "districtName": "KALIWUNGU",
  "name": "GARUNG LOR",
  "postalCode": "59332"
 },
 {
  "id": 3319010013,
  "districtId": 3319010,
  "districtName": "KALIWUNGU",
  "name": "PRAMBATAN LOR",
  "postalCode": "59332"
 },
 {
  "id": 3319010014,
  "districtId": 3319010,
  "districtName": "KALIWUNGU",
  "name": "PRAMBATAN KIDUL",
  "postalCode": "59332"
 },
 {
  "id": 3319010015,
  "districtId": 3319010,
  "districtName": "KALIWUNGU",
  "name": "BAKALAN KRAPYAK",
  "postalCode": ""
 }
]