[
 {
  "id": 3319030001,
  "districtId": 3319030,
  "districtName": "JATI",
  "name": "TANJUNG KARANG",
  "postalCode": "24476"
 },
 {
  "id": 3319030002,
  "districtId": 3319030,
  "districtName": "JATI",
  "name": "JETIS KAPUAN",
  "postalCode": "59349"
 },
 {
  "id": 3319030003,
  "districtId": 3319030,
  "districtName": "JATI",
  "name": "LORAM KULON",
  "postalCode": "59344"
 },
 {
  "id": 3319030004,
  "districtId": 3319030,
  "districtName": "JATI",
  "name": "JATI WETAN",
  "postalCode": "59346"
 },
 {
  "id": 3319030005,
  "districtId": 3319030,
  "districtName": "JATI",
  "name": "JATI KULON",
  "postalCode": "59347"
 },
 {
  "id": 3319030006,
  "districtId": 3319030,
  "districtName": "JATI",
  "name": "PASURUHAN LOR",
  "postalCode": "59349"
 },
 {
  "id": 3319030007,
  "districtId": 3319030,
  "districtName": "JATI",
  "name": "PASURUHAN KIDUL",
  "postalCode": "59349"
 },
 {
  "id": 3319030008,
  "districtId": 3319030,
  "districtName": "JATI",
  "name": "PLOSO",
  "postalCode": "59348"
 },
 {
  "id": 3319030009,
  "districtId": 3319030,
  "districtName": "JATI",
  "name": "GETAS PEJATEN",
  "postalCode": "59343"
 },
 {
  "id": 3319030010,
  "districtId": 3319030,
  "districtName": "JATI",
  "name": "LORAM WETAN",
  "postalCode": "59344"
 },
 {
  "id": 3319030011,
  "districtId": 3319030,
  "districtName": "JATI",
  "name": "JEPANG PAKIS",
  "postalCode": ""
 },
 {
  "id": 3319030012,
  "districtId": 3319030,
  "districtName": "JATI",
  "name": "MEGAWON",
  "postalCode": "59342"
 },
 {
  "id": 3319030013,
  "districtId": 3319030,
  "districtName": "JATI",
  "name": "TUMPANG KRASAK",
  "postalCode": "59349"
 },
 {
  "id": 3319030014,
  "districtId": 3319030,
  "districtName": "JATI",
  "name": "NGEMBAL KULON",
  "postalCode": "59341"
 }
]