[
 {
  "id": 3320110002,
  "districtId": 3320110,
  "districtName": "KELING",
  "name": "DAMARWULAN",
  "postalCode": "30975"
 },
 {
  "id": 3320110003,
  "districtId": 3320110,
  "districtName": "KELING",
  "name": "KUNIR",
  "postalCode": "54264"
 },
 {
  "id": 3320110004,
  "districtId": 3320110,
  "districtName": "KELING",
  "name": "WATUAJI",
  "postalCode": "59454"
 },
 {
  "id": 3320110006,
  "districtId": 3320110,
  "districtName": "KELING",
  "name": "TUNAHAN",
  "postalCode": "59454"
 },
 {
  "id": 3320110007,
  "districtId": 3320110,
  "districtName": "KELING",
  "name": "KALIGARANG",
  "postalCode": "59454"
 },
 {
  "id": 3320110008,
  "districtId": 3320110,
  "districtName": "KELING",
  "name": "KELING",
  "postalCode": "59454"
 },
 {
  "id": 3320110009,
  "districtId": 3320110,
  "districtName": "KELING",
  "name": "GELANG",
  "postalCode": "59454"
 },
 {
  "id": 3320110010,
  "districtId": 3320110,
  "districtName": "KELING",
  "name": "JLEGONG",
  "postalCode": "56258"
 },
 {
  "id": 3320110019,
  "districtId": 3320110,
  "districtName": "KELING",
  "name": "BUMIHARJO",
  "postalCode": "34767"
 }
]