[
 {
  "id": 3320100001,
  "districtId": 3320100,
  "districtName": "BANGSRI",
  "name": "GUYANGAN",
  "postalCode": "59453"
 },
 {
  "id": 3320100003,
  "districtId": 3320100,
  "districtName": "BANGSRI",
  "name": "PAPASAN",
  "postalCode": "59453"
 },
 {
  "id": 3320100009,
  "districtId": 3320100,
  "districtName": "BANGSRI",
  "name": "SRIKANDANG",
  "postalCode": "59453"
 },
 {
  "id": 3320100010,
  "districtId": 3320100,
  "districtName": "BANGSRI",
  "name": "TENGGULI",
  "postalCode": "59453"
 },
 {
  "id": 3320100011,
  "districtId": 3320100,
  "districtName": "BANGSRI",
  "name": "BANGSRI",
  "postalCode": "59453"
 },
 {
  "id": 3320100012,
  "districtId": 3320100,
  "districtName": "BANGSRI",
  "name": "BANJARAN",
  "postalCode": "35451"
 },
 {
  "id": 3320100014,
  "districtId": 3320100,
  "districtName": "BANGSRI",
  "name": "WEDELAN",
  "postalCode": "59453"
 },
 {
  "id": 3320100015,
  "districtId": 3320100,
  "districtName": "BANGSRI",
  "name": "JERUKWANGI",
  "postalCode": "59453"
 },
 {
  "id": 3320100022,
  "districtId": 3320100,
  "districtName": "BANGSRI",
  "name": "BONDO",
  "postalCode": "59453"
 },
 {
  "id": 3320100023,
  "districtId": 3320100,
  "districtName": "BANGSRI",
  "name": "BANJAR AGUNG",
  "postalCode": "32211"
 }
]