[
 {
  "id": 3320070001,
  "districtId": 3320070,
  "districtName": "TAHUNAN",
  "name": "TELUKAWUR",
  "postalCode": "59427"
 },
 {
  "id": 3320070002,
  "districtId": 3320070,
  "districtName": "TAHUNAN",
  "name": "SEMAT",
  "postalCode": "59424"
 },
 {
  "id": 3320070003,
  "districtId": 3320070,
  "districtName": "TAHUNAN",
  "name": "PLATAR",
  "postalCode": "59423"
 },
 {
  "id": 3320070004,
  "districtId": 3320070,
  "districtName": "TAHUNAN",
  "name": "MANGUNAN",
  "postalCode": "59422"
 },
 {
  "id": 3320070005,
  "districtId": 3320070,
  "districtName": "TAHUNAN",
  "name": "PETEKEYAN",
  "postalCode": "59423"
 },
 {
  "id": 3320070006,
  "districtId": 3320070,
  "districtName": "TAHUNAN",
  "name": "SUKODONO",
  "postalCode": "59552"
 },
 {
  "id": 3320070007,
  "districtId": 3320070,
  "districtName": "TAHUNAN",
  "name": "LANGON",
  "postalCode": "59425"
 },
 {
  "id": 3320070008,
  "districtId": 3320070,
  "districtName": "TAHUNAN",
  "name": "NGABUL",
  "postalCode": "59428"
 },
 {
  "id": 3320070009,
  "districtId": 3320070,
  "districtName": "TAHUNAN",
  "name": "TAHUNAN",
  "postalCode": "58183"
 },
 {
  "id": 3320070010,
  "districtId": 3320070,
  "districtName": "TAHUNAN",
  "name": "MANTINGAN",
  "postalCode": "59255"
 },
 {
  "id": 3320070011,
  "districtId": 3320070,
  "districtName": "TAHUNAN",
  "name": "DEMANGAN",
  "postalCode": "57464"
 },
 {
  "id": 3320070012,
  "districtId": 3320070,
  "districtName": "TAHUNAN",
  "name": "TEGALSAMBI",
  "postalCode": "59427"
 },
 {
  "id": 3320070013,
  "districtId": 3320070,
  "districtName": "TAHUNAN",
  "name": "KRAPYAK",
  "postalCode": "50146"
 },
 {
  "id": 3320070014,
  "districtId": 3320070,
  "districtName": "TAHUNAN",
  "name": "SENENAN",
  "postalCode": "59426"
 },
 {
  "id": 3320070015,
  "districtId": 3320070,
  "districtName": "TAHUNAN",
  "name": "KECAPI",
  "postalCode": "35551"
 }
]