[
 {
  "id": 3321090008,
  "districtId": 3321090,
  "districtName": "DEMPET",
  "name": "MERAK",
  "postalCode": "59573"
 },
 {
  "id": 3321090009,
  "districtId": 3321090,
  "districtName": "DEMPET",
  "name": "KARANGREJO",
  "postalCode": "35387"
 },
 {
  "id": 3321090016,
  "districtId": 3321090,
  "districtName": "DEMPET",
  "name": "BOTOSENGON",
  "postalCode": "59573"
 },
 {
  "id": 3321090018,
  "districtId": 3321090,
  "districtName": "DEMPET",
  "name": "BALEROMO",
  "postalCode": "59573"
 },
 {
  "id": 3321090020,
  "districtId": 3321090,
  "districtName": "DEMPET",
  "name": "KUNIR",
  "postalCode": "54264"
 },
 {
  "id": 3321090021,
  "districtId": 3321090,
  "districtName": "DEMPET",
  "name": "BRAKAS",
  "postalCode": "59573"
 },
 {
  "id": 3321090022,
  "districtId": 3321090,
  "districtName": "DEMPET",
  "name": "BALEREJO",
  "postalCode": "59573"
 },
 {
  "id": 3321090023,
  "districtId": 3321090,
  "districtName": "DEMPET",
  "name": "SIDOMULYO",
  "postalCode": "21455"
 },
 {
  "id": 3321090024,
  "districtId": 3321090,
  "districtName": "DEMPET",
  "name": "GEMPOLDENOK",
  "postalCode": "59573"
 },
 {
  "id": 3321090025,
  "districtId": 3321090,
  "districtName": "DEMPET",
  "name": "KEBONSARI",
  "postalCode": "56553"
 },
 {
  "id": 3321090026,
  "districtId": 3321090,
  "districtName": "DEMPET",
  "name": "KEDUNGORI",
  "postalCode": "59573"
 },
 {
  "id": 3321090029,
  "districtId": 3321090,
  "districtName": "DEMPET",
  "name": "KRAMAT",
  "postalCode": "10450"
 },
 {
  "id": 3321090030,
  "districtId": 3321090,
  "districtName": "DEMPET",
  "name": "HARJOWINANGUN",
  "postalCode": "52464"
 }
]