[
 {
  "id": 3321040001,
  "districtId": 3321040,
  "districtName": "SAYUNG",
  "name": "JETAKSARI",
  "postalCode": "58181"
 },
 {
  "id": 3321040002,
  "districtId": 3321040,
  "districtName": "SAYUNG",
  "name": "DOMBO",
  "postalCode": "59563"
 },
 {
  "id": 3321040003,
  "districtId": 3321040,
  "districtName": "SAYUNG",
  "name": "BULUSARI",
  "postalCode": "34161"
 },
 {
  "id": 3321040004,
  "districtId": 3321040,
  "districtName": "SAYUNG",
  "name": "PERAMPELAN",
  "postalCode": "59563"
 },
 {
  "id": 3321040005,
  "districtId": 3321040,
  "districtName": "SAYUNG",
  "name": "KARANGASEM",
  "postalCode": "45186"
 },
 {
  "id": 3321040006,
  "districtId": 3321040,
  "districtName": "SAYUNG",
  "name": "KALISARI",
  "postalCode": "35686"
 },
 {
  "id": 3321040007,
  "districtId": 3321040,
  "districtName": "SAYUNG",
  "name": "SAYUNG",
  "postalCode": "59563"
 },
 {
  "id": 3321040008,
  "districtId": 3321040,
  "districtName": "SAYUNG",
  "name": "TAMBAKROTO",
  "postalCode": "51161"
 },
 {
  "id": 3321040009,
  "districtId": 3321040,
  "districtName": "SAYUNG",
  "name": "PILANGSARI",
  "postalCode": "45273"
 },
 {
  "id": 3321040010,
  "districtId": 3321040,
  "districtName": "SAYUNG",
  "name": "LOIRENG",
  "postalCode": "59563"
 },
 {
  "id": 3321040011,
  "districtId": 3321040,
  "districtName": "SAYUNG",
  "name": "GEMULAK",
  "postalCode": "59563"
 },
 {
  "id": 3321040012,
  "districtId": 3321040,
  "districtName": "SAYUNG",
  "name": "SIDOGEMAH",
  "postalCode": "59563"
 },
 {
  "id": 3321040013,
  "districtId": 3321040,
  "districtName": "SAYUNG",
  "name": "PURWOSARI",
  "postalCode": "24582"
 },
 {
  "id": 3321040014,
  "districtId": 3321040,
  "districtName": "SAYUNG",
  "name": "SRIWULAN",
  "postalCode": "51383"
 },
 {
  "id": 3321040015,
  "districtId": 3321040,
  "districtName": "SAYUNG",
  "name": "BEDONO",
  "postalCode": "50663"
 },
 {
  "id": 3321040016,
  "districtId": 3321040,
  "districtName": "SAYUNG",
  "name": "TIMBULSLOKO",
  "postalCode": "59563"
 },
 {
  "id": 3321040018,
  "districtId": 3321040,
  "districtName": "SAYUNG",
  "name": "SIDOREJO",
  "postalCode": "24784"
 },
 {
  "id": 3321040019,
  "districtId": 3321040,
  "districtName": "SAYUNG",
  "name": "BANJARSARI",
  "postalCode": "35377"
 },
 {
  "id": 3321040020,
  "districtId": 3321040,
  "districtName": "SAYUNG",
  "name": "SURODADI",
  "postalCode": "31662"
 }
]