[
 {
  "id": 3322100001,
  "districtId": 3322100,
  "districtName": "AMBARAWA",
  "name": "NGAMPIN",
  "postalCode": "50614"
 },
 {
  "id": 3322100002,
  "districtId": 3322100,
  "districtName": "AMBARAWA",
  "name": "POJOKSARI",
  "postalCode": "50614"
 },
 {
  "id": 3322100003,
  "districtId": 3322100,
  "districtName": "AMBARAWA",
  "name": "BEJALEN",
  "postalCode": "50614"
 },
 {
  "id": 3322100004,
  "districtId": 3322100,
  "districtName": "AMBARAWA",
  "name": "TAMBAKBOYO",
  "postalCode": "50612"
 },
 {
  "id": 3322100005,
  "districtId": 3322100,
  "districtName": "AMBARAWA",
  "name": "KUPANG",
  "postalCode": "31461"
 },
 {
  "id": 3322100006,
  "districtId": 3322100,
  "districtName": "AMBARAWA",
  "name": "LODOYONG",
  "postalCode": "50611"
 },
 {
  "id": 3322100007,
  "districtId": 3322100,
  "districtName": "AMBARAWA",
  "name": "KRANGGAN",
  "postalCode": "50613"
 },
 {
  "id": 3322100008,
  "districtId": 3322100,
  "districtName": "AMBARAWA",
  "name": "PANJANG",
  "postalCode": "21254"
 },
 {
  "id": 3322100009,
  "districtId": 3322100,
  "districtName": "AMBARAWA",
  "name": "PASEKAN",
  "postalCode": "45228"
 },
 {
  "id": 3322100010,
  "districtId": 3322100,
  "districtName": "AMBARAWA",
  "name": "BARAN",
  "postalCode": "29873"
 }
]