[
 {
  "id": 3322010001,
  "districtId": 3322010,
  "districtName": "GETASAN",
  "name": "KOPENG",
  "postalCode": "50774"
 },
 {
  "id": 3322010002,
  "districtId": 3322010,
  "districtName": "GETASAN",
  "name": "BATUR",
  "postalCode": "53456"
 },
 {
  "id": 3322010003,
  "districtId": 3322010,
  "districtName": "GETASAN",
  "name": "TAJUK",
  "postalCode": "50774"
 },
 {
  "id": 3322010004,
  "districtId": 3322010,
  "districtName": "GETASAN",
  "name": "JETAK",
  "postalCode": "50774"
 },
 {
  "id": 3322010005,
  "districtId": 3322010,
  "districtName": "GETASAN",
  "name": "SAMIRONO",
  "postalCode": "50774"
 },
 {
  "id": 3322010006,
  "districtId": 3322010,
  "districtName": "GETASAN",
  "name": "SUMOGAWE",
  "postalCode": "50774"
 },
 {
  "id": 3322010007,
  "districtId": 3322010,
  "districtName": "GETASAN",
  "name": "POLOBOGO",
  "postalCode": "50774"
 },
 {
  "id": 3322010008,
  "districtId": 3322010,
  "districtName": "GETASAN",
  "name": "MANGGIHAN",
  "postalCode": "50774"
 },
 {
  "id": 3322010009,
  "districtId": 3322010,
  "districtName": "GETASAN",
  "name": "GETASAN",
  "postalCode": "45155"
 },
 {
  "id": 3322010010,
  "districtId": 3322010,
  "districtName": "GETASAN",
  "name": "WATES",
  "postalCode": "32273"
 },
 {
  "id": 3322010011,
  "districtId": 3322010,
  "districtName": "GETASAN",
  "name": "TOLOKAN",
  "postalCode": "50774"
 },
 {
  "id": 3322010012,
  "districtId": 3322010,
  "districtName": "GETASAN",
  "name": "NGRAWAN",
  "postalCode": "50774"
 },
 {
  "id": 3322010013,
  "districtId": 3322010,
  "districtName": "GETASAN",
  "name": "NOGOSAREN",
  "postalCode": "50774"
 }
]