[
 {
  "id": 3322020001,
  "districtId": 3322020,
  "districtName": "TENGARAN",
  "name": "TENGARAN",
  "postalCode": "50775"
 },
 {
  "id": 3322020002,
  "districtId": 3322020,
  "districtName": "TENGARAN",
  "name": "TEGALREJO",
  "postalCode": "50733"
 },
 {
  "id": 3322020004,
  "districtId": 3322020,
  "districtName": "TENGARAN",
  "name": "SUGIHAN",
  "postalCode": "32272"
 },
 {
  "id": 3322020007,
  "districtId": 3322020,
  "districtName": "TENGARAN",
  "name": "CUKIL",
  "postalCode": "50775"
 },
 {
  "id": 3322020008,
  "districtId": 3322020,
  "districtName": "TENGARAN",
  "name": "KLERO",
  "postalCode": "50775"
 },
 {
  "id": 3322020010,
  "districtId": 3322020,
  "districtName": "TENGARAN",
  "name": "PATEMON",
  "postalCode": "53362"
 },
 {
  "id": 3322020011,
  "districtId": 3322020,
  "districtName": "TENGARAN",
  "name": "KARANGDUREN",
  "postalCode": "53353"
 },
 {
  "id": 3322020013,
  "districtId": 3322020,
  "districtName": "TENGARAN",
  "name": "TEGALWATON",
  "postalCode": "50775"
 },
 {
  "id": 3322020014,
  "districtId": 3322020,
  "districtName": "TENGARAN",
  "name": "BARUKAN",
  "postalCode": "57485"
 },
 {
  "id": 3322020015,
  "districtId": 3322020,
  "districtName": "TENGARAN",
  "name": "NYAMAT",
  "postalCode": "50775"
 }
]