[
 {
  "id": 3322060001,
  "districtId": 3322060,
  "districtName": "TUNTANG",
  "name": "KALIBEJI",
  "postalCode": "54421"
 },
 {
  "id": 3322060002,
  "districtId": 3322060,
  "districtName": "TUNTANG",
  "name": "GEDANGAN",
  "postalCode": "21264"
 },
 {
  "id": 3322060003,
  "districtId": 3322060,
  "districtName": "TUNTANG",
  "name": "SRATEN",
  "postalCode": "57557"
 },
 {
  "id": 3322060004,
  "districtId": 3322060,
  "districtName": "TUNTANG",
  "name": "ROWOSARI",
  "postalCode": "54395"
 },
 {
  "id": 3322060005,
  "districtId": 3322060,
  "districtName": "TUNTANG",
  "name": "JOMBOR",
  "postalCode": "57521"
 },
 {
  "id": 3322060006,
  "districtId": 3322060,
  "districtName": "TUNTANG",
  "name": "CANDIREJO",
  "postalCode": "51274"
 },
 {
  "id": 3322060007,
  "districtId": 3322060,
  "districtName": "TUNTANG",
  "name": "KESONGO",
  "postalCode": "50773"
 },
 {
  "id": 3322060008,
  "districtId": 3322060,
  "districtName": "TUNTANG",
  "name": "WATUAGUNG",
  "postalCode": "57673"
 },
 {
  "id": 3322060009,
  "districtId": 3322060,
  "districtName": "TUNTANG",
  "name": "LOPAIT",
  "postalCode": "50773"
 },
 {
  "id": 3322060010,
  "districtId": 3322060,
  "districtName": "TUNTANG",
  "name": "TUNTANG",
  "postalCode": "50773"
 },
 {
  "id": 3322060011,
  "districtId": 3322060,
  "districtName": "TUNTANG",
  "name": "DELIK",
  "postalCode": "28353"
 },
 {
  "id": 3322060012,
  "districtId": 3322060,
  "districtName": "TUNTANG",
  "name": "TLOGO",
  "postalCode": "56353"
 },
 {
  "id": 3322060013,
  "districtId": 3322060,
  "districtName": "TUNTANG",
  "name": "KARANGTENGAH",
  "postalCode": "43351"
 },
 {
  "id": 3322060014,
  "districtId": 3322060,
  "districtName": "TUNTANG",
  "name": "KARANGANYAR",
  "postalCode": "40241"
 },
 {
  "id": 3322060015,
  "districtId": 3322060,
  "districtName": "TUNTANG",
  "name": "TLOMPAKAN",
  "postalCode": "50773"
 },
 {
  "id": 3322060016,
  "districtId": 3322060,
  "districtName": "TUNTANG",
  "name": "NGAJARAN",
  "postalCode": "59265"
 }
]