[
 {
  "id": 3323041001,
  "districtId": 3323041,
  "districtName": "SELOPAMPANG",
  "name": "TANGGULANOM",
  "postalCode": "56262"
 },
 {
  "id": 3323041002,
  "districtId": 3323041,
  "districtName": "SELOPAMPANG",
  "name": "JETIS",
  "postalCode": "57556"
 },
 {
  "id": 3323041003,
  "districtId": 3323041,
  "districtName": "SELOPAMPANG",
  "name": "NGADITIRTO",
  "postalCode": "56262"
 },
 {
  "id": 3323041004,
  "districtId": 3323041,
  "districtName": "SELOPAMPANG",
  "name": "BULAN",
  "postalCode": "56262"
 },
 {
  "id": 3323041005,
  "districtId": 3323041,
  "districtName": "SELOPAMPANG",
  "name": "SALAMREJO",
  "postalCode": "56262"
 },
 {
  "id": 3323041006,
  "districtId": 3323041,
  "districtName": "SELOPAMPANG",
  "name": "SELOPAMPANG",
  "postalCode": "56262"
 },
 {
  "id": 3323041007,
  "districtId": 3323041,
  "districtName": "SELOPAMPANG",
  "name": "KACEPIT",
  "postalCode": ""
 },
 {
  "id": 3323041008,
  "districtId": 3323041,
  "districtName": "SELOPAMPANG",
  "name": "GAMBASAN",
  "postalCode": "56262"
 },
 {
  "id": 3323041009,
  "districtId": 3323041,
  "districtName": "SELOPAMPANG",
  "name": "KEBONAGUNG",
  "postalCode": "56151"
 },
 {
  "id": 3323041010,
  "districtId": 3323041,
  "districtName": "SELOPAMPANG",
  "name": "BAGUSAN",
  "postalCode": "56254"
 },
 {
  "id": 3323041011,
  "districtId": 3323041,
  "districtName": "SELOPAMPANG",
  "name": "PLUMBON",
  "postalCode": "45215"
 },
 {
  "id": 3323041012,
  "districtId": 3323041,
  "districtName": "SELOPAMPANG",
  "name": "BUMIAYU",
  "postalCode": "31314"
 }
]