[
 {
  "id": 3323011001,
  "districtId": 3323011,
  "districtName": "KLEDUNG",
  "name": "BATURSARI",
  "postalCode": "59186"
 },
 {
  "id": 3323011003,
  "districtId": 3323011,
  "districtName": "KLEDUNG",
  "name": "JAMBU",
  "postalCode": "20998"
 },
 {
  "id": 3323011004,
  "districtId": 3323011,
  "districtName": "KLEDUNG",
  "name": "CANGGAL",
  "postalCode": "56257"
 },
 {
  "id": 3323011005,
  "districtId": 3323011,
  "districtName": "KLEDUNG",
  "name": "KRUWISAN",
  "postalCode": "56264"
 },
 {
  "id": 3323011006,
  "districtId": 3323011,
  "districtName": "KLEDUNG",
  "name": "PETARANGAN",
  "postalCode": "53194"
 },
 {
  "id": 3323011007,
  "districtId": 3323011,
  "districtName": "KLEDUNG",
  "name": "TLAHAP",
  "postalCode": "56264"
 },
 {
  "id": 3323011008,
  "districtId": 3323011,
  "districtName": "KLEDUNG",
  "name": "KWADUNGAN JURANG",
  "postalCode": "56264"
 },
 {
  "id": 3323011009,
  "districtId": 3323011,
  "districtName": "KLEDUNG",
  "name": "KWADUNGAN GUNUNG",
  "postalCode": "56264"
 },
 {
  "id": 3323011010,
  "districtId": 3323011,
  "districtName": "KLEDUNG",
  "name": "JEKETRO",
  "postalCode": "58164"
 },
 {
  "id": 3323011011,
  "districtId": 3323011,
  "districtName": "KLEDUNG",
  "name": "TUKSARI",
  "postalCode": "56264"
 },
 {
  "id": 3323011012,
  "districtId": 3323011,
  "districtName": "KLEDUNG",
  "name": "PAPONAN",
  "postalCode": "56264"
 },
 {
  "id": 3323011013,
  "districtId": 3323011,
  "districtName": "KLEDUNG",
  "name": "KALIREJO",
  "postalCode": "35353"
 }
]