[
 {
  "id": 3324111001,
  "districtId": 3324111,
  "districtName": "RINGINARUM",
  "name": "NGERJO",
  "postalCode": "51356"
 },
 {
  "id": 3324111002,
  "districtId": 3324111,
  "districtName": "RINGINARUM",
  "name": "KEDUNGASRI",
  "postalCode": "51356"
 },
 {
  "id": 3324111003,
  "districtId": 3324111,
  "districtName": "RINGINARUM",
  "name": "KEDUNGGADING",
  "postalCode": "51356"
 },
 {
  "id": 3324111004,
  "districtId": 3324111,
  "districtName": "RINGINARUM",
  "name": "RINGINARUM",
  "postalCode": "51356"
 },
 {
  "id": 3324111005,
  "districtId": 3324111,
  "districtName": "RINGINARUM",
  "name": "TEJOREJO",
  "postalCode": "51356"
 },
 {
  "id": 3324111006,
  "districtId": 3324111,
  "districtName": "RINGINARUM",
  "name": "NGAWENSARI",
  "postalCode": "51356"
 },
 {
  "id": 3324111007,
  "districtId": 3324111,
  "districtName": "RINGINARUM",
  "name": "WUNGUREJO",
  "postalCode": "51356"
 },
 {
  "id": 3324111008,
  "districtId": 3324111,
  "districtName": "RINGINARUM",
  "name": "ROWOBRANTEN",
  "postalCode": "51356"
 },
 {
  "id": 3324111009,
  "districtId": 3324111,
  "districtName": "RINGINARUM",
  "name": "MOJO",
  "postalCode": "57384"
 },
 {
  "id": 3324111010,
  "districtId": 3324111,
  "districtName": "RINGINARUM",
  "name": "PURWOREJO",
  "postalCode": "23661"
 },
 {
  "id": 3324111011,
  "districtId": 3324111,
  "districtName": "RINGINARUM",
  "name": "PAGERDAWUNG",
  "postalCode": "51356"
 },
 {
  "id": 3324111012,
  "districtId": 3324111,
  "districtName": "RINGINARUM",
  "name": "CARUBAN",
  "postalCode": "54363"
 }
]