[
 {
  "id": 3324080007,
  "districtId": 3324080,
  "districtName": "KALIWUNGU",
  "name": "KUMPUL REJO",
  "postalCode": "32361"
 },
 {
  "id": 3324080008,
  "districtId": 3324080,
  "districtName": "KALIWUNGU",
  "name": "KARANGTENGAH",
  "postalCode": "43351"
 },
 {
  "id": 3324080009,
  "districtId": 3324080,
  "districtName": "KALIWUNGU",
  "name": "SARIREJO",
  "postalCode": "58262"
 },
 {
  "id": 3324080010,
  "districtId": 3324080,
  "districtName": "KALIWUNGU",
  "name": "KRAJAN KULON",
  "postalCode": ""
 },
 {
  "id": 3324080011,
  "districtId": 3324080,
  "districtName": "KALIWUNGU",
  "name": "KUTOHARJO",
  "postalCode": "51372"
 },
 {
  "id": 3324080012,
  "districtId": 3324080,
  "districtName": "KALIWUNGU",
  "name": "NOLOKERTO",
  "postalCode": "51372"
 },
 {
  "id": 3324080013,
  "districtId": 3324080,
  "districtName": "KALIWUNGU",
  "name": "SUMBEREJO",
  "postalCode": "20551"
 },
 {
  "id": 3324080014,
  "districtId": 3324080,
  "districtName": "KALIWUNGU",
  "name": "MOROREJO",
  "postalCode": "51372"
 },
 {
  "id": 3324080015,
  "districtId": 3324080,
  "districtName": "KALIWUNGU",
  "name": "WONOREJO",
  "postalCode": "21186"
 }
]