[
 {
  "id": 3324090001,
  "districtId": 3324090,
  "districtName": "BRANGSONG",
  "name": "TUNGGULSARI",
  "postalCode": "51371"
 },
 {
  "id": 3324090003,
  "districtId": 3324090,
  "districtName": "BRANGSONG",
  "name": "PENJALIN",
  "postalCode": "51371"
 },
 {
  "id": 3324090004,
  "districtId": 3324090,
  "districtName": "BRANGSONG",
  "name": "KERTOMULYO",
  "postalCode": "51371"
 },
 {
  "id": 3324090005,
  "districtId": 3324090,
  "districtName": "BRANGSONG",
  "name": "BLOROK",
  "postalCode": "51371"
 },
 {
  "id": 3324090006,
  "districtId": 3324090,
  "districtName": "BRANGSONG",
  "name": "SIDOREJO",
  "postalCode": "24784"
 },
 {
  "id": 3324090007,
  "districtId": 3324090,
  "districtName": "BRANGSONG",
  "name": "TOSARI",
  "postalCode": "51371"
 },
 {
  "id": 3324090008,
  "districtId": 3324090,
  "districtName": "BRANGSONG",
  "name": "REJOSARI",
  "postalCode": "29353"
 },
 {
  "id": 3324090009,
  "districtId": 3324090,
  "districtName": "BRANGSONG",
  "name": "TURUNREJO",
  "postalCode": "51371"
 },
 {
  "id": 3324090010,
  "districtId": 3324090,
  "districtName": "BRANGSONG",
  "name": "PURWOKERTO",
  "postalCode": "51371"
 },
 {
  "id": 3324090011,
  "districtId": 3324090,
  "districtName": "BRANGSONG",
  "name": "BRANGSONG",
  "postalCode": "51371"
 },
 {
  "id": 3324090012,
  "districtId": 3324090,
  "districtName": "BRANGSONG",
  "name": "KEBON ADEM",
  "postalCode": "51371"
 }
]