[
 {
  "id": 3325091002,
  "districtId": 3325091,
  "districtName": "PECALUNGAN",
  "name": "SIGUCI",
  "postalCode": "20363"
 },
 {
  "id": 3325091003,
  "districtId": 3325091,
  "districtName": "PECALUNGAN",
  "name": "SELOKARTO",
  "postalCode": "51262"
 },
 {
  "id": 3325091005,
  "districtId": 3325091,
  "districtName": "PECALUNGAN",
  "name": "GUMAWANG",
  "postalCode": "32382"
 },
 {
  "id": 3325091006,
  "districtId": 3325091,
  "districtName": "PECALUNGAN",
  "name": "KENITEN",
  "postalCode": "53152"
 },
 {
  "id": 3325091007,
  "districtId": 3325091,
  "districtName": "PECALUNGAN",
  "name": "RANDU",
  "postalCode": "51262"
 },
 {
  "id": 3325091008,
  "districtId": 3325091,
  "districtName": "PECALUNGAN",
  "name": "GOMBONG",
  "postalCode": "46156"
 },
 {
  "id": 3325091009,
  "districtId": 3325091,
  "districtName": "PECALUNGAN",
  "name": "PECALUNGAN",
  "postalCode": "51262"
 },
 {
  "id": 3325091010,
  "districtId": 3325091,
  "districtName": "PECALUNGAN",
  "name": "BANDUNG",
  "postalCode": "54317"
 }
]