[
 {
  "id": 3325070005,
  "districtId": 3325070,
  "districtName": "GRINGSING",
  "name": "SURODADI",
  "postalCode": "31662"
 },
 {
  "id": 3325070008,
  "districtId": 3325070,
  "districtName": "GRINGSING",
  "name": "KUTOSARI",
  "postalCode": "32385"
 },
 {
  "id": 3325070009,
  "districtId": 3325070,
  "districtName": "GRINGSING",
  "name": "MENTOSARI",
  "postalCode": "51281"
 },
 {
  "id": 3325070010,
  "districtId": 3325070,
  "districtName": "GRINGSING",
  "name": "GRINGSING",
  "postalCode": "51281"
 },
 {
  "id": 3325070011,
  "districtId": 3325070,
  "districtName": "GRINGSING",
  "name": "LEBO",
  "postalCode": "51281"
 },
 {
  "id": 3325070013,
  "districtId": 3325070,
  "districtName": "GRINGSING",
  "name": "KEBONDALEM",
  "postalCode": "53471"
 },
 {
  "id": 3325070014,
  "districtId": 3325070,
  "districtName": "GRINGSING",
  "name": "YOSOREJO",
  "postalCode": "34112"
 },
 {
  "id": 3325070015,
  "districtId": 3325070,
  "districtName": "GRINGSING",
  "name": "SIDOREJO",
  "postalCode": "24784"
 },
 {
  "id": 3325070016,
  "districtId": 3325070,
  "districtName": "GRINGSING",
  "name": "SAWANGAN",
  "postalCode": "41272"
 },
 {
  "id": 3325070017,
  "districtId": 3325070,
  "districtName": "GRINGSING",
  "name": "KETANGGAN",
  "postalCode": "59162"
 },
 {
  "id": 3325070018,
  "districtId": 3325070,
  "districtName": "GRINGSING",
  "name": "MADUGOWONGJATI",
  "postalCode": "51272"
 },
 {
  "id": 3325070019,
  "districtId": 3325070,
  "districtName": "GRINGSING",
  "name": "TEDUNAN",
  "postalCode": "38875"
 }
]