[
 {
  "id": 3326050001,
  "districtId": 3326050,
  "districtName": "TALUN",
  "name": "MESOYI",
  "postalCode": "51192"
 },
 {
  "id": 3326050002,
  "districtId": 3326050,
  "districtName": "TALUN",
  "name": "JOLOTIGO",
  "postalCode": "51192"
 },
 {
  "id": 3326050003,
  "districtId": 3326050,
  "districtName": "TALUN",
  "name": "SENGARE",
  "postalCode": "51192"
 },
 {
  "id": 3326050004,
  "districtId": 3326050,
  "districtName": "TALUN",
  "name": "DONOWANGUN",
  "postalCode": "51192"
 },
 {
  "id": 3326050005,
  "districtId": 3326050,
  "districtName": "TALUN",
  "name": "TALUN",
  "postalCode": "40384"
 },
 {
  "id": 3326050006,
  "districtId": 3326050,
  "districtName": "TALUN",
  "name": "BANJARSARI",
  "postalCode": "35377"
 },
 {
  "id": 3326050007,
  "districtId": 3326050,
  "districtName": "TALUN",
  "name": "KALIREJO",
  "postalCode": "35353"
 },
 {
  "id": 3326050008,
  "districtId": 3326050,
  "districtName": "TALUN",
  "name": "BATURSARI",
  "postalCode": "59186"
 },
 {
  "id": 3326050009,
  "districtId": 3326050,
  "districtName": "TALUN",
  "name": "KARANGASEM",
  "postalCode": "45186"
 },
 {
  "id": 3326050010,
  "districtId": 3326050,
  "districtName": "TALUN",
  "name": "KROMPENG",
  "postalCode": "51192"
 }
]