[
 {
  "id": 3326100001,
  "districtId": 3326100,
  "districtName": "SRAGI",
  "name": "KETANON AGENG",
  "postalCode": "51155"
 },
 {
  "id": 3326100002,
  "districtId": 3326100,
  "districtName": "SRAGI",
  "name": "MRICAN",
  "postalCode": "51155"
 },
 {
  "id": 3326100003,
  "districtId": 3326100,
  "districtName": "SRAGI",
  "name": "BULAKSARI",
  "postalCode": "53281"
 },
 {
  "id": 3326100004,
  "districtId": 3326100,
  "districtName": "SRAGI",
  "name": "SUMUB LOR",
  "postalCode": "51155"
 },
 {
  "id": 3326100005,
  "districtId": 3326100,
  "districtName": "SRAGI",
  "name": "SUMUB KIDUL",
  "postalCode": "51155"
 },
 {
  "id": 3326100006,
  "districtId": 3326100,
  "districtName": "SRAGI",
  "name": "KALIJAMBE",
  "postalCode": "54183"
 },
 {
  "id": 3326100007,
  "districtId": 3326100,
  "districtName": "SRAGI",
  "name": "PURWOREJO",
  "postalCode": "23661"
 },
 {
  "id": 3326100008,
  "districtId": 3326100,
  "districtName": "SRAGI",
  "name": "KEDUNGJARAN",
  "postalCode": "51155"
 },
 {
  "id": 3326100009,
  "districtId": 3326100,
  "districtName": "SRAGI",
  "name": "KLUNJUKAN",
  "postalCode": "51155"
 },
 {
  "id": 3326100010,
  "districtId": 3326100,
  "districtName": "SRAGI",
  "name": "GEBANGKEREP",
  "postalCode": "51155"
 },
 {
  "id": 3326100011,
  "districtId": 3326100,
  "districtName": "SRAGI",
  "name": "PURWODADI",
  "postalCode": "24652"
 },
 {
  "id": 3326100012,
  "districtId": 3326100,
  "districtName": "SRAGI",
  "name": "BULAK PELEM",
  "postalCode": "51155"
 },
 {
  "id": 3326100013,
  "districtId": 3326100,
  "districtName": "SRAGI",
  "name": "TEGAL SURUH",
  "postalCode": "51155"
 },
 {
  "id": 3326100014,
  "districtId": 3326100,
  "districtName": "SRAGI",
  "name": "KRASAKAGENG",
  "postalCode": "51155"
 },
 {
  "id": 3326100015,
  "districtId": 3326100,
  "districtName": "SRAGI",
  "name": "SIJERUK",
  "postalCode": "53452"
 },
 {
  "id": 3326100016,
  "districtId": 3326100,
  "districtName": "SRAGI",
  "name": "SRAGI",
  "postalCode": "51155"
 },
 {
  "id": 3326100017,
  "districtId": 3326100,
  "districtName": "SRAGI",
  "name": "TEGALONTAR",
  "postalCode": "51155"
 }
]