[
 {
  "id": 3326070001,
  "districtId": 3326070,
  "districtName": "KARANGANYAR",
  "name": "GUTOMO",
  "postalCode": "51182"
 },
 {
  "id": 3326070002,
  "districtId": 3326070,
  "districtName": "KARANGANYAR",
  "name": "LIMBANGAN",
  "postalCode": "45282"
 },
 {
  "id": 3326070003,
  "districtId": 3326070,
  "districtName": "KARANGANYAR",
  "name": "KARANG GONDANG",
  "postalCode": "51182"
 },
 {
  "id": 3326070004,
  "districtId": 3326070,
  "districtName": "KARANGANYAR",
  "name": "LOLONG",
  "postalCode": "51182"
 },
 {
  "id": 3326070005,
  "districtId": 3326070,
  "districtName": "KARANGANYAR",
  "name": "PEDAWANG",
  "postalCode": "59324"
 },
 {
  "id": 3326070006,
  "districtId": 3326070,
  "districtName": "KARANGANYAR",
  "name": "PODODADI",
  "postalCode": "51182"
 },
 {
  "id": 3326070007,
  "districtId": 3326070,
  "districtName": "KARANGANYAR",
  "name": "LEGOK KALONG",
  "postalCode": "51182"
 },
 {
  "id": 3326070008,
  "districtId": 3326070,
  "districtName": "KARANGANYAR",
  "name": "KARANGSARI",
  "postalCode": "35376"
 },
 {
  "id": 3326070010,
  "districtId": 3326070,
  "districtName": "KARANGANYAR",
  "name": "BANJAREJO",
  "postalCode": "35373"
 },
 {
  "id": 3326070011,
  "districtId": 3326070,
  "districtName": "KARANGANYAR",
  "name": "WONOSARI",
  "postalCode": "24582"
 },
 {
  "id": 3326070012,
  "districtId": 3326070,
  "districtName": "KARANGANYAR",
  "name": "SUKOSARI",
  "postalCode": "32382"
 },
 {
  "id": 3326070013,
  "districtId": 3326070,
  "districtName": "KARANGANYAR",
  "name": "SIDOMUKTI",
  "postalCode": "21217"
 },
 {
  "id": 3326070014,
  "districtId": 3326070,
  "districtName": "KARANGANYAR",
  "name": "KAYUGERITAN",
  "postalCode": "51182"
 },
 {
  "id": 3326070015,
  "districtId": 3326070,
  "districtName": "KARANGANYAR",
  "name": "KUTOSARI",
  "postalCode": "32385"
 }
]