[
 {
  "id": 3326130001,
  "districtId": 3326130,
  "districtName": "KEDUNGWUNI",
  "name": "ROWOCACING",
  "postalCode": "51173"
 },
 {
  "id": 3326130002,
  "districtId": 3326130,
  "districtName": "KEDUNGWUNI",
  "name": "LANGKAP",
  "postalCode": "30755"
 },
 {
  "id": 3326130010,
  "districtId": 3326130,
  "districtName": "KEDUNGWUNI",
  "name": "PAJOMBLANGAN",
  "postalCode": "51173"
 },
 {
  "id": 3326130011,
  "districtId": 3326130,
  "districtName": "KEDUNGWUNI",
  "name": "TOSARAN",
  "postalCode": "51173"
 },
 {
  "id": 3326130012,
  "districtId": 3326130,
  "districtName": "KEDUNGWUNI",
  "name": "PAKISPUTIH",
  "postalCode": "51173"
 },
 {
  "id": 3326130013,
  "districtId": 3326130,
  "districtName": "KEDUNGWUNI",
  "name": "KEDUNG PATANGEWU",
  "postalCode": "51173"
 },
 {
  "id": 3326130015,
  "districtId": 3326130,
  "districtName": "KEDUNGWUNI",
  "name": "PODO",
  "postalCode": "51173"
 },
 {
  "id": 3326130016,
  "districtId": 3326130,
  "districtName": "KEDUNGWUNI",
  "name": "KWAYANGAN",
  "postalCode": "51173"
 },
 {
  "id": 3326130017,
  "districtId": 3326130,
  "districtName": "KEDUNGWUNI",
  "name": "PROTO",
  "postalCode": "51173"
 },
 {
  "id": 3326130022,
  "districtId": 3326130,
  "districtName": "KEDUNGWUNI",
  "name": "SALAKBROJO",
  "postalCode": "51173"
 },
 {
  "id": 3326130023,
  "districtId": 3326130,
  "districtName": "KEDUNGWUNI",
  "name": "AMBOKEMBANG",
  "postalCode": "51173"
 },
 {
  "id": 3326130024,
  "districtId": 3326130,
  "districtName": "KEDUNGWUNI",
  "name": "PEKAJANGAN",
  "postalCode": "51173"
 },
 {
  "id": 3326130025,
  "districtId": 3326130,
  "districtName": "KEDUNGWUNI",
  "name": "TANGKIL TENGAH",
  "postalCode": "51173"
 },
 {
  "id": 3326130026,
  "districtId": 3326130,
  "districtName": "KEDUNGWUNI",
  "name": "TANGKIL KULON",
  "postalCode": "51173"
 },
 {
  "id": 3326130027,
  "districtId": 3326130,
  "districtName": "KEDUNGWUNI",
  "name": "KARANGDOWO",
  "postalCode": "57464"
 },
 {
  "id": 3326130028,
  "districtId": 3326130,
  "districtName": "KEDUNGWUNI",
  "name": "BUGANGAN",
  "postalCode": "50126"
 },
 {
  "id": 3326130029,
  "districtId": 3326130,
  "districtName": "KEDUNGWUNI",
  "name": "RENGAS",
  "postalCode": "34162"
 },
 {
  "id": 3326130030,
  "districtId": 3326130,
  "districtName": "KEDUNGWUNI",
  "name": "KEDUNGWUNI BARAT",
  "postalCode": "51173"
 },
 {
  "id": 3326130031,
  "districtId": 3326130,
  "districtName": "KEDUNGWUNI",
  "name": "KEDUNGWUNI TIMUR",
  "postalCode": "51173"
 }
]