[
 {
  "id": 3326040001,
  "districtId": 3326040,
  "districtName": "PETUNGKRIONO",
  "name": "SIMEGO",
  "postalCode": "51193"
 },
 {
  "id": 3326040002,
  "districtId": 3326040,
  "districtName": "PETUNGKRIONO",
  "name": "SONGGODADI",
  "postalCode": "51193"
 },
 {
  "id": 3326040003,
  "districtId": 3326040,
  "districtName": "PETUNGKRIONO",
  "name": "CURUGMUNCAR",
  "postalCode": "51193"
 },
 {
  "id": 3326040005,
  "districtId": 3326040,
  "districtName": "PETUNGKRIONO",
  "name": "TLOGOHENDRO",
  "postalCode": "51193"
 },
 {
  "id": 3326040006,
  "districtId": 3326040,
  "districtName": "PETUNGKRIONO",
  "name": "YOSOREJO",
  "postalCode": "34112"
 },
 {
  "id": 3326040007,
  "districtId": 3326040,
  "districtName": "PETUNGKRIONO",
  "name": "TLOGOPAKIS",
  "postalCode": "51193"
 },
 {
  "id": 3326040008,
  "districtId": 3326040,
  "districtName": "PETUNGKRIONO",
  "name": "KASIMPAR",
  "postalCode": "51193"
 },
 {
  "id": 3326040009,
  "districtId": 3326040,
  "districtName": "PETUNGKRIONO",
  "name": "KAYUPURING",
  "postalCode": "51193"
 }
]