[
 {
  "id": 3326030001,
  "districtId": 3326030,
  "districtName": "LEBAKBARANG",
  "name": "TEMBELANG GUNUNG",
  "postalCode": "51183"
 },
 {
  "id": 3326030002,
  "districtId": 3326030,
  "districtName": "LEBAKBARANG",
  "name": "PAMUTUH",
  "postalCode": "51183"
 },
 {
  "id": 3326030003,
  "districtId": 3326030,
  "districtName": "LEBAKBARANG",
  "name": "DEPOK",
  "postalCode": "44174"
 },
 {
  "id": 3326030004,
  "districtId": 3326030,
  "districtName": "LEBAKBARANG",
  "name": "WONOSIDO",
  "postalCode": "51183"
 },
 {
  "id": 3326030005,
  "districtId": 3326030,
  "districtName": "LEBAKBARANG",
  "name": "TIMBANGSARI",
  "postalCode": "51183"
 },
 {
  "id": 3326030006,
  "districtId": 3326030,
  "districtName": "LEBAKBARANG",
  "name": "SIDOMULYO",
  "postalCode": "21455"
 },
 {
  "id": 3326030007,
  "districtId": 3326030,
  "districtName": "LEBAKBARANG",
  "name": "KUTOREMBET",
  "postalCode": "51183"
 },
 {
  "id": 3326030008,
  "districtId": 3326030,
  "districtName": "LEBAKBARANG",
  "name": "LEBAKBARANG",
  "postalCode": "51183"
 },
 {
  "id": 3326030009,
  "districtId": 3326030,
  "districtName": "LEBAKBARANG",
  "name": "KAPUNDUTAN",
  "postalCode": "51183"
 },
 {
  "id": 3326030010,
  "districtId": 3326030,
  "districtName": "LEBAKBARANG",
  "name": "BANTAR KULON",
  "postalCode": "51183"
 },
 {
  "id": 3326030011,
  "districtId": 3326030,
  "districtName": "LEBAKBARANG",
  "name": "MENDOLO",
  "postalCode": "51183"
 }
]