[
 {
  "id": 3326080001,
  "districtId": 3326080,
  "districtName": "KAJEN",
  "name": "TAMBAKROTO",
  "postalCode": "51161"
 },
 {
  "id": 3326080002,
  "districtId": 3326080,
  "districtName": "KAJEN",
  "name": "KUTOROJO",
  "postalCode": "51161"
 },
 {
  "id": 3326080003,
  "districtId": 3326080,
  "districtName": "KAJEN",
  "name": "LINGGOASRI",
  "postalCode": "51161"
 },
 {
  "id": 3326080004,
  "districtId": 3326080,
  "districtName": "KAJEN",
  "name": "BRENGKOLANG",
  "postalCode": "51161"
 },
 {
  "id": 3326080005,
  "districtId": 3326080,
  "districtName": "KAJEN",
  "name": "PRINGSURAT",
  "postalCode": "51161"
 },
 {
  "id": 3326080006,
  "districtId": 3326080,
  "districtName": "KAJEN",
  "name": "SOKOYOSO",
  "postalCode": "51161"
 },
 {
  "id": 3326080007,
  "districtId": 3326080,
  "districtName": "KAJEN",
  "name": "SINANGOH PRENDENG",
  "postalCode": "51161"
 },
 {
  "id": 3326080008,
  "districtId": 3326080,
  "districtName": "KAJEN",
  "name": "KAJONGAN",
  "postalCode": "53362"
 },
 {
  "id": 3326080009,
  "districtId": 3326080,
  "districtName": "KAJEN",
  "name": "PEKIRINGAN AGENG",
  "postalCode": "51161"
 },
 {
  "id": 3326080010,
  "districtId": 3326080,
  "districtName": "KAJEN",
  "name": "GANDARUM",
  "postalCode": "51161"
 },
 {
  "id": 3326080011,
  "districtId": 3326080,
  "districtName": "KAJEN",
  "name": "SABARWANGI",
  "postalCode": "51161"
 },
 {
  "id": 3326080012,
  "districtId": 3326080,
  "districtName": "KAJEN",
  "name": "KALIJOYO",
  "postalCode": "51161"
 },
 {
  "id": 3326080013,
  "districtId": 3326080,
  "districtName": "KAJEN",
  "name": "WONOREJO",
  "postalCode": "21186"
 },
 {
  "id": 3326080014,
  "districtId": 3326080,
  "districtName": "KAJEN",
  "name": "PEKIRINGAN ALIT",
  "postalCode": "51161"
 },
 {
  "id": 3326080015,
  "districtId": 3326080,
  "districtName": "KAJEN",
  "name": "KUTOREJO",
  "postalCode": "51161"
 },
 {
  "id": 3326080016,
  "districtId": 3326080,
  "districtName": "KAJEN",
  "name": "KAJEN",
  "postalCode": "57465"
 },
 {
  "id": 3326080017,
  "districtId": 3326080,
  "districtName": "KAJEN",
  "name": "NYAMOK",
  "postalCode": "51161"
 },
 {
  "id": 3326080018,
  "districtId": 3326080,
  "districtName": "KAJEN",
  "name": "TANJUNG KULON",
  "postalCode": "51161"
 },
 {
  "id": 3326080019,
  "districtId": 3326080,
  "districtName": "KAJEN",
  "name": "TANJUNGSARI",
  "postalCode": "28983"
 },
 {
  "id": 3326080020,
  "districtId": 3326080,
  "districtName": "KAJEN",
  "name": "GEJLIG",
  "postalCode": "51161"
 },
 {
  "id": 3326080021,
  "districtId": 3326080,
  "districtName": "KAJEN",
  "name": "KEBON AGUNG",
  "postalCode": "32156"
 },
 {
  "id": 3326080022,
  "districtId": 3326080,
  "districtName": "KAJEN",
  "name": "SANGKAN JOYO",
  "postalCode": "51161"
 },
 {
  "id": 3326080023,
  "districtId": 3326080,
  "districtName": "KAJEN",
  "name": "SALIT",
  "postalCode": "22171"
 },
 {
  "id": 3326080024,
  "districtId": 3326080,
  "districtName": "KAJEN",
  "name": "SAMBIROTO",
  "postalCode": "59581"
 },
 {
  "id": 3326080025,
  "districtId": 3326080,
  "districtName": "KAJEN",
  "name": "ROWOLAKU",
  "postalCode": "51161"
 }
]