[
 {
  "id": 3326161001,
  "districtId": 3326161,
  "districtName": "WONOKERTO",
  "name": "WERDI",
  "postalCode": "51164"
 },
 {
  "id": 3326161002,
  "districtId": 3326161,
  "districtName": "WONOKERTO",
  "name": "ROWOYOSO",
  "postalCode": "51153"
 },
 {
  "id": 3326161004,
  "districtId": 3326161,
  "districtName": "WONOKERTO",
  "name": "WONOKERTO WETAN",
  "postalCode": "51153"
 },
 {
  "id": 3326161005,
  "districtId": 3326161,
  "districtName": "WONOKERTO",
  "name": "SIJAMBE",
  "postalCode": "51153"
 },
 {
  "id": 3326161006,
  "districtId": 3326161,
  "districtName": "WONOKERTO",
  "name": "PESANGGRAHAN",
  "postalCode": "12320"
 },
 {
  "id": 3326161007,
  "districtId": 3326161,
  "districtName": "WONOKERTO",
  "name": "PECAKARAN",
  "postalCode": "51153"
 },
 {
  "id": 3326161008,
  "districtId": 3326161,
  "districtName": "WONOKERTO",
  "name": "API-API",
  "postalCode": "51153"
 },
 {
  "id": 3326161009,
  "districtId": 3326161,
  "districtName": "WONOKERTO",
  "name": "WONOKERTO KULON",
  "postalCode": "51153"
 },
 {
  "id": 3326161010,
  "districtId": 3326161,
  "districtName": "WONOKERTO",
  "name": "TRATEBANG",
  "postalCode": "51153"
 }
]