[
 {
  "id": 3327070001,
  "districtId": 3327070,
  "districtName": "RANDUDONGKAL",
  "name": "KECEPIT",
  "postalCode": "53462"
 },
 {
  "id": 3327070002,
  "districtId": 3327070,
  "districtName": "RANDUDONGKAL",
  "name": "GEMBYANG",
  "postalCode": "52353"
 },
 {
  "id": 3327070003,
  "districtId": 3327070,
  "districtName": "RANDUDONGKAL",
  "name": "MEJAGONG",
  "postalCode": "52353"
 },
 {
  "id": 3327070004,
  "districtId": 3327070,
  "districtName": "RANDUDONGKAL",
  "name": "PENUSUPAN",
  "postalCode": "52471"
 },
 {
  "id": 3327070005,
  "districtId": 3327070,
  "districtName": "RANDUDONGKAL",
  "name": "BANJARANYAR",
  "postalCode": "46383"
 },
 {
  "id": 3327070006,
  "districtId": 3327070,
  "districtName": "RANDUDONGKAL",
  "name": "RANDUDONGKAL",
  "postalCode": "52353"
 },
 {
  "id": 3327070007,
  "districtId": 3327070,
  "districtName": "RANDUDONGKAL",
  "name": "KARANGMONCOL",
  "postalCode": "52353"
 },
 {
  "id": 3327070008,
  "districtId": 3327070,
  "districtName": "RANDUDONGKAL",
  "name": "SEMINGKIR",
  "postalCode": "52353"
 },
 {
  "id": 3327070009,
  "districtId": 3327070,
  "districtName": "RANDUDONGKAL",
  "name": "SEMAYA",
  "postalCode": "52353"
 },
 {
  "id": 3327070010,
  "districtId": 3327070,
  "districtName": "RANDUDONGKAL",
  "name": "TANAHBAYA",
  "postalCode": "52353"
 },
 {
  "id": 3327070011,
  "districtId": 3327070,
  "districtName": "RANDUDONGKAL",
  "name": "LODAYA",
  "postalCode": "52353"
 },
 {
  "id": 3327070013,
  "districtId": 3327070,
  "districtName": "RANDUDONGKAL",
  "name": "KREYO",
  "postalCode": "45156"
 },
 {
  "id": 3327070014,
  "districtId": 3327070,
  "districtName": "RANDUDONGKAL",
  "name": "KALIMAS",
  "postalCode": "52353"
 },
 {
  "id": 3327070015,
  "districtId": 3327070,
  "districtName": "RANDUDONGKAL",
  "name": "MANGLI",
  "postalCode": "56153"
 },
 {
  "id": 3327070016,
  "districtId": 3327070,
  "districtName": "RANDUDONGKAL",
  "name": "KALITORONG",
  "postalCode": "52353"
 },
 {
  "id": 3327070018,
  "districtId": 3327070,
  "districtName": "RANDUDONGKAL",
  "name": "GONGSENG",
  "postalCode": "52353"
 }
]