[
 {
  "id": 3327130001,
  "districtId": 3327130,
  "districtName": "ULUJAMI",
  "name": "SUKOREJO",
  "postalCode": "31551"
 },
 {
  "id": 3327130002,
  "districtId": 3327130,
  "districtName": "ULUJAMI",
  "name": "BOTEKAN",
  "postalCode": "52371"
 },
 {
  "id": 3327130003,
  "districtId": 3327130,
  "districtName": "ULUJAMI",
  "name": "ROWOSARI",
  "postalCode": "54395"
 },
 {
  "id": 3327130004,
  "districtId": 3327130,
  "districtName": "ULUJAMI",
  "name": "AMBOWETAN",
  "postalCode": "52371"
 },
 {
  "id": 3327130005,
  "districtId": 3327130,
  "districtName": "ULUJAMI",
  "name": "PAGERGUNUNG",
  "postalCode": "46396"
 },
 {
  "id": 3327130006,
  "districtId": 3327130,
  "districtName": "ULUJAMI",
  "name": "WIYOROWETAN",
  "postalCode": "52371"
 },
 {
  "id": 3327130007,
  "districtId": 3327130,
  "districtName": "ULUJAMI",
  "name": "SAMONG",
  "postalCode": "52371"
 },
 {
  "id": 3327130008,
  "districtId": 3327130,
  "districtName": "ULUJAMI",
  "name": "TASIKREJO",
  "postalCode": "52371"
 },
 {
  "id": 3327130009,
  "districtId": 3327130,
  "districtName": "ULUJAMI",
  "name": "BUMIREJO",
  "postalCode": "59185"
 },
 {
  "id": 3327130010,
  "districtId": 3327130,
  "districtName": "ULUJAMI",
  "name": "KALIPRAU",
  "postalCode": "52371"
 },
 {
  "id": 3327130011,
  "districtId": 3327130,
  "districtName": "ULUJAMI",
  "name": "KERTOSARI",
  "postalCode": "31668"
 },
 {
  "id": 3327130012,
  "districtId": 3327130,
  "districtName": "ULUJAMI",
  "name": "PAMUTIH",
  "postalCode": "52371"
 },
 {
  "id": 3327130013,
  "districtId": 3327130,
  "districtName": "ULUJAMI",
  "name": "PADEK",
  "postalCode": "52371"
 },
 {
  "id": 3327130015,
  "districtId": 3327130,
  "districtName": "ULUJAMI",
  "name": "KETAPANG",
  "postalCode": "35596"
 },
 {
  "id": 3327130016,
  "districtId": 3327130,
  "districtName": "ULUJAMI",
  "name": "LIMBANGAN",
  "postalCode": "45282"
 },
 {
  "id": 3327130017,
  "districtId": 3327130,
  "districtName": "ULUJAMI",
  "name": "MOJO",
  "postalCode": "57384"
 },
 {
  "id": 3327130018,
  "districtId": 3327130,
  "districtName": "ULUJAMI",
  "name": "PESANTREN",
  "postalCode": "51255"
 }
]