[
 {
  "id": 3327030001,
  "districtId": 3327030,
  "districtName": "BELIK",
  "name": "GOMBONG",
  "postalCode": "46156"
 },
 {
  "id": 3327030002,
  "districtId": 3327030,
  "districtName": "BELIK",
  "name": "BELIK",
  "postalCode": "52356"
 },
 {
  "id": 3327030003,
  "districtId": 3327030,
  "districtName": "BELIK",
  "name": "GUNUNGTIGA",
  "postalCode": "35387"
 },
 {
  "id": 3327030004,
  "districtId": 3327030,
  "districtName": "BELIK",
  "name": "KUTA",
  "postalCode": "16770"
 },
 {
  "id": 3327030005,
  "districtId": 3327030,
  "districtName": "BELIK",
  "name": "BADAK",
  "postalCode": "24653"
 },
 {
  "id": 3327030006,
  "districtId": 3327030,
  "districtName": "BELIK",
  "name": "GUNUNGJAYA",
  "postalCode": "43152"
 },
 {
  "id": 3327030007,
  "districtId": 3327030,
  "districtName": "BELIK",
  "name": "SIMPUR",
  "postalCode": "24582"
 },
 {
  "id": 3327030010,
  "districtId": 3327030,
  "districtName": "BELIK",
  "name": "BULAKAN",
  "postalCode": "52356"
 },
 {
  "id": 3327030011,
  "districtId": 3327030,
  "districtName": "BELIK",
  "name": "SIKASUR",
  "postalCode": "52356"
 },
 {
  "id": 3327030012,
  "districtId": 3327030,
  "districtName": "BELIK",
  "name": "KALISALEH",
  "postalCode": "52356"
 }
]