[
 {
  "id": 3327010001,
  "districtId": 3327010,
  "districtName": "MOGA",
  "name": "PLAKARAN",
  "postalCode": "52354"
 },
 {
  "id": 3327010002,
  "districtId": 3327010,
  "districtName": "MOGA",
  "name": "MANDIRAJA",
  "postalCode": "52354"
 },
 {
  "id": 3327010003,
  "districtId": 3327010,
  "districtName": "MOGA",
  "name": "WALANGSANGA",
  "postalCode": "52354"
 },
 {
  "id": 3327010004,
  "districtId": 3327010,
  "districtName": "MOGA",
  "name": "SIMA",
  "postalCode": "52354"
 },
 {
  "id": 3327010005,
  "districtId": 3327010,
  "districtName": "MOGA",
  "name": "BANYUMUDAL",
  "postalCode": "54474"
 },
 {
  "id": 3327010006,
  "districtId": 3327010,
  "districtName": "MOGA",
  "name": "MOGA",
  "postalCode": "52354"
 },
 {
  "id": 3327010007,
  "districtId": 3327010,
  "districtName": "MOGA",
  "name": "WANGKELANG",
  "postalCode": "45467"
 },
 {
  "id": 3327010008,
  "districtId": 3327010,
  "districtName": "MOGA",
  "name": "KEBANGGAN",
  "postalCode": "52354"
 },
 {
  "id": 3327010009,
  "districtId": 3327010,
  "districtName": "MOGA",
  "name": "PEPEDAN",
  "postalCode": "52192"
 },
 {
  "id": 3327010010,
  "districtId": 3327010,
  "districtName": "MOGA",
  "name": "GENDOWANG",
  "postalCode": "52354"
 }
]