[
 {
  "id": 3328100001,
  "districtId": 3328100,
  "districtName": "SLAWI",
  "name": "KALISAPU",
  "postalCode": "45151"
 },
 {
  "id": 3328100002,
  "districtId": 3328100,
  "districtName": "SLAWI",
  "name": "DUKUH RINGIN",
  "postalCode": ""
 },
 {
  "id": 3328100003,
  "districtId": 3328100,
  "districtName": "SLAWI",
  "name": "DUKUH SALAM",
  "postalCode": "52418"
 },
 {
  "id": 3328100004,
  "districtId": 3328100,
  "districtName": "SLAWI",
  "name": "SLAWI KULON",
  "postalCode": "52419"
 },
 {
  "id": 3328100005,
  "districtId": 3328100,
  "districtName": "SLAWI",
  "name": "SLAWI WETAN",
  "postalCode": "52411"
 },
 {
  "id": 3328100006,
  "districtId": 3328100,
  "districtName": "SLAWI",
  "name": "KAGOK",
  "postalCode": "45468"
 },
 {
  "id": 3328100007,
  "districtId": 3328100,
  "districtName": "SLAWI",
  "name": "PROCOT",
  "postalCode": "52412"
 },
 {
  "id": 3328100008,
  "districtId": 3328100,
  "districtName": "SLAWI",
  "name": "KUDAILE",
  "postalCode": "52413"
 },
 {
  "id": 3328100009,
  "districtId": 3328100,
  "districtName": "SLAWI",
  "name": "TRAYEMAN",
  "postalCode": "52414"
 },
 {
  "id": 3328100010,
  "districtId": 3328100,
  "districtName": "SLAWI",
  "name": "PAKEMBARAN",
  "postalCode": "52415"
 }
]