[
 {
  "id": 3328130001,
  "districtId": 3328130,
  "districtName": "DUKUHTURI",
  "name": "KETANGGUNGAN",
  "postalCode": "52192"
 },
 {
  "id": 3328130002,
  "districtId": 3328130,
  "districtName": "DUKUHTURI",
  "name": "PENGARASAN",
  "postalCode": "52274"
 },
 {
  "id": 3328130004,
  "districtId": 3328130,
  "districtName": "DUKUHTURI",
  "name": "SIDAKATON",
  "postalCode": "52192"
 },
 {
  "id": 3328130005,
  "districtId": 3328130,
  "districtName": "DUKUHTURI",
  "name": "SIDAPURNA",
  "postalCode": "52192"
 },
 {
  "id": 3328130006,
  "districtId": 3328130,
  "districtName": "DUKUHTURI",
  "name": "DUKUHTURI",
  "postalCode": "52273"
 },
 {
  "id": 3328130007,
  "districtId": 3328130,
  "districtName": "DUKUHTURI",
  "name": "LAWATAN",
  "postalCode": "52192"
 },
 {
  "id": 3328130008,
  "districtId": 3328130,
  "districtName": "DUKUHTURI",
  "name": "KEPANDEAN",
  "postalCode": "45214"
 },
 {
  "id": 3328130009,
  "districtId": 3328130,
  "districtName": "DUKUHTURI",
  "name": "PAGONGAN",
  "postalCode": "52192"
 },
 {
  "id": 3328130010,
  "districtId": 3328130,
  "districtName": "DUKUHTURI",
  "name": "GROGOL",
  "postalCode": "11450"
 },
 {
  "id": 3328130011,
  "districtId": 3328130,
  "districtName": "DUKUHTURI",
  "name": "PEPEDAN",
  "postalCode": "52192"
 },
 {
  "id": 3328130012,
  "districtId": 3328130,
  "districtName": "DUKUHTURI",
  "name": "DEBONG WETAN",
  "postalCode": "52192"
 },
 {
  "id": 3328130013,
  "districtId": 3328130,
  "districtName": "DUKUHTURI",
  "name": "PEKAUMAN KULON",
  "postalCode": "52192"
 },
 {
  "id": 3328130014,
  "districtId": 3328130,
  "districtName": "DUKUHTURI",
  "name": "KARANGANYAR",
  "postalCode": "40241"
 },
 {
  "id": 3328130015,
  "districtId": 3328130,
  "districtName": "DUKUHTURI",
  "name": "BANDASARI",
  "postalCode": "40238"
 },
 {
  "id": 3328130016,
  "districtId": 3328130,
  "districtName": "DUKUHTURI",
  "name": "SUTAPRANAN",
  "postalCode": "52192"
 },
 {
  "id": 3328130017,
  "districtId": 3328130,
  "districtName": "DUKUHTURI",
  "name": "KADEMANGARAN",
  "postalCode": "52192"
 },
 {
  "id": 3328130018,
  "districtId": 3328130,
  "districtName": "DUKUHTURI",
  "name": "PENGABEAN",
  "postalCode": "52192"
 }
]