[
 {
  "id": 3329020001,
  "districtId": 3329020,
  "districtName": "BANTARKAWUNG",
  "name": "CINANAS",
  "postalCode": "52274"
 },
 {
  "id": 3329020002,
  "districtId": 3329020,
  "districtName": "BANTARKAWUNG",
  "name": "BANJARSARI",
  "postalCode": "35377"
 },
 {
  "id": 3329020003,
  "districtId": 3329020,
  "districtName": "BANTARKAWUNG",
  "name": "CIBENTANG",
  "postalCode": "16120"
 },
 {
  "id": 3329020004,
  "districtId": 3329020,
  "districtName": "BANTARKAWUNG",
  "name": "TELAGA",
  "postalCode": "20771"
 },
 {
  "id": 3329020005,
  "districtId": 3329020,
  "districtName": "BANTARKAWUNG",
  "name": "KARANGPARI",
  "postalCode": "46387"
 },
 {
  "id": 3329020006,
  "districtId": 3329020,
  "districtName": "BANTARKAWUNG",
  "name": "WARU",
  "postalCode": "45252"
 },
 {
  "id": 3329020007,
  "districtId": 3329020,
  "districtName": "BANTARKAWUNG",
  "name": "PANGEBATAN",
  "postalCode": "52274"
 },
 {
  "id": 3329020008,
  "districtId": 3329020,
  "districtName": "BANTARKAWUNG",
  "name": "CIOMAS",
  "postalCode": "45591"
 },
 {
  "id": 3329020009,
  "districtId": 3329020,
  "districtName": "BANTARKAWUNG",
  "name": "TAMBAKSERANG",
  "postalCode": "52274"
 },
 {
  "id": 3329020010,
  "districtId": 3329020,
  "districtName": "BANTARKAWUNG",
  "name": "LEGOK",
  "postalCode": "36121"
 },
 {
  "id": 3329020011,
  "districtId": 3329020,
  "districtName": "BANTARKAWUNG",
  "name": "TERLAYA",
  "postalCode": "52274"
 },
 {
  "id": 3329020012,
  "districtId": 3329020,
  "districtName": "BANTARKAWUNG",
  "name": "JIPANG",
  "postalCode": "52274"
 },
 {
  "id": 3329020013,
  "districtId": 3329020,
  "districtName": "BANTARKAWUNG",
  "name": "BANTARKAWUNG",
  "postalCode": "52274"
 },
 {
  "id": 3329020014,
  "districtId": 3329020,
  "districtName": "BANTARKAWUNG",
  "name": "BANGBAYANG",
  "postalCode": "43359"
 },
 {
  "id": 3329020015,
  "districtId": 3329020,
  "districtName": "BANTARKAWUNG",
  "name": "BANTARWARU",
  "postalCode": "45264"
 },
 {
  "id": 3329020016,
  "districtId": 3329020,
  "districtName": "BANTARKAWUNG",
  "name": "SINDANGWANGI",
  "postalCode": "46384"
 },
 {
  "id": 3329020017,
  "districtId": 3329020,
  "districtName": "BANTARKAWUNG",
  "name": "PENGARASAN",
  "postalCode": "52274"
 },
 {
  "id": 3329020018,
  "districtId": 3329020,
  "districtName": "BANTARKAWUNG",
  "name": "KEBANDUNGAN",
  "postalCode": "52274"
 }
]