[
 {
  "id": 3329010001,
  "districtId": 3329010,
  "districtName": "SALEM",
  "name": "GUNUNG JAYA",
  "postalCode": "52275"
 },
 {
  "id": 3329010002,
  "districtId": 3329010,
  "districtName": "SALEM",
  "name": "INDRAJAYA",
  "postalCode": "46415"
 },
 {
  "id": 3329010003,
  "districtId": 3329010,
  "districtName": "SALEM",
  "name": "BANJARAN",
  "postalCode": "35451"
 },
 {
  "id": 3329010004,
  "districtId": 3329010,
  "districtName": "SALEM",
  "name": "SALEM",
  "postalCode": "41115"
 },
 {
  "id": 3329010005,
  "districtId": 3329010,
  "districtName": "SALEM",
  "name": "GUNUNG LARANG",
  "postalCode": "52275"
 },
 {
  "id": 3329010006,
  "districtId": 3329010,
  "districtName": "SALEM",
  "name": "GUNUNG SUGIH",
  "postalCode": "32386"
 },
 {
  "id": 3329010007,
  "districtId": 3329010,
  "districtName": "SALEM",
  "name": "GANGGAWANG",
  "postalCode": "52275"
 },
 {
  "id": 3329010008,
  "districtId": 3329010,
  "districtName": "SALEM",
  "name": "CITIMBANG",
  "postalCode": "52275"
 },
 {
  "id": 3329010009,
  "districtId": 3329010,
  "districtName": "SALEM",
  "name": "KADUMANIS",
  "postalCode": "52275"
 },
 {
  "id": 3329010010,
  "districtId": 3329010,
  "districtName": "SALEM",
  "name": "GANDOANG",
  "postalCode": "16820"
 },
 {
  "id": 3329010011,
  "districtId": 3329010,
  "districtName": "SALEM",
  "name": "CIPUTIH",
  "postalCode": "52275"
 },
 {
  "id": 3329010012,
  "districtId": 3329010,
  "districtName": "SALEM",
  "name": "BENTARSARI",
  "postalCode": "52275"
 },
 {
  "id": 3329010013,
  "districtId": 3329010,
  "districtName": "SALEM",
  "name": "BENTAR",
  "postalCode": "52275"
 },
 {
  "id": 3329010014,
  "districtId": 3329010,
  "districtName": "SALEM",
  "name": "PABUARAN",
  "postalCode": "16921"
 },
 {
  "id": 3329010015,
  "districtId": 3329010,
  "districtName": "SALEM",
  "name": "TEMBONGRAJA",
  "postalCode": "52275"
 },
 {
  "id": 3329010016,
  "districtId": 3329010,
  "districtName": "SALEM",
  "name": "GUNUNG TAJEM",
  "postalCode": "52275"
 },
 {
  "id": 3329010017,
  "districtId": 3329010,
  "districtName": "SALEM",
  "name": "WINDUSAKTI",
  "postalCode": "52275"
 },
 {
  "id": 3329010018,
  "districtId": 3329010,
  "districtName": "SALEM",
  "name": "WINDUASRI",
  "postalCode": "52275"
 },
 {
  "id": 3329010019,
  "districtId": 3329010,
  "districtName": "SALEM",
  "name": "CAPAR",
  "postalCode": "52473"
 },
 {
  "id": 3329010020,
  "districtId": 3329010,
  "districtName": "SALEM",
  "name": "WANOJA",
  "postalCode": "52275"
 },
 {
  "id": 3329010021,
  "districtId": 3329010,
  "districtName": "SALEM",
  "name": "PASIR PANJANG",
  "postalCode": "36265"
 }
]