[
 {
  "id": 3372040001,
  "districtId": 3372040,
  "districtName": "JEBRES",
  "name": "KEPATIHAN KULON",
  "postalCode": "57129"
 },
 {
  "id": 3372040002,
  "districtId": 3372040,
  "districtName": "JEBRES",
  "name": "KEPATIHAN WETAN",
  "postalCode": "57129"
 },
 {
  "id": 3372040003,
  "districtId": 3372040,
  "districtName": "JEBRES",
  "name": "SUDIROPRAJAN",
  "postalCode": "57121"
 },
 {
  "id": 3372040004,
  "districtId": 3372040,
  "districtName": "JEBRES",
  "name": "GANDEKAN",
  "postalCode": "57122"
 },
 {
  "id": 3372040006,
  "districtId": 3372040,
  "districtName": "JEBRES",
  "name": "PUCANGSAWIT",
  "postalCode": "57125"
 },
 {
  "id": 3372040007,
  "districtId": 3372040,
  "districtName": "JEBRES",
  "name": "JAGALAN",
  "postalCode": "57162"
 },
 {
  "id": 3372040008,
  "districtId": 3372040,
  "districtName": "JEBRES",
  "name": "PURWODININGRATAN",
  "postalCode": "57128"
 },
 {
  "id": 3372040009,
  "districtId": 3372040,
  "districtName": "JEBRES",
  "name": "TEGALHARJO",
  "postalCode": "57663"
 },
 {
  "id": 3372040011,
  "districtId": 3372040,
  "districtName": "JEBRES",
  "name": "MOJOSONGO",
  "postalCode": "57127"
 }
]