[
 {
  "id": 3372010001,
  "districtId": 3372010,
  "districtName": "LAWEYAN",
  "name": "PAJANG",
  "postalCode": "57146"
 },
 {
  "id": 3372010002,
  "districtId": 3372010,
  "districtName": "LAWEYAN",
  "name": "LAWEYAN",
  "postalCode": "57148"
 },
 {
  "id": 3372010003,
  "districtId": 3372010,
  "districtName": "LAWEYAN",
  "name": "BUMI",
  "postalCode": "57149"
 },
 {
  "id": 3372010004,
  "districtId": 3372010,
  "districtName": "LAWEYAN",
  "name": "PANULARAN",
  "postalCode": "57149"
 },
 {
  "id": 3372010005,
  "districtId": 3372010,
  "districtName": "LAWEYAN",
  "name": "SRIWEDARI",
  "postalCode": "35363"
 },
 {
  "id": 3372010006,
  "districtId": 3372010,
  "districtName": "LAWEYAN",
  "name": "PENUMPING",
  "postalCode": "57141"
 },
 {
  "id": 3372010007,
  "districtId": 3372010,
  "districtName": "LAWEYAN",
  "name": "PURWOSARI",
  "postalCode": "24582"
 },
 {
  "id": 3372010008,
  "districtId": 3372010,
  "districtName": "LAWEYAN",
  "name": "SONDAKAN",
  "postalCode": "57147"
 },
 {
  "id": 3372010010,
  "districtId": 3372010,
  "districtName": "LAWEYAN",
  "name": "JAJAR",
  "postalCode": "57144"
 },
 {
  "id": 3372010011,
  "districtId": 3372010,
  "districtName": "LAWEYAN",
  "name": "KARANGASEM",
  "postalCode": "45186"
 }
]