[
 {
  "id": 3372030001,
  "districtId": 3372030,
  "districtName": "PASAR KLIWON",
  "name": "JOYOSURAN",
  "postalCode": "57116"
 },
 {
  "id": 3372030002,
  "districtId": 3372030,
  "districtName": "PASAR KLIWON",
  "name": "SEMANGGI",
  "postalCode": "58261"
 },
 {
  "id": 3372030003,
  "districtId": 3372030,
  "districtName": "PASAR KLIWON",
  "name": "PASAR KLIWON",
  "postalCode": "57118"
 },
 {
  "id": 3372030004,
  "districtId": 3372030,
  "districtName": "PASAR KLIWON",
  "name": "BALUWARTI",
  "postalCode": "57144"
 },
 {
  "id": 3372030005,
  "districtId": 3372030,
  "districtName": "PASAR KLIWON",
  "name": "GAJAHAN",
  "postalCode": "57176"
 },
 {
  "id": 3372030006,
  "districtId": 3372030,
  "districtName": "PASAR KLIWON",
  "name": "KAUMAN",
  "postalCode": "51215"
 },
 {
  "id": 3372030007,
  "districtId": 3372030,
  "districtName": "PASAR KLIWON",
  "name": "KAMPUNG BARU",
  "postalCode": "24652"
 },
 {
  "id": 3372030009,
  "districtId": 3372030,
  "districtName": "PASAR KLIWON",
  "name": "SANGKRAH",
  "postalCode": "57199"
 }
]