[
 {
  "id": 3374120001,
  "districtId": 3374120,
  "districtName": "SEMARANG UTARA",
  "name": "BULU LOR",
  "postalCode": "50179"
 },
 {
  "id": 3374120002,
  "districtId": 3374120,
  "districtName": "SEMARANG UTARA",
  "name": "PLOMBOKAN",
  "postalCode": "50171"
 },
 {
  "id": 3374120003,
  "districtId": 3374120,
  "districtName": "SEMARANG UTARA",
  "name": "PANGGUNG KIDUL",
  "postalCode": "50178"
 },
 {
  "id": 3374120004,
  "districtId": 3374120,
  "districtName": "SEMARANG UTARA",
  "name": "PANGGUNG LOR",
  "postalCode": "50177"
 },
 {
  "id": 3374120005,
  "districtId": 3374120,
  "districtName": "SEMARANG UTARA",
  "name": "KUNINGAN",
  "postalCode": "45511"
 },
 {
  "id": 3374120006,
  "districtId": 3374120,
  "districtName": "SEMARANG UTARA",
  "name": "PURWOSARI",
  "postalCode": "24582"
 },
 {
  "id": 3374120007,
  "districtId": 3374120,
  "districtName": "SEMARANG UTARA",
  "name": "DADAPSARI",
  "postalCode": "50173"
 },
 {
  "id": 3374120008,
  "districtId": 3374120,
  "districtName": "SEMARANG UTARA",
  "name": "BANDARHARJO",
  "postalCode": "50175"
 },
 {
  "id": 3374120009,
  "districtId": 3374120,
  "districtName": "SEMARANG UTARA",
  "name": "TANJUNGMAS",
  "postalCode": "32361"
 }
]