[
 {
  "id": 3374030001,
  "districtId": 3374030,
  "districtName": "BANYUMANIK",
  "name": "PUDAKPAYUNG",
  "postalCode": "50265"
 },
 {
  "id": 3374030002,
  "districtId": 3374030,
  "districtName": "BANYUMANIK",
  "name": "GEDAWANG",
  "postalCode": "50266"
 },
 {
  "id": 3374030003,
  "districtId": 3374030,
  "districtName": "BANYUMANIK",
  "name": "JABUNGAN",
  "postalCode": "50266"
 },
 {
  "id": 3374030004,
  "districtId": 3374030,
  "districtName": "BANYUMANIK",
  "name": "PADANGSARI",
  "postalCode": "50267"
 },
 {
  "id": 3374030005,
  "districtId": 3374030,
  "districtName": "BANYUMANIK",
  "name": "BANYUMANIK",
  "postalCode": "50264"
 },
 {
  "id": 3374030006,
  "districtId": 3374030,
  "districtName": "BANYUMANIK",
  "name": "SRONDOL WETAN",
  "postalCode": "50263"
 },
 {
  "id": 3374030007,
  "districtId": 3374030,
  "districtName": "BANYUMANIK",
  "name": "PEDALANGAN",
  "postalCode": "50268"
 },
 {
  "id": 3374030008,
  "districtId": 3374030,
  "districtName": "BANYUMANIK",
  "name": "SUMURBOTO",
  "postalCode": "50269"
 },
 {
  "id": 3374030009,
  "districtId": 3374030,
  "districtName": "BANYUMANIK",
  "name": "SRONDOL KULON",
  "postalCode": "50263"
 },
 {
  "id": 3374030010,
  "districtId": 3374030,
  "districtName": "BANYUMANIK",
  "name": "TINJOMOYO",
  "postalCode": "50262"
 }
]