[
 {
  "id": 3374050001,
  "districtId": 3374050,
  "districtName": "SEMARANG SELATAN",
  "name": "BULUSTALAN",
  "postalCode": "50246"
 },
 {
  "id": 3374050002,
  "districtId": 3374050,
  "districtName": "SEMARANG SELATAN",
  "name": "BARUSARI",
  "postalCode": "44161"
 },
 {
  "id": 3374050003,
  "districtId": 3374050,
  "districtName": "SEMARANG SELATAN",
  "name": "RANDUSARI",
  "postalCode": "45588"
 },
 {
  "id": 3374050004,
  "districtId": 3374050,
  "districtName": "SEMARANG SELATAN",
  "name": "MUGASSARI",
  "postalCode": "50249"
 },
 {
  "id": 3374050005,
  "districtId": 3374050,
  "districtName": "SEMARANG SELATAN",
  "name": "PLEBURAN",
  "postalCode": "50241"
 },
 {
  "id": 3374050006,
  "districtId": 3374050,
  "districtName": "SEMARANG SELATAN",
  "name": "WONODRI",
  "postalCode": "50242"
 },
 {
  "id": 3374050007,
  "districtId": 3374050,
  "districtName": "SEMARANG SELATAN",
  "name": "PETERONGAN",
  "postalCode": "50242"
 },
 {
  "id": 3374050008,
  "districtId": 3374050,
  "districtName": "SEMARANG SELATAN",
  "name": "LAMPER KIDUL",
  "postalCode": "50249"
 },
 {
  "id": 3374050009,
  "districtId": 3374050,
  "districtName": "SEMARANG SELATAN",
  "name": "LAMPER LOR",
  "postalCode": "50249"
 },
 {
  "id": 3374050010,
  "districtId": 3374050,
  "districtName": "SEMARANG SELATAN",
  "name": "LAMPER TENGAH",
  "postalCode": "50248"
 }
]