[
 {
  "id": 3403070001,
  "districtId": 3403070,
  "districtName": "PONJONG",
  "name": "GOMBANG",
  "postalCode": "45155"
 },
 {
  "id": 3403070002,
  "districtId": 3403070,
  "districtName": "PONJONG",
  "name": "SIDOREJO",
  "postalCode": "24784"
 },
 {
  "id": 3403070003,
  "districtId": 3403070,
  "districtName": "PONJONG",
  "name": "BEDOYO",
  "postalCode": "55892"
 },
 {
  "id": 3403070004,
  "districtId": 3403070,
  "districtName": "PONJONG",
  "name": "KARANG ASEM",
  "postalCode": "30959"
 },
 {
  "id": 3403070005,
  "districtId": 3403070,
  "districtName": "PONJONG",
  "name": "PONJONG",
  "postalCode": "55892"
 },
 {
  "id": 3403070006,
  "districtId": 3403070,
  "districtName": "PONJONG",
  "name": "GENJAHAN",
  "postalCode": "58372"
 },
 {
  "id": 3403070007,
  "districtId": 3403070,
  "districtName": "PONJONG",
  "name": "SUMBER GIRI",
  "postalCode": "55892"
 },
 {
  "id": 3403070009,
  "districtId": 3403070,
  "districtName": "PONJONG",
  "name": "TAMBAKROMO",
  "postalCode": "58315"
 },
 {
  "id": 3403070010,
  "districtId": 3403070,
  "districtName": "PONJONG",
  "name": "SAWAHAN",
  "postalCode": "25121"
 },
 {
  "id": 3403070011,
  "districtId": 3403070,
  "districtName": "PONJONG",
  "name": "UMBUL REJO",
  "postalCode": "55892"
 }
]