[
 {
  "id": 3404140001,
  "districtId": 3404140,
  "districtName": "TEMPEL",
  "name": "BANYU REJO",
  "postalCode": "55552"
 },
 {
  "id": 3404140002,
  "districtId": 3404140,
  "districtName": "TEMPEL",
  "name": "TAMBAK REJO",
  "postalCode": "38657"
 },
 {
  "id": 3404140003,
  "districtId": 3404140,
  "districtName": "TEMPEL",
  "name": "SUMBER REJO",
  "postalCode": "21255"
 },
 {
  "id": 3404140004,
  "districtId": 3404140,
  "districtName": "TEMPEL",
  "name": "PONDOK REJO",
  "postalCode": "55552"
 },
 {
  "id": 3404140005,
  "districtId": 3404140,
  "districtName": "TEMPEL",
  "name": "MORO REJO",
  "postalCode": "55552"
 },
 {
  "id": 3404140006,
  "districtId": 3404140,
  "districtName": "TEMPEL",
  "name": "MARGO REJO",
  "postalCode": "35365"
 },
 {
  "id": 3404140007,
  "districtId": 3404140,
  "districtName": "TEMPEL",
  "name": "LUMBUNG REJO",
  "postalCode": "55552"
 },
 {
  "id": 3404140008,
  "districtId": 3404140,
  "districtName": "TEMPEL",
  "name": "MERDIKO REJO",
  "postalCode": "55552"
 }
]