[
 {
  "id": 3501100001,
  "districtId": 3501100,
  "districtName": "TULAKAN",
  "name": "JETAK",
  "postalCode": "50774"
 },
 {
  "id": 3501100002,
  "districtId": 3501100,
  "districtName": "TULAKAN",
  "name": "NGLARAN",
  "postalCode": ""
 },
 {
  "id": 3501100003,
  "districtId": 3501100,
  "districtName": "TULAKAN",
  "name": "WONOANTI",
  "postalCode": "66372"
 },
 {
  "id": 3501100004,
  "districtId": 3501100,
  "districtName": "TULAKAN",
  "name": "PADI",
  "postalCode": "61372"
 },
 {
  "id": 3501100005,
  "districtId": 3501100,
  "districtName": "TULAKAN",
  "name": "KLUWIH",
  "postalCode": "51254"
 },
 {
  "id": 3501100007,
  "districtId": 3501100,
  "districtName": "TULAKAN",
  "name": "TULAKAN",
  "postalCode": "59454"
 },
 {
  "id": 3501100008,
  "districtId": 3501100,
  "districtName": "TULAKAN",
  "name": "JATIGUNUNG",
  "postalCode": "63571"
 },
 {
  "id": 3501100009,
  "districtId": 3501100,
  "districtName": "TULAKAN",
  "name": "KALIKUNING",
  "postalCode": "56372"
 },
 {
  "id": 3501100010,
  "districtId": 3501100,
  "districtName": "TULAKAN",
  "name": "GASANG",
  "postalCode": "63571"
 },
 {
  "id": 3501100011,
  "districtId": 3501100,
  "districtName": "TULAKAN",
  "name": "NGILE",
  "postalCode": "63571"
 },
 {
  "id": 3501100012,
  "districtId": 3501100,
  "districtName": "TULAKAN",
  "name": "BUBAKAN",
  "postalCode": "57683"
 },
 {
  "id": 3501100013,
  "districtId": 3501100,
  "districtName": "TULAKAN",
  "name": "LOSARI",
  "postalCode": "52364"
 },
 {
  "id": 3501100015,
  "districtId": 3501100,
  "districtName": "TULAKAN",
  "name": "WONOSIDI",
  "postalCode": "63571"
 },
 {
  "id": 3501100016,
  "districtId": 3501100,
  "districtName": "TULAKAN",
  "name": "KETRO",
  "postalCode": "58163"
 }
]