[
 {
  "id": 3502140001,
  "districtId": 3502140,
  "districtName": "BADEGAN",
  "name": "DAYAKAN",
  "postalCode": "63455"
 },
 {
  "id": 3502140002,
  "districtId": 3502140,
  "districtName": "BADEGAN",
  "name": "KARANGAN",
  "postalCode": "31131"
 },
 {
  "id": 3502140003,
  "districtId": 3502140,
  "districtName": "BADEGAN",
  "name": "TANJUNGGUNUNG",
  "postalCode": "35679"
 },
 {
  "id": 3502140004,
  "districtId": 3502140,
  "districtName": "BADEGAN",
  "name": "KARANGJOHO",
  "postalCode": "57464"
 },
 {
  "id": 3502140005,
  "districtId": 3502140,
  "districtName": "BADEGAN",
  "name": "TANJUNGREJO",
  "postalCode": "54224"
 },
 {
  "id": 3502140006,
  "districtId": 3502140,
  "districtName": "BADEGAN",
  "name": "BANDARALIM",
  "postalCode": "63455"
 },
 {
  "id": 3502140007,
  "districtId": 3502140,
  "districtName": "BADEGAN",
  "name": "KAPURAN",
  "postalCode": "63455"
 },
 {
  "id": 3502140008,
  "districtId": 3502140,
  "districtName": "BADEGAN",
  "name": "BADEGAN",
  "postalCode": "59163"
 },
 {
  "id": 3502140009,
  "districtId": 3502140,
  "districtName": "BADEGAN",
  "name": "WATUBONANG",
  "postalCode": "57561"
 },
 {
  "id": 3502140010,
  "districtId": 3502140,
  "districtName": "BADEGAN",
  "name": "BITING",
  "postalCode": "53454"
 }
]