[
 {
  "id": 3502150001,
  "districtId": 3502150,
  "districtName": "SAMPUNG",
  "name": "GELANGKULON",
  "postalCode": "63454"
 },
 {
  "id": 3502150002,
  "districtId": 3502150,
  "districtName": "SAMPUNG",
  "name": "KARANG WALUH",
  "postalCode": "63454"
 },
 {
  "id": 3502150003,
  "districtId": 3502150,
  "districtName": "SAMPUNG",
  "name": "GLINGGANG",
  "postalCode": "57664"
 },
 {
  "id": 3502150004,
  "districtId": 3502150,
  "districtName": "SAMPUNG",
  "name": "CARANG REJO",
  "postalCode": "61484"
 },
 {
  "id": 3502150006,
  "districtId": 3502150,
  "districtName": "SAMPUNG",
  "name": "KUNTI",
  "postalCode": "57384"
 },
 {
  "id": 3502150007,
  "districtId": 3502150,
  "districtName": "SAMPUNG",
  "name": "PAGERUKIR",
  "postalCode": "63454"
 },
 {
  "id": 3502150008,
  "districtId": 3502150,
  "districtName": "SAMPUNG",
  "name": "POHIJO",
  "postalCode": "59154"
 },
 {
  "id": 3502150009,
  "districtId": 3502150,
  "districtName": "SAMPUNG",
  "name": "JENANGAN",
  "postalCode": "63492"
 },
 {
  "id": 3502150011,
  "districtId": 3502150,
  "districtName": "SAMPUNG",
  "name": "SAMPUNG",
  "postalCode": "59274"
 },
 {
  "id": 3502150012,
  "districtId": 3502150,
  "districtName": "SAMPUNG",
  "name": "RINGIN PUTIH",
  "postalCode": ""
 }
]