[
 {
  "id": 3503110001,
  "districtId": 3503110,
  "districtName": "TRENGGALEK",
  "name": "KARANGSOKO",
  "postalCode": "66319"
 },
 {
  "id": 3503110002,
  "districtId": 3503110,
  "districtName": "TRENGGALEK",
  "name": "SAMBIREJO",
  "postalCode": "39153"
 },
 {
  "id": 3503110003,
  "districtId": 3503110,
  "districtName": "TRENGGALEK",
  "name": "KELUTAN",
  "postalCode": "64395"
 },
 {
  "id": 3503110004,
  "districtId": 3503110,
  "districtName": "TRENGGALEK",
  "name": "TAMANAN",
  "postalCode": "55191"
 },
 {
  "id": 3503110005,
  "districtId": 3503110,
  "districtName": "TRENGGALEK",
  "name": "NGANTRU",
  "postalCode": "65392"
 },
 {
  "id": 3503110006,
  "districtId": 3503110,
  "districtName": "TRENGGALEK",
  "name": "SUMBERGEDONG",
  "postalCode": "66315"
 },
 {
  "id": 3503110007,
  "districtId": 3503110,
  "districtName": "TRENGGALEK",
  "name": "SURODAKAN",
  "postalCode": "66316"
 },
 {
  "id": 3503110008,
  "districtId": 3503110,
  "districtName": "TRENGGALEK",
  "name": "REJOWINANGUN",
  "postalCode": "54262"
 },
 {
  "id": 3503110009,
  "districtId": 3503110,
  "districtName": "TRENGGALEK",
  "name": "PARAKAN",
  "postalCode": "16610"
 },
 {
  "id": 3503110010,
  "districtId": 3503110,
  "districtName": "TRENGGALEK",
  "name": "NGARES",
  "postalCode": "66319"
 },
 {
  "id": 3503110011,
  "districtId": 3503110,
  "districtName": "TRENGGALEK",
  "name": "SUMBERDADI",
  "postalCode": "66163"
 },
 {
  "id": 3503110012,
  "districtId": 3503110,
  "districtName": "TRENGGALEK",
  "name": "SUKOSARI",
  "postalCode": "32382"
 },
 {
  "id": 3503110013,
  "districtId": 3503110,
  "districtName": "TRENGGALEK",
  "name": "DAWUHAN",
  "postalCode": "53192"
 }
]