[
 {
  "id": 3503030001,
  "districtId": 3503030,
  "districtName": "WATULIMO",
  "name": "KARANGGANDU",
  "postalCode": "66382"
 },
 {
  "id": 3503030002,
  "districtId": 3503030,
  "districtName": "WATULIMO",
  "name": "PRIGI",
  "postalCode": "59583"
 },
 {
  "id": 3503030003,
  "districtId": 3503030,
  "districtName": "WATULIMO",
  "name": "TASIKMADU",
  "postalCode": "54263"
 },
 {
  "id": 3503030004,
  "districtId": 3503030,
  "districtName": "WATULIMO",
  "name": "WATULIMO",
  "postalCode": "66382"
 },
 {
  "id": 3503030005,
  "districtId": 3503030,
  "districtName": "WATULIMO",
  "name": "MARGOMULYO",
  "postalCode": "35679"
 },
 {
  "id": 3503030006,
  "districtId": 3503030,
  "districtName": "WATULIMO",
  "name": "SAWAHAN",
  "postalCode": "25121"
 },
 {
  "id": 3503030008,
  "districtId": 3503030,
  "districtName": "WATULIMO",
  "name": "SLAWE",
  "postalCode": "66382"
 },
 {
  "id": 3503030009,
  "districtId": 3503030,
  "districtName": "WATULIMO",
  "name": "GEMAHARJO",
  "postalCode": "63582"
 },
 {
  "id": 3503030010,
  "districtId": 3503030,
  "districtName": "WATULIMO",
  "name": "PAKEL",
  "postalCode": "57384"
 },
 {
  "id": 3503030012,
  "districtId": 3503030,
  "districtName": "WATULIMO",
  "name": "WATUAGUNG",
  "postalCode": "57673"
 }
]