[
 {
  "id": 3503120004,
  "districtId": 3503120,
  "districtName": "TUGU",
  "name": "GONDANG",
  "postalCode": "51255"
 },
 {
  "id": 3503120005,
  "districtId": 3503120,
  "districtName": "TUGU",
  "name": "NGLONGSOR",
  "postalCode": "66352"
 },
 {
  "id": 3503120006,
  "districtId": 3503120,
  "districtName": "TUGU",
  "name": "BANARAN",
  "postalCode": "51281"
 },
 {
  "id": 3503120007,
  "districtId": 3503120,
  "districtName": "TUGU",
  "name": "WINONG",
  "postalCode": "45161"
 },
 {
  "id": 3503120008,
  "districtId": 3503120,
  "districtName": "TUGU",
  "name": "SUKOREJO",
  "postalCode": "31551"
 },
 {
  "id": 3503120009,
  "districtId": 3503120,
  "districtName": "TUGU",
  "name": "JAMBU",
  "postalCode": "20998"
 },
 {
  "id": 3503120010,
  "districtId": 3503120,
  "districtName": "TUGU",
  "name": "NGLINGGIS",
  "postalCode": "66352"
 },
 {
  "id": 3503120011,
  "districtId": 3503120,
  "districtName": "TUGU",
  "name": "GADING",
  "postalCode": "22755"
 },
 {
  "id": 3503120012,
  "districtId": 3503120,
  "districtName": "TUGU",
  "name": "PUCANGANAK",
  "postalCode": "66352"
 },
 {
  "id": 3503120013,
  "districtId": 3503120,
  "districtName": "TUGU",
  "name": "DERMOSARI",
  "postalCode": "66352"
 },
 {
  "id": 3503120014,
  "districtId": 3503120,
  "districtName": "TUGU",
  "name": "TEGAREN",
  "postalCode": "66352"
 },
 {
  "id": 3503120015,
  "districtId": 3503120,
  "districtName": "TUGU",
  "name": "PRAMBON",
  "postalCode": "63172"
 }
]