[
 {
  "id": 3504070001,
  "districtId": 3504070,
  "districtName": "PUCANG LABAN",
  "name": "PANGGUNGKALAK",
  "postalCode": "66284"
 },
 {
  "id": 3504070002,
  "districtId": 3504070,
  "districtName": "PUCANG LABAN",
  "name": "KALIDAWE",
  "postalCode": "66284"
 },
 {
  "id": 3504070003,
  "districtId": 3504070,
  "districtName": "PUCANG LABAN",
  "name": "PUCANGLABAN",
  "postalCode": "66284"
 },
 {
  "id": 3504070004,
  "districtId": 3504070,
  "districtName": "PUCANG LABAN",
  "name": "SUMBERBENDO",
  "postalCode": "62283"
 },
 {
  "id": 3504070005,
  "districtId": 3504070,
  "districtName": "PUCANG LABAN",
  "name": "KALIGENTONG",
  "postalCode": "57352"
 },
 {
  "id": 3504070006,
  "districtId": 3504070,
  "districtName": "PUCANG LABAN",
  "name": "MANDING",
  "postalCode": "56224"
 },
 {
  "id": 3504070007,
  "districtId": 3504070,
  "districtName": "PUCANG LABAN",
  "name": "PANGGUNGUNI",
  "postalCode": "66284"
 },
 {
  "id": 3504070008,
  "districtId": 3504070,
  "districtName": "PUCANG LABAN",
  "name": "SUMBERDADAP",
  "postalCode": "66284"
 }
]