[
 {
  "id": 3504170001,
  "districtId": 3504170,
  "districtName": "GONDANG",
  "name": "KENDAL",
  "postalCode": "45181"
 },
 {
  "id": 3504170002,
  "districtId": 3504170,
  "districtName": "GONDANG",
  "name": "TAWING",
  "postalCode": "66263"
 },
 {
  "id": 3504170003,
  "districtId": 3504170,
  "districtName": "GONDANG",
  "name": "GONDOSULI",
  "postalCode": "56253"
 },
 {
  "id": 3504170005,
  "districtId": 3504170,
  "districtName": "GONDANG",
  "name": "SEPATAN",
  "postalCode": "66263"
 },
 {
  "id": 3504170006,
  "districtId": 3504170,
  "districtName": "GONDANG",
  "name": "MACANBANG",
  "postalCode": "66263"
 },
 {
  "id": 3504170007,
  "districtId": 3504170,
  "districtName": "GONDANG",
  "name": "KIPING",
  "postalCode": "66263"
 },
 {
  "id": 3504170008,
  "districtId": 3504170,
  "districtName": "GONDANG",
  "name": "REJOSARI",
  "postalCode": "29353"
 },
 {
  "id": 3504170009,
  "districtId": 3504170,
  "districtName": "GONDANG",
  "name": "BENDO",
  "postalCode": "57378"
 },
 {
  "id": 3504170011,
  "districtId": 3504170,
  "districtName": "GONDANG",
  "name": "GONDANG",
  "postalCode": "51255"
 },
 {
  "id": 3504170012,
  "districtId": 3504170,
  "districtName": "GONDANG",
  "name": "BENDUNGAN",
  "postalCode": "16720"
 },
 {
  "id": 3504170013,
  "districtId": 3504170,
  "districtName": "GONDANG",
  "name": "MOJOARUM",
  "postalCode": "66263"
 },
 {
  "id": 3504170014,
  "districtId": 3504170,
  "districtName": "GONDANG",
  "name": "SIDOMULYO",
  "postalCode": "21455"
 },
 {
  "id": 3504170015,
  "districtId": 3504170,
  "districtName": "GONDANG",
  "name": "NOTOREJO",
  "postalCode": "66263"
 },
 {
  "id": 3504170016,
  "districtId": 3504170,
  "districtName": "GONDANG",
  "name": "SIDEM",
  "postalCode": "66263"
 },
 {
  "id": 3504170017,
  "districtId": 3504170,
  "districtName": "GONDANG",
  "name": "BLENDIS",
  "postalCode": "66263"
 },
 {
  "id": 3504170018,
  "districtId": 3504170,
  "districtName": "GONDANG",
  "name": "TIUDAN",
  "postalCode": "66263"
 },
 {
  "id": 3504170019,
  "districtId": 3504170,
  "districtName": "GONDANG",
  "name": "WONOKROMO",
  "postalCode": "54352"
 },
 {
  "id": 3504170020,
  "districtId": 3504170,
  "districtName": "GONDANG",
  "name": "JARAKAN",
  "postalCode": "31593"
 }
]