[
 {
  "id": 3505130001,
  "districtId": 3505130,
  "districtName": "DOKO",
  "name": "SLOROK",
  "postalCode": "66186"
 },
 {
  "id": 3505130002,
  "districtId": 3505130,
  "districtName": "DOKO",
  "name": "GENENGAN",
  "postalCode": "57782"
 },
 {
  "id": 3505130003,
  "districtId": 3505130,
  "districtName": "DOKO",
  "name": "JAMBEPAWON",
  "postalCode": "66186"
 },
 {
  "id": 3505130004,
  "districtId": 3505130,
  "districtName": "DOKO",
  "name": "SIDOREJO",
  "postalCode": "24784"
 },
 {
  "id": 3505130005,
  "districtId": 3505130,
  "districtName": "DOKO",
  "name": "DOKO",
  "postalCode": "66186"
 },
 {
  "id": 3505130007,
  "districtId": 3505130,
  "districtName": "DOKO",
  "name": "PLUMBANGAN",
  "postalCode": "66186"
 },
 {
  "id": 3505130008,
  "districtId": 3505130,
  "districtName": "DOKO",
  "name": "SUMBER URIP",
  "postalCode": "39153"
 },
 {
  "id": 3505130009,
  "districtId": 3505130,
  "districtName": "DOKO",
  "name": "RESAPOMBO",
  "postalCode": "66186"
 },
 {
  "id": 3505130010,
  "districtId": 3505130,
  "districtName": "DOKO",
  "name": "KALIMANIS",
  "postalCode": "66186"
 }
]