[
 {
  "id": 3505100001,
  "districtId": 3505100,
  "districtName": "SELOPURO",
  "name": "MRONJO",
  "postalCode": "66184"
 },
 {
  "id": 3505100002,
  "districtId": 3505100,
  "districtName": "SELOPURO",
  "name": "MANDESAN",
  "postalCode": "66184"
 },
 {
  "id": 3505100003,
  "districtId": 3505100,
  "districtName": "SELOPURO",
  "name": "SELOPURO",
  "postalCode": "57674"
 },
 {
  "id": 3505100004,
  "districtId": 3505100,
  "districtName": "SELOPURO",
  "name": "PLOSO",
  "postalCode": "59348"
 },
 {
  "id": 3505100005,
  "districtId": 3505100,
  "districtName": "SELOPURO",
  "name": "JATITENGAH",
  "postalCode": "45458"
 },
 {
  "id": 3505100006,
  "districtId": 3505100,
  "districtName": "SELOPURO",
  "name": "JAMBEWANGI",
  "postalCode": "56193"
 },
 {
  "id": 3505100007,
  "districtId": 3505100,
  "districtName": "SELOPURO",
  "name": "TEGALREJO",
  "postalCode": "50733"
 },
 {
  "id": 3505100008,
  "districtId": 3505100,
  "districtName": "SELOPURO",
  "name": "POPOH",
  "postalCode": "66184"
 }
]