[
 {
  "id": 3505170001,
  "districtId": 3505170,
  "districtName": "NGLEGOK",
  "name": "BANGSRI",
  "postalCode": "59453"
 },
 {
  "id": 3505170002,
  "districtId": 3505170,
  "districtName": "NGLEGOK",
  "name": "JIWUT",
  "postalCode": "66181"
 },
 {
  "id": 3505170004,
  "districtId": 3505170,
  "districtName": "NGLEGOK",
  "name": "KEMLOKO",
  "postalCode": "58162"
 },
 {
  "id": 3505170005,
  "districtId": 3505170,
  "districtName": "NGLEGOK",
  "name": "DAYU",
  "postalCode": "57188"
 },
 {
  "id": 3505170006,
  "districtId": 3505170,
  "districtName": "NGLEGOK",
  "name": "NGORAN",
  "postalCode": "66181"
 },
 {
  "id": 3505170007,
  "districtId": 3505170,
  "districtName": "NGLEGOK",
  "name": "NGLEGOK",
  "postalCode": "57793"
 },
 {
  "id": 3505170008,
  "districtId": 3505170,
  "districtName": "NGLEGOK",
  "name": "MODANGAN",
  "postalCode": "66181"
 },
 {
  "id": 3505170009,
  "districtId": 3505170,
  "districtName": "NGLEGOK",
  "name": "PENATARAN",
  "postalCode": "66181"
 },
 {
  "id": 3505170010,
  "districtId": 3505170,
  "districtName": "NGLEGOK",
  "name": "KEDAWUNG",
  "postalCode": "45153"
 },
 {
  "id": 3505170011,
  "districtId": 3505170,
  "districtName": "NGLEGOK",
  "name": "SUMBERASRI",
  "postalCode": "66181"
 }
]