[
 {
  "id": 3505030001,
  "districtId": 3505030,
  "districtName": "PANGGUNGREJO",
  "name": "SERANG",
  "postalCode": "17530"
 },
 {
  "id": 3505030002,
  "districtId": 3505030,
  "districtName": "PANGGUNGREJO",
  "name": "SUMBERSIH",
  "postalCode": "66174"
 },
 {
  "id": 3505030003,
  "districtId": 3505030,
  "districtName": "PANGGUNGREJO",
  "name": "KALI GAMBIR",
  "postalCode": "66174"
 },
 {
  "id": 3505030004,
  "districtId": 3505030,
  "districtName": "PANGGUNGREJO",
  "name": "BALE REJO",
  "postalCode": "34381"
 },
 {
  "id": 3505030005,
  "districtId": 3505030,
  "districtName": "PANGGUNGREJO",
  "name": "SUMBER AGUNG",
  "postalCode": "37353"
 },
 {
  "id": 3505030006,
  "districtId": 3505030,
  "districtName": "PANGGUNGREJO",
  "name": "PANGGUNG REJO",
  "postalCode": "34696"
 },
 {
  "id": 3505030007,
  "districtId": 3505030,
  "districtName": "PANGGUNGREJO",
  "name": "KALITENGAH",
  "postalCode": "45153"
 },
 {
  "id": 3505030008,
  "districtId": 3505030,
  "districtName": "PANGGUNGREJO",
  "name": "MARGO MULYO",
  "postalCode": "32383"
 },
 {
  "id": 3505030009,
  "districtId": 3505030,
  "districtName": "PANGGUNGREJO",
  "name": "BUMIAYU",
  "postalCode": "31314"
 },
 {
  "id": 3505030010,
  "districtId": 3505030,
  "districtName": "PANGGUNGREJO",
  "name": "PANGGUNG ASRI",
  "postalCode": "66174"
 }
]