[
 {
  "id": 3505180001,
  "districtId": 3505180,
  "districtName": "SANANKULON",
  "name": "PLOSOARANG",
  "postalCode": "66151"
 },
 {
  "id": 3505180002,
  "districtId": 3505180,
  "districtName": "SANANKULON",
  "name": "TULISKRIYO",
  "postalCode": "66151"
 },
 {
  "id": 3505180003,
  "districtId": 3505180,
  "districtName": "SANANKULON",
  "name": "BENDOWULUNG",
  "postalCode": "66151"
 },
 {
  "id": 3505180004,
  "districtId": 3505180,
  "districtName": "SANANKULON",
  "name": "PURWOREJO",
  "postalCode": "23661"
 },
 {
  "id": 3505180005,
  "districtId": 3505180,
  "districtName": "SANANKULON",
  "name": "BENDOSARI",
  "postalCode": "57528"
 },
 {
  "id": 3505180006,
  "districtId": 3505180,
  "districtName": "SANANKULON",
  "name": "SANANKULON",
  "postalCode": "66151"
 },
 {
  "id": 3505180007,
  "districtId": 3505180,
  "districtName": "SANANKULON",
  "name": "KALIPUCUNG",
  "postalCode": "66151"
 },
 {
  "id": 3505180009,
  "districtId": 3505180,
  "districtName": "SANANKULON",
  "name": "SUMBERJO",
  "postalCode": "34396"
 },
 {
  "id": 3505180010,
  "districtId": 3505180,
  "districtName": "SANANKULON",
  "name": "JEDING",
  "postalCode": "66151"
 },
 {
  "id": 3505180012,
  "districtId": 3505180,
  "districtName": "SANANKULON",
  "name": "SUMBERINGIN",
  "postalCode": "66361"
 }
]