[
 {
  "id": 3506030001,
  "districtId": 3506030,
  "districtName": "NGADILUWIH",
  "name": "TALES",
  "postalCode": "64171"
 },
 {
  "id": 3506030003,
  "districtId": 3506030,
  "districtName": "NGADILUWIH",
  "name": "BRANGGAHAN",
  "postalCode": "64171"
 },
 {
  "id": 3506030004,
  "districtId": 3506030,
  "districtName": "NGADILUWIH",
  "name": "SEKETI",
  "postalCode": "61263"
 },
 {
  "id": 3506030005,
  "districtId": 3506030,
  "districtName": "NGADILUWIH",
  "name": "BANGGLE",
  "postalCode": "66171"
 },
 {
  "id": 3506030006,
  "districtId": 3506030,
  "districtName": "NGADILUWIH",
  "name": "NGADILUWIH",
  "postalCode": "57781"
 },
 {
  "id": 3506030007,
  "districtId": 3506030,
  "districtName": "NGADILUWIH",
  "name": "PURWOKERTO",
  "postalCode": "51371"
 },
 {
  "id": 3506030009,
  "districtId": 3506030,
  "districtName": "NGADILUWIH",
  "name": "REMBANGKEPUH",
  "postalCode": "64171"
 },
 {
  "id": 3506030011,
  "districtId": 3506030,
  "districtName": "NGADILUWIH",
  "name": "REMBANG",
  "postalCode": "64171"
 },
 {
  "id": 3506030012,
  "districtId": 3506030,
  "districtName": "NGADILUWIH",
  "name": "BADAL",
  "postalCode": "64171"
 },
 {
  "id": 3506030013,
  "districtId": 3506030,
  "districtName": "NGADILUWIH",
  "name": "BADAL PANDEAN",
  "postalCode": ""
 },
 {
  "id": 3506030014,
  "districtId": 3506030,
  "districtName": "NGADILUWIH",
  "name": "WONOREJO",
  "postalCode": "21186"
 },
 {
  "id": 3506030015,
  "districtId": 3506030,
  "districtName": "NGADILUWIH",
  "name": "BANJAREJO",
  "postalCode": "35373"
 },
 {
  "id": 3506030016,
  "districtId": 3506030,
  "districtName": "NGADILUWIH",
  "name": "MANGUNREJO",
  "postalCode": "56163"
 }
]