[
 {
  "id": 3506220001,
  "districtId": 3506220,
  "districtName": "GROGOL",
  "name": "KALIPANG",
  "postalCode": "58183"
 },
 {
  "id": 3506220002,
  "districtId": 3506220,
  "districtName": "GROGOL",
  "name": "GROGOL",
  "postalCode": "11450"
 },
 {
  "id": 3506220003,
  "districtId": 3506220,
  "districtName": "GROGOL",
  "name": "WONOASRI",
  "postalCode": "64151"
 },
 {
  "id": 3506220004,
  "districtId": 3506220,
  "districtName": "GROGOL",
  "name": "SONOREJO",
  "postalCode": "58213"
 },
 {
  "id": 3506220005,
  "districtId": 3506220,
  "districtName": "GROGOL",
  "name": "BAKALAN",
  "postalCode": "59158"
 },
 {
  "id": 3506220006,
  "districtId": 3506220,
  "districtName": "GROGOL",
  "name": "DATENGAN",
  "postalCode": "64151"
 },
 {
  "id": 3506220007,
  "districtId": 3506220,
  "districtName": "GROGOL",
  "name": "GAMBYOK",
  "postalCode": "64151"
 },
 {
  "id": 3506220008,
  "districtId": 3506220,
  "districtName": "GROGOL",
  "name": "SUMBERJO",
  "postalCode": "34396"
 }
]