[
 {
  "id": 3506050001,
  "districtId": 3506050,
  "districtName": "RINGINREJO",
  "name": "JEMEKAN",
  "postalCode": "64176"
 },
 {
  "id": 3506050002,
  "districtId": 3506050,
  "districtName": "RINGINREJO",
  "name": "SRIKATON",
  "postalCode": "30975"
 },
 {
  "id": 3506050003,
  "districtId": 3506050,
  "districtName": "RINGINREJO",
  "name": "SAMBI",
  "postalCode": "57376"
 },
 {
  "id": 3506050004,
  "districtId": 3506050,
  "districtName": "RINGINREJO",
  "name": "RINGINREJO",
  "postalCode": "64176"
 },
 {
  "id": 3506050006,
  "districtId": 3506050,
  "districtName": "RINGINREJO",
  "name": "BATUAJI",
  "postalCode": "64176"
 },
 {
  "id": 3506050007,
  "districtId": 3506050,
  "districtName": "RINGINREJO",
  "name": "DAWUNG",
  "postalCode": "57256"
 },
 {
  "id": 3506050008,
  "districtId": 3506050,
  "districtName": "RINGINREJO",
  "name": "PURWODADI",
  "postalCode": "24652"
 },
 {
  "id": 3506050009,
  "districtId": 3506050,
  "districtName": "RINGINREJO",
  "name": "SELODONO",
  "postalCode": "64176"
 },
 {
  "id": 3506050010,
  "districtId": 3506050,
  "districtName": "RINGINREJO",
  "name": "SUSUHBANGO",
  "postalCode": "64176"
 },
 {
  "id": 3506050011,
  "districtId": 3506050,
  "districtName": "RINGINREJO",
  "name": "NAMBAKAN",
  "postalCode": ""
 }
]