[
 {
  "id": 3506020001,
  "districtId": 3506020,
  "districtName": "SEMEN",
  "name": "SELOPANGGUNG",
  "postalCode": "63351"
 },
 {
  "id": 3506020003,
  "districtId": 3506020,
  "districtName": "SEMEN",
  "name": "SIDOMULYO",
  "postalCode": "21455"
 },
 {
  "id": 3506020005,
  "districtId": 3506020,
  "districtName": "SEMEN",
  "name": "BOBANG",
  "postalCode": "64161"
 },
 {
  "id": 3506020006,
  "districtId": 3506020,
  "districtName": "SEMEN",
  "name": "PUHSARANG",
  "postalCode": "64161"
 },
 {
  "id": 3506020007,
  "districtId": 3506020,
  "districtName": "SEMEN",
  "name": "KANYORAN",
  "postalCode": "64161"
 },
 {
  "id": 3506020008,
  "districtId": 3506020,
  "districtName": "SEMEN",
  "name": "JOHO",
  "postalCode": "54363"
 },
 {
  "id": 3506020009,
  "districtId": 3506020,
  "districtName": "SEMEN",
  "name": "PAGUNG",
  "postalCode": "64161"
 },
 {
  "id": 3506020010,
  "districtId": 3506020,
  "districtName": "SEMEN",
  "name": "KEDAK",
  "postalCode": "64161"
 },
 {
  "id": 3506020011,
  "districtId": 3506020,
  "districtName": "SEMEN",
  "name": "TITIK",
  "postalCode": "62261"
 }
]