[
 {
  "id": 3506230001,
  "districtId": 3506230,
  "districtName": "TAROKAN",
  "name": "TAROKAN",
  "postalCode": "67275"
 },
 {
  "id": 3506230002,
  "districtId": 3506230,
  "districtName": "TAROKAN",
  "name": "BULUSARI",
  "postalCode": "34161"
 },
 {
  "id": 3506230003,
  "districtId": 3506230,
  "districtName": "TAROKAN",
  "name": "KALIRONG",
  "postalCode": "64152"
 },
 {
  "id": 3506230004,
  "districtId": 3506230,
  "districtName": "TAROKAN",
  "name": "KALIBOTO",
  "postalCode": "54183"
 },
 {
  "id": 3506230005,
  "districtId": 3506230,
  "districtName": "TAROKAN",
  "name": "KEDUNGSARI",
  "postalCode": "28123"
 },
 {
  "id": 3506230008,
  "districtId": 3506230,
  "districtName": "TAROKAN",
  "name": "BLIMBING",
  "postalCode": "52364"
 },
 {
  "id": 3506230009,
  "districtId": 3506230,
  "districtName": "TAROKAN",
  "name": "CENGKOK",
  "postalCode": "64395"
 },
 {
  "id": 3506230010,
  "districtId": 3506230,
  "districtName": "TAROKAN",
  "name": "JATI",
  "postalCode": "20152"
 }
]