[
 {
  "id": 3506201001,
  "districtId": 3506201,
  "districtName": "NGASEM",
  "name": "TUGUREJO",
  "postalCode": "39373"
 },
 {
  "id": 3506201002,
  "districtId": 3506201,
  "districtName": "NGASEM",
  "name": "SUMBEREJO",
  "postalCode": "20551"
 },
 {
  "id": 3506201003,
  "districtId": 3506201,
  "districtName": "NGASEM",
  "name": "PARON",
  "postalCode": "64461"
 },
 {
  "id": 3506201004,
  "districtId": 3506201,
  "districtName": "NGASEM",
  "name": "SUKOREJO",
  "postalCode": "31551"
 },
 {
  "id": 3506201005,
  "districtId": 3506201,
  "districtName": "NGASEM",
  "name": "NGASEM",
  "postalCode": "59461"
 },
 {
  "id": 3506201006,
  "districtId": 3506201,
  "districtName": "NGASEM",
  "name": "KARANGREJO",
  "postalCode": "35387"
 },
 {
  "id": 3506201007,
  "districtId": 3506201,
  "districtName": "NGASEM",
  "name": "KWADUNGAN",
  "postalCode": "56372"
 },
 {
  "id": 3506201008,
  "districtId": 3506201,
  "districtName": "NGASEM",
  "name": "NAMBAAN",
  "postalCode": "64182"
 },
 {
  "id": 3506201009,
  "districtId": 3506201,
  "districtName": "NGASEM",
  "name": "TOYORESMI",
  "postalCode": "64182"
 },
 {
  "id": 3506201010,
  "districtId": 3506201,
  "districtName": "NGASEM",
  "name": "WONOCATUR",
  "postalCode": "64182"
 },
 {
  "id": 3506201011,
  "districtId": 3506201,
  "districtName": "NGASEM",
  "name": "GOGORANTE",
  "postalCode": "64182"
 },
 {
  "id": 3506201012,
  "districtId": 3506201,
  "districtName": "NGASEM",
  "name": "DOKO",
  "postalCode": "66186"
 }
]