[
 {
  "id": 3507270001,
  "districtId": 3507270,
  "districtName": "LAWANG",
  "name": "SIDOLUHUR",
  "postalCode": "34173"
 },
 {
  "id": 3507270002,
  "districtId": 3507270,
  "districtName": "LAWANG",
  "name": "SRIGADING",
  "postalCode": "58254"
 },
 {
  "id": 3507270003,
  "districtId": 3507270,
  "districtName": "LAWANG",
  "name": "SIDODADI",
  "postalCode": "24582"
 },
 {
  "id": 3507270004,
  "districtId": 3507270,
  "districtName": "LAWANG",
  "name": "BEDALI",
  "postalCode": "65215"
 },
 {
  "id": 3507270005,
  "districtId": 3507270,
  "districtName": "LAWANG",
  "name": "KALIREJO",
  "postalCode": "35353"
 },
 {
  "id": 3507270006,
  "districtId": 3507270,
  "districtName": "LAWANG",
  "name": "MULYOARJO",
  "postalCode": "65216"
 },
 {
  "id": 3507270007,
  "districtId": 3507270,
  "districtName": "LAWANG",
  "name": "SUMBER NGEPOH",
  "postalCode": "65216"
 },
 {
  "id": 3507270008,
  "districtId": 3507270,
  "districtName": "LAWANG",
  "name": "SUMBER PORONG",
  "postalCode": "65216"
 },
 {
  "id": 3507270009,
  "districtId": 3507270,
  "districtName": "LAWANG",
  "name": "TURIREJO",
  "postalCode": "59517"
 },
 {
  "id": 3507270010,
  "districtId": 3507270,
  "districtName": "LAWANG",
  "name": "LAWANG",
  "postalCode": "24386"
 },
 {
  "id": 3507270011,
  "districtId": 3507270,
  "districtName": "LAWANG",
  "name": "KETINDAN",
  "postalCode": "65214"
 },
 {
  "id": 3507270012,
  "districtId": 3507270,
  "districtName": "LAWANG",
  "name": "WONOREJO",
  "postalCode": "21186"
 }
]