[
 {
  "id": 3507070001,
  "districtId": 3507070,
  "districtName": "DAMPIT",
  "name": "SUKODONO",
  "postalCode": "59552"
 },
 {
  "id": 3507070002,
  "districtId": 3507070,
  "districtName": "DAMPIT",
  "name": "SRIMULYO",
  "postalCode": "30975"
 },
 {
  "id": 3507070003,
  "districtId": 3507070,
  "districtName": "DAMPIT",
  "name": "BATURETNO",
  "postalCode": "57673"
 },
 {
  "id": 3507070004,
  "districtId": 3507070,
  "districtName": "DAMPIT",
  "name": "BUMIREJO",
  "postalCode": "59185"
 },
 {
  "id": 3507070005,
  "districtId": 3507070,
  "districtName": "DAMPIT",
  "name": "SUMBERSUKO",
  "postalCode": "68251"
 },
 {
  "id": 3507070006,
  "districtId": 3507070,
  "districtName": "DAMPIT",
  "name": "AMADANOM",
  "postalCode": "65181"
 },
 {
  "id": 3507070007,
  "districtId": 3507070,
  "districtName": "DAMPIT",
  "name": "DAMPIT",
  "postalCode": "40395"
 },
 {
  "id": 3507070008,
  "districtId": 3507070,
  "districtName": "DAMPIT",
  "name": "PAMOTAN",
  "postalCode": "46397"
 },
 {
  "id": 3507070009,
  "districtId": 3507070,
  "districtName": "DAMPIT",
  "name": "MAJANGTENGAH",
  "postalCode": "65181"
 },
 {
  "id": 3507070011,
  "districtId": 3507070,
  "districtName": "DAMPIT",
  "name": "POJOK",
  "postalCode": "57752"
 },
 {
  "id": 3507070012,
  "districtId": 3507070,
  "districtName": "DAMPIT",
  "name": "JAMBANGAN",
  "postalCode": "51274"
 }
]