[
 {
  "id": 3507190001,
  "districtId": 3507190,
  "districtName": "NGAJUM",
  "name": "NGAJUM",
  "postalCode": "65164"
 },
 {
  "id": 3507190002,
  "districtId": 3507190,
  "districtName": "NGAJUM",
  "name": "PALAAN",
  "postalCode": "65164"
 },
 {
  "id": 3507190003,
  "districtId": 3507190,
  "districtName": "NGAJUM",
  "name": "NGASEM",
  "postalCode": "59461"
 },
 {
  "id": 3507190004,
  "districtId": 3507190,
  "districtName": "NGAJUM",
  "name": "BANJARSARI",
  "postalCode": "35377"
 },
 {
  "id": 3507190005,
  "districtId": 3507190,
  "districtName": "NGAJUM",
  "name": "KRANGGAN",
  "postalCode": "50613"
 },
 {
  "id": 3507190006,
  "districtId": 3507190,
  "districtName": "NGAJUM",
  "name": "KESAMBEN",
  "postalCode": "66191"
 },
 {
  "id": 3507190007,
  "districtId": 3507190,
  "districtName": "NGAJUM",
  "name": "BABADAN",
  "postalCode": "45151"
 },
 {
  "id": 3507190008,
  "districtId": 3507190,
  "districtName": "NGAJUM",
  "name": "BALESARI",
  "postalCode": "56265"
 },
 {
  "id": 3507190009,
  "districtId": 3507190,
  "districtName": "NGAJUM",
  "name": "MAGUAN",
  "postalCode": "59252"
 }
]