[
 {
  "id": 3507300002,
  "districtId": 3507300,
  "districtName": "DAU",
  "name": "KALISONGO",
  "postalCode": "65151"
 },
 {
  "id": 3507300003,
  "districtId": 3507300,
  "districtName": "DAU",
  "name": "KARANGWIDORO",
  "postalCode": "65151"
 },
 {
  "id": 3507300005,
  "districtId": 3507300,
  "districtName": "DAU",
  "name": "SELOREJO",
  "postalCode": "57683"
 },
 {
  "id": 3507300006,
  "districtId": 3507300,
  "districtName": "DAU",
  "name": "TEGALWERU",
  "postalCode": "65151"
 },
 {
  "id": 3507300007,
  "districtId": 3507300,
  "districtName": "DAU",
  "name": "LANDUNGSARI",
  "postalCode": "51129"
 },
 {
  "id": 3507300008,
  "districtId": 3507300,
  "districtName": "DAU",
  "name": "GADINGKULON",
  "postalCode": "65151"
 },
 {
  "id": 3507300009,
  "districtId": 3507300,
  "districtName": "DAU",
  "name": "MULYOAGUNG",
  "postalCode": "62182"
 },
 {
  "id": 3507300010,
  "districtId": 3507300,
  "districtName": "DAU",
  "name": "SUMBERSEKAR",
  "postalCode": "65151"
 }
]