[
 {
  "id": 3507160001,
  "districtId": 3507160,
  "districtName": "KEPANJEN",
  "name": "JENGGOLO",
  "postalCode": "62352"
 },
 {
  "id": 3507160003,
  "districtId": 3507160,
  "districtName": "KEPANJEN",
  "name": "KEMIRI",
  "postalCode": "41352"
 },
 {
  "id": 3507160004,
  "districtId": 3507160,
  "districtName": "KEPANJEN",
  "name": "TEGALSARI",
  "postalCode": "35372"
 },
 {
  "id": 3507160005,
  "districtId": 3507160,
  "districtName": "KEPANJEN",
  "name": "MANGUNREJO",
  "postalCode": "56163"
 },
 {
  "id": 3507160006,
  "districtId": 3507160,
  "districtName": "KEPANJEN",
  "name": "PANGGUNGREJO",
  "postalCode": "66261"
 },
 {
  "id": 3507160007,
  "districtId": 3507160,
  "districtName": "KEPANJEN",
  "name": "KEDUNGPEDARINGAN",
  "postalCode": "65163"
 },
 {
  "id": 3507160008,
  "districtId": 3507160,
  "districtName": "KEPANJEN",
  "name": "PENARUKAN",
  "postalCode": "52194"
 },
 {
  "id": 3507160009,
  "districtId": 3507160,
  "districtName": "KEPANJEN",
  "name": "CEPOKOMULYO",
  "postalCode": "51356"
 },
 {
  "id": 3507160010,
  "districtId": 3507160,
  "districtName": "KEPANJEN",
  "name": "KEPANJEN",
  "postalCode": "57471"
 },
 {
  "id": 3507160011,
  "districtId": 3507160,
  "districtName": "KEPANJEN",
  "name": "TALANGAGUNG",
  "postalCode": "65163"
 },
 {
  "id": 3507160012,
  "districtId": 3507160,
  "districtName": "KEPANJEN",
  "name": "DILEM",
  "postalCode": "54262"
 },
 {
  "id": 3507160013,
  "districtId": 3507160,
  "districtName": "KEPANJEN",
  "name": "ARDIREJO",
  "postalCode": "65163"
 },
 {
  "id": 3507160014,
  "districtId": 3507160,
  "districtName": "KEPANJEN",
  "name": "SUKORAHARJO",
  "postalCode": "65163"
 },
 {
  "id": 3507160015,
  "districtId": 3507160,
  "districtName": "KEPANJEN",
  "name": "CURUNG REJO",
  "postalCode": "65163"
 },
 {
  "id": 3507160016,
  "districtId": 3507160,
  "districtName": "KEPANJEN",
  "name": "JATIREJOYOSO",
  "postalCode": "65163"
 },
 {
  "id": 3507160017,
  "districtId": 3507160,
  "districtName": "KEPANJEN",
  "name": "NGADILANGKUNG",
  "postalCode": "65163"
 },
 {
  "id": 3507160018,
  "districtId": 3507160,
  "districtName": "KEPANJEN",
  "name": "MOJOSARI",
  "postalCode": "56265"
 }
]