[
 {
  "id": 3507240001,
  "districtId": 3507240,
  "districtName": "TUMPANG",
  "name": "NGINGIT",
  "postalCode": "65156"
 },
 {
  "id": 3507240002,
  "districtId": 3507240,
  "districtName": "TUMPANG",
  "name": "KIDAL",
  "postalCode": "65156"
 },
 {
  "id": 3507240003,
  "districtId": 3507240,
  "districtName": "TUMPANG",
  "name": "KAMBINGAN",
  "postalCode": "61171"
 },
 {
  "id": 3507240004,
  "districtId": 3507240,
  "districtName": "TUMPANG",
  "name": "PANDANAJENG",
  "postalCode": "65156"
 },
 {
  "id": 3507240005,
  "districtId": 3507240,
  "districtName": "TUMPANG",
  "name": "PULUNGDOWO",
  "postalCode": "65156"
 },
 {
  "id": 3507240006,
  "districtId": 3507240,
  "districtName": "TUMPANG",
  "name": "BOKOR",
  "postalCode": "28755"
 },
 {
  "id": 3507240007,
  "districtId": 3507240,
  "districtName": "TUMPANG",
  "name": "SLAMET",
  "postalCode": "65156"
 },
 {
  "id": 3507240008,
  "districtId": 3507240,
  "districtName": "TUMPANG",
  "name": "WRINGINSONGO",
  "postalCode": "65156"
 },
 {
  "id": 3507240010,
  "districtId": 3507240,
  "districtName": "TUMPANG",
  "name": "MALANGSUKO",
  "postalCode": "65156"
 },
 {
  "id": 3507240011,
  "districtId": 3507240,
  "districtName": "TUMPANG",
  "name": "TUMPANG",
  "postalCode": "66183"
 },
 {
  "id": 3507240012,
  "districtId": 3507240,
  "districtName": "TUMPANG",
  "name": "TULUSBESAR",
  "postalCode": "65156"
 },
 {
  "id": 3507240013,
  "districtId": 3507240,
  "districtName": "TUMPANG",
  "name": "BENJOR",
  "postalCode": "65156"
 },
 {
  "id": 3507240015,
  "districtId": 3507240,
  "districtName": "TUMPANG",
  "name": "DUWET KRAJAN",
  "postalCode": "65156"
 }
]