[
 {
  "id": 3507290001,
  "districtId": 3507290,
  "districtName": "KARANGPLOSO",
  "name": "TEGALGONDO",
  "postalCode": "54264"
 },
 {
  "id": 3507290002,
  "districtId": 3507290,
  "districtName": "KARANGPLOSO",
  "name": "KEPUHARJO",
  "postalCode": "65152"
 },
 {
  "id": 3507290004,
  "districtId": 3507290,
  "districtName": "KARANGPLOSO",
  "name": "NGIJO",
  "postalCode": "50228"
 },
 {
  "id": 3507290005,
  "districtId": 3507290,
  "districtName": "KARANGPLOSO",
  "name": "AMPELDENTO",
  "postalCode": "65152"
 },
 {
  "id": 3507290006,
  "districtId": 3507290,
  "districtName": "KARANGPLOSO",
  "name": "GIRIMOYO",
  "postalCode": "65152"
 },
 {
  "id": 3507290007,
  "districtId": 3507290,
  "districtName": "KARANGPLOSO",
  "name": "BOCEK",
  "postalCode": "65152"
 },
 {
  "id": 3507290008,
  "districtId": 3507290,
  "districtName": "KARANGPLOSO",
  "name": "DONOWARIH",
  "postalCode": "65152"
 },
 {
  "id": 3507290009,
  "districtId": 3507290,
  "districtName": "KARANGPLOSO",
  "name": "TAWANGARGO",
  "postalCode": "65152"
 }
]