[
 {
  "id": 3507250001,
  "districtId": 3507250,
  "districtName": "PAKIS",
  "name": "SEKARPURO",
  "postalCode": "65154"
 },
 {
  "id": 3507250002,
  "districtId": 3507250,
  "districtName": "PAKIS",
  "name": "AMPELDENTO",
  "postalCode": "65152"
 },
 {
  "id": 3507250003,
  "districtId": 3507250,
  "districtName": "PAKIS",
  "name": "SUMBERKRADENAN",
  "postalCode": "65154"
 },
 {
  "id": 3507250004,
  "districtId": 3507250,
  "districtName": "PAKIS",
  "name": "KEDUNGREJO",
  "postalCode": "57383"
 },
 {
  "id": 3507250005,
  "districtId": 3507250,
  "districtName": "PAKIS",
  "name": "BANJARREJO",
  "postalCode": "62272"
 },
 {
  "id": 3507250006,
  "districtId": 3507250,
  "districtName": "PAKIS",
  "name": "PUCANG SONGO",
  "postalCode": "65154"
 },
 {
  "id": 3507250007,
  "districtId": 3507250,
  "districtName": "PAKIS",
  "name": "SUKOANYAR",
  "postalCode": "61171"
 },
 {
  "id": 3507250008,
  "districtId": 3507250,
  "districtName": "PAKIS",
  "name": "SUMBERPASIR",
  "postalCode": "65154"
 },
 {
  "id": 3507250009,
  "districtId": 3507250,
  "districtName": "PAKIS",
  "name": "PAKISKEMBAR",
  "postalCode": "65154"
 },
 {
  "id": 3507250010,
  "districtId": 3507250,
  "districtName": "PAKIS",
  "name": "PAKISJAJAR",
  "postalCode": "65154"
 },
 {
  "id": 3507250011,
  "districtId": 3507250,
  "districtName": "PAKIS",
  "name": "BUNUTWETAN",
  "postalCode": "65154"
 },
 {
  "id": 3507250012,
  "districtId": 3507250,
  "districtName": "PAKIS",
  "name": "ASRIKATON",
  "postalCode": "65154"
 },
 {
  "id": 3507250013,
  "districtId": 3507250,
  "districtName": "PAKIS",
  "name": "SAPTORENGGO",
  "postalCode": "65154"
 },
 {
  "id": 3507250014,
  "districtId": 3507250,
  "districtName": "PAKIS",
  "name": "MANGLIAWAN",
  "postalCode": "65154"
 },
 {
  "id": 3507250015,
  "districtId": 3507250,
  "districtName": "PAKIS",
  "name": "TIRTOMOYO",
  "postalCode": "54393"
 }
]