[
 {
  "id": 3507050001,
  "districtId": 3507050,
  "districtName": "GEDANGAN",
  "name": "TUMPAKREJO",
  "postalCode": "65178"
 },
 {
  "id": 3507050002,
  "districtId": 3507050,
  "districtName": "GEDANGAN",
  "name": "SINDUREJO",
  "postalCode": "58171"
 },
 {
  "id": 3507050003,
  "districtId": 3507050,
  "districtName": "GEDANGAN",
  "name": "GAJAHREJO",
  "postalCode": "65178"
 },
 {
  "id": 3507050004,
  "districtId": 3507050,
  "districtName": "GEDANGAN",
  "name": "SIDODADI",
  "postalCode": "24582"
 },
 {
  "id": 3507050005,
  "districtId": 3507050,
  "districtName": "GEDANGAN",
  "name": "GEDANGAN",
  "postalCode": "21264"
 },
 {
  "id": 3507050006,
  "districtId": 3507050,
  "districtName": "GEDANGAN",
  "name": "SEGARAN",
  "postalCode": "41354"
 },
 {
  "id": 3507050007,
  "districtId": 3507050,
  "districtName": "GEDANGAN",
  "name": "SUMBEREJO",
  "postalCode": "20551"
 },
 {
  "id": 3507050008,
  "districtId": 3507050,
  "districtName": "GEDANGAN",
  "name": "GIRIMULYO",
  "postalCode": "57693"
 }
]