[
 {
  "id": 3507120001,
  "districtId": 3507120,
  "districtName": "TUREN",
  "name": "KEMULAN",
  "postalCode": "65175"
 },
 {
  "id": 3507120002,
  "districtId": 3507120,
  "districtName": "TUREN",
  "name": "TAWANGREJENI",
  "postalCode": "65175"
 },
 {
  "id": 3507120003,
  "districtId": 3507120,
  "districtName": "TUREN",
  "name": "SAWAHAN",
  "postalCode": "25121"
 },
 {
  "id": 3507120004,
  "districtId": 3507120,
  "districtName": "TUREN",
  "name": "UNDAAN",
  "postalCode": "65175"
 },
 {
  "id": 3507120005,
  "districtId": 3507120,
  "districtName": "TUREN",
  "name": "GEDOG KULON",
  "postalCode": "65175"
 },
 {
  "id": 3507120006,
  "districtId": 3507120,
  "districtName": "TUREN",
  "name": "GEDOG WETAN",
  "postalCode": "65175"
 },
 {
  "id": 3507120007,
  "districtId": 3507120,
  "districtName": "TUREN",
  "name": "TALOK",
  "postalCode": "52471"
 },
 {
  "id": 3507120008,
  "districtId": 3507120,
  "districtName": "TUREN",
  "name": "SEDAYU",
  "postalCode": "35386"
 },
 {
  "id": 3507120009,
  "districtId": 3507120,
  "districtName": "TUREN",
  "name": "TANGGUNG",
  "postalCode": "66272"
 },
 {
  "id": 3507120012,
  "districtId": 3507120,
  "districtName": "TUREN",
  "name": "PAGEDANGAN",
  "postalCode": "45272"
 },
 {
  "id": 3507120013,
  "districtId": 3507120,
  "districtName": "TUREN",
  "name": "SANANKERTO",
  "postalCode": "65175"
 },
 {
  "id": 3507120014,
  "districtId": 3507120,
  "districtName": "TUREN",
  "name": "SANANREJO",
  "postalCode": "65175"
 },
 {
  "id": 3507120015,
  "districtId": 3507120,
  "districtName": "TUREN",
  "name": "KEDOK",
  "postalCode": "65175"
 },
 {
  "id": 3507120016,
  "districtId": 3507120,
  "districtName": "TUREN",
  "name": "TALANGSUKO",
  "postalCode": "65175"
 }
]