[
 {
  "id": 3507090001,
  "districtId": 3507090,
  "districtName": "AMPELGADING",
  "name": "LEBAKHARJO",
  "postalCode": "65183"
 },
 {
  "id": 3507090002,
  "districtId": 3507090,
  "districtName": "AMPELGADING",
  "name": "WIROTAMAN",
  "postalCode": "65183"
 },
 {
  "id": 3507090003,
  "districtId": 3507090,
  "districtName": "AMPELGADING",
  "name": "TAMANASRI",
  "postalCode": "65183"
 },
 {
  "id": 3507090004,
  "districtId": 3507090,
  "districtName": "AMPELGADING",
  "name": "SONOWANGI",
  "postalCode": "65183"
 },
 {
  "id": 3507090005,
  "districtId": 3507090,
  "districtName": "AMPELGADING",
  "name": "TIRTOMARTO",
  "postalCode": "57463"
 },
 {
  "id": 3507090006,
  "districtId": 3507090,
  "districtName": "AMPELGADING",
  "name": "PURWOHARJO",
  "postalCode": "52363"
 },
 {
  "id": 3507090007,
  "districtId": 3507090,
  "districtName": "AMPELGADING",
  "name": "SIDORENGGO",
  "postalCode": "65183"
 },
 {
  "id": 3507090008,
  "districtId": 3507090,
  "districtName": "AMPELGADING",
  "name": "TIRTOMOYO",
  "postalCode": "54393"
 },
 {
  "id": 3507090009,
  "districtId": 3507090,
  "districtName": "AMPELGADING",
  "name": "TAWANGAGUNG",
  "postalCode": "65183"
 },
 {
  "id": 3507090010,
  "districtId": 3507090,
  "districtName": "AMPELGADING",
  "name": "SIMOJAYAN",
  "postalCode": "65183"
 },
 {
  "id": 3507090011,
  "districtId": 3507090,
  "districtName": "AMPELGADING",
  "name": "ARGOYUWONO",
  "postalCode": "65183"
 },
 {
  "id": 3507090012,
  "districtId": 3507090,
  "districtName": "AMPELGADING",
  "name": "MULYOASRI",
  "postalCode": "65183"
 },
 {
  "id": 3507090013,
  "districtId": 3507090,
  "districtName": "AMPELGADING",
  "name": "TAMANSARI",
  "postalCode": "35366"
 }
]