[
 {
  "id": 3507020001,
  "districtId": 3507020,
  "districtName": "KALIPARE",
  "name": "ARJOSARI",
  "postalCode": "54363"
 },
 {
  "id": 3507020002,
  "districtId": 3507020,
  "districtName": "KALIPARE",
  "name": "TUMPAKREJO",
  "postalCode": "65178"
 },
 {
  "id": 3507020003,
  "districtId": 3507020,
  "districtName": "KALIPARE",
  "name": "KALIASRI",
  "postalCode": "65166"
 },
 {
  "id": 3507020004,
  "districtId": 3507020,
  "districtName": "KALIPARE",
  "name": "PUTUKREJO",
  "postalCode": "65174"
 },
 {
  "id": 3507020006,
  "districtId": 3507020,
  "districtName": "KALIPARE",
  "name": "KALIPARE",
  "postalCode": "65166"
 },
 {
  "id": 3507020007,
  "districtId": 3507020,
  "districtName": "KALIPARE",
  "name": "SUKOWILANGUN",
  "postalCode": "65166"
 },
 {
  "id": 3507020008,
  "districtId": 3507020,
  "districtName": "KALIPARE",
  "name": "ARJOWILANGUN",
  "postalCode": "65166"
 },
 {
  "id": 3507020009,
  "districtId": 3507020,
  "districtName": "KALIPARE",
  "name": "KALIREJO",
  "postalCode": "35353"
 }
]