[
 {
  "id": 3507030001,
  "districtId": 3507030,
  "districtName": "PAGAK",
  "name": "SUMBERMANJING KULON",
  "postalCode": "65168"
 },
 {
  "id": 3507030002,
  "districtId": 3507030,
  "districtName": "PAGAK",
  "name": "PANDANREJO",
  "postalCode": "54175"
 },
 {
  "id": 3507030003,
  "districtId": 3507030,
  "districtName": "PAGAK",
  "name": "SUMBERKERTO",
  "postalCode": "65168"
 },
 {
  "id": 3507030004,
  "districtId": 3507030,
  "districtName": "PAGAK",
  "name": "SEMPOL",
  "postalCode": "56362"
 },
 {
  "id": 3507030005,
  "districtId": 3507030,
  "districtName": "PAGAK",
  "name": "PAGAK",
  "postalCode": "54172"
 },
 {
  "id": 3507030006,
  "districtId": 3507030,
  "districtName": "PAGAK",
  "name": "SUMBERREJO",
  "postalCode": "59184"
 },
 {
  "id": 3507030007,
  "districtId": 3507030,
  "districtName": "PAGAK",
  "name": "GAMPINGAN",
  "postalCode": "65168"
 },
 {
  "id": 3507030008,
  "districtId": 3507030,
  "districtName": "PAGAK",
  "name": "TLOGOREJO",
  "postalCode": "54395"
 }
]