[
 {
  "id": 3508200001,
  "districtId": 3508200,
  "districtName": "RANUYOSO",
  "name": "JENGGRONG",
  "postalCode": "67357"
 },
 {
  "id": 3508200002,
  "districtId": 3508200,
  "districtName": "RANUYOSO",
  "name": "MENINJO",
  "postalCode": "67357"
 },
 {
  "id": 3508200003,
  "districtId": 3508200,
  "districtName": "RANUYOSO",
  "name": "TEGALBANGSRI",
  "postalCode": "67357"
 },
 {
  "id": 3508200005,
  "districtId": 3508200,
  "districtName": "RANUYOSO",
  "name": "ALUN ALUN",
  "postalCode": "67357"
 },
 {
  "id": 3508200006,
  "districtId": 3508200,
  "districtName": "RANUYOSO",
  "name": "RANUBEDALI",
  "postalCode": "67357"
 },
 {
  "id": 3508200007,
  "districtId": 3508200,
  "districtName": "RANUYOSO",
  "name": "RANUYOSO",
  "postalCode": "67357"
 },
 {
  "id": 3508200008,
  "districtId": 3508200,
  "districtName": "RANUYOSO",
  "name": "WONOAYU",
  "postalCode": "63154"
 },
 {
  "id": 3508200009,
  "districtId": 3508200,
  "districtName": "RANUYOSO",
  "name": "PENAWUNGAN",
  "postalCode": "67357"
 },
 {
  "id": 3508200010,
  "districtId": 3508200,
  "districtName": "RANUYOSO",
  "name": "WATES KULON",
  "postalCode": "67357"
 },
 {
  "id": 3508200011,
  "districtId": 3508200,
  "districtName": "RANUYOSO",
  "name": "WATES WETAN",
  "postalCode": "67357"
 }
]