[
 {
  "id": 3508180001,
  "districtId": 3508180,
  "districtName": "KEDUNGJAJANG",
  "name": "PANDANSARI",
  "postalCode": "16720"
 },
 {
  "id": 3508180002,
  "districtId": 3508180,
  "districtName": "KEDUNGJAJANG",
  "name": "KRASAK",
  "postalCode": "45273"
 },
 {
  "id": 3508180003,
  "districtId": 3508180,
  "districtName": "KEDUNGJAJANG",
  "name": "KEDUNGJAJANG",
  "postalCode": "67358"
 },
 {
  "id": 3508180004,
  "districtId": 3508180,
  "districtName": "KEDUNGJAJANG",
  "name": "WONOREJO",
  "postalCode": "21186"
 },
 {
  "id": 3508180006,
  "districtId": 3508180,
  "districtName": "KEDUNGJAJANG",
  "name": "CURAHPETUNG",
  "postalCode": "67358"
 },
 {
  "id": 3508180007,
  "districtId": 3508180,
  "districtName": "KEDUNGJAJANG",
  "name": "GROBOGAN",
  "postalCode": "58152"
 },
 {
  "id": 3508180009,
  "districtId": 3508180,
  "districtName": "KEDUNGJAJANG",
  "name": "JATISARI",
  "postalCode": "32362"
 },
 {
  "id": 3508180010,
  "districtId": 3508180,
  "districtName": "KEDUNGJAJANG",
  "name": "TEMPURSARI",
  "postalCode": "56191"
 },
 {
  "id": 3508180011,
  "districtId": 3508180,
  "districtName": "KEDUNGJAJANG",
  "name": "BANDARAN",
  "postalCode": "67358"
 },
 {
  "id": 3508180012,
  "districtId": 3508180,
  "districtName": "KEDUNGJAJANG",
  "name": "SAWARAN KULON",
  "postalCode": "67358"
 }
]