[
 {
  "id": 3508160002,
  "districtId": 3508160,
  "districtName": "SENDURO",
  "name": "PURWOREJO",
  "postalCode": "23661"
 },
 {
  "id": 3508160003,
  "districtId": 3508160,
  "districtName": "SENDURO",
  "name": "SARIKEMUNING",
  "postalCode": "67361"
 },
 {
  "id": 3508160004,
  "districtId": 3508160,
  "districtName": "SENDURO",
  "name": "PANDANSARI",
  "postalCode": "16720"
 },
 {
  "id": 3508160005,
  "districtId": 3508160,
  "districtName": "SENDURO",
  "name": "SENDURO",
  "postalCode": "67361"
 },
 {
  "id": 3508160006,
  "districtId": 3508160,
  "districtName": "SENDURO",
  "name": "BURNO",
  "postalCode": "67361"
 },
 {
  "id": 3508160007,
  "districtId": 3508160,
  "districtName": "SENDURO",
  "name": "KANDANGTEPUS",
  "postalCode": "67361"
 },
 {
  "id": 3508160008,
  "districtId": 3508160,
  "districtName": "SENDURO",
  "name": "KANDANGAN",
  "postalCode": "21186"
 },
 {
  "id": 3508160009,
  "districtId": 3508160,
  "districtName": "SENDURO",
  "name": "BEDAYU",
  "postalCode": "67361"
 },
 {
  "id": 3508160010,
  "districtId": 3508160,
  "districtName": "SENDURO",
  "name": "BEDAYUTALANG",
  "postalCode": "67361"
 },
 {
  "id": 3508160011,
  "districtId": 3508160,
  "districtName": "SENDURO",
  "name": "WONOCEPOKOAYU",
  "postalCode": "67361"
 },
 {
  "id": 3508160012,
  "districtId": 3508160,
  "districtName": "SENDURO",
  "name": "ARGOSARI",
  "postalCode": "54473"
 },
 {
  "id": 3508160013,
  "districtId": 3508160,
  "districtName": "SENDURO",
  "name": "RANUPANE",
  "postalCode": ""
 }
]