[
 {
  "id": 3508080001,
  "districtId": 3508080,
  "districtName": "KUNIR",
  "name": "JATIMULYO",
  "postalCode": "35365"
 },
 {
  "id": 3508080002,
  "districtId": 3508080,
  "districtName": "KUNIR",
  "name": "JATIREJO",
  "postalCode": "23661"
 },
 {
  "id": 3508080003,
  "districtId": 3508080,
  "districtName": "KUNIR",
  "name": "JATIGONO",
  "postalCode": "67383"
 },
 {
  "id": 3508080004,
  "districtId": 3508080,
  "districtName": "KUNIR",
  "name": "SUKOREJO",
  "postalCode": "31551"
 },
 {
  "id": 3508080005,
  "districtId": 3508080,
  "districtName": "KUNIR",
  "name": "SUKOSARI",
  "postalCode": "32382"
 },
 {
  "id": 3508080006,
  "districtId": 3508080,
  "districtName": "KUNIR",
  "name": "KUNIR KIDUL",
  "postalCode": "67383"
 },
 {
  "id": 3508080007,
  "districtId": 3508080,
  "districtName": "KUNIR",
  "name": "KUNIR LOR",
  "postalCode": "67383"
 },
 {
  "id": 3508080008,
  "districtId": 3508080,
  "districtName": "KUNIR",
  "name": "KEDUNGMORO",
  "postalCode": "67383"
 },
 {
  "id": 3508080009,
  "districtId": 3508080,
  "districtName": "KUNIR",
  "name": "KARANGLO",
  "postalCode": "53162"
 },
 {
  "id": 3508080010,
  "districtId": 3508080,
  "districtName": "KUNIR",
  "name": "KABUARAN",
  "postalCode": "54394"
 },
 {
  "id": 3508080011,
  "districtId": 3508080,
  "districtName": "KUNIR",
  "name": "DOROGOWOK",
  "postalCode": "67383"
 }
]