[
 {
  "id": 3508090001,
  "districtId": 3508090,
  "districtName": "YOSOWILANGUN",
  "name": "DARUNGAN",
  "postalCode": "66161"
 },
 {
  "id": 3508090002,
  "districtId": 3508090,
  "districtName": "YOSOWILANGUN",
  "name": "KRATON",
  "postalCode": "52112"
 },
 {
  "id": 3508090003,
  "districtId": 3508090,
  "districtName": "YOSOWILANGUN",
  "name": "WOTGALIH",
  "postalCode": "52473"
 },
 {
  "id": 3508090004,
  "districtId": 3508090,
  "districtName": "YOSOWILANGUN",
  "name": "TUNJUNGREJO",
  "postalCode": "59154"
 },
 {
  "id": 3508090005,
  "districtId": 3508090,
  "districtName": "YOSOWILANGUN",
  "name": "YOSOWILANGUN KIDUL",
  "postalCode": "67382"
 },
 {
  "id": 3508090006,
  "districtId": 3508090,
  "districtName": "YOSOWILANGUN",
  "name": "YOSOWILANGUN LOR",
  "postalCode": "67382"
 },
 {
  "id": 3508090007,
  "districtId": 3508090,
  "districtName": "YOSOWILANGUN",
  "name": "KRAI",
  "postalCode": "67382"
 },
 {
  "id": 3508090008,
  "districtId": 3508090,
  "districtName": "YOSOWILANGUN",
  "name": "KARANGAYAR",
  "postalCode": "67382"
 },
 {
  "id": 3508090009,
  "districtId": 3508090,
  "districtName": "YOSOWILANGUN",
  "name": "KARANGREJO",
  "postalCode": "35387"
 },
 {
  "id": 3508090011,
  "districtId": 3508090,
  "districtName": "YOSOWILANGUN",
  "name": "KEBONSARI",
  "postalCode": "56553"
 },
 {
  "id": 3508090012,
  "districtId": 3508090,
  "districtName": "YOSOWILANGUN",
  "name": "KALIPEPE",
  "postalCode": "67382"
 }
]