[
 {
  "id": 3508050001,
  "districtId": 3508050,
  "districtName": "TEMPEH",
  "name": "PANDANARUM",
  "postalCode": "53458"
 },
 {
  "id": 3508050002,
  "districtId": 3508050,
  "districtName": "TEMPEH",
  "name": "PANDANWANGI",
  "postalCode": "65124"
 },
 {
  "id": 3508050003,
  "districtId": 3508050,
  "districtName": "TEMPEH",
  "name": "SUMBERJATI",
  "postalCode": "54392"
 },
 {
  "id": 3508050004,
  "districtId": 3508050,
  "districtName": "TEMPEH",
  "name": "TEMPEH KIDUL",
  "postalCode": "67371"
 },
 {
  "id": 3508050005,
  "districtId": 3508050,
  "districtName": "TEMPEH",
  "name": "LEMPENI",
  "postalCode": "67371"
 },
 {
  "id": 3508050006,
  "districtId": 3508050,
  "districtName": "TEMPEH",
  "name": "TEMPEH TENGAH",
  "postalCode": "67371"
 },
 {
  "id": 3508050007,
  "districtId": 3508050,
  "districtName": "TEMPEH",
  "name": "KALIWUNGU",
  "postalCode": "52464"
 },
 {
  "id": 3508050008,
  "districtId": 3508050,
  "districtName": "TEMPEH",
  "name": "TEMPEH LOR",
  "postalCode": "67371"
 },
 {
  "id": 3508050010,
  "districtId": 3508050,
  "districtName": "TEMPEH",
  "name": "JATISARI",
  "postalCode": "32362"
 },
 {
  "id": 3508050011,
  "districtId": 3508050,
  "districtName": "TEMPEH",
  "name": "PULO",
  "postalCode": "24188"
 },
 {
  "id": 3508050012,
  "districtId": 3508050,
  "districtName": "TEMPEH",
  "name": "GESANG",
  "postalCode": "67371"
 },
 {
  "id": 3508050013,
  "districtId": 3508050,
  "districtName": "TEMPEH",
  "name": "JOKARTO",
  "postalCode": "67371"
 }
]