[
 {
  "id": 3509730001,
  "districtId": 3509730,
  "districtName": "PATRANG",
  "name": "GEBANG",
  "postalCode": "35451"
 },
 {
  "id": 3509730002,
  "districtId": 3509730,
  "districtName": "PATRANG",
  "name": "JEMBER LOR",
  "postalCode": "68118"
 },
 {
  "id": 3509730003,
  "districtId": 3509730,
  "districtName": "PATRANG",
  "name": "PATRANG",
  "postalCode": "68111"
 },
 {
  "id": 3509730004,
  "districtId": 3509730,
  "districtName": "PATRANG",
  "name": "BARATAN",
  "postalCode": "68251"
 },
 {
  "id": 3509730005,
  "districtId": 3509730,
  "districtName": "PATRANG",
  "name": "BINTORO",
  "postalCode": "59511"
 },
 {
  "id": 3509730006,
  "districtId": 3509730,
  "districtName": "PATRANG",
  "name": "SLAWU",
  "postalCode": "68116"
 },
 {
  "id": 3509730007,
  "districtId": 3509730,
  "districtName": "PATRANG",
  "name": "JUMERTO",
  "postalCode": "68114"
 },
 {
  "id": 3509730008,
  "districtId": 3509730,
  "districtName": "PATRANG",
  "name": "BANJAR SENGON",
  "postalCode": "68118"
 }
]