[
 {
  "id": 3509020001,
  "districtId": 3509020,
  "districtName": "GUMUK MAS",
  "name": "KEPANJEN",
  "postalCode": "57471"
 },
 {
  "id": 3509020002,
  "districtId": 3509020,
  "districtName": "GUMUK MAS",
  "name": "MAYANGAN",
  "postalCode": "41254"
 },
 {
  "id": 3509020003,
  "districtId": 3509020,
  "districtName": "GUMUK MAS",
  "name": "MENAMPU",
  "postalCode": "68165"
 },
 {
  "id": 3509020004,
  "districtId": 3509020,
  "districtName": "GUMUK MAS",
  "name": "BAGOREJO",
  "postalCode": "68165"
 },
 {
  "id": 3509020005,
  "districtId": 3509020,
  "districtName": "GUMUK MAS",
  "name": "GUMUKMAS",
  "postalCode": "68165"
 },
 {
  "id": 3509020006,
  "districtId": 3509020,
  "districtName": "GUMUK MAS",
  "name": "PURWOASRI",
  "postalCode": "68165"
 },
 {
  "id": 3509020007,
  "districtId": 3509020,
  "districtName": "GUMUK MAS",
  "name": "TEMBOKREJO",
  "postalCode": "68165"
 },
 {
  "id": 3509020008,
  "districtId": 3509020,
  "districtName": "GUMUK MAS",
  "name": "KARANGREJO",
  "postalCode": "35387"
 }
]