[
 {
  "id": 3509260001,
  "districtId": 3509260,
  "districtName": "SUMBERJAMBE",
  "name": "RANDU AGUNG",
  "postalCode": "68195"
 },
 {
  "id": 3509260002,
  "districtId": 3509260,
  "districtName": "SUMBERJAMBE",
  "name": "CUMEDAK",
  "postalCode": "68195"
 },
 {
  "id": 3509260003,
  "districtId": 3509260,
  "districtName": "SUMBERJAMBE",
  "name": "GUNUNG MALANG",
  "postalCode": "43367"
 },
 {
  "id": 3509260004,
  "districtId": 3509260,
  "districtName": "SUMBERJAMBE",
  "name": "ROWOSARI",
  "postalCode": "54395"
 },
 {
  "id": 3509260005,
  "districtId": 3509260,
  "districtName": "SUMBERJAMBE",
  "name": "SUMBERJAMBE",
  "postalCode": "68195"
 },
 {
  "id": 3509260006,
  "districtId": 3509260,
  "districtName": "SUMBERJAMBE",
  "name": "SUMBER PAKEM",
  "postalCode": "68195"
 },
 {
  "id": 3509260007,
  "districtId": 3509260,
  "districtName": "SUMBERJAMBE",
  "name": "PLEREYAN",
  "postalCode": "68195"
 },
 {
  "id": 3509260008,
  "districtId": 3509260,
  "districtName": "SUMBERJAMBE",
  "name": "PRINGGONDANI",
  "postalCode": "68195"
 },
 {
  "id": 3509260009,
  "districtId": 3509260,
  "districtName": "SUMBERJAMBE",
  "name": "JAMBE ARUM",
  "postalCode": "68195"
 }
]