[
 {
  "id": 3509100001,
  "districtId": 3509100,
  "districtName": "JENGGAWAH",
  "name": "KEMUNING SARI KIDUL",
  "postalCode": "68171"
 },
 {
  "id": 3509100002,
  "districtId": 3509100,
  "districtName": "JENGGAWAH",
  "name": "KERTONEGORO",
  "postalCode": "68171"
 },
 {
  "id": 3509100003,
  "districtId": 3509100,
  "districtName": "JENGGAWAH",
  "name": "JATISARI",
  "postalCode": "32362"
 },
 {
  "id": 3509100004,
  "districtId": 3509100,
  "districtName": "JENGGAWAH",
  "name": "SRUNI",
  "postalCode": "57331"
 },
 {
  "id": 3509100005,
  "districtId": 3509100,
  "districtName": "JENGGAWAH",
  "name": "CANGKRING",
  "postalCode": "45258"
 },
 {
  "id": 3509100006,
  "districtId": 3509100,
  "districtName": "JENGGAWAH",
  "name": "WONOJATI",
  "postalCode": "67174"
 },
 {
  "id": 3509100007,
  "districtId": 3509100,
  "districtName": "JENGGAWAH",
  "name": "JENGGAWAH",
  "postalCode": "68171"
 },
 {
  "id": 3509100008,
  "districtId": 3509100,
  "districtName": "JENGGAWAH",
  "name": "JATIMULYO",
  "postalCode": "35365"
 }
]