[
 {
  "id": 3509140001,
  "districtId": 3509140,
  "districtName": "UMBULSARI",
  "name": "SUKORENO",
  "postalCode": "56364"
 },
 {
  "id": 3509140002,
  "districtId": 3509140,
  "districtName": "UMBULSARI",
  "name": "GUNUNGSARI",
  "postalCode": "35368"
 },
 {
  "id": 3509140003,
  "districtId": 3509140,
  "districtName": "UMBULSARI",
  "name": "UMBULSARI",
  "postalCode": "56152"
 },
 {
  "id": 3509140004,
  "districtId": 3509140,
  "districtName": "UMBULSARI",
  "name": "TANJUNGSARI",
  "postalCode": "28983"
 },
 {
  "id": 3509140005,
  "districtId": 3509140,
  "districtName": "UMBULSARI",
  "name": "PALERAN",
  "postalCode": "68166"
 },
 {
  "id": 3509140006,
  "districtId": 3509140,
  "districtName": "UMBULSARI",
  "name": "UMBULREJO",
  "postalCode": "63262"
 },
 {
  "id": 3509140007,
  "districtId": 3509140,
  "districtName": "UMBULSARI",
  "name": "GADINGREJO",
  "postalCode": "59185"
 },
 {
  "id": 3509140008,
  "districtId": 3509140,
  "districtName": "UMBULSARI",
  "name": "SIDOREJO",
  "postalCode": "24784"
 },
 {
  "id": 3509140009,
  "districtId": 3509140,
  "districtName": "UMBULSARI",
  "name": "TEGALWANGI",
  "postalCode": "45154"
 },
 {
  "id": 3509140010,
  "districtId": 3509140,
  "districtName": "UMBULSARI",
  "name": "MUNDUREJO",
  "postalCode": "68166"
 }
]