[
 {
  "id": 3510160001,
  "districtId": 3510160,
  "districtName": "SONGGON",
  "name": "BEDEWANG",
  "postalCode": "68463"
 },
 {
  "id": 3510160002,
  "districtId": 3510160,
  "districtName": "SONGGON",
  "name": "BALAK",
  "postalCode": "57463"
 },
 {
  "id": 3510160003,
  "districtId": 3510160,
  "districtName": "SONGGON",
  "name": "BANGUNSARI",
  "postalCode": "35361"
 },
 {
  "id": 3510160004,
  "districtId": 3510160,
  "districtName": "SONGGON",
  "name": "SONGGON",
  "postalCode": "68463"
 },
 {
  "id": 3510160005,
  "districtId": 3510160,
  "districtName": "SONGGON",
  "name": "PARANGHARJO",
  "postalCode": "68463"
 },
 {
  "id": 3510160006,
  "districtId": 3510160,
  "districtName": "SONGGON",
  "name": "SRAGI",
  "postalCode": "51155"
 },
 {
  "id": 3510160007,
  "districtId": 3510160,
  "districtName": "SONGGON",
  "name": "SUMBER ARUM",
  "postalCode": "34511"
 },
 {
  "id": 3510160009,
  "districtId": 3510160,
  "districtName": "SONGGON",
  "name": "BAYU",
  "postalCode": "23352"
 }
]