[
 {
  "id": 3511010001,
  "districtId": 3511010,
  "districtName": "MAESAN",
  "name": "SUCOLOR",
  "postalCode": "68262"
 },
 {
  "id": 3511010002,
  "districtId": 3511010,
  "districtName": "MAESAN",
  "name": "PUJERBARU",
  "postalCode": "68262"
 },
 {
  "id": 3511010003,
  "districtId": 3511010,
  "districtName": "MAESAN",
  "name": "TANAHWULAN",
  "postalCode": "68262"
 },
 {
  "id": 3511010004,
  "districtId": 3511010,
  "districtName": "MAESAN",
  "name": "MAESAN",
  "postalCode": "68262"
 },
 {
  "id": 3511010005,
  "districtId": 3511010,
  "districtName": "MAESAN",
  "name": "GAMBANGAN",
  "postalCode": "68262"
 },
 {
  "id": 3511010006,
  "districtId": 3511010,
  "districtName": "MAESAN",
  "name": "SUGER LOR",
  "postalCode": "68262"
 },
 {
  "id": 3511010007,
  "districtId": 3511010,
  "districtName": "MAESAN",
  "name": "SUMBERPAKEM",
  "postalCode": "68262"
 },
 {
  "id": 3511010008,
  "districtId": 3511010,
  "districtName": "MAESAN",
  "name": "SUMBERSARI",
  "postalCode": "34122"
 },
 {
  "id": 3511010009,
  "districtId": 3511010,
  "districtName": "MAESAN",
  "name": "SUMBERANYAR",
  "postalCode": "68374"
 },
 {
  "id": 3511010010,
  "districtId": 3511010,
  "districtName": "MAESAN",
  "name": "PENANGGUNGAN",
  "postalCode": "32278"
 },
 {
  "id": 3511010011,
  "districtId": 3511010,
  "districtName": "MAESAN",
  "name": "PAKUNIRAN",
  "postalCode": "68262"
 },
 {
  "id": 3511010012,
  "districtId": 3511010,
  "districtName": "MAESAN",
  "name": "GUNUNGSARI",
  "postalCode": "35368"
 }
]