[
 {
  "id": 3511050001,
  "districtId": 3511050,
  "districtName": "TLOGOSARI",
  "name": "PAKISAN",
  "postalCode": "57463"
 },
 {
  "id": 3511050002,
  "districtId": 3511050,
  "districtName": "TLOGOSARI",
  "name": "TLOGOSARI",
  "postalCode": "54473"
 },
 {
  "id": 3511050003,
  "districtId": 3511050,
  "districtName": "TLOGOSARI",
  "name": "KEMBANG",
  "postalCode": "57352"
 },
 {
  "id": 3511050004,
  "districtId": 3511050,
  "districtName": "TLOGOSARI",
  "name": "GUNOSARI",
  "postalCode": "68272"
 },
 {
  "id": 3511050005,
  "districtId": 3511050,
  "districtName": "TLOGOSARI",
  "name": "TROTOSARI",
  "postalCode": "68272"
 },
 {
  "id": 3511050007,
  "districtId": 3511050,
  "districtName": "TLOGOSARI",
  "name": "JEBUNG KIDUL",
  "postalCode": "68272"
 },
 {
  "id": 3511050008,
  "districtId": 3511050,
  "districtName": "TLOGOSARI",
  "name": "JEBUNG LOR",
  "postalCode": "68272"
 },
 {
  "id": 3511050009,
  "districtId": 3511050,
  "districtName": "TLOGOSARI",
  "name": "PATEMON",
  "postalCode": "53362"
 },
 {
  "id": 3511050010,
  "districtId": 3511050,
  "districtName": "TLOGOSARI",
  "name": "BRAMBANG DARUSSALAM",
  "postalCode": ""
 }
]