[
 {
  "id": 3511070001,
  "districtId": 3511070,
  "districtName": "TAPEN",
  "name": "WONOKUSUMO",
  "postalCode": "61382"
 },
 {
  "id": 3511070002,
  "districtId": 3511070,
  "districtName": "TAPEN",
  "name": "MANGLI WETAN",
  "postalCode": "68283"
 },
 {
  "id": 3511070003,
  "districtId": 3511070,
  "districtName": "TAPEN",
  "name": "GUNUNGANYAR",
  "postalCode": "62372"
 },
 {
  "id": 3511070004,
  "districtId": 3511070,
  "districtName": "TAPEN",
  "name": "JURANGSAPI",
  "postalCode": "68283"
 },
 {
  "id": 3511070005,
  "districtId": 3511070,
  "districtName": "TAPEN",
  "name": "CINDOGO",
  "postalCode": "68283"
 },
 {
  "id": 3511070006,
  "districtId": 3511070,
  "districtName": "TAPEN",
  "name": "KALITAPEN",
  "postalCode": "53175"
 },
 {
  "id": 3511070007,
  "districtId": 3511070,
  "districtName": "TAPEN",
  "name": "MRAWAN",
  "postalCode": "68182"
 },
 {
  "id": 3511070008,
  "districtId": 3511070,
  "districtName": "TAPEN",
  "name": "TAAL",
  "postalCode": "68283"
 },
 {
  "id": 3511070009,
  "districtId": 3511070,
  "districtName": "TAPEN",
  "name": "TAPEN",
  "postalCode": "54263"
 }
]