[
 {
  "id": 3511020001,
  "districtId": 3511020,
  "districtName": "GRUJUGAN",
  "name": "SUMBERPANDAN",
  "postalCode": "68261"
 },
 {
  "id": 3511020002,
  "districtId": 3511020,
  "districtName": "GRUJUGAN",
  "name": "PEKAUMAN",
  "postalCode": "52255"
 },
 {
  "id": 3511020003,
  "districtId": 3511020,
  "districtName": "GRUJUGAN",
  "name": "WANISODO",
  "postalCode": "68261"
 },
 {
  "id": 3511020004,
  "districtId": 3511020,
  "districtName": "GRUJUGAN",
  "name": "DAWUHAN",
  "postalCode": "53192"
 },
 {
  "id": 3511020005,
  "districtId": 3511020,
  "districtName": "GRUJUGAN",
  "name": "KABUARAN",
  "postalCode": "54394"
 },
 {
  "id": 3511020006,
  "districtId": 3511020,
  "districtName": "GRUJUGAN",
  "name": "WONOSARI",
  "postalCode": "24582"
 },
 {
  "id": 3511020007,
  "districtId": 3511020,
  "districtName": "GRUJUGAN",
  "name": "DADAPAN",
  "postalCode": "35374"
 },
 {
  "id": 3511020008,
  "districtId": 3511020,
  "districtName": "GRUJUGAN",
  "name": "TAMAN",
  "postalCode": "52361"
 },
 {
  "id": 3511020009,
  "districtId": 3511020,
  "districtName": "GRUJUGAN",
  "name": "TEGALMIJIN",
  "postalCode": "68261"
 },
 {
  "id": 3511020011,
  "districtId": 3511020,
  "districtName": "GRUJUGAN",
  "name": "GRUJUGAN KIDUL",
  "postalCode": "68261"
 },
 {
  "id": 3511020012,
  "districtId": 3511020,
  "districtName": "GRUJUGAN",
  "name": "KEJAWAN",
  "postalCode": "58165"
 }
]