[
 {
  "id": 3512120001,
  "districtId": 3512120,
  "districtName": "PANJI",
  "name": "SLIWUNG",
  "postalCode": "68323"
 },
 {
  "id": 3512120002,
  "districtId": 3512120,
  "districtName": "PANJI",
  "name": "ARDIREJO",
  "postalCode": "65163"
 },
 {
  "id": 3512120003,
  "districtId": 3512120,
  "districtName": "PANJI",
  "name": "BATTAL",
  "postalCode": "68323"
 },
 {
  "id": 3512120004,
  "districtId": 3512120,
  "districtName": "PANJI",
  "name": "KLAMPOKAN",
  "postalCode": "67283"
 },
 {
  "id": 3512120005,
  "districtId": 3512120,
  "districtName": "PANJI",
  "name": "JUGLANGAN",
  "postalCode": "68323"
 },
 {
  "id": 3512120006,
  "districtId": 3512120,
  "districtName": "PANJI",
  "name": "PANJI KIDUL",
  "postalCode": "68323"
 },
 {
  "id": 3512120007,
  "districtId": 3512120,
  "districtName": "PANJI",
  "name": "PANJI LOR",
  "postalCode": "68323"
 },
 {
  "id": 3512120008,
  "districtId": 3512120,
  "districtName": "PANJI",
  "name": "MIMBAAN",
  "postalCode": "68322"
 },
 {
  "id": 3512120009,
  "districtId": 3512120,
  "districtName": "PANJI",
  "name": "CURAH JERU",
  "postalCode": "68323"
 },
 {
  "id": 3512120010,
  "districtId": 3512120,
  "districtName": "PANJI",
  "name": "TOKELAN",
  "postalCode": "68323"
 },
 {
  "id": 3512120011,
  "districtId": 3512120,
  "districtName": "PANJI",
  "name": "TENGGIR",
  "postalCode": "68323"
 },
 {
  "id": 3512120012,
  "districtId": 3512120,
  "districtName": "PANJI",
  "name": "KAYU PUTIH",
  "postalCode": "13210"
 }
]