[
 {
  "id": 3512140001,
  "districtId": 3512140,
  "districtName": "ARJASA",
  "name": "CURAH TATAL",
  "postalCode": "68371"
 },
 {
  "id": 3512140002,
  "districtId": 3512140,
  "districtName": "ARJASA",
  "name": "JATISARI",
  "postalCode": "32362"
 },
 {
  "id": 3512140003,
  "districtId": 3512140,
  "districtName": "ARJASA",
  "name": "KAYUMAS",
  "postalCode": "57481"
 },
 {
  "id": 3512140004,
  "districtId": 3512140,
  "districtName": "ARJASA",
  "name": "BAYEMAN",
  "postalCode": "68371"
 },
 {
  "id": 3512140005,
  "districtId": 3512140,
  "districtName": "ARJASA",
  "name": "KETOWAN",
  "postalCode": "68371"
 },
 {
  "id": 3512140006,
  "districtId": 3512140,
  "districtName": "ARJASA",
  "name": "KEDUNGDOWO",
  "postalCode": "57384"
 },
 {
  "id": 3512140007,
  "districtId": 3512140,
  "districtName": "ARJASA",
  "name": "LAMONGAN",
  "postalCode": "53391"
 },
 {
  "id": 3512140008,
  "districtId": 3512140,
  "districtName": "ARJASA",
  "name": "ARJASA",
  "postalCode": "68191"
 }
]