[
 {
  "id": 3513140001,
  "districtId": 3513140,
  "districtName": "BESUK",
  "name": "MATEKAN",
  "postalCode": "67283"
 },
 {
  "id": 3513140002,
  "districtId": 3513140,
  "districtName": "BESUK",
  "name": "KRAMPILAN",
  "postalCode": "67283"
 },
 {
  "id": 3513140003,
  "districtId": 3513140,
  "districtName": "BESUK",
  "name": "KLAMPOKAN",
  "postalCode": "67283"
 },
 {
  "id": 3513140004,
  "districtId": 3513140,
  "districtName": "BESUK",
  "name": "JAMBANGAN",
  "postalCode": "51274"
 },
 {
  "id": 3513140005,
  "districtId": 3513140,
  "districtName": "BESUK",
  "name": "KECIK",
  "postalCode": "57277"
 },
 {
  "id": 3513140006,
  "districtId": 3513140,
  "districtName": "BESUK",
  "name": "BAGO",
  "postalCode": "58182"
 },
 {
  "id": 3513140007,
  "districtId": 3513140,
  "districtName": "BESUK",
  "name": "ALAS NYIUR",
  "postalCode": "67283"
 },
 {
  "id": 3513140008,
  "districtId": 3513140,
  "districtName": "BESUK",
  "name": "SINDET ANYAR",
  "postalCode": "67283"
 },
 {
  "id": 3513140009,
  "districtId": 3513140,
  "districtName": "BESUK",
  "name": "SINDET LAMI",
  "postalCode": "67283"
 },
 {
  "id": 3513140010,
  "districtId": 3513140,
  "districtName": "BESUK",
  "name": "SUMUR DALAM",
  "postalCode": "67283"
 },
 {
  "id": 3513140011,
  "districtId": 3513140,
  "districtName": "BESUK",
  "name": "BESUK KIDUL",
  "postalCode": "67283"
 },
 {
  "id": 3513140012,
  "districtId": 3513140,
  "districtName": "BESUK",
  "name": "BESUK AGUNG",
  "postalCode": "67283"
 },
 {
  "id": 3513140013,
  "districtId": 3513140,
  "districtName": "BESUK",
  "name": "RANDUJALAK",
  "postalCode": ""
 },
 {
  "id": 3513140014,
  "districtId": 3513140,
  "districtName": "BESUK",
  "name": "ALAS TENGAH",
  "postalCode": "67283"
 },
 {
  "id": 3513140015,
  "districtId": 3513140,
  "districtName": "BESUK",
  "name": "ALAS KANDANG",
  "postalCode": "67283"
 },
 {
  "id": 3513140016,
  "districtId": 3513140,
  "districtName": "BESUK",
  "name": "ALASSUMUR LOR",
  "postalCode": ""
 },
 {
  "id": 3513140017,
  "districtId": 3513140,
  "districtName": "BESUK",
  "name": "SUMBERAN",
  "postalCode": "59184"
 }
]