[
 {
  "id": 3513110001,
  "districtId": 3513110,
  "districtName": "PAKUNIRAN",
  "name": "RANON",
  "postalCode": "67292"
 },
 {
  "id": 3513110003,
  "districtId": 3513110,
  "districtName": "PAKUNIRAN",
  "name": "GUNGGUNGAN KIDUL",
  "postalCode": "67292"
 },
 {
  "id": 3513110004,
  "districtId": 3513110,
  "districtName": "PAKUNIRAN",
  "name": "KALIDANDAN",
  "postalCode": "67292"
 },
 {
  "id": 3513110005,
  "districtId": 3513110,
  "districtName": "PAKUNIRAN",
  "name": "BLIMBING",
  "postalCode": "52364"
 },
 {
  "id": 3513110006,
  "districtId": 3513110,
  "districtName": "PAKUNIRAN",
  "name": "GONDOSULI",
  "postalCode": "56253"
 },
 {
  "id": 3513110007,
  "districtId": 3513110,
  "districtName": "PAKUNIRAN",
  "name": "KERTONEGORO",
  "postalCode": "68171"
 },
 {
  "id": 3513110008,
  "districtId": 3513110,
  "districtName": "PAKUNIRAN",
  "name": "BIMO",
  "postalCode": "67292"
 },
 {
  "id": 3513110009,
  "districtId": 3513110,
  "districtName": "PAKUNIRAN",
  "name": "PAKUNIRAN",
  "postalCode": "68262"
 },
 {
  "id": 3513110010,
  "districtId": 3513110,
  "districtName": "PAKUNIRAN",
  "name": "PATEMON KULON",
  "postalCode": "67292"
 },
 {
  "id": 3513110011,
  "districtId": 3513110,
  "districtName": "PAKUNIRAN",
  "name": "GUNGGUNGAN LOR",
  "postalCode": "67292"
 },
 {
  "id": 3513110012,
  "districtId": 3513110,
  "districtName": "PAKUNIRAN",
  "name": "SOGAAN",
  "postalCode": "67292"
 },
 {
  "id": 3513110013,
  "districtId": 3513110,
  "districtName": "PAKUNIRAN",
  "name": "SUMBERKEMBAR",
  "postalCode": "61374"
 },
 {
  "id": 3513110014,
  "districtId": 3513110,
  "districtName": "PAKUNIRAN",
  "name": "ALASPANDAN",
  "postalCode": ""
 },
 {
  "id": 3513110015,
  "districtId": 3513110,
  "districtName": "PAKUNIRAN",
  "name": "BUCOR WETAN",
  "postalCode": "67292"
 },
 {
  "id": 3513110016,
  "districtId": 3513110,
  "districtName": "PAKUNIRAN",
  "name": "BUCOR KULON",
  "postalCode": "67292"
 },
 {
  "id": 3513110017,
  "districtId": 3513110,
  "districtName": "PAKUNIRAN",
  "name": "GLAGAH",
  "postalCode": "57481"
 }
]