[
 {
  "id": 3514190001,
  "districtId": 3514190,
  "districtName": "GONDANG WETAN",
  "name": "TEBAS",
  "postalCode": "67174"
 },
 {
  "id": 3514190002,
  "districtId": 3514190,
  "districtName": "GONDANG WETAN",
  "name": "BRAMBANG",
  "postalCode": "59566"
 },
 {
  "id": 3514190003,
  "districtId": 3514190,
  "districtName": "GONDANG WETAN",
  "name": "BAYEMAN",
  "postalCode": "68371"
 },
 {
  "id": 3514190004,
  "districtId": 3514190,
  "districtName": "GONDANG WETAN",
  "name": "KEBON CANDI",
  "postalCode": "67174"
 },
 {
  "id": 3514190005,
  "districtId": 3514190,
  "districtName": "GONDANG WETAN",
  "name": "TENGGILIS REJO",
  "postalCode": "67174"
 },
 {
  "id": 3514190006,
  "districtId": 3514190,
  "districtName": "GONDANG WETAN",
  "name": "WONOJATI",
  "postalCode": "67174"
 },
 {
  "id": 3514190007,
  "districtId": 3514190,
  "districtName": "GONDANG WETAN",
  "name": "WONOSARI",
  "postalCode": "24582"
 },
 {
  "id": 3514190008,
  "districtId": 3514190,
  "districtName": "GONDANG WETAN",
  "name": "KERSIKAN",
  "postalCode": "67153"
 },
 {
  "id": 3514190009,
  "districtId": 3514190,
  "districtName": "GONDANG WETAN",
  "name": "KARANG SENTUL",
  "postalCode": "67174"
 },
 {
  "id": 3514190010,
  "districtId": 3514190,
  "districtName": "GONDANG WETAN",
  "name": "GAYAM",
  "postalCode": "35592"
 },
 {
  "id": 3514190011,
  "districtId": 3514190,
  "districtName": "GONDANG WETAN",
  "name": "LAJUK",
  "postalCode": "67174"
 },
 {
  "id": 3514190012,
  "districtId": 3514190,
  "districtName": "GONDANG WETAN",
  "name": "KALI REJO",
  "postalCode": "34174"
 },
 {
  "id": 3514190013,
  "districtId": 3514190,
  "districtName": "GONDANG WETAN",
  "name": "PATEGUHAN",
  "postalCode": "67174"
 },
 {
  "id": 3514190014,
  "districtId": 3514190,
  "districtName": "GONDANG WETAN",
  "name": "GROGOL",
  "postalCode": "11450"
 },
 {
  "id": 3514190015,
  "districtId": 3514190,
  "districtName": "GONDANG WETAN",
  "name": "PEKANGKUNGAN",
  "postalCode": "67174"
 },
 {
  "id": 3514190016,
  "districtId": 3514190,
  "districtName": "GONDANG WETAN",
  "name": "GONDANG WETAN",
  "postalCode": "67174"
 },
 {
  "id": 3514190017,
  "districtId": 3514190,
  "districtName": "GONDANG WETAN",
  "name": "RANGGEH",
  "postalCode": "67174"
 },
 {
  "id": 3514190018,
  "districtId": 3514190,
  "districtName": "GONDANG WETAN",
  "name": "SEKAR PUTIH",
  "postalCode": "64461"
 },
 {
  "id": 3514190019,
  "districtId": 3514190,
  "districtName": "GONDANG WETAN",
  "name": "BAJANGAN",
  "postalCode": "67174"
 },
 {
  "id": 3514190020,
  "districtId": 3514190,
  "districtName": "GONDANG WETAN",
  "name": "GONDANG REJO",
  "postalCode": "34391"
 }
]