[
 {
  "id": 3514040001,
  "districtId": 3514040,
  "districtName": "TOSARI",
  "name": "KANDANGAN",
  "postalCode": "21186"
 },
 {
  "id": 3514040002,
  "districtId": 3514040,
  "districtName": "TOSARI",
  "name": "MOROREJO",
  "postalCode": "51372"
 },
 {
  "id": 3514040003,
  "districtId": 3514040,
  "districtName": "TOSARI",
  "name": "NGADIWONO",
  "postalCode": "67177"
 },
 {
  "id": 3514040004,
  "districtId": 3514040,
  "districtName": "TOSARI",
  "name": "PODOKOYO",
  "postalCode": "67177"
 },
 {
  "id": 3514040005,
  "districtId": 3514040,
  "districtName": "TOSARI",
  "name": "WONOKITRI",
  "postalCode": "67177"
 },
 {
  "id": 3514040006,
  "districtId": 3514040,
  "districtName": "TOSARI",
  "name": "TOSARI",
  "postalCode": "51371"
 },
 {
  "id": 3514040007,
  "districtId": 3514040,
  "districtName": "TOSARI",
  "name": "BALEDONO",
  "postalCode": "54118"
 },
 {
  "id": 3514040008,
  "districtId": 3514040,
  "districtName": "TOSARI",
  "name": "SEDAENG",
  "postalCode": "67177"
 }
]