[
 {
  "id": 3514170001,
  "districtId": 3514170,
  "districtName": "KRATON",
  "name": "SLAMBRIT",
  "postalCode": "67151"
 },
 {
  "id": 3514170002,
  "districtId": 3514170,
  "districtName": "KRATON",
  "name": "NGABAR",
  "postalCode": "61352"
 },
 {
  "id": 3514170003,
  "districtId": 3514170,
  "districtName": "KRATON",
  "name": "KLAMPIS REJO",
  "postalCode": "67151"
 },
 {
  "id": 3514170004,
  "districtId": 3514170,
  "districtName": "KRATON",
  "name": "KEBOTOHAN",
  "postalCode": "67151"
 },
 {
  "id": 3514170006,
  "districtId": 3514170,
  "districtName": "KRATON",
  "name": "GAMBIR KUNING",
  "postalCode": "67151"
 },
 {
  "id": 3514170007,
  "districtId": 3514170,
  "districtName": "KRATON",
  "name": "MULYO REJO",
  "postalCode": "20351"
 },
 {
  "id": 3514170008,
  "districtId": 3514170,
  "districtName": "KRATON",
  "name": "TAMBAKSARI",
  "postalCode": "44192"
 },
 {
  "id": 3514170009,
  "districtId": 3514170,
  "districtName": "KRATON",
  "name": "PLINGGISAN",
  "postalCode": "67151"
 },
 {
  "id": 3514170010,
  "districtId": 3514170,
  "districtName": "KRATON",
  "name": "DHOMPO",
  "postalCode": "67151"
 },
 {
  "id": 3514170011,
  "districtId": 3514170,
  "districtName": "KRATON",
  "name": "NGEMPIT",
  "postalCode": "67151"
 },
 {
  "id": 3514170013,
  "districtId": 3514170,
  "districtName": "KRATON",
  "name": "SIDOGIRI",
  "postalCode": "67151"
 },
 {
  "id": 3514170014,
  "districtId": 3514170,
  "districtName": "KRATON",
  "name": "KARANG ANYAR",
  "postalCode": "24415"
 },
 {
  "id": 3514170015,
  "districtId": 3514170,
  "districtName": "KRATON",
  "name": "SELOTAMBAK",
  "postalCode": "67151"
 },
 {
  "id": 3514170016,
  "districtId": 3514170,
  "districtName": "KRATON",
  "name": "CURAH DUKUH",
  "postalCode": "67151"
 },
 {
  "id": 3514170017,
  "districtId": 3514170,
  "districtName": "KRATON",
  "name": "REJOSARI",
  "postalCode": "29353"
 },
 {
  "id": 3514170018,
  "districtId": 3514170,
  "districtName": "KRATON",
  "name": "ASEMKANDANG",
  "postalCode": "67151"
 },
 {
  "id": 3514170019,
  "districtId": 3514170,
  "districtName": "KRATON",
  "name": "TAMBAKREJO",
  "postalCode": "54391"
 },
 {
  "id": 3514170020,
  "districtId": 3514170,
  "districtName": "KRATON",
  "name": "KRATON",
  "postalCode": "52112"
 },
 {
  "id": 3514170021,
  "districtId": 3514170,
  "districtName": "KRATON",
  "name": "KALIREJO",
  "postalCode": "35353"
 },
 {
  "id": 3514170022,
  "districtId": 3514170,
  "districtName": "KRATON",
  "name": "SEMARE",
  "postalCode": "64473"
 },
 {
  "id": 3514170023,
  "districtId": 3514170,
  "districtName": "KRATON",
  "name": "PULOKERTO",
  "postalCode": "67151"
 },
 {
  "id": 3514170024,
  "districtId": 3514170,
  "districtName": "KRATON",
  "name": "BENDUNGAN",
  "postalCode": "16720"
 },
 {
  "id": 3514170025,
  "districtId": 3514170,
  "districtName": "KRATON",
  "name": "GERONGAN",
  "postalCode": "67151"
 }
]