[
 {
  "id": 3514020001,
  "districtId": 3514020,
  "districtName": "TUTUR",
  "name": "BLARANG",
  "postalCode": "67165"
 },
 {
  "id": 3514020002,
  "districtId": 3514020,
  "districtName": "TUTUR",
  "name": "KAYU KEBEK",
  "postalCode": "67165"
 },
 {
  "id": 3514020003,
  "districtId": 3514020,
  "districtName": "TUTUR",
  "name": "NGADIREJO",
  "postalCode": "31662"
 },
 {
  "id": 3514020004,
  "districtId": 3514020,
  "districtName": "TUTUR",
  "name": "ANDONO SARI",
  "postalCode": "67165"
 },
 {
  "id": 3514020005,
  "districtId": 3514020,
  "districtName": "TUTUR",
  "name": "WONOSARI",
  "postalCode": "24582"
 },
 {
  "id": 3514020006,
  "districtId": 3514020,
  "districtName": "TUTUR",
  "name": "GENDRO",
  "postalCode": "67165"
 },
 {
  "id": 3514020007,
  "districtId": 3514020,
  "districtName": "TUTUR",
  "name": "TLOGOSARI",
  "postalCode": "54473"
 },
 {
  "id": 3514020009,
  "districtId": 3514020,
  "districtName": "TUTUR",
  "name": "PUNGGING",
  "postalCode": "61384"
 },
 {
  "id": 3514020010,
  "districtId": 3514020,
  "districtName": "TUTUR",
  "name": "KALI PUCANG",
  "postalCode": "67165"
 },
 {
  "id": 3514020011,
  "districtId": 3514020,
  "districtName": "TUTUR",
  "name": "SUMBER PITU",
  "postalCode": "67165"
 },
 {
  "id": 3514020012,
  "districtId": 3514020,
  "districtName": "TUTUR",
  "name": "NGEMBAL",
  "postalCode": "67165"
 }
]