[
 {
  "id": 3515180001,
  "districtId": 3515180,
  "districtName": "BALONG BENDO",
  "name": "SINGKALAN",
  "postalCode": "61263"
 },
 {
  "id": 3515180002,
  "districtId": 3515180,
  "districtName": "BALONG BENDO",
  "name": "KEDUNG SUKODANI",
  "postalCode": "61263"
 },
 {
  "id": 3515180003,
  "districtId": 3515180,
  "districtName": "BALONG BENDO",
  "name": "BAKUNG TEMENGGUNGAN",
  "postalCode": "61263"
 },
 {
  "id": 3515180004,
  "districtId": 3515180,
  "districtName": "BALONG BENDO",
  "name": "SUMOKEMBANGSRI",
  "postalCode": "61263"
 },
 {
  "id": 3515180005,
  "districtId": 3515180,
  "districtName": "BALONG BENDO",
  "name": "SEDURI",
  "postalCode": "61263"
 },
 {
  "id": 3515180006,
  "districtId": 3515180,
  "districtName": "BALONG BENDO",
  "name": "WONOKUPANG",
  "postalCode": "61263"
 },
 {
  "id": 3515180007,
  "districtId": 3515180,
  "districtName": "BALONG BENDO",
  "name": "WARUBERON",
  "postalCode": "61263"
 },
 {
  "id": 3515180008,
  "districtId": 3515180,
  "districtName": "BALONG BENDO",
  "name": "BAKALAN WRINGINPITU",
  "postalCode": "61263"
 },
 {
  "id": 3515180009,
  "districtId": 3515180,
  "districtName": "BALONG BENDO",
  "name": "GAGANG KEPUHSARI",
  "postalCode": "61263"
 },
 {
  "id": 3515180010,
  "districtId": 3515180,
  "districtName": "BALONG BENDO",
  "name": "SUWALUH",
  "postalCode": "61263"
 },
 {
  "id": 3515180011,
  "districtId": 3515180,
  "districtName": "BALONG BENDO",
  "name": "WATESARI",
  "postalCode": "61263"
 },
 {
  "id": 3515180012,
  "districtId": 3515180,
  "districtName": "BALONG BENDO",
  "name": "SEKETI",
  "postalCode": "61263"
 },
 {
  "id": 3515180013,
  "districtId": 3515180,
  "districtName": "BALONG BENDO",
  "name": "KEMANGSEN",
  "postalCode": "61263"
 },
 {
  "id": 3515180014,
  "districtId": 3515180,
  "districtName": "BALONG BENDO",
  "name": "JABARAN",
  "postalCode": "61263"
 },
 {
  "id": 3515180015,
  "districtId": 3515180,
  "districtName": "BALONG BENDO",
  "name": "BALONGBENDO",
  "postalCode": "61263"
 },
 {
  "id": 3515180016,
  "districtId": 3515180,
  "districtName": "BALONG BENDO",
  "name": "JERUK LEGI",
  "postalCode": "61263"
 },
 {
  "id": 3515180017,
  "districtId": 3515180,
  "districtName": "BALONG BENDO",
  "name": "PENAMBANGAN",
  "postalCode": "61263"
 },
 {
  "id": 3515180018,
  "districtId": 3515180,
  "districtName": "BALONG BENDO",
  "name": "WONOKARANG",
  "postalCode": "61263"
 },
 {
  "id": 3515180019,
  "districtId": 3515180,
  "districtName": "BALONG BENDO",
  "name": "BAKUNG PRINGGODANI",
  "postalCode": "61263"
 },
 {
  "id": 3515180020,
  "districtId": 3515180,
  "districtName": "BALONG BENDO",
  "name": "BOGEM PINGGIR",
  "postalCode": "61263"
 }
]