[
 {
  "id": 3516060001,
  "districtId": 3516060,
  "districtName": "PUNGGING",
  "name": "PURWOREJO",
  "postalCode": "23661"
 },
 {
  "id": 3516060002,
  "districtId": 3516060,
  "districtName": "PUNGGING",
  "name": "MOJOREJO",
  "postalCode": "39153"
 },
 {
  "id": 3516060003,
  "districtId": 3516060,
  "districtName": "PUNGGING",
  "name": "CURAHMOJO",
  "postalCode": "61384"
 },
 {
  "id": 3516060004,
  "districtId": 3516060,
  "districtName": "PUNGGING",
  "name": "SEKARGADUNG",
  "postalCode": "61155"
 },
 {
  "id": 3516060005,
  "districtId": 3516060,
  "districtName": "PUNGGING",
  "name": "TEMPURAN",
  "postalCode": "34172"
 },
 {
  "id": 3516060006,
  "districtId": 3516060,
  "districtName": "PUNGGING",
  "name": "JATILANGKUNG",
  "postalCode": "61384"
 },
 {
  "id": 3516060007,
  "districtId": 3516060,
  "districtName": "PUNGGING",
  "name": "BANJARTANGGUL",
  "postalCode": "61384"
 },
 {
  "id": 3516060008,
  "districtId": 3516060,
  "districtName": "PUNGGING",
  "name": "KALIPURO",
  "postalCode": "68455"
 },
 {
  "id": 3516060009,
  "districtId": 3516060,
  "districtName": "PUNGGING",
  "name": "RANDUHARJO",
  "postalCode": "61384"
 },
 {
  "id": 3516060010,
  "districtId": 3516060,
  "districtName": "PUNGGING",
  "name": "KEMBANGRINGGIT",
  "postalCode": "61384"
 },
 {
  "id": 3516060011,
  "districtId": 3516060,
  "districtName": "PUNGGING",
  "name": "PUNGGING",
  "postalCode": "61384"
 },
 {
  "id": 3516060012,
  "districtId": 3516060,
  "districtName": "PUNGGING",
  "name": "LEBAKSONO",
  "postalCode": "61384"
 },
 {
  "id": 3516060013,
  "districtId": 3516060,
  "districtName": "PUNGGING",
  "name": "TUNGGALPAGER",
  "postalCode": "61384"
 },
 {
  "id": 3516060014,
  "districtId": 3516060,
  "districtName": "PUNGGING",
  "name": "BALONGMASIN",
  "postalCode": "61384"
 },
 {
  "id": 3516060015,
  "districtId": 3516060,
  "districtName": "PUNGGING",
  "name": "JABONTEGAL",
  "postalCode": "61384"
 },
 {
  "id": 3516060016,
  "districtId": 3516060,
  "districtName": "PUNGGING",
  "name": "KEDUNGMUNGGAL",
  "postalCode": "61384"
 },
 {
  "id": 3516060017,
  "districtId": 3516060,
  "districtName": "PUNGGING",
  "name": "WATUKENONGO",
  "postalCode": "61384"
 },
 {
  "id": 3516060018,
  "districtId": 3516060,
  "districtName": "PUNGGING",
  "name": "NGRAME",
  "postalCode": "61384"
 },
 {
  "id": 3516060019,
  "districtId": 3516060,
  "districtName": "PUNGGING",
  "name": "BANGUN",
  "postalCode": "21174"
 }
]