[
 {
  "id": 3516140001,
  "districtId": 3516140,
  "districtName": "GEDEK",
  "name": "NGARESKIDUL",
  "postalCode": "61351"
 },
 {
  "id": 3516140002,
  "districtId": 3516140,
  "districtName": "GEDEK",
  "name": "GEMBONGAN",
  "postalCode": "45191"
 },
 {
  "id": 3516140003,
  "districtId": 3516140,
  "districtName": "GEDEK",
  "name": "GEMPOLKREP",
  "postalCode": "61351"
 },
 {
  "id": 3516140004,
  "districtId": 3516140,
  "districtName": "GEDEK",
  "name": "BANDUNG",
  "postalCode": "54317"
 },
 {
  "id": 3516140006,
  "districtId": 3516140,
  "districtName": "GEDEK",
  "name": "PAGERLUYUNG",
  "postalCode": "61351"
 },
 {
  "id": 3516140007,
  "districtId": 3516140,
  "districtName": "GEDEK",
  "name": "KEMANTREN",
  "postalCode": "45611"
 },
 {
  "id": 3516140008,
  "districtId": 3516140,
  "districtName": "GEDEK",
  "name": "TERUSAN",
  "postalCode": "28471"
 },
 {
  "id": 3516140009,
  "districtId": 3516140,
  "districtName": "GEDEK",
  "name": "SIDOHARJO",
  "postalCode": "30975"
 },
 {
  "id": 3516140010,
  "districtId": 3516140,
  "districtName": "GEDEK",
  "name": "BALONGSARI",
  "postalCode": "41382"
 },
 {
  "id": 3516140011,
  "districtId": 3516140,
  "districtName": "GEDEK",
  "name": "BATANKRAJAN",
  "postalCode": "61351"
 },
 {
  "id": 3516140012,
  "districtId": 3516140,
  "districtName": "GEDEK",
  "name": "PAGERJO",
  "postalCode": "61351"
 },
 {
  "id": 3516140014,
  "districtId": 3516140,
  "districtName": "GEDEK",
  "name": "BERATWETAN",
  "postalCode": "61351"
 }
]