[
 {
  "id": 3517171001,
  "districtId": 3517171,
  "districtName": "NGUSIKAN",
  "name": "KEBOAN",
  "postalCode": "61454"
 },
 {
  "id": 3517171002,
  "districtId": 3517171,
  "districtName": "NGUSIKAN",
  "name": "KETAPANG KUNING",
  "postalCode": "61454"
 },
 {
  "id": 3517171003,
  "districtId": 3517171,
  "districtName": "NGUSIKAN",
  "name": "KEDUNG BOGO",
  "postalCode": "61454"
 },
 {
  "id": 3517171004,
  "districtId": 3517171,
  "districtName": "NGUSIKAN",
  "name": "NGUSIKAN",
  "postalCode": "61454"
 },
 {
  "id": 3517171005,
  "districtId": 3517171,
  "districtName": "NGUSIKAN",
  "name": "SUMBER NONGKO",
  "postalCode": "61454"
 },
 {
  "id": 3517171006,
  "districtId": 3517171,
  "districtName": "NGUSIKAN",
  "name": "MANUNGGAL",
  "postalCode": "20373"
 },
 {
  "id": 3517171007,
  "districtId": 3517171,
  "districtName": "NGUSIKAN",
  "name": "NGAMPEL",
  "postalCode": "58219"
 },
 {
  "id": 3517171008,
  "districtId": 3517171,
  "districtName": "NGUSIKAN",
  "name": "MOJODANU",
  "postalCode": "61454"
 },
 {
  "id": 3517171009,
  "districtId": 3517171,
  "districtName": "NGUSIKAN",
  "name": "CUPAK",
  "postalCode": "27365"
 },
 {
  "id": 3517171010,
  "districtId": 3517171,
  "districtName": "NGUSIKAN",
  "name": "ASEM GEDE",
  "postalCode": "61454"
 },
 {
  "id": 3517171011,
  "districtId": 3517171,
  "districtName": "NGUSIKAN",
  "name": "KROMONG",
  "postalCode": "61454"
 }
]