[
 {
  "id": 3517070001,
  "districtId": 3517070,
  "districtName": "BARENG",
  "name": "KEBONDALEM",
  "postalCode": "53471"
 },
 {
  "id": 3517070003,
  "districtId": 3517070,
  "districtName": "BARENG",
  "name": "PAKEL",
  "postalCode": "57384"
 },
 {
  "id": 3517070004,
  "districtId": 3517070,
  "districtName": "BARENG",
  "name": "KARANGAN",
  "postalCode": "31131"
 },
 {
  "id": 3517070005,
  "districtId": 3517070,
  "districtName": "BARENG",
  "name": "NGAMPUNGAN",
  "postalCode": "61474"
 },
 {
  "id": 3517070006,
  "districtId": 3517070,
  "districtName": "BARENG",
  "name": "JENISGELARAN",
  "postalCode": "61474"
 },
 {
  "id": 3517070007,
  "districtId": 3517070,
  "districtName": "BARENG",
  "name": "BARENG",
  "postalCode": "57414"
 },
 {
  "id": 3517070009,
  "districtId": 3517070,
  "districtName": "BARENG",
  "name": "MOJOTENGAH",
  "postalCode": "56252"
 },
 {
  "id": 3517070010,
  "districtId": 3517070,
  "districtName": "BARENG",
  "name": "BANJARAGUNG",
  "postalCode": "56163"
 },
 {
  "id": 3517070011,
  "districtId": 3517070,
  "districtName": "BARENG",
  "name": "NGLEBAK",
  "postalCode": "58383"
 },
 {
  "id": 3517070012,
  "districtId": 3517070,
  "districtName": "BARENG",
  "name": "PULOSARI",
  "postalCode": "43354"
 },
 {
  "id": 3517070013,
  "districtId": 3517070,
  "districtName": "BARENG",
  "name": "NGRIMBI",
  "postalCode": "61474"
 }
]