[
 {
  "id": 3517010001,
  "districtId": 3517010,
  "districtName": "BANDAR KEDUNG MULYO",
  "name": "BANDAR KEDUNG MULYO",
  "postalCode": "61462"
 },
 {
  "id": 3517010002,
  "districtId": 3517010,
  "districtName": "BANDAR KEDUNG MULYO",
  "name": "MOJOKAMBANG",
  "postalCode": "61462"
 },
 {
  "id": 3517010003,
  "districtId": 3517010,
  "districtName": "BANDAR KEDUNG MULYO",
  "name": "BARONG SAWAHAN",
  "postalCode": "61462"
 },
 {
  "id": 3517010004,
  "districtId": 3517010,
  "districtName": "BANDAR KEDUNG MULYO",
  "name": "KAYEN",
  "postalCode": "57391"
 },
 {
  "id": 3517010005,
  "districtId": 3517010,
  "districtName": "BANDAR KEDUNG MULYO",
  "name": "GONDANG MANIS",
  "postalCode": "61462"
 },
 {
  "id": 3517010006,
  "districtId": 3517010,
  "districtName": "BANDAR KEDUNG MULYO",
  "name": "PUCANG SIMO",
  "postalCode": "61462"
 },
 {
  "id": 3517010007,
  "districtId": 3517010,
  "districtName": "BANDAR KEDUNG MULYO",
  "name": "BRODOT",
  "postalCode": "61462"
 },
 {
  "id": 3517010008,
  "districtId": 3517010,
  "districtName": "BANDAR KEDUNG MULYO",
  "name": "BRANGKAL",
  "postalCode": "57274"
 },
 {
  "id": 3517010009,
  "districtId": 3517010,
  "districtName": "BANDAR KEDUNG MULYO",
  "name": "BANJAR SARI",
  "postalCode": "31471"
 },
 {
  "id": 3517010010,
  "districtId": 3517010,
  "districtName": "BANDAR KEDUNG MULYO",
  "name": "TINGGAR",
  "postalCode": "45561"
 },
 {
  "id": 3517010011,
  "districtId": 3517010,
  "districtName": "BANDAR KEDUNG MULYO",
  "name": "KARANG DAGANGAN",
  "postalCode": "61462"
 }
]