[
 {
  "id": 3517180001,
  "districtId": 3517180,
  "districtName": "PLOSO",
  "name": "TANGGUNG KRAMAT",
  "postalCode": "61453"
 },
 {
  "id": 3517180002,
  "districtId": 3517180,
  "districtName": "PLOSO",
  "name": "REJOAGUNG",
  "postalCode": "35363"
 },
 {
  "id": 3517180003,
  "districtId": 3517180,
  "districtName": "PLOSO",
  "name": "LOSARI",
  "postalCode": "52364"
 },
 {
  "id": 3517180004,
  "districtId": 3517180,
  "districtName": "PLOSO",
  "name": "PLOSO",
  "postalCode": "59348"
 },
 {
  "id": 3517180005,
  "districtId": 3517180,
  "districtName": "PLOSO",
  "name": "JATIGEDONG",
  "postalCode": "61453"
 },
 {
  "id": 3517180006,
  "districtId": 3517180,
  "districtName": "PLOSO",
  "name": "DADI TUNGGAL",
  "postalCode": "61453"
 },
 {
  "id": 3517180007,
  "districtId": 3517180,
  "districtName": "PLOSO",
  "name": "GEDONGOMBO",
  "postalCode": "61453"
 },
 {
  "id": 3517180008,
  "districtId": 3517180,
  "districtName": "PLOSO",
  "name": "JATIBANJAR",
  "postalCode": "61453"
 },
 {
  "id": 3517180009,
  "districtId": 3517180,
  "districtName": "PLOSO",
  "name": "PAGER TANJUNG",
  "postalCode": "61453"
 },
 {
  "id": 3517180010,
  "districtId": 3517180,
  "districtName": "PLOSO",
  "name": "PANDAN BLOLE",
  "postalCode": "61453"
 },
 {
  "id": 3517180011,
  "districtId": 3517180,
  "districtName": "PLOSO",
  "name": "KEDUNGDOWO",
  "postalCode": "57384"
 },
 {
  "id": 3517180012,
  "districtId": 3517180,
  "districtName": "PLOSO",
  "name": "BAWANGAN",
  "postalCode": "61453"
 },
 {
  "id": 3517180013,
  "districtId": 3517180,
  "districtName": "PLOSO",
  "name": "KEBON AGUNG",
  "postalCode": "32156"
 }
]