[
 {
  "id": 3518050001,
  "districtId": 3518050,
  "districtName": "PACE",
  "name": "JOHO",
  "postalCode": "54363"
 },
 {
  "id": 3518050002,
  "districtId": 3518050,
  "districtName": "PACE",
  "name": "JATIGREGES",
  "postalCode": "64472"
 },
 {
  "id": 3518050003,
  "districtId": 3518050,
  "districtName": "PACE",
  "name": "SANAN",
  "postalCode": "57683"
 },
 {
  "id": 3518050004,
  "districtId": 3518050,
  "districtName": "PACE",
  "name": "PACEKULON",
  "postalCode": "64472"
 },
 {
  "id": 3518050005,
  "districtId": 3518050,
  "districtName": "PACE",
  "name": "GONDANG",
  "postalCode": "51255"
 },
 {
  "id": 3518050007,
  "districtId": 3518050,
  "districtName": "PACE",
  "name": "MLANDANGAN",
  "postalCode": "64472"
 },
 {
  "id": 3518050008,
  "districtId": 3518050,
  "districtName": "PACE",
  "name": "JAMPES",
  "postalCode": "64472"
 },
 {
  "id": 3518050009,
  "districtId": 3518050,
  "districtName": "PACE",
  "name": "BATEMBAT",
  "postalCode": "64472"
 },
 {
  "id": 3518050010,
  "districtId": 3518050,
  "districtName": "PACE",
  "name": "BABADAN",
  "postalCode": "45151"
 },
 {
  "id": 3518050011,
  "districtId": 3518050,
  "districtName": "PACE",
  "name": "BODOR",
  "postalCode": "64472"
 },
 {
  "id": 3518050012,
  "districtId": 3518050,
  "districtName": "PACE",
  "name": "PACE WETAN",
  "postalCode": "64472"
 },
 {
  "id": 3518050014,
  "districtId": 3518050,
  "districtName": "PACE",
  "name": "JETIS",
  "postalCode": "57556"
 },
 {
  "id": 3518050015,
  "districtId": 3518050,
  "districtName": "PACE",
  "name": "BANARAN",
  "postalCode": "51281"
 },
 {
  "id": 3518050017,
  "districtId": 3518050,
  "districtName": "PACE",
  "name": "PLOSOHARJO",
  "postalCode": "58171"
 },
 {
  "id": 3518050018,
  "districtId": 3518050,
  "districtName": "PACE",
  "name": "KEPANJEN",
  "postalCode": "57471"
 }
]