[
 {
  "id": 3518010001,
  "districtId": 3518010,
  "districtName": "SAWAHAN",
  "name": "NGLIMAN",
  "postalCode": "64475"
 },
 {
  "id": 3518010002,
  "districtId": 3518010,
  "districtName": "SAWAHAN",
  "name": "BARENG",
  "postalCode": "57414"
 },
 {
  "id": 3518010003,
  "districtId": 3518010,
  "districtName": "SAWAHAN",
  "name": "SAWAHAN",
  "postalCode": "25121"
 },
 {
  "id": 3518010004,
  "districtId": 3518010,
  "districtName": "SAWAHAN",
  "name": "BENDOLO",
  "postalCode": "64475"
 },
 {
  "id": 3518010006,
  "districtId": 3518010,
  "districtName": "SAWAHAN",
  "name": "SIDOREJO",
  "postalCode": "24784"
 },
 {
  "id": 3518010007,
  "districtId": 3518010,
  "districtName": "SAWAHAN",
  "name": "MARGOPATUT",
  "postalCode": "64475"
 },
 {
  "id": 3518010008,
  "districtId": 3518010,
  "districtName": "SAWAHAN",
  "name": "SIWALAN",
  "postalCode": "50162"
 },
 {
  "id": 3518010009,
  "districtId": 3518010,
  "districtName": "SAWAHAN",
  "name": "KEBON AGUNG",
  "postalCode": "32156"
 }
]