[
 {
  "id": 3518090002,
  "districtId": 3518090,
  "districtName": "KERTOSONO",
  "name": "JUWONO",
  "postalCode": "64315"
 },
 {
  "id": 3518090003,
  "districtId": 3518090,
  "districtName": "KERTOSONO",
  "name": "BANGSRI",
  "postalCode": "59453"
 },
 {
  "id": 3518090004,
  "districtId": 3518090,
  "districtName": "KERTOSONO",
  "name": "KALIANYAR",
  "postalCode": "45284"
 },
 {
  "id": 3518090005,
  "districtId": 3518090,
  "districtName": "KERTOSONO",
  "name": "TANJUNG",
  "postalCode": "24562"
 },
 {
  "id": 3518090006,
  "districtId": 3518090,
  "districtName": "KERTOSONO",
  "name": "NGLAWAK",
  "postalCode": "64315"
 },
 {
  "id": 3518090008,
  "districtId": 3518090,
  "districtName": "KERTOSONO",
  "name": "TEMBARAK",
  "postalCode": "56261"
 },
 {
  "id": 3518090010,
  "districtId": 3518090,
  "districtName": "KERTOSONO",
  "name": "KUTOREJO",
  "postalCode": "51161"
 },
 {
  "id": 3518090011,
  "districtId": 3518090,
  "districtName": "KERTOSONO",
  "name": "BANARAN",
  "postalCode": "51281"
 },
 {
  "id": 3518090012,
  "districtId": 3518090,
  "districtName": "KERTOSONO",
  "name": "LAMBANG KUNING",
  "postalCode": "64315"
 },
 {
  "id": 3518090013,
  "districtId": 3518090,
  "districtName": "KERTOSONO",
  "name": "PANDAN TOYO",
  "postalCode": "64315"
 }
]