[
 {
  "id": 3519090001,
  "districtId": 3519090,
  "districtName": "PILANGKENCENG",
  "name": "PURWOREJO",
  "postalCode": "23661"
 },
 {
  "id": 3519090002,
  "districtId": 3519090,
  "districtName": "PILANGKENCENG",
  "name": "WONOAYU",
  "postalCode": "63154"
 },
 {
  "id": 3519090003,
  "districtId": 3519090,
  "districtName": "PILANGKENCENG",
  "name": "KEDUNGREJO",
  "postalCode": "57383"
 },
 {
  "id": 3519090004,
  "districtId": 3519090,
  "districtName": "PILANGKENCENG",
  "name": "KEDUNGMARON",
  "postalCode": "63154"
 },
 {
  "id": 3519090006,
  "districtId": 3519090,
  "districtName": "PILANGKENCENG",
  "name": "SUMBERGANDU",
  "postalCode": "63154"
 },
 {
  "id": 3519090007,
  "districtId": 3519090,
  "districtName": "PILANGKENCENG",
  "name": "PILANGKENCENG",
  "postalCode": "63154"
 },
 {
  "id": 3519090009,
  "districtId": 3519090,
  "districtName": "PILANGKENCENG",
  "name": "PULEREJO",
  "postalCode": "66163"
 },
 {
  "id": 3519090010,
  "districtId": 3519090,
  "districtName": "PILANGKENCENG",
  "name": "NGALE",
  "postalCode": "63253"
 },
 {
  "id": 3519090012,
  "districtId": 3519090,
  "districtName": "PILANGKENCENG",
  "name": "KEDUNG BANTENG",
  "postalCode": "52472"
 },
 {
  "id": 3519090013,
  "districtId": 3519090,
  "districtName": "PILANGKENCENG",
  "name": "LUWORO",
  "postalCode": "63154"
 },
 {
  "id": 3519090014,
  "districtId": 3519090,
  "districtName": "PILANGKENCENG",
  "name": "GANDUL",
  "postalCode": "16512"
 },
 {
  "id": 3519090015,
  "districtId": 3519090,
  "districtName": "PILANGKENCENG",
  "name": "NGENGOR",
  "postalCode": "63154"
 },
 {
  "id": 3519090016,
  "districtId": 3519090,
  "districtName": "PILANGKENCENG",
  "name": "KENONGOREJO",
  "postalCode": "63285"
 },
 {
  "id": 3519090018,
  "districtId": 3519090,
  "districtName": "PILANGKENCENG",
  "name": "DAWUHAN",
  "postalCode": "53192"
 }
]