[
 {
  "id": 3519050001,
  "districtId": 3519050,
  "districtName": "WUNGU",
  "name": "SIDOREJO",
  "postalCode": "24784"
 },
 {
  "id": 3519050002,
  "districtId": 3519050,
  "districtName": "WUNGU",
  "name": "PILANGREJO",
  "postalCode": "57391"
 },
 {
  "id": 3519050004,
  "districtId": 3519050,
  "districtName": "WUNGU",
  "name": "MOJOPURNO",
  "postalCode": "63361"
 },
 {
  "id": 3519050005,
  "districtId": 3519050,
  "districtName": "WUNGU",
  "name": "KARANGREJO",
  "postalCode": "35387"
 },
 {
  "id": 3519050009,
  "districtId": 3519050,
  "districtName": "WUNGU",
  "name": "MOJORAYUNG",
  "postalCode": "63181"
 },
 {
  "id": 3519050010,
  "districtId": 3519050,
  "districtName": "WUNGU",
  "name": "BANTENGAN",
  "postalCode": "57381"
 },
 {
  "id": 3519050011,
  "districtId": 3519050,
  "districtName": "WUNGU",
  "name": "TEMPURSARI",
  "postalCode": "56191"
 },
 {
  "id": 3519050012,
  "districtId": 3519050,
  "districtName": "WUNGU",
  "name": "NGLANDUK",
  "postalCode": "63181"
 },
 {
  "id": 3519050013,
  "districtId": 3519050,
  "districtName": "WUNGU",
  "name": "NGLAMBANGAN",
  "postalCode": "63181"
 },
 {
  "id": 3519050014,
  "districtId": 3519050,
  "districtName": "WUNGU",
  "name": "SOBRAH",
  "postalCode": "63181"
 }
]