[
 {
  "id": 3519110001,
  "districtId": 3519110,
  "districtName": "WONOASRI",
  "name": "NGADIREJO",
  "postalCode": "31662"
 },
 {
  "id": 3519110002,
  "districtId": 3519110,
  "districtName": "WONOASRI",
  "name": "JATIREJO",
  "postalCode": "23661"
 },
 {
  "id": 3519110003,
  "districtId": 3519110,
  "districtName": "WONOASRI",
  "name": "BANYUKAMBANG",
  "postalCode": "63157"
 },
 {
  "id": 3519110004,
  "districtId": 3519110,
  "districtName": "WONOASRI",
  "name": "SIDOMULYO",
  "postalCode": "21455"
 },
 {
  "id": 3519110005,
  "districtId": 3519110,
  "districtName": "WONOASRI",
  "name": "PLUMPUNGREJO",
  "postalCode": "66161"
 },
 {
  "id": 3519110006,
  "districtId": 3519110,
  "districtName": "WONOASRI",
  "name": "WONOASRI",
  "postalCode": "64151"
 },
 {
  "id": 3519110007,
  "districtId": 3519110,
  "districtName": "WONOASRI",
  "name": "BANCONG",
  "postalCode": "63157"
 },
 {
  "id": 3519110008,
  "districtId": 3519110,
  "districtName": "WONOASRI",
  "name": "KLITIK",
  "postalCode": "63271"
 },
 {
  "id": 3519110009,
  "districtId": 3519110,
  "districtName": "WONOASRI",
  "name": "PURWOSARI",
  "postalCode": "24582"
 },
 {
  "id": 3519110010,
  "districtId": 3519110,
  "districtName": "WONOASRI",
  "name": "BUDURAN",
  "postalCode": "69151"
 }
]