[
 {
  "id": 3520100002,
  "districtId": 3520100,
  "districtName": "BENDO",
  "name": "BELOTAN",
  "postalCode": "63384"
 },
 {
  "id": 3520100003,
  "districtId": 3520100,
  "districtName": "BENDO",
  "name": "PINGKUK",
  "postalCode": "57692"
 },
 {
  "id": 3520100004,
  "districtId": 3520100,
  "districtName": "BENDO",
  "name": "TANJUNG",
  "postalCode": "24562"
 },
 {
  "id": 3520100005,
  "districtId": 3520100,
  "districtName": "BENDO",
  "name": "TEGALARUM",
  "postalCode": "56413"
 },
 {
  "id": 3520100006,
  "districtId": 3520100,
  "districtName": "BENDO",
  "name": "BULAK",
  "postalCode": "45162"
 },
 {
  "id": 3520100007,
  "districtId": 3520100,
  "districtName": "BENDO",
  "name": "SOCO",
  "postalCode": "59353"
 },
 {
  "id": 3520100008,
  "districtId": 3520100,
  "districtName": "BENDO",
  "name": "CARIKAN",
  "postalCode": "57472"
 },
 {
  "id": 3520100009,
  "districtId": 3520100,
  "districtName": "BENDO",
  "name": "BENDO",
  "postalCode": "57378"
 },
 {
  "id": 3520100013,
  "districtId": 3520100,
  "districtName": "BENDO",
  "name": "KLECO",
  "postalCode": "63384"
 },
 {
  "id": 3520100014,
  "districtId": 3520100,
  "districtName": "BENDO",
  "name": "KLEDOKAN",
  "postalCode": "63384"
 },
 {
  "id": 3520100015,
  "districtId": 3520100,
  "districtName": "BENDO",
  "name": "LEMAHBANG",
  "postalCode": "57783"
 },
 {
  "id": 3520100016,
  "districtId": 3520100,
  "districtName": "BENDO",
  "name": "KINANDANG",
  "postalCode": "63384"
 }
]