[
 {
  "id": 3520090001,
  "districtId": 3520090,
  "districtName": "SUKOMORO",
  "name": "KALANGKETI",
  "postalCode": "63391"
 },
 {
  "id": 3520090002,
  "districtId": 3520090,
  "districtName": "SUKOMORO",
  "name": "TAMANAN",
  "postalCode": "55191"
 },
 {
  "id": 3520090003,
  "districtId": 3520090,
  "districtName": "SUKOMORO",
  "name": "TAMBAKMAS",
  "postalCode": "63173"
 },
 {
  "id": 3520090004,
  "districtId": 3520090,
  "districtName": "SUKOMORO",
  "name": "BANDAR",
  "postalCode": "32264"
 },
 {
  "id": 3520090005,
  "districtId": 3520090,
  "districtName": "SUKOMORO",
  "name": "BIBIS",
  "postalCode": "63391"
 },
 {
  "id": 3520090006,
  "districtId": 3520090,
  "districtName": "SUKOMORO",
  "name": "SUKOMORO",
  "postalCode": "64153"
 },
 {
  "id": 3520090008,
  "districtId": 3520090,
  "districtName": "SUKOMORO",
  "name": "POJOKSARI",
  "postalCode": "50614"
 },
 {
  "id": 3520090009,
  "districtId": 3520090,
  "districtName": "SUKOMORO",
  "name": "TINAP",
  "postalCode": "63391"
 },
 {
  "id": 3520090010,
  "districtId": 3520090,
  "districtName": "SUKOMORO",
  "name": "KEMBANGAN",
  "postalCode": "59511"
 },
 {
  "id": 3520090011,
  "districtId": 3520090,
  "districtName": "SUKOMORO",
  "name": "KEDUNGGUWO",
  "postalCode": "63391"
 },
 {
  "id": 3520090012,
  "districtId": 3520090,
  "districtName": "SUKOMORO",
  "name": "KENTANGAN",
  "postalCode": "63391"
 },
 {
  "id": 3520090013,
  "districtId": 3520090,
  "districtName": "SUKOMORO",
  "name": "BOGEM",
  "postalCode": "57462"
 }
]