[
 {
  "id": 3520020001,
  "districtId": 3520020,
  "districtName": "PARANG",
  "name": "SAYUTAN",
  "postalCode": "63371"
 },
 {
  "id": 3520020002,
  "districtId": 3520020,
  "districtName": "PARANG",
  "name": "NGLOPANG",
  "postalCode": "63371"
 },
 {
  "id": 3520020003,
  "districtId": 3520020,
  "districtName": "PARANG",
  "name": "MATEGAL",
  "postalCode": "63371"
 },
 {
  "id": 3520020005,
  "districtId": 3520020,
  "districtName": "PARANG",
  "name": "TROSONO",
  "postalCode": "63371"
 },
 {
  "id": 3520020007,
  "districtId": 3520020,
  "districtName": "PARANG",
  "name": "NGAGLIK",
  "postalCode": "57697"
 },
 {
  "id": 3520020008,
  "districtId": 3520020,
  "districtName": "PARANG",
  "name": "PARANG",
  "postalCode": "59455"
 },
 {
  "id": 3520020009,
  "districtId": 3520020,
  "districtName": "PARANG",
  "name": "TAMANARUM",
  "postalCode": "63371"
 },
 {
  "id": 3520020010,
  "districtId": 3520020,
  "districtName": "PARANG",
  "name": "PRAGAK",
  "postalCode": "63371"
 },
 {
  "id": 3520020012,
  "districtId": 3520020,
  "districtName": "PARANG",
  "name": "KRAJAN",
  "postalCode": "57557"
 },
 {
  "id": 3520020013,
  "districtId": 3520020,
  "districtName": "PARANG",
  "name": "JOKETRO",
  "postalCode": "63371"
 }
]