[
 {
  "id": 3520050002,
  "districtId": 3520050,
  "districtName": "KAWEDANAN",
  "name": "GIRIPURNO",
  "postalCode": "56553"
 },
 {
  "id": 3520050004,
  "districtId": 3520050,
  "districtName": "KAWEDANAN",
  "name": "BALEREJO",
  "postalCode": "59573"
 },
 {
  "id": 3520050005,
  "districtId": 3520050,
  "districtName": "KAWEDANAN",
  "name": "GARON",
  "postalCode": "63152"
 },
 {
  "id": 3520050006,
  "districtId": 3520050,
  "districtName": "KAWEDANAN",
  "name": "TLADAN",
  "postalCode": "63382"
 },
 {
  "id": 3520050007,
  "districtId": 3520050,
  "districtName": "KAWEDANAN",
  "name": "POJOK",
  "postalCode": "57752"
 },
 {
  "id": 3520050010,
  "districtId": 3520050,
  "districtName": "KAWEDANAN",
  "name": "KAWEDANAN",
  "postalCode": "63382"
 },
 {
  "id": 3520050011,
  "districtId": 3520050,
  "districtName": "KAWEDANAN",
  "name": "SAMPUNG",
  "postalCode": "59274"
 },
 {
  "id": 3520050012,
  "districtId": 3520050,
  "districtName": "KAWEDANAN",
  "name": "MANGUNREJO",
  "postalCode": "56163"
 },
 {
  "id": 3520050014,
  "districtId": 3520050,
  "districtName": "KAWEDANAN",
  "name": "SELOREJO",
  "postalCode": "57683"
 },
 {
  "id": 3520050015,
  "districtId": 3520050,
  "districtName": "KAWEDANAN",
  "name": "JAMBANGAN",
  "postalCode": "51274"
 },
 {
  "id": 3520050016,
  "districtId": 3520050,
  "districtName": "KAWEDANAN",
  "name": "BOGEM",
  "postalCode": "57462"
 },
 {
  "id": 3520050017,
  "districtId": 3520050,
  "districtName": "KAWEDANAN",
  "name": "REJOSARI",
  "postalCode": "29353"
 },
 {
  "id": 3520050019,
  "districtId": 3520050,
  "districtName": "KAWEDANAN",
  "name": "MOJOREJO",
  "postalCode": "39153"
 },
 {
  "id": 3520050020,
  "districtId": 3520050,
  "districtName": "KAWEDANAN",
  "name": "GENENGAN",
  "postalCode": "57782"
 },
 {
  "id": 3520050021,
  "districtId": 3520050,
  "districtName": "KAWEDANAN",
  "name": "KARANGREJO",
  "postalCode": "35387"
 },
 {
  "id": 3520050022,
  "districtId": 3520050,
  "districtName": "KAWEDANAN",
  "name": "NGADIREJO",
  "postalCode": "31662"
 },
 {
  "id": 3520050023,
  "districtId": 3520050,
  "districtName": "KAWEDANAN",
  "name": "SUGIHREJO",
  "postalCode": "59173"
 }
]