[
 {
  "id": 3521150001,
  "districtId": 3521150,
  "districtName": "WIDODAREN",
  "name": "BANYU BIRU",
  "postalCode": "30656"
 },
 {
  "id": 3521150003,
  "districtId": 3521150,
  "districtName": "WIDODAREN",
  "name": "KAYUTREJO",
  "postalCode": "63256"
 },
 {
  "id": 3521150004,
  "districtId": 3521150,
  "districtName": "WIDODAREN",
  "name": "SEKAR ALAS",
  "postalCode": "63256"
 },
 {
  "id": 3521150005,
  "districtId": 3521150,
  "districtName": "WIDODAREN",
  "name": "SEKAR PUTIH",
  "postalCode": "64461"
 },
 {
  "id": 3521150006,
  "districtId": 3521150,
  "districtName": "WIDODAREN",
  "name": "SIDOMAKMUR",
  "postalCode": "31452"
 },
 {
  "id": 3521150007,
  "districtId": 3521150,
  "districtName": "WIDODAREN",
  "name": "SIDOLAJU",
  "postalCode": "63256"
 },
 {
  "id": 3521150008,
  "districtId": 3521150,
  "districtName": "WIDODAREN",
  "name": "KARANG BANYU",
  "postalCode": "63256"
 },
 {
  "id": 3521150009,
  "districtId": 3521150,
  "districtName": "WIDODAREN",
  "name": "WALIKUKUN",
  "postalCode": "63256"
 },
 {
  "id": 3521150010,
  "districtId": 3521150,
  "districtName": "WIDODAREN",
  "name": "WIDODAREN",
  "postalCode": "52362"
 },
 {
  "id": 3521150011,
  "districtId": 3521150,
  "districtName": "WIDODAREN",
  "name": "GENDINGAN",
  "postalCode": "66229"
 },
 {
  "id": 3521150012,
  "districtId": 3521150,
  "districtName": "WIDODAREN",
  "name": "KAUMAN",
  "postalCode": "51215"
 }
]