[
 {
  "id": 3521020001,
  "districtId": 3521020,
  "districtName": "NGRAMBE",
  "name": "HARGOMULYO",
  "postalCode": "34382"
 },
 {
  "id": 3521020002,
  "districtId": 3521020,
  "districtName": "NGRAMBE",
  "name": "GIRIHARJO",
  "postalCode": "57698"
 },
 {
  "id": 3521020003,
  "districtId": 3521020,
  "districtName": "NGRAMBE",
  "name": "SETONO",
  "postalCode": "63492"
 },
 {
  "id": 3521020004,
  "districtId": 3521020,
  "districtName": "NGRAMBE",
  "name": "WAKAH",
  "postalCode": "63263"
 },
 {
  "id": 3521020005,
  "districtId": 3521020,
  "districtName": "NGRAMBE",
  "name": "TAWANGREJO",
  "postalCode": "57462"
 },
 {
  "id": 3521020006,
  "districtId": 3521020,
  "districtName": "NGRAMBE",
  "name": "SAMBIREJO",
  "postalCode": "39153"
 },
 {
  "id": 3521020007,
  "districtId": 3521020,
  "districtName": "NGRAMBE",
  "name": "MANISHARJO",
  "postalCode": "57528"
 },
 {
  "id": 3521020008,
  "districtId": 3521020,
  "districtName": "NGRAMBE",
  "name": "SIDOMULYO",
  "postalCode": "21455"
 },
 {
  "id": 3521020009,
  "districtId": 3521020,
  "districtName": "NGRAMBE",
  "name": "NGRAMBE",
  "postalCode": "63263"
 },
 {
  "id": 3521020010,
  "districtId": 3521020,
  "districtName": "NGRAMBE",
  "name": "BABADAN",
  "postalCode": "45151"
 },
 {
  "id": 3521020011,
  "districtId": 3521020,
  "districtName": "NGRAMBE",
  "name": "KRANDEGAN",
  "postalCode": "53414"
 },
 {
  "id": 3521020012,
  "districtId": 3521020,
  "districtName": "NGRAMBE",
  "name": "PUCANGAN",
  "postalCode": "54392"
 },
 {
  "id": 3521020013,
  "districtId": 3521020,
  "districtName": "NGRAMBE",
  "name": "CEPOKO",
  "postalCode": "50223"
 },
 {
  "id": 3521020014,
  "districtId": 3521020,
  "districtName": "NGRAMBE",
  "name": "MENDIRO",
  "postalCode": "54172"
 }
]