[
 {
  "id": 3521130001,
  "districtId": 3521130,
  "districtName": "KEDUNGGALAR",
  "name": "BEGAL",
  "postalCode": "63254"
 },
 {
  "id": 3521130002,
  "districtId": 3521130,
  "districtName": "KEDUNGGALAR",
  "name": "WONOREJO",
  "postalCode": "21186"
 },
 {
  "id": 3521130003,
  "districtId": 3521130,
  "districtName": "KEDUNGGALAR",
  "name": "KATIKAN",
  "postalCode": "63254"
 },
 {
  "id": 3521130004,
  "districtId": 3521130,
  "districtName": "KEDUNGGALAR",
  "name": "PELANG KIDUL",
  "postalCode": "63254"
 },
 {
  "id": 3521130005,
  "districtId": 3521130,
  "districtName": "KEDUNGGALAR",
  "name": "KEDUNGGALAR",
  "postalCode": "63254"
 },
 {
  "id": 3521130006,
  "districtId": 3521130,
  "districtName": "KEDUNGGALAR",
  "name": "JATI GEMBOL",
  "postalCode": "63254"
 },
 {
  "id": 3521130007,
  "districtId": 3521130,
  "districtName": "KEDUNGGALAR",
  "name": "PELANG LOR",
  "postalCode": "63254"
 },
 {
  "id": 3521130008,
  "districtId": 3521130,
  "districtName": "KEDUNGGALAR",
  "name": "BANGUNREJO KIDUL",
  "postalCode": "63254"
 },
 {
  "id": 3521130009,
  "districtId": 3521130,
  "districtName": "KEDUNGGALAR",
  "name": "JENGGRIK",
  "postalCode": "57292"
 },
 {
  "id": 3521130010,
  "districtId": 3521130,
  "districtName": "KEDUNGGALAR",
  "name": "WONOKERTO",
  "postalCode": "31662"
 },
 {
  "id": 3521130011,
  "districtId": 3521130,
  "districtName": "KEDUNGGALAR",
  "name": "GEMARANG",
  "postalCode": "63156"
 },
 {
  "id": 3521130012,
  "districtId": 3521130,
  "districtName": "KEDUNGGALAR",
  "name": "KAWU",
  "postalCode": "63254"
 }
]