[
 {
  "id": 3521101001,
  "districtId": 3521101,
  "districtName": "KASREMAN",
  "name": "JATIREJO",
  "postalCode": "23661"
 },
 {
  "id": 3521101002,
  "districtId": 3521101,
  "districtName": "KASREMAN",
  "name": "CANGAKAN",
  "postalCode": "57712"
 },
 {
  "id": 3521101003,
  "districtId": 3521101,
  "districtName": "KASREMAN",
  "name": "KARANG MALANG",
  "postalCode": "57282"
 },
 {
  "id": 3521101004,
  "districtId": 3521101,
  "districtName": "KASREMAN",
  "name": "KASREMAN",
  "postalCode": "59219"
 },
 {
  "id": 3521101005,
  "districtId": 3521101,
  "districtName": "KASREMAN",
  "name": "LEGO KULON",
  "postalCode": "63281"
 },
 {
  "id": 3521101006,
  "districtId": 3521101,
  "districtName": "KASREMAN",
  "name": "TAWUN",
  "postalCode": "63281"
 },
 {
  "id": 3521101007,
  "districtId": 3521101,
  "districtName": "KASREMAN",
  "name": "KIYONTEN",
  "postalCode": "63281"
 },
 {
  "id": 3521101008,
  "districtId": 3521101,
  "districtName": "KASREMAN",
  "name": "GUNUNGSARI",
  "postalCode": "35368"
 }
]