[
 {
  "id": 3522240001,
  "districtId": 3522240,
  "districtName": "KASIMAN",
  "name": "BATOKAN",
  "postalCode": "62164"
 },
 {
  "id": 3522240003,
  "districtId": 3522240,
  "districtName": "KASIMAN",
  "name": "TEMBELING",
  "postalCode": "29132"
 },
 {
  "id": 3522240004,
  "districtId": 3522240,
  "districtName": "KASIMAN",
  "name": "SIDOMUKTI",
  "postalCode": "21217"
 },
 {
  "id": 3522240005,
  "districtId": 3522240,
  "districtName": "KASIMAN",
  "name": "BESAH",
  "postalCode": "62164"
 },
 {
  "id": 3522240006,
  "districtId": 3522240,
  "districtName": "KASIMAN",
  "name": "SAMBENG",
  "postalCode": "45151"
 },
 {
  "id": 3522240007,
  "districtId": 3522240,
  "districtName": "KASIMAN",
  "name": "NGAGLIK",
  "postalCode": "57697"
 },
 {
  "id": 3522240008,
  "districtId": 3522240,
  "districtName": "KASIMAN",
  "name": "KASIMAN",
  "postalCode": "62164"
 },
 {
  "id": 3522240009,
  "districtId": 3522240,
  "districtName": "KASIMAN",
  "name": "SEKARAN",
  "postalCode": "50229"
 },
 {
  "id": 3522240010,
  "districtId": 3522240,
  "districtName": "KASIMAN",
  "name": "TAMBAKMERAK",
  "postalCode": "62164"
 }
]