[
 {
  "id": 3522230001,
  "districtId": 3522230,
  "districtName": "PADANGAN",
  "name": "TEBON",
  "postalCode": "63395"
 },
 {
  "id": 3522230002,
  "districtId": 3522230,
  "districtName": "PADANGAN",
  "name": "PRANGI",
  "postalCode": "62162"
 },
 {
  "id": 3522230003,
  "districtId": 3522230,
  "districtName": "PADANGAN",
  "name": "PURWOREJO",
  "postalCode": "23661"
 },
 {
  "id": 3522230005,
  "districtId": 3522230,
  "districtName": "PADANGAN",
  "name": "SONOREJO",
  "postalCode": "58213"
 },
 {
  "id": 3522230006,
  "districtId": 3522230,
  "districtName": "PADANGAN",
  "name": "NGRADIN",
  "postalCode": "62162"
 },
 {
  "id": 3522230008,
  "districtId": 3522230,
  "districtName": "PADANGAN",
  "name": "KEBUNAGUNG",
  "postalCode": "62162"
 },
 {
  "id": 3522230009,
  "districtId": 3522230,
  "districtName": "PADANGAN",
  "name": "BANJARJO",
  "postalCode": "65167"
 },
 {
  "id": 3522230011,
  "districtId": 3522230,
  "districtName": "PADANGAN",
  "name": "NGASINAN",
  "postalCode": "54183"
 },
 {
  "id": 3522230012,
  "districtId": 3522230,
  "districtName": "PADANGAN",
  "name": "CENDONO",
  "postalCode": "59353"
 },
 {
  "id": 3522230013,
  "districtId": 3522230,
  "districtName": "PADANGAN",
  "name": "SIDOREJO",
  "postalCode": "24784"
 },
 {
  "id": 3522230015,
  "districtId": 3522230,
  "districtName": "PADANGAN",
  "name": "PADANGAN",
  "postalCode": "59181"
 },
 {
  "id": 3522230016,
  "districtId": 3522230,
  "districtName": "PADANGAN",
  "name": "DENGOK",
  "postalCode": "55861"
 }
]