[
 {
  "id": 3523070001,
  "districtId": 3523070,
  "districtName": "SOKO",
  "name": "MENILO",
  "postalCode": "62372"
 },
 {
  "id": 3523070002,
  "districtId": 3523070,
  "districtName": "SOKO",
  "name": "SIMO",
  "postalCode": "58182"
 },
 {
  "id": 3523070003,
  "districtId": 3523070,
  "districtName": "SOKO",
  "name": "KENDALREJO",
  "postalCode": "52362"
 },
 {
  "id": 3523070004,
  "districtId": 3523070,
  "districtName": "SOKO",
  "name": "MOJOAGUNG",
  "postalCode": "58163"
 },
 {
  "id": 3523070005,
  "districtId": 3523070,
  "districtName": "SOKO",
  "name": "PANDANWANGI",
  "postalCode": "65124"
 },
 {
  "id": 3523070006,
  "districtId": 3523070,
  "districtName": "SOKO",
  "name": "GLAGAHSARI",
  "postalCode": "62372"
 },
 {
  "id": 3523070007,
  "districtId": 3523070,
  "districtName": "SOKO",
  "name": "KENONGOSARI",
  "postalCode": "62372"
 },
 {
  "id": 3523070008,
  "districtId": 3523070,
  "districtName": "SOKO",
  "name": "SANDINGROWO",
  "postalCode": "62372"
 },
 {
  "id": 3523070009,
  "districtId": 3523070,
  "districtName": "SOKO",
  "name": "RAHAYU",
  "postalCode": "40218"
 },
 {
  "id": 3523070010,
  "districtId": 3523070,
  "districtName": "SOKO",
  "name": "SOKOSARI",
  "postalCode": "62372"
 },
 {
  "id": 3523070011,
  "districtId": 3523070,
  "districtName": "SOKO",
  "name": "BANGUNREJO",
  "postalCode": "59261"
 },
 {
  "id": 3523070012,
  "districtId": 3523070,
  "districtName": "SOKO",
  "name": "MENTORO",
  "postalCode": "63518"
 },
 {
  "id": 3523070013,
  "districtId": 3523070,
  "districtName": "SOKO",
  "name": "PANDANAGUNG",
  "postalCode": "62372"
 },
 {
  "id": 3523070014,
  "districtId": 3523070,
  "districtName": "SOKO",
  "name": "PRAMBONTERGAYANG",
  "postalCode": "62372"
 },
 {
  "id": 3523070015,
  "districtId": 3523070,
  "districtName": "SOKO",
  "name": "JATI",
  "postalCode": "20152"
 },
 {
  "id": 3523070016,
  "districtId": 3523070,
  "districtName": "SOKO",
  "name": "CEKALANG",
  "postalCode": "62372"
 },
 {
  "id": 3523070018,
  "districtId": 3523070,
  "districtName": "SOKO",
  "name": "WADUNG",
  "postalCode": "62352"
 },
 {
  "id": 3523070019,
  "districtId": 3523070,
  "districtName": "SOKO",
  "name": "KLUMPIT",
  "postalCode": "59333"
 },
 {
  "id": 3523070020,
  "districtId": 3523070,
  "districtName": "SOKO",
  "name": "JEGULO",
  "postalCode": "62372"
 },
 {
  "id": 3523070021,
  "districtId": 3523070,
  "districtName": "SOKO",
  "name": "SUMURCINDE",
  "postalCode": "62372"
 },
 {
  "id": 3523070022,
  "districtId": 3523070,
  "districtName": "SOKO",
  "name": "NGURUAN",
  "postalCode": "62372"
 },
 {
  "id": 3523070023,
  "districtId": 3523070,
  "districtName": "SOKO",
  "name": "GUNUNGANYAR",
  "postalCode": "62372"
 }
]