[
 {
  "id": 3523020001,
  "districtId": 3523020,
  "districtName": "BANGILAN",
  "name": "KLAKEH",
  "postalCode": "62364"
 },
 {
  "id": 3523020002,
  "districtId": 3523020,
  "districtName": "BANGILAN",
  "name": "BATE",
  "postalCode": "62364"
 },
 {
  "id": 3523020003,
  "districtId": 3523020,
  "districtName": "BANGILAN",
  "name": "KABLUKAN",
  "postalCode": "62364"
 },
 {
  "id": 3523020004,
  "districtId": 3523020,
  "districtName": "BANGILAN",
  "name": "NGROJO",
  "postalCode": "62364"
 },
 {
  "id": 3523020006,
  "districtId": 3523020,
  "districtName": "BANGILAN",
  "name": "SIDOKUMPUL",
  "postalCode": "59565"
 },
 {
  "id": 3523020007,
  "districtId": 3523020,
  "districtName": "BANGILAN",
  "name": "SIDOTENTREM",
  "postalCode": "62364"
 },
 {
  "id": 3523020008,
  "districtId": 3523020,
  "districtName": "BANGILAN",
  "name": "BANGILAN",
  "postalCode": "62364"
 },
 {
  "id": 3523020009,
  "districtId": 3523020,
  "districtName": "BANGILAN",
  "name": "KEDUNGHARDJO",
  "postalCode": "62364"
 },
 {
  "id": 3523020010,
  "districtId": 3523020,
  "districtName": "BANGILAN",
  "name": "KEDUNGMULYO",
  "postalCode": "54264"
 },
 {
  "id": 3523020011,
  "districtId": 3523020,
  "districtName": "BANGILAN",
  "name": "BANJARWORO",
  "postalCode": "62364"
 },
 {
  "id": 3523020012,
  "districtId": 3523020,
  "districtName": "BANGILAN",
  "name": "SIDODADI",
  "postalCode": "24582"
 },
 {
  "id": 3523020013,
  "districtId": 3523020,
  "districtName": "BANGILAN",
  "name": "KEDUNGJAMBANGAN",
  "postalCode": "62364"
 },
 {
  "id": 3523020014,
  "districtId": 3523020,
  "districtName": "BANGILAN",
  "name": "KUMPULREJO",
  "postalCode": "50734"
 }
]