[
 {
  "id": 3523160002,
  "districtId": 3523160,
  "districtName": "KEREK",
  "name": "WOLUTENGAH",
  "postalCode": "62356"
 },
 {
  "id": 3523160003,
  "districtId": 3523160,
  "districtName": "KEREK",
  "name": "TRANTANG",
  "postalCode": "62356"
 },
 {
  "id": 3523160004,
  "districtId": 3523160,
  "districtName": "KEREK",
  "name": "SIDONGANTI",
  "postalCode": "62356"
 },
 {
  "id": 3523160005,
  "districtId": 3523160,
  "districtName": "KEREK",
  "name": "TENGGER WETAN",
  "postalCode": "62356"
 },
 {
  "id": 3523160006,
  "districtId": 3523160,
  "districtName": "KEREK",
  "name": "HARGORETNO",
  "postalCode": "62356"
 },
 {
  "id": 3523160007,
  "districtId": 3523160,
  "districtName": "KEREK",
  "name": "TEMAYANG",
  "postalCode": "62356"
 },
 {
  "id": 3523160008,
  "districtId": 3523160,
  "districtName": "KEREK",
  "name": "PADASAN",
  "postalCode": "62356"
 },
 {
  "id": 3523160009,
  "districtId": 3523160,
  "districtName": "KEREK",
  "name": "KARANGLO",
  "postalCode": "53162"
 },
 {
  "id": 3523160010,
  "districtId": 3523160,
  "districtName": "KEREK",
  "name": "SUMBERARUM",
  "postalCode": "59184"
 },
 {
  "id": 3523160011,
  "districtId": 3523160,
  "districtName": "KEREK",
  "name": "MARGOMULYO",
  "postalCode": "35679"
 },
 {
  "id": 3523160012,
  "districtId": 3523160,
  "districtName": "KEREK",
  "name": "JAROREJO",
  "postalCode": "62356"
 },
 {
  "id": 3523160013,
  "districtId": 3523160,
  "districtName": "KEREK",
  "name": "MARGOREJO",
  "postalCode": "32386"
 },
 {
  "id": 3523160014,
  "districtId": 3523160,
  "districtName": "KEREK",
  "name": "GAJI",
  "postalCode": "59565"
 },
 {
  "id": 3523160015,
  "districtId": 3523160,
  "districtName": "KEREK",
  "name": "KEDUNGREJO",
  "postalCode": "57383"
 },
 {
  "id": 3523160016,
  "districtId": 3523160,
  "districtName": "KEREK",
  "name": "KASIMAN",
  "postalCode": "62164"
 },
 {
  "id": 3523160017,
  "districtId": 3523160,
  "districtName": "KEREK",
  "name": "MLIWANG",
  "postalCode": "62356"
 }
]