[
 {
  "id": 3524120001,
  "districtId": 3524120,
  "districtName": "SUKODADI",
  "name": "SIWALANREJO",
  "postalCode": "62253"
 },
 {
  "id": 3524120002,
  "districtId": 3524120,
  "districtName": "SUKODADI",
  "name": "SUMBERAGUNG",
  "postalCode": "35452"
 },
 {
  "id": 3524120003,
  "districtId": 3524120,
  "districtName": "SUKODADI",
  "name": "GEDANGAN",
  "postalCode": "21264"
 },
 {
  "id": 3524120004,
  "districtId": 3524120,
  "districtName": "SUKODADI",
  "name": "BATURONO",
  "postalCode": "56484"
 },
 {
  "id": 3524120005,
  "districtId": 3524120,
  "districtName": "SUKODADI",
  "name": "BANJAREJO",
  "postalCode": "35373"
 },
 {
  "id": 3524120006,
  "districtId": 3524120,
  "districtName": "SUKODADI",
  "name": "SUMBERAJI",
  "postalCode": "61455"
 },
 {
  "id": 3524120007,
  "districtId": 3524120,
  "districtName": "SUKODADI",
  "name": "KADUNGREMBUG",
  "postalCode": "62253"
 },
 {
  "id": 3524120008,
  "districtId": 3524120,
  "districtName": "SUKODADI",
  "name": "MENONGO",
  "postalCode": "62253"
 },
 {
  "id": 3524120009,
  "districtId": 3524120,
  "districtName": "SUKODADI",
  "name": "BALUNGTAWUN",
  "postalCode": ""
 },
 {
  "id": 3524120010,
  "districtId": 3524120,
  "districtName": "SUKODADI",
  "name": "SUGIHREJO",
  "postalCode": "59173"
 },
 {
  "id": 3524120011,
  "districtId": 3524120,
  "districtName": "SUKODADI",
  "name": "BANDUNGSARI",
  "postalCode": "52265"
 },
 {
  "id": 3524120012,
  "districtId": 3524120,
  "districtName": "SUKODADI",
  "name": "PLUMPANG",
  "postalCode": "62382"
 },
 {
  "id": 3524120013,
  "districtId": 3524120,
  "districtName": "SUKODADI",
  "name": "TLOGOREJO",
  "postalCode": "54395"
 },
 {
  "id": 3524120014,
  "districtId": 3524120,
  "districtName": "SUKODADI",
  "name": "SURABAYAN",
  "postalCode": "51181"
 },
 {
  "id": 3524120015,
  "districtId": 3524120,
  "districtName": "SUKODADI",
  "name": "SIDOGEMBUL",
  "postalCode": "62253"
 },
 {
  "id": 3524120016,
  "districtId": 3524120,
  "districtName": "SUKODADI",
  "name": "SUKODADI",
  "postalCode": "32361"
 },
 {
  "id": 3524120017,
  "districtId": 3524120,
  "districtName": "SUKODADI",
  "name": "KEBONSARI",
  "postalCode": "56553"
 },
 {
  "id": 3524120018,
  "districtId": 3524120,
  "districtName": "SUKODADI",
  "name": "SUKOLILO",
  "postalCode": "59172"
 },
 {
  "id": 3524120019,
  "districtId": 3524120,
  "districtName": "SUKODADI",
  "name": "PAJANGAN",
  "postalCode": "62253"
 },
 {
  "id": 3524120020,
  "districtId": 3524120,
  "districtName": "SUKODADI",
  "name": "MADULEGI",
  "postalCode": "62253"
 }
]