[
 {
  "id": 3524240001,
  "districtId": 3524240,
  "districtName": "SOLOKURO",
  "name": "DADAPAN",
  "postalCode": "35374"
 },
 {
  "id": 3524240003,
  "districtId": 3524240,
  "districtName": "SOLOKURO",
  "name": "SUGIHAN",
  "postalCode": "32272"
 },
 {
  "id": 3524240005,
  "districtId": 3524240,
  "districtName": "SOLOKURO",
  "name": "PAYAMAN",
  "postalCode": "59381"
 },
 {
  "id": 3524240006,
  "districtId": 3524240,
  "districtName": "SOLOKURO",
  "name": "SOLOKURO",
  "postalCode": "62265"
 },
 {
  "id": 3524240007,
  "districtId": 3524240,
  "districtName": "SOLOKURO",
  "name": "TAKERHARJO",
  "postalCode": "62265"
 },
 {
  "id": 3524240008,
  "districtId": 3524240,
  "districtName": "SOLOKURO",
  "name": "BANYUBANG",
  "postalCode": "62371"
 },
 {
  "id": 3524240009,
  "districtId": 3524240,
  "districtName": "SOLOKURO",
  "name": "DAGAN",
  "postalCode": "53353"
 },
 {
  "id": 3524240010,
  "districtId": 3524240,
  "districtName": "SOLOKURO",
  "name": "BLURI",
  "postalCode": "62265"
 }
]