[
 {
  "id": 3524050001,
  "districtId": 3524050,
  "districtName": "MANTUP",
  "name": "SUMBERDADI",
  "postalCode": "66163"
 },
 {
  "id": 3524050003,
  "districtId": 3524050,
  "districtName": "MANTUP",
  "name": "KEDUNGSOKO",
  "postalCode": "62283"
 },
 {
  "id": 3524050004,
  "districtId": 3524050,
  "districtName": "MANTUP",
  "name": "SIDOMULYO",
  "postalCode": "21455"
 },
 {
  "id": 3524050005,
  "districtId": 3524050,
  "districtName": "MANTUP",
  "name": "SUKOSARI",
  "postalCode": "32382"
 },
 {
  "id": 3524050006,
  "districtId": 3524050,
  "districtName": "MANTUP",
  "name": "MOJOSARI",
  "postalCode": "56265"
 },
 {
  "id": 3524050008,
  "districtId": 3524050,
  "districtName": "MANTUP",
  "name": "PLABUHANREJO",
  "postalCode": "62283"
 },
 {
  "id": 3524050010,
  "districtId": 3524050,
  "districtName": "MANTUP",
  "name": "SUMBERAGUNG",
  "postalCode": "35452"
 },
 {
  "id": 3524050011,
  "districtId": 3524050,
  "districtName": "MANTUP",
  "name": "MANTUP",
  "postalCode": "62283"
 },
 {
  "id": 3524050013,
  "districtId": 3524050,
  "districtName": "MANTUP",
  "name": "SUMBERBENDO",
  "postalCode": "62283"
 },
 {
  "id": 3524050014,
  "districtId": 3524050,
  "districtName": "MANTUP",
  "name": "TUNGGUNJAGIR",
  "postalCode": "62283"
 },
 {
  "id": 3524050015,
  "districtId": 3524050,
  "districtName": "MANTUP",
  "name": "SUKOBENDU",
  "postalCode": "62283"
 }
]