[
 {
  "id": 3524250001,
  "districtId": 3524250,
  "districtName": "PACIRAN",
  "name": "BLIMBING",
  "postalCode": "52364"
 },
 {
  "id": 3524250002,
  "districtId": 3524250,
  "districtName": "PACIRAN",
  "name": "KANDANGSEMANGKON",
  "postalCode": ""
 },
 {
  "id": 3524250003,
  "districtId": 3524250,
  "districtName": "PACIRAN",
  "name": "PACIRAN",
  "postalCode": "62264"
 },
 {
  "id": 3524250004,
  "districtId": 3524250,
  "districtName": "PACIRAN",
  "name": "SUMURGAYAM",
  "postalCode": "62264"
 },
 {
  "id": 3524250005,
  "districtId": 3524250,
  "districtName": "PACIRAN",
  "name": "SENDANGAGUNG",
  "postalCode": "57675"
 },
 {
  "id": 3524250006,
  "districtId": 3524250,
  "districtName": "PACIRAN",
  "name": "SENDANGDUWUR",
  "postalCode": "62264"
 },
 {
  "id": 3524250008,
  "districtId": 3524250,
  "districtName": "PACIRAN",
  "name": "KRANJI",
  "postalCode": "17135"
 },
 {
  "id": 3524250009,
  "districtId": 3524250,
  "districtName": "PACIRAN",
  "name": "DRAJAT",
  "postalCode": "45133"
 },
 {
  "id": 3524250010,
  "districtId": 3524250,
  "districtName": "PACIRAN",
  "name": "BANJARWATI",
  "postalCode": "62264"
 },
 {
  "id": 3524250011,
  "districtId": 3524250,
  "districtName": "PACIRAN",
  "name": "KEMANTREN",
  "postalCode": "45611"
 },
 {
  "id": 3524250012,
  "districtId": 3524250,
  "districtName": "PACIRAN",
  "name": "SIDOKELAR",
  "postalCode": "62264"
 },
 {
  "id": 3524250013,
  "districtId": 3524250,
  "districtName": "PACIRAN",
  "name": "TLOGOSADANG",
  "postalCode": "62264"
 },
 {
  "id": 3524250014,
  "districtId": 3524250,
  "districtName": "PACIRAN",
  "name": "PALOH",
  "postalCode": "24261"
 },
 {
  "id": 3524250016,
  "districtId": 3524250,
  "districtName": "PACIRAN",
  "name": "SIDOKUMPUL",
  "postalCode": "59565"
 },
 {
  "id": 3524250017,
  "districtId": 3524250,
  "districtName": "PACIRAN",
  "name": "WARULOR",
  "postalCode": "51152"
 }
]