[
 {
  "id": 3524070001,
  "districtId": 3524070,
  "districtName": "SUGIO",
  "name": "KALITENGAH",
  "postalCode": "45153"
 },
 {
  "id": 3524070002,
  "districtId": 3524070,
  "districtName": "SUGIO",
  "name": "SIDOREJO",
  "postalCode": "24784"
 },
 {
  "id": 3524070003,
  "districtId": 3524070,
  "districtName": "SUGIO",
  "name": "GONDANG LOR",
  "postalCode": "62256"
 },
 {
  "id": 3524070004,
  "districtId": 3524070,
  "districtName": "SUGIO",
  "name": "DEKETAGUNG",
  "postalCode": "62256"
 },
 {
  "id": 3524070005,
  "districtId": 3524070,
  "districtName": "SUGIO",
  "name": "DALIWANGUN",
  "postalCode": "62256"
 },
 {
  "id": 3524070006,
  "districtId": 3524070,
  "districtName": "SUGIO",
  "name": "LAWANGANAGUNG",
  "postalCode": ""
 },
 {
  "id": 3524070007,
  "districtId": 3524070,
  "districtName": "SUGIO",
  "name": "GERMAN",
  "postalCode": "62256"
 },
 {
  "id": 3524070008,
  "districtId": 3524070,
  "districtName": "SUGIO",
  "name": "KALIPANG",
  "postalCode": "58183"
 },
 {
  "id": 3524070009,
  "districtId": 3524070,
  "districtName": "SUGIO",
  "name": "KARANGSAMBIGALIH",
  "postalCode": ""
 },
 {
  "id": 3524070010,
  "districtId": 3524070,
  "districtName": "SUGIO",
  "name": "KEDUNGBANJAR",
  "postalCode": "52361"
 },
 {
  "id": 3524070011,
  "districtId": 3524070,
  "districtName": "SUGIO",
  "name": "BAKALREJO",
  "postalCode": "59565"
 },
 {
  "id": 3524070013,
  "districtId": 3524070,
  "districtName": "SUGIO",
  "name": "SUGIO",
  "postalCode": "62256"
 },
 {
  "id": 3524070014,
  "districtId": 3524070,
  "districtName": "SUGIO",
  "name": "SEKARBAGUS",
  "postalCode": "62256"
 },
 {
  "id": 3524070015,
  "districtId": 3524070,
  "districtName": "SUGIO",
  "name": "JUBEL KIDUL",
  "postalCode": "62256"
 },
 {
  "id": 3524070016,
  "districtId": 3524070,
  "districtName": "SUGIO",
  "name": "JUBEL LOR",
  "postalCode": "62256"
 },
 {
  "id": 3524070017,
  "districtId": 3524070,
  "districtName": "SUGIO",
  "name": "LEBAKADI",
  "postalCode": "62256"
 },
 {
  "id": 3524070018,
  "districtId": 3524070,
  "districtName": "SUGIO",
  "name": "PANGKATREJO",
  "postalCode": "62218"
 },
 {
  "id": 3524070019,
  "districtId": 3524070,
  "districtName": "SUGIO",
  "name": "BEDINGIN",
  "postalCode": "58256"
 },
 {
  "id": 3524070020,
  "districtId": 3524070,
  "districtName": "SUGIO",
  "name": "KEDUNGDADI",
  "postalCode": "62256"
 },
 {
  "id": 3524070021,
  "districtId": 3524070,
  "districtName": "SUGIO",
  "name": "SIDOBOGEM",
  "postalCode": "62256"
 }
]