[
 {
  "id": 3524020001,
  "districtId": 3524020,
  "districtName": "BLULUK",
  "name": "BANJARGONDANG",
  "postalCode": "62274"
 },
 {
  "id": 3524020002,
  "districtId": 3524020,
  "districtName": "BLULUK",
  "name": "CANGKRING",
  "postalCode": "45258"
 },
 {
  "id": 3524020003,
  "districtId": 3524020,
  "districtName": "BLULUK",
  "name": "KUWUREJO",
  "postalCode": "54212"
 },
 {
  "id": 3524020004,
  "districtId": 3524020,
  "districtName": "BLULUK",
  "name": "SONGOWARENG",
  "postalCode": "62274"
 },
 {
  "id": 3524020005,
  "districtId": 3524020,
  "districtName": "BLULUK",
  "name": "SUMBERBANJAR",
  "postalCode": "62274"
 },
 {
  "id": 3524020006,
  "districtId": 3524020,
  "districtName": "BLULUK",
  "name": "PRIMPEN",
  "postalCode": "62274"
 },
 {
  "id": 3524020007,
  "districtId": 3524020,
  "districtName": "BLULUK",
  "name": "BRONJONG",
  "postalCode": "62274"
 },
 {
  "id": 3524020009,
  "districtId": 3524020,
  "districtName": "BLULUK",
  "name": "TALUNREJO",
  "postalCode": "62274"
 }
]