[
 {
  "id": 3525030001,
  "districtId": 3525030,
  "districtName": "KEDAMEAN",
  "name": "MOJOWUKU",
  "postalCode": "61175"
 },
 {
  "id": 3525030002,
  "districtId": 3525030,
  "districtName": "KEDAMEAN",
  "name": "SIDORAHARJO",
  "postalCode": "61175"
 },
 {
  "id": 3525030003,
  "districtId": 3525030,
  "districtName": "KEDAMEAN",
  "name": "SLEMPIT",
  "postalCode": "61175"
 },
 {
  "id": 3525030004,
  "districtId": 3525030,
  "districtName": "KEDAMEAN",
  "name": "BELAHANREJO",
  "postalCode": "61175"
 },
 {
  "id": 3525030005,
  "districtId": 3525030,
  "districtName": "KEDAMEAN",
  "name": "MENUNGGAL",
  "postalCode": "61175"
 },
 {
  "id": 3525030006,
  "districtId": 3525030,
  "districtName": "KEDAMEAN",
  "name": "BANYUURIP",
  "postalCode": "59263"
 },
 {
  "id": 3525030008,
  "districtId": 3525030,
  "districtName": "KEDAMEAN",
  "name": "KEDAMEAN",
  "postalCode": "61175"
 },
 {
  "id": 3525030009,
  "districtId": 3525030,
  "districtName": "KEDAMEAN",
  "name": "TANJUNG",
  "postalCode": "24562"
 },
 {
  "id": 3525030010,
  "districtId": 3525030,
  "districtName": "KEDAMEAN",
  "name": "KATIMOHO",
  "postalCode": "61175"
 },
 {
  "id": 3525030011,
  "districtId": 3525030,
  "districtName": "KEDAMEAN",
  "name": "TURIREJO",
  "postalCode": "59517"
 },
 {
  "id": 3525030013,
  "districtId": 3525030,
  "districtName": "KEDAMEAN",
  "name": "GLINDAH",
  "postalCode": "61175"
 },
 {
  "id": 3525030014,
  "districtId": 3525030,
  "districtName": "KEDAMEAN",
  "name": "LAMPAH",
  "postalCode": "61175"
 }
]