[
 {
  "id": 3525160001,
  "districtId": 3525160,
  "districtName": "UJUNGPANGKAH",
  "name": "SEKAPUK",
  "postalCode": "61154"
 },
 {
  "id": 3525160002,
  "districtId": 3525160,
  "districtName": "UJUNGPANGKAH",
  "name": "BOLO",
  "postalCode": "59517"
 },
 {
  "id": 3525160003,
  "districtId": 3525160,
  "districtName": "UJUNGPANGKAH",
  "name": "GLATIK",
  "postalCode": "61154"
 },
 {
  "id": 3525160004,
  "districtId": 3525160,
  "districtName": "UJUNGPANGKAH",
  "name": "TANJANGAWAN",
  "postalCode": "61154"
 },
 {
  "id": 3525160005,
  "districtId": 3525160,
  "districtName": "UJUNGPANGKAH",
  "name": "KETAPANG LOR",
  "postalCode": "61154"
 },
 {
  "id": 3525160006,
  "districtId": 3525160,
  "districtName": "UJUNGPANGKAH",
  "name": "KARANGREJO",
  "postalCode": "35387"
 },
 {
  "id": 3525160007,
  "districtId": 3525160,
  "districtName": "UJUNGPANGKAH",
  "name": "KEBONAGUNG",
  "postalCode": "56151"
 },
 {
  "id": 3525160008,
  "districtId": 3525160,
  "districtName": "UJUNGPANGKAH",
  "name": "GOSARI",
  "postalCode": "61154"
 },
 {
  "id": 3525160009,
  "districtId": 3525160,
  "districtName": "UJUNGPANGKAH",
  "name": "CANGAAN",
  "postalCode": "61154"
 },
 {
  "id": 3525160010,
  "districtId": 3525160,
  "districtName": "UJUNGPANGKAH",
  "name": "NGEMBOH",
  "postalCode": "61154"
 },
 {
  "id": 3525160011,
  "districtId": 3525160,
  "districtName": "UJUNGPANGKAH",
  "name": "BANYUURIP",
  "postalCode": "59263"
 },
 {
  "id": 3525160012,
  "districtId": 3525160,
  "districtName": "UJUNGPANGKAH",
  "name": "PANGKAH KULON",
  "postalCode": "61154"
 },
 {
  "id": 3525160013,
  "districtId": 3525160,
  "districtName": "UJUNGPANGKAH",
  "name": "PANGKAH WETAN",
  "postalCode": "61154"
 }
]