[
 {
  "id": 3525020001,
  "districtId": 3525020,
  "districtName": "DRIYOREJO",
  "name": "KRIKILAN",
  "postalCode": "57462"
 },
 {
  "id": 3525020002,
  "districtId": 3525020,
  "districtName": "DRIYOREJO",
  "name": "DRIYOREJO",
  "postalCode": "61177"
 },
 {
  "id": 3525020003,
  "districtId": 3525020,
  "districtName": "DRIYOREJO",
  "name": "CANGKIR",
  "postalCode": "61177"
 },
 {
  "id": 3525020004,
  "districtId": 3525020,
  "districtName": "DRIYOREJO",
  "name": "BAMBE",
  "postalCode": "61177"
 },
 {
  "id": 3525020006,
  "districtId": 3525020,
  "districtName": "DRIYOREJO",
  "name": "TENARU",
  "postalCode": "61177"
 },
 {
  "id": 3525020007,
  "districtId": 3525020,
  "districtName": "DRIYOREJO",
  "name": "PETIKEN",
  "postalCode": "61177"
 },
 {
  "id": 3525020008,
  "districtId": 3525020,
  "districtName": "DRIYOREJO",
  "name": "KESAMBENWETAN",
  "postalCode": "61177"
 },
 {
  "id": 3525020010,
  "districtId": 3525020,
  "districtName": "DRIYOREJO",
  "name": "TANJUNGAN",
  "postalCode": "22395"
 },
 {
  "id": 3525020011,
  "districtId": 3525020,
  "districtName": "DRIYOREJO",
  "name": "BANJARAN",
  "postalCode": "35451"
 },
 {
  "id": 3525020012,
  "districtId": 3525020,
  "districtName": "DRIYOREJO",
  "name": "KARANGANDONG",
  "postalCode": "61177"
 },
 {
  "id": 3525020013,
  "districtId": 3525020,
  "districtName": "DRIYOREJO",
  "name": "MOJOSARIREJO",
  "postalCode": "61177"
 },
 {
  "id": 3525020014,
  "districtId": 3525020,
  "districtName": "DRIYOREJO",
  "name": "WEDOROANOM",
  "postalCode": "61177"
 },
 {
  "id": 3525020015,
  "districtId": 3525020,
  "districtName": "DRIYOREJO",
  "name": "RANDEGANSARI",
  "postalCode": "61177"
 },
 {
  "id": 3525020016,
  "districtId": 3525020,
  "districtName": "DRIYOREJO",
  "name": "GADUNG",
  "postalCode": "33783"
 }
]