[
 {
  "id": 3525080001,
  "districtId": 3525080,
  "districtName": "DUDUKSAMPEYAN",
  "name": "KANDANGAN",
  "postalCode": "21186"
 },
 {
  "id": 3525080002,
  "districtId": 3525080,
  "districtName": "DUDUKSAMPEYAN",
  "name": "TUMAPEL",
  "postalCode": "61371"
 },
 {
  "id": 3525080003,
  "districtId": 3525080,
  "districtName": "DUDUKSAMPEYAN",
  "name": "PANJUNAN",
  "postalCode": "40242"
 },
 {
  "id": 3525080004,
  "districtId": 3525080,
  "districtName": "DUDUKSAMPEYAN",
  "name": "TAMBAKREJO",
  "postalCode": "54391"
 },
 {
  "id": 3525080005,
  "districtId": 3525080,
  "districtName": "DUDUKSAMPEYAN",
  "name": "SETROHADI",
  "postalCode": "61162"
 },
 {
  "id": 3525080006,
  "districtId": 3525080,
  "districtName": "DUDUKSAMPEYAN",
  "name": "SUMENGKO",
  "postalCode": "61162"
 },
 {
  "id": 3525080008,
  "districtId": 3525080,
  "districtName": "DUDUKSAMPEYAN",
  "name": "SUMARI",
  "postalCode": "61162"
 },
 {
  "id": 3525080009,
  "districtId": 3525080,
  "districtName": "DUDUKSAMPEYAN",
  "name": "TIREM",
  "postalCode": "58153"
 },
 {
  "id": 3525080010,
  "districtId": 3525080,
  "districtName": "DUDUKSAMPEYAN",
  "name": "AMBENG AMBENG WATANGREJO",
  "postalCode": "61162"
 },
 {
  "id": 3525080011,
  "districtId": 3525080,
  "districtName": "DUDUKSAMPEYAN",
  "name": "TEBALOAN",
  "postalCode": "61162"
 },
 {
  "id": 3525080012,
  "districtId": 3525080,
  "districtName": "DUDUKSAMPEYAN",
  "name": "SAMIRPLAPAN",
  "postalCode": "61162"
 },
 {
  "id": 3525080013,
  "districtId": 3525080,
  "districtName": "DUDUKSAMPEYAN",
  "name": "DUDUKSAMPEYAN",
  "postalCode": ""
 },
 {
  "id": 3525080014,
  "districtId": 3525080,
  "districtName": "DUDUKSAMPEYAN",
  "name": "PETISBENEM",
  "postalCode": "61162"
 },
 {
  "id": 3525080015,
  "districtId": 3525080,
  "districtName": "DUDUKSAMPEYAN",
  "name": "PALEBON",
  "postalCode": "50246"
 },
 {
  "id": 3525080016,
  "districtId": 3525080,
  "districtName": "DUDUKSAMPEYAN",
  "name": "GLANGGANG",
  "postalCode": "67154"
 },
 {
  "id": 3525080017,
  "districtId": 3525080,
  "districtName": "DUDUKSAMPEYAN",
  "name": "PANDANAN",
  "postalCode": "57473"
 },
 {
  "id": 3525080018,
  "districtId": 3525080,
  "districtName": "DUDUKSAMPEYAN",
  "name": "BENDUNGAN",
  "postalCode": "16720"
 },
 {
  "id": 3525080019,
  "districtId": 3525080,
  "districtName": "DUDUKSAMPEYAN",
  "name": "WADAK LOR",
  "postalCode": "61162"
 },
 {
  "id": 3525080020,
  "districtId": 3525080,
  "districtName": "DUDUKSAMPEYAN",
  "name": "WADAK KIDUL",
  "postalCode": "61162"
 },
 {
  "id": 3525080021,
  "districtId": 3525080,
  "districtName": "DUDUKSAMPEYAN",
  "name": "KAWISTOWINDU",
  "postalCode": "61162"
 },
 {
  "id": 3525080022,
  "districtId": 3525080,
  "districtName": "DUDUKSAMPEYAN",
  "name": "KEMUDI",
  "postalCode": "61162"
 },
 {
  "id": 3525080023,
  "districtId": 3525080,
  "districtName": "DUDUKSAMPEYAN",
  "name": "KRAMAT",
  "postalCode": "10450"
 }
]