[
 {
  "id": 3526170001,
  "districtId": 3526170,
  "districtName": "SEPULU",
  "name": "KLAPAYAN",
  "postalCode": ""
 },
 {
  "id": 3526170002,
  "districtId": 3526170,
  "districtName": "SEPULU",
  "name": "BANGSEREH",
  "postalCode": "69354"
 },
 {
  "id": 3526170004,
  "districtId": 3526170,
  "districtName": "SEPULU",
  "name": "SAPLASAH",
  "postalCode": "69154"
 },
 {
  "id": 3526170005,
  "districtId": 3526170,
  "districtName": "SEPULU",
  "name": "GUNELAP",
  "postalCode": ""
 },
 {
  "id": 3526170006,
  "districtId": 3526170,
  "districtName": "SEPULU",
  "name": "TANAGURA TIMUR",
  "postalCode": ""
 },
 {
  "id": 3526170007,
  "districtId": 3526170,
  "districtName": "SEPULU",
  "name": "TANAGURA BARAT",
  "postalCode": ""
 },
 {
  "id": 3526170008,
  "districtId": 3526170,
  "districtName": "SEPULU",
  "name": "BANYIOR",
  "postalCode": "69154"
 },
 {
  "id": 3526170009,
  "districtId": 3526170,
  "districtName": "SEPULU",
  "name": "KLABETAN",
  "postalCode": "69154"
 },
 {
  "id": 3526170010,
  "districtId": 3526170,
  "districtName": "SEPULU",
  "name": "GANGSEYAN",
  "postalCode": ""
 },
 {
  "id": 3526170011,
  "districtId": 3526170,
  "districtName": "SEPULU",
  "name": "MANERON",
  "postalCode": "69154"
 },
 {
  "id": 3526170013,
  "districtId": 3526170,
  "districtName": "SEPULU",
  "name": "PRANCAK",
  "postalCode": "69457"
 },
 {
  "id": 3526170014,
  "districtId": 3526170,
  "districtName": "SEPULU",
  "name": "LABUHAN",
  "postalCode": "34876"
 },
 {
  "id": 3526170015,
  "districtId": 3526170,
  "districtName": "SEPULU",
  "name": "LEMBUNG PASESER",
  "postalCode": "69154"
 }
]