[
 {
  "id": 3526120001,
  "districtId": 3526120,
  "districtName": "BURNEH",
  "name": "JAMBU",
  "postalCode": "20998"
 },
 {
  "id": 3526120002,
  "districtId": 3526120,
  "districtName": "BURNEH",
  "name": "LANGKAP",
  "postalCode": "30755"
 },
 {
  "id": 3526120004,
  "districtId": 3526120,
  "districtName": "BURNEH",
  "name": "BENANGKAH",
  "postalCode": "69121"
 },
 {
  "id": 3526120005,
  "districtId": 3526120,
  "districtName": "BURNEH",
  "name": "ALAS KEMBANG",
  "postalCode": "69121"
 },
 {
  "id": 3526120006,
  "districtId": 3526120,
  "districtName": "BURNEH",
  "name": "BINOH",
  "postalCode": "69121"
 },
 {
  "id": 3526120008,
  "districtId": 3526120,
  "districtName": "BURNEH",
  "name": "PANGOLANGAN",
  "postalCode": "69121"
 },
 {
  "id": 3526120009,
  "districtId": 3526120,
  "districtName": "BURNEH",
  "name": "SOBIH",
  "postalCode": "69121"
 },
 {
  "id": 3526120010,
  "districtId": 3526120,
  "districtName": "BURNEH",
  "name": "TONJUNG",
  "postalCode": ""
 },
 {
  "id": 3526120011,
  "districtId": 3526120,
  "districtName": "BURNEH",
  "name": "KAPOR",
  "postalCode": "69121"
 },
 {
  "id": 3526120012,
  "districtId": 3526120,
  "districtName": "BURNEH",
  "name": "AROK",
  "postalCode": "69121"
 }
]