[
 {
  "id": 3527110001,
  "districtId": 3527110,
  "districtName": "KETAPANG",
  "name": "PAOPALE LAOK",
  "postalCode": ""
 },
 {
  "id": 3527110002,
  "districtId": 3527110,
  "districtName": "KETAPANG",
  "name": "BUNTEN BARAT",
  "postalCode": "69261"
 },
 {
  "id": 3527110003,
  "districtId": 3527110,
  "districtName": "KETAPANG",
  "name": "BUNTEN TIMUR",
  "postalCode": "69261"
 },
 {
  "id": 3527110004,
  "districtId": 3527110,
  "districtName": "KETAPANG",
  "name": "PANCOR",
  "postalCode": "69483"
 },
 {
  "id": 3527110005,
  "districtId": 3527110,
  "districtName": "KETAPANG",
  "name": "KARANG ANYAR",
  "postalCode": "24415"
 },
 {
  "id": 3527110006,
  "districtId": 3527110,
  "districtName": "KETAPANG",
  "name": "PANGEREMAN",
  "postalCode": "69354"
 },
 {
  "id": 3527110007,
  "districtId": 3527110,
  "districtName": "KETAPANG",
  "name": "BIRA BARAT",
  "postalCode": "69261"
 },
 {
  "id": 3527110008,
  "districtId": 3527110,
  "districtName": "KETAPANG",
  "name": "KETAPANG TIMUR",
  "postalCode": "69261"
 },
 {
  "id": 3527110009,
  "districtId": 3527110,
  "districtName": "KETAPANG",
  "name": "KETAPANG DAYA",
  "postalCode": "69261"
 },
 {
  "id": 3527110010,
  "districtId": 3527110,
  "districtName": "KETAPANG",
  "name": "KETAPANG LAOK",
  "postalCode": "69261"
 },
 {
  "id": 3527110011,
  "districtId": 3527110,
  "districtName": "KETAPANG",
  "name": "KETAPANG BARAT",
  "postalCode": "69261"
 },
 {
  "id": 3527110012,
  "districtId": 3527110,
  "districtName": "KETAPANG",
  "name": "PAOPALE DAYA",
  "postalCode": "69261"
 },
 {
  "id": 3527110013,
  "districtId": 3527110,
  "districtName": "KETAPANG",
  "name": "RABIYAN",
  "postalCode": "69261"
 },
 {
  "id": 3527110014,
  "districtId": 3527110,
  "districtName": "KETAPANG",
  "name": "BANYUSOKAH",
  "postalCode": "69261"
 }
]