[
 {
  "id": 3527050001,
  "districtId": 3527050,
  "districtName": "OMBEN",
  "name": "KEBUN SAREH",
  "postalCode": "69291"
 },
 {
  "id": 3527050002,
  "districtId": 3527050,
  "districtName": "OMBEN",
  "name": "KARANG NANGGER",
  "postalCode": "69291"
 },
 {
  "id": 3527050003,
  "districtId": 3527050,
  "districtName": "OMBEN",
  "name": "NAPOLAOK",
  "postalCode": ""
 },
 {
  "id": 3527050004,
  "districtId": 3527050,
  "districtName": "OMBEN",
  "name": "ASTAPAH",
  "postalCode": "69291"
 },
 {
  "id": 3527050005,
  "districtId": 3527050,
  "districtName": "OMBEN",
  "name": "GERSEMPAL",
  "postalCode": "69291"
 },
 {
  "id": 3527050007,
  "districtId": 3527050,
  "districtName": "OMBEN",
  "name": "MADULANG",
  "postalCode": "69291"
 },
 {
  "id": 3527050008,
  "districtId": 3527050,
  "districtName": "OMBEN",
  "name": "KAMONDUNG",
  "postalCode": "69291"
 },
 {
  "id": 3527050009,
  "districtId": 3527050,
  "districtName": "OMBEN",
  "name": "TAMBAK",
  "postalCode": "29335"
 },
 {
  "id": 3527050010,
  "districtId": 3527050,
  "districtName": "OMBEN",
  "name": "TEMORAN",
  "postalCode": "69291"
 },
 {
  "id": 3527050011,
  "districtId": 3527050,
  "districtName": "OMBEN",
  "name": "OMBEN",
  "postalCode": "69291"
 },
 {
  "id": 3527050012,
  "districtId": 3527050,
  "districtName": "OMBEN",
  "name": "SOGIYAN",
  "postalCode": ""
 },
 {
  "id": 3527050013,
  "districtId": 3527050,
  "districtName": "OMBEN",
  "name": "NAPO DAYA",
  "postalCode": ""
 },
 {
  "id": 3527050014,
  "districtId": 3527050,
  "districtName": "OMBEN",
  "name": "JRANGOAN",
  "postalCode": ""
 },
 {
  "id": 3527050015,
  "districtId": 3527050,
  "districtName": "OMBEN",
  "name": "ANGSOKAH",
  "postalCode": "69291"
 },
 {
  "id": 3527050016,
  "districtId": 3527050,
  "districtName": "OMBEN",
  "name": "RAPALAOK",
  "postalCode": ""
 },
 {
  "id": 3527050017,
  "districtId": 3527050,
  "districtName": "OMBEN",
  "name": "RONGDALEM",
  "postalCode": ""
 },
 {
  "id": 3527050018,
  "districtId": 3527050,
  "districtName": "OMBEN",
  "name": "PANDAN",
  "postalCode": "22611"
 },
 {
  "id": 3527050019,
  "districtId": 3527050,
  "districtName": "OMBEN",
  "name": "RAPA DAYA",
  "postalCode": "69291"
 },
 {
  "id": 3527050020,
  "districtId": 3527050,
  "districtName": "OMBEN",
  "name": "KARANG GAYAM",
  "postalCode": "69174"
 }
]