[
 {
  "id": 3528030001,
  "districtId": 3528030,
  "districtName": "GALIS",
  "name": "KONANG",
  "postalCode": "69382"
 },
 {
  "id": 3528030002,
  "districtId": 3528030,
  "districtName": "GALIS",
  "name": "PANDAN",
  "postalCode": "22611"
 },
 {
  "id": 3528030004,
  "districtId": 3528030,
  "districtName": "GALIS",
  "name": "GALIS",
  "postalCode": "69173"
 },
 {
  "id": 3528030005,
  "districtId": 3528030,
  "districtName": "GALIS",
  "name": "BULAY",
  "postalCode": "69382"
 },
 {
  "id": 3528030006,
  "districtId": 3528030,
  "districtName": "GALIS",
  "name": "TOBUNGAN",
  "postalCode": "69382"
 },
 {
  "id": 3528030007,
  "districtId": 3528030,
  "districtName": "GALIS",
  "name": "PAGENDINGAN",
  "postalCode": "69382"
 },
 {
  "id": 3528030008,
  "districtId": 3528030,
  "districtName": "GALIS",
  "name": "PONTEH",
  "postalCode": "69382"
 },
 {
  "id": 3528030009,
  "districtId": 3528030,
  "districtName": "GALIS",
  "name": "POLAGAN",
  "postalCode": "69382"
 },
 {
  "id": 3528030010,
  "districtId": 3528030,
  "districtName": "GALIS",
  "name": "ARTODUNG",
  "postalCode": "69382"
 }
]