[
 {
  "id": 3529220001,
  "districtId": 3529220,
  "districtName": "RAAS",
  "name": "KETUPAT",
  "postalCode": "69485"
 },
 {
  "id": 3529220002,
  "districtId": 3529220,
  "districtName": "RAAS",
  "name": "JUNGKAT",
  "postalCode": "69485"
 },
 {
  "id": 3529220003,
  "districtId": 3529220,
  "districtName": "RAAS",
  "name": "KAROPOH",
  "postalCode": "69485"
 },
 {
  "id": 3529220004,
  "districtId": 3529220,
  "districtName": "RAAS",
  "name": "KARANGNANGKA",
  "postalCode": "53281"
 },
 {
  "id": 3529220005,
  "districtId": 3529220,
  "districtName": "RAAS",
  "name": "ALASMALANG",
  "postalCode": "53194"
 },
 {
  "id": 3529220006,
  "districtId": 3529220,
  "districtName": "RAAS",
  "name": "POTERAN",
  "postalCode": "69485"
 },
 {
  "id": 3529220007,
  "districtId": 3529220,
  "districtName": "RAAS",
  "name": "BRAKAS",
  "postalCode": "59573"
 },
 {
  "id": 3529220008,
  "districtId": 3529220,
  "districtName": "RAAS",
  "name": "TONDUK",
  "postalCode": "69485"
 },
 {
  "id": 3529220009,
  "districtId": 3529220,
  "districtName": "RAAS",
  "name": "GUWA GUWA",
  "postalCode": "69485"
 }
]