[
 {
  "id": 3529200001,
  "districtId": 3529200,
  "districtName": "NONGGUNONG",
  "name": "SOKARAME PASESER",
  "postalCode": "69484"
 },
 {
  "id": 3529200002,
  "districtId": 3529200,
  "districtName": "NONGGUNONG",
  "name": "SOKARAME TIMUR",
  "postalCode": "69484"
 },
 {
  "id": 3529200003,
  "districtId": 3529200,
  "districtName": "NONGGUNONG",
  "name": "TANAHMERAH",
  "postalCode": "69484"
 },
 {
  "id": 3529200004,
  "districtId": 3529200,
  "districtName": "NONGGUNONG",
  "name": "SOMBER",
  "postalCode": "69484"
 },
 {
  "id": 3529200005,
  "districtId": 3529200,
  "districtName": "NONGGUNONG",
  "name": "SONOK",
  "postalCode": "69484"
 },
 {
  "id": 3529200006,
  "districtId": 3529200,
  "districtName": "NONGGUNONG",
  "name": "NONGGUNONG",
  "postalCode": "69484"
 },
 {
  "id": 3529200007,
  "districtId": 3529200,
  "districtName": "NONGGUNONG",
  "name": "ROSONG",
  "postalCode": "69484"
 },
 {
  "id": 3529200008,
  "districtId": 3529200,
  "districtName": "NONGGUNONG",
  "name": "TALAGA",
  "postalCode": "43154"
 }
]