[
 {
  "id": 3529230001,
  "districtId": 3529230,
  "districtName": "SAPEKEN",
  "name": "SABUNTAN",
  "postalCode": "69493"
 },
 {
  "id": 3529230002,
  "districtId": 3529230,
  "districtName": "SAPEKEN",
  "name": "PALIAT",
  "postalCode": "69493"
 },
 {
  "id": 3529230003,
  "districtId": 3529230,
  "districtName": "SAPEKEN",
  "name": "SAPEKEN",
  "postalCode": "69493"
 },
 {
  "id": 3529230004,
  "districtId": 3529230,
  "districtName": "SAPEKEN",
  "name": "SASIIL",
  "postalCode": ""
 },
 {
  "id": 3529230005,
  "districtId": 3529230,
  "districtName": "SAPEKEN",
  "name": "SEPANJANG",
  "postalCode": "57792"
 },
 {
  "id": 3529230006,
  "districtId": 3529230,
  "districtName": "SAPEKEN",
  "name": "TANJUNGKIAOK",
  "postalCode": "69493"
 },
 {
  "id": 3529230007,
  "districtId": 3529230,
  "districtName": "SAPEKEN",
  "name": "PAGERUNGAN KECIL",
  "postalCode": "69493"
 },
 {
  "id": 3529230008,
  "districtId": 3529230,
  "districtName": "SAPEKEN",
  "name": "PAGERUNGAN BESAR",
  "postalCode": "69493"
 },
 {
  "id": 3529230009,
  "districtId": 3529230,
  "districtName": "SAPEKEN",
  "name": "SAKALA",
  "postalCode": "69493"
 },
 {
  "id": 3529230010,
  "districtId": 3529230,
  "districtName": "SAPEKEN",
  "name": "SADULANG",
  "postalCode": ""
 },
 {
  "id": 3529230011,
  "districtId": 3529230,
  "districtName": "SAPEKEN",
  "name": "SAUR SAEBUS",
  "postalCode": ""
 }
]