[
 {
  "id": 3573020001,
  "districtId": 3573020,
  "districtName": "SUKUN",
  "name": "KEBONSARI",
  "postalCode": "56553"
 },
 {
  "id": 3573020002,
  "districtId": 3573020,
  "districtName": "SUKUN",
  "name": "GADANG",
  "postalCode": "23752"
 },
 {
  "id": 3573020003,
  "districtId": 3573020,
  "districtName": "SUKUN",
  "name": "CIPTOMULYO",
  "postalCode": "65148"
 },
 {
  "id": 3573020005,
  "districtId": 3573020,
  "districtName": "SUKUN",
  "name": "BANDUNGREJOSARI",
  "postalCode": "65148"
 },
 {
  "id": 3573020006,
  "districtId": 3573020,
  "districtName": "SUKUN",
  "name": "BAKALAN KRAJAN",
  "postalCode": "65148"
 },
 {
  "id": 3573020007,
  "districtId": 3573020,
  "districtName": "SUKUN",
  "name": "MULYOREJO",
  "postalCode": "58315"
 },
 {
  "id": 3573020008,
  "districtId": 3573020,
  "districtName": "SUKUN",
  "name": "BANDULAN",
  "postalCode": "65146"
 },
 {
  "id": 3573020009,
  "districtId": 3573020,
  "districtName": "SUKUN",
  "name": "TANJUNGREJO",
  "postalCode": "54224"
 },
 {
  "id": 3573020010,
  "districtId": 3573020,
  "districtName": "SUKUN",
  "name": "PISANG CANDI",
  "postalCode": "65146"
 },
 {
  "id": 3573020011,
  "districtId": 3573020,
  "districtName": "SUKUN",
  "name": "KARANG BESUKI",
  "postalCode": "65149"
 }
]