[
 {
  "id": 3578200001,
  "districtId": 3578200,
  "districtName": "TAMBAKSARI",
  "name": "PACAR KELING",
  "postalCode": "67172"
 },
 {
  "id": 3578200002,
  "districtId": 3578200,
  "districtName": "TAMBAKSARI",
  "name": "PACAR KEMBANG",
  "postalCode": "60132"
 },
 {
  "id": 3578200003,
  "districtId": 3578200,
  "districtName": "TAMBAKSARI",
  "name": "PLOSO",
  "postalCode": "59348"
 },
 {
  "id": 3578200004,
  "districtId": 3578200,
  "districtName": "TAMBAKSARI",
  "name": "TAMBAKSARI",
  "postalCode": "44192"
 },
 {
  "id": 3578200005,
  "districtId": 3578200,
  "districtName": "TAMBAKSARI",
  "name": "RANGKAH",
  "postalCode": "54474"
 },
 {
  "id": 3578200006,
  "districtId": 3578200,
  "districtName": "TAMBAKSARI",
  "name": "GADING",
  "postalCode": "22755"
 },
 {
  "id": 3578200007,
  "districtId": 3578200,
  "districtName": "TAMBAKSARI",
  "name": "KAPASMADYA BARU",
  "postalCode": "60137"
 },
 {
  "id": 3578200008,
  "districtId": 3578200,
  "districtName": "TAMBAKSARI",
  "name": "DUKUH SETRO",
  "postalCode": "60138"
 }
]