[
 {
  "id": 3579030001,
  "districtId": 3579030,
  "districtName": "BUMIAJI",
  "name": "PANDANREJO",
  "postalCode": "54175"
 },
 {
  "id": 3579030002,
  "districtId": 3579030,
  "districtName": "BUMIAJI",
  "name": "BUMIAJI",
  "postalCode": "57254"
 },
 {
  "id": 3579030003,
  "districtId": 3579030,
  "districtName": "BUMIAJI",
  "name": "BULUKERTO",
  "postalCode": "57697"
 },
 {
  "id": 3579030004,
  "districtId": 3579030,
  "districtName": "BUMIAJI",
  "name": "GUNUNGSARI",
  "postalCode": "35368"
 },
 {
  "id": 3579030006,
  "districtId": 3579030,
  "districtName": "BUMIAJI",
  "name": "TULUNGREJO",
  "postalCode": "66275"
 },
 {
  "id": 3579030007,
  "districtId": 3579030,
  "districtName": "BUMIAJI",
  "name": "SUMBERGONDO",
  "postalCode": "68466"
 },
 {
  "id": 3579030008,
  "districtId": 3579030,
  "districtName": "BUMIAJI",
  "name": "GIRIPURNO",
  "postalCode": "56553"
 },
 {
  "id": 3579030009,
  "districtId": 3579030,
  "districtName": "BUMIAJI",
  "name": "SUMBER BRANTAS",
  "postalCode": "65338"
 }
]