[
 {
  "id": 3601141001,
  "districtId": 3601141,
  "districtName": "PULOSARI",
  "name": "BANJARNEGARA",
  "postalCode": "42273"
 },
 {
  "id": 3601141002,
  "districtId": 3601141,
  "districtName": "PULOSARI",
  "name": "KADUHEJO",
  "postalCode": "42253"
 },
 {
  "id": 3601141003,
  "districtId": 3601141,
  "districtName": "PULOSARI",
  "name": "KORANJI",
  "postalCode": "41261"
 },
 {
  "id": 3601141004,
  "districtId": 3601141,
  "districtName": "PULOSARI",
  "name": "SANGHIANGDENGDEK",
  "postalCode": "42273"
 },
 {
  "id": 3601141005,
  "districtId": 3601141,
  "districtName": "PULOSARI",
  "name": "CILENTUNG",
  "postalCode": "42273"
 },
 {
  "id": 3601141006,
  "districtId": 3601141,
  "districtName": "PULOSARI",
  "name": "KARYAWANGI",
  "postalCode": "40559"
 },
 {
  "id": 3601141007,
  "districtId": 3601141,
  "districtName": "PULOSARI",
  "name": "BANJARWANGI",
  "postalCode": "44172"
 },
 {
  "id": 3601141008,
  "districtId": 3601141,
  "districtName": "PULOSARI",
  "name": "SUKASARI",
  "postalCode": "20986"
 },
 {
  "id": 3601141009,
  "districtId": 3601141,
  "districtName": "PULOSARI",
  "name": "SUKARAJA",
  "postalCode": "21256"
 }
]