[
 {
  "id": 3601112001,
  "districtId": 3601112,
  "districtName": "SUKARESMI",
  "name": "SEUSEUPAN",
  "postalCode": "43154"
 },
 {
  "id": 3601112002,
  "districtId": 3601112,
  "districtName": "SUKARESMI",
  "name": "KARYASARI",
  "postalCode": "44191"
 },
 {
  "id": 3601112003,
  "districtId": 3601112,
  "districtName": "SUKARESMI",
  "name": "PASIRKADU",
  "postalCode": "42265"
 },
 {
  "id": 3601112004,
  "districtId": 3601112,
  "districtName": "SUKARESMI",
  "name": "PERDANA",
  "postalCode": "42265"
 },
 {
  "id": 3601112005,
  "districtId": 3601112,
  "districtName": "SUKARESMI",
  "name": "SUKARESMI",
  "postalCode": "17530"
 },
 {
  "id": 3601112006,
  "districtId": 3601112,
  "districtName": "SUKARESMI",
  "name": "KUBANGKAMPIL",
  "postalCode": "42265"
 },
 {
  "id": 3601112007,
  "districtId": 3601112,
  "districtName": "SUKARESMI",
  "name": "SIDAMUKTI",
  "postalCode": "45411"
 },
 {
  "id": 3601112008,
  "districtId": 3601112,
  "districtName": "SUKARESMI",
  "name": "CIBUNGUR",
  "postalCode": "41181"
 },
 {
  "id": 3601112010,
  "districtId": 3601112,
  "districtName": "SUKARESMI",
  "name": "CIKUYA",
  "postalCode": "40395"
 }
]