[
 {
  "id": 3601131001,
  "districtId": 3601131,
  "districtName": "CIKEDAL",
  "name": "KARYAUTAMA",
  "postalCode": "42271"
 },
 {
  "id": 3601131002,
  "districtId": 3601131,
  "districtName": "CIKEDAL",
  "name": "TEGAL",
  "postalCode": "16310"
 },
 {
  "id": 3601131003,
  "districtId": 3601131,
  "districtName": "CIKEDAL",
  "name": "CIPICUNG",
  "postalCode": "44191"
 },
 {
  "id": 3601131004,
  "districtId": 3601131,
  "districtName": "CIKEDAL",
  "name": "KARYASARI",
  "postalCode": "44191"
 },
 {
  "id": 3601131005,
  "districtId": 3601131,
  "districtName": "CIKEDAL",
  "name": "DAHU",
  "postalCode": "42271"
 },
 {
  "id": 3601131006,
  "districtId": 3601131,
  "districtName": "CIKEDAL",
  "name": "BABAKANLOR",
  "postalCode": "42271"
 },
 {
  "id": 3601131007,
  "districtId": 3601131,
  "districtName": "CIKEDAL",
  "name": "MEKARJAYA",
  "postalCode": "30653"
 },
 {
  "id": 3601131008,
  "districtId": 3601131,
  "districtName": "CIKEDAL",
  "name": "PADAHAYU",
  "postalCode": "42271"
 },
 {
  "id": 3601131009,
  "districtId": 3601131,
  "districtName": "CIKEDAL",
  "name": "BANGKUYUNG",
  "postalCode": "42271"
 },
 {
  "id": 3601131010,
  "districtId": 3601131,
  "districtName": "CIKEDAL",
  "name": "CENING",
  "postalCode": "51382"
 }
]