[
 {
  "id": 3601121001,
  "districtId": 3601121,
  "districtName": "CARITA",
  "name": "PEJAMBEN",
  "postalCode": "42264"
 },
 {
  "id": 3601121002,
  "districtId": 3601121,
  "districtName": "CARITA",
  "name": "BANJARMASIN",
  "postalCode": "34761"
 },
 {
  "id": 3601121003,
  "districtId": 3601121,
  "districtName": "CARITA",
  "name": "TEMBONG",
  "postalCode": "45571"
 },
 {
  "id": 3601121004,
  "districtId": 3601121,
  "districtName": "CARITA",
  "name": "SINDANGLAUT",
  "postalCode": "45183"
 },
 {
  "id": 3601121005,
  "districtId": 3601121,
  "districtName": "CARITA",
  "name": "CARITA",
  "postalCode": "42264"
 },
 {
  "id": 3601121006,
  "districtId": 3601121,
  "districtName": "CARITA",
  "name": "SUKAJADI",
  "postalCode": "24472"
 },
 {
  "id": 3601121007,
  "districtId": 3601121,
  "districtName": "CARITA",
  "name": "SUKARAME",
  "postalCode": "24357"
 },
 {
  "id": 3601121008,
  "districtId": 3601121,
  "districtName": "CARITA",
  "name": "SUKANAGARA",
  "postalCode": "44174"
 },
 {
  "id": 3601121009,
  "districtId": 3601121,
  "districtName": "CARITA",
  "name": "KAWOYANG",
  "postalCode": "42264"
 },
 {
  "id": 3601121010,
  "districtId": 3601121,
  "districtName": "CARITA",
  "name": "CINOYONG",
  "postalCode": "42264"
 }
]