[
 {
  "id": 3601172001,
  "districtId": 3601172,
  "districtName": "MEKARJAYA",
  "name": "RANCABUGEL",
  "postalCode": "42271"
 },
 {
  "id": 3601172002,
  "districtId": 3601172,
  "districtName": "MEKARJAYA",
  "name": "WIRASINGA",
  "postalCode": "42271"
 },
 {
  "id": 3601172003,
  "districtId": 3601172,
  "districtName": "MEKARJAYA",
  "name": "PAREANG",
  "postalCode": "42271"
 },
 {
  "id": 3601172004,
  "districtId": 3601172,
  "districtName": "MEKARJAYA",
  "name": "KADUBELANG",
  "postalCode": "42271"
 },
 {
  "id": 3601172005,
  "districtId": 3601172,
  "districtName": "MEKARJAYA",
  "name": "MEKARJAYA",
  "postalCode": "30653"
 },
 {
  "id": 3601172006,
  "districtId": 3601172,
  "districtName": "MEKARJAYA",
  "name": "KADUJANGKUNG",
  "postalCode": "42271"
 },
 {
  "id": 3601172007,
  "districtId": 3601172,
  "districtName": "MEKARJAYA",
  "name": "MEDONG",
  "postalCode": "42271"
 },
 {
  "id": 3601172008,
  "districtId": 3601172,
  "districtName": "MEKARJAYA",
  "name": "SUKAMULYA",
  "postalCode": "30657"
 }
]