[
 {
  "id": 3601050001,
  "districtId": 3601050,
  "districtName": "CIGEULIS",
  "name": "BANYUASIH",
  "postalCode": "41374"
 },
 {
  "id": 3601050002,
  "districtId": 3601050,
  "districtName": "CIGEULIS",
  "name": "KARANGBOLONG",
  "postalCode": "54474"
 },
 {
  "id": 3601050003,
  "districtId": 3601050,
  "districtName": "CIGEULIS",
  "name": "KARYABUANA",
  "postalCode": "42282"
 },
 {
  "id": 3601050004,
  "districtId": 3601050,
  "districtName": "CIGEULIS",
  "name": "KATUMBIRI",
  "postalCode": "42282"
 },
 {
  "id": 3601050005,
  "districtId": 3601050,
  "districtName": "CIGEULIS",
  "name": "WARINGINJAYA",
  "postalCode": "42282"
 },
 {
  "id": 3601050006,
  "districtId": 3601050,
  "districtName": "CIGEULIS",
  "name": "SINARJAYA",
  "postalCode": "44165"
 },
 {
  "id": 3601050007,
  "districtId": 3601050,
  "districtName": "CIGEULIS",
  "name": "CISEUREUHEUN",
  "postalCode": "42282"
 },
 {
  "id": 3601050009,
  "districtId": 3601050,
  "districtName": "CIGEULIS",
  "name": "CIGEULIS",
  "postalCode": "42282"
 },
 {
  "id": 3601050010,
  "districtId": 3601050,
  "districtName": "CIGEULIS",
  "name": "TARUMANAGARA",
  "postalCode": "42282"
 }
]