[
 {
  "id": 3601120001,
  "districtId": 3601120,
  "districtName": "LABUAN",
  "name": "CIGONDANG",
  "postalCode": "42264"
 },
 {
  "id": 3601120002,
  "districtId": 3601120,
  "districtName": "LABUAN",
  "name": "SUKAMAJU",
  "postalCode": "22465"
 },
 {
  "id": 3601120003,
  "districtId": 3601120,
  "districtName": "LABUAN",
  "name": "RANCATEUREUP",
  "postalCode": "42264"
 },
 {
  "id": 3601120004,
  "districtId": 3601120,
  "districtName": "LABUAN",
  "name": "KALANGANYAR",
  "postalCode": "62254"
 },
 {
  "id": 3601120005,
  "districtId": 3601120,
  "districtName": "LABUAN",
  "name": "LABUAN",
  "postalCode": "34874"
 },
 {
  "id": 3601120007,
  "districtId": 3601120,
  "districtName": "LABUAN",
  "name": "BANYUMEKAR",
  "postalCode": "42264"
 },
 {
  "id": 3601120008,
  "districtId": 3601120,
  "districtName": "LABUAN",
  "name": "BANYUBIRU",
  "postalCode": "50664"
 },
 {
  "id": 3601120009,
  "districtId": 3601120,
  "districtName": "LABUAN",
  "name": "CARINGIN",
  "postalCode": "40212"
 }
]