[
 {
  "id": 3601150001,
  "districtId": 3601150,
  "districtName": "MANDALAWANGI",
  "name": "PANDAT",
  "postalCode": "42261"
 },
 {
  "id": 3601150002,
  "districtId": 3601150,
  "districtName": "MANDALAWANGI",
  "name": "CIKONENG",
  "postalCode": "46261"
 },
 {
  "id": 3601150003,
  "districtId": 3601150,
  "districtName": "MANDALAWANGI",
  "name": "GIRIPAWANA",
  "postalCode": "42261"
 },
 {
  "id": 3601150004,
  "districtId": 3601150,
  "districtName": "MANDALAWANGI",
  "name": "NEMBOL",
  "postalCode": "42261"
 },
 {
  "id": 3601150005,
  "districtId": 3601150,
  "districtName": "MANDALAWANGI",
  "name": "GUNUNGSARI",
  "postalCode": "35368"
 },
 {
  "id": 3601150006,
  "districtId": 3601150,
  "districtName": "MANDALAWANGI",
  "name": "KURUNGKAMBING",
  "postalCode": "42261"
 },
 {
  "id": 3601150007,
  "districtId": 3601150,
  "districtName": "MANDALAWANGI",
  "name": "MANDALASARI",
  "postalCode": "35597"
 },
 {
  "id": 3601150008,
  "districtId": 3601150,
  "districtName": "MANDALAWANGI",
  "name": "MANDALAWANGI",
  "postalCode": "40554"
 },
 {
  "id": 3601150009,
  "districtId": 3601150,
  "districtName": "MANDALAWANGI",
  "name": "PARI",
  "postalCode": "42261"
 },
 {
  "id": 3601150010,
  "districtId": 3601150,
  "districtName": "MANDALAWANGI",
  "name": "SINARJAYA",
  "postalCode": "44165"
 },
 {
  "id": 3601150011,
  "districtId": 3601150,
  "districtName": "MANDALAWANGI",
  "name": "SIRNAGALIH",
  "postalCode": "35387"
 },
 {
  "id": 3601150012,
  "districtId": 3601150,
  "districtName": "MANDALAWANGI",
  "name": "CURUGLEMO",
  "postalCode": "42261"
 },
 {
  "id": 3601150013,
  "districtId": 3601150,
  "districtName": "MANDALAWANGI",
  "name": "PANJANGJAYA",
  "postalCode": "42261"
 },
 {
  "id": 3601150014,
  "districtId": 3601150,
  "districtName": "MANDALAWANGI",
  "name": "CIKUMBUEUN",
  "postalCode": "42261"
 },
 {
  "id": 3601150015,
  "districtId": 3601150,
  "districtName": "MANDALAWANGI",
  "name": "RAMEA",
  "postalCode": "42261"
 }
]