[
 {
  "id": 3601111009,
  "districtId": 3601111,
  "districtName": "PATIA",
  "name": "PASIRGADUNG",
  "postalCode": "42265"
 },
 {
  "id": 3601111010,
  "districtId": 3601111,
  "districtName": "PATIA",
  "name": "PATIA",
  "postalCode": "42265"
 },
 {
  "id": 3601111011,
  "districtId": 3601111,
  "districtName": "PATIA",
  "name": "BABAKANKEUSIK",
  "postalCode": "42265"
 },
 {
  "id": 3601111012,
  "districtId": 3601111,
  "districtName": "PATIA",
  "name": "CIMOYAN",
  "postalCode": "42265"
 },
 {
  "id": 3601111013,
  "districtId": 3601111,
  "districtName": "PATIA",
  "name": "IDAMAN",
  "postalCode": "29253"
 },
 {
  "id": 3601111014,
  "districtId": 3601111,
  "districtName": "PATIA",
  "name": "CIAWI",
  "postalCode": "16720"
 },
 {
  "id": 3601111015,
  "districtId": 3601111,
  "districtName": "PATIA",
  "name": "SURIANEUN",
  "postalCode": "42265"
 },
 {
  "id": 3601111016,
  "districtId": 3601111,
  "districtName": "PATIA",
  "name": "RAHAYU",
  "postalCode": "40218"
 },
 {
  "id": 3601111017,
  "districtId": 3601111,
  "districtName": "PATIA",
  "name": "SIMPANGTIGA",
  "postalCode": "42265"
 }
]