[
 {
  "id": 3602030001,
  "districtId": 3602030,
  "districtName": "BAYAH",
  "name": "BAYAH BARAT",
  "postalCode": "42393"
 },
 {
  "id": 3602030002,
  "districtId": 3602030,
  "districtName": "BAYAH",
  "name": "DARMASARI",
  "postalCode": "42393"
 },
 {
  "id": 3602030003,
  "districtId": 3602030,
  "districtName": "BAYAH",
  "name": "SAWARNA",
  "postalCode": "42393"
 },
 {
  "id": 3602030011,
  "districtId": 3602030,
  "districtName": "BAYAH",
  "name": "CIDIKIT",
  "postalCode": "42393"
 },
 {
  "id": 3602030012,
  "districtId": 3602030,
  "districtName": "BAYAH",
  "name": "BAYAH TIMUR",
  "postalCode": "42393"
 },
 {
  "id": 3602030013,
  "districtId": 3602030,
  "districtName": "BAYAH",
  "name": "CIMANCAK",
  "postalCode": "42393"
 },
 {
  "id": 3602030014,
  "districtId": 3602030,
  "districtName": "BAYAH",
  "name": "SUWAKAN",
  "postalCode": "42393"
 },
 {
  "id": 3602030015,
  "districtId": 3602030,
  "districtName": "BAYAH",
  "name": "PASIRGOMBONG",
  "postalCode": "42393"
 },
 {
  "id": 3602030016,
  "districtId": 3602030,
  "districtName": "BAYAH",
  "name": "CISUREN",
  "postalCode": "42393"
 },
 {
  "id": 3602030017,
  "districtId": 3602030,
  "districtName": "BAYAH",
  "name": "PAMUBULAN",
  "postalCode": "42393"
 },
 {
  "id": 3602030018,
  "districtId": 3602030,
  "districtName": "BAYAH",
  "name": "SAWARNA TIMUR",
  "postalCode": "42393"
 }
]