[
 {
  "id": 3602051001,
  "districtId": 3602051,
  "districtName": "CIGEMBLONG",
  "name": "PEUCANGPARI",
  "postalCode": "42395"
 },
 {
  "id": 3602051002,
  "districtId": 3602051,
  "districtName": "CIGEMBLONG",
  "name": "CIBUNGUR",
  "postalCode": "41181"
 },
 {
  "id": 3602051003,
  "districtId": 3602051,
  "districtName": "CIGEMBLONG",
  "name": "CIKARET",
  "postalCode": "16132"
 },
 {
  "id": 3602051004,
  "districtId": 3602051,
  "districtName": "CIGEMBLONG",
  "name": "CIKADONGDONG",
  "postalCode": "46475"
 },
 {
  "id": 3602051005,
  "districtId": 3602051,
  "districtName": "CIGEMBLONG",
  "name": "CIKARATUAN",
  "postalCode": "42395"
 },
 {
  "id": 3602051006,
  "districtId": 3602051,
  "districtName": "CIGEMBLONG",
  "name": "MUGIJAYA",
  "postalCode": "42395"
 },
 {
  "id": 3602051007,
  "districtId": 3602051,
  "districtName": "CIGEMBLONG",
  "name": "CIGEMBLONG",
  "postalCode": "42395"
 },
 {
  "id": 3602051008,
  "districtId": 3602051,
  "districtName": "CIGEMBLONG",
  "name": "CIKATE",
  "postalCode": "42395"
 },
 {
  "id": 3602051009,
  "districtId": 3602051,
  "districtName": "CIGEMBLONG",
  "name": "WANGUNJAYA",
  "postalCode": "43273"
 }
]