[
 {
  "id": 3602020006,
  "districtId": 3602020,
  "districtName": "PANGGARANGAN",
  "name": "SITUREGEN",
  "postalCode": ""
 },
 {
  "id": 3602020007,
  "districtId": 3602020,
  "districtName": "PANGGARANGAN",
  "name": "SUKAJADI",
  "postalCode": "24472"
 },
 {
  "id": 3602020008,
  "districtId": 3602020,
  "districtName": "PANGGARANGAN",
  "name": "HEGARMANAH",
  "postalCode": "41151"
 },
 {
  "id": 3602020009,
  "districtId": 3602020,
  "districtName": "PANGGARANGAN",
  "name": "PANGGARANGAN",
  "postalCode": "42392"
 },
 {
  "id": 3602020010,
  "districtId": 3602020,
  "districtName": "PANGGARANGAN",
  "name": "MEKARJAYA",
  "postalCode": "30653"
 },
 {
  "id": 3602020011,
  "districtId": 3602020,
  "districtName": "PANGGARANGAN",
  "name": "SINDANGRATU",
  "postalCode": "44183"
 },
 {
  "id": 3602020012,
  "districtId": 3602020,
  "districtName": "PANGGARANGAN",
  "name": "CIMANDIRI",
  "postalCode": "42392"
 },
 {
  "id": 3602020017,
  "districtId": 3602020,
  "districtName": "PANGGARANGAN",
  "name": "SOGONG",
  "postalCode": "42392"
 },
 {
  "id": 3602020018,
  "districtId": 3602020,
  "districtName": "PANGGARANGAN",
  "name": "JATAKE",
  "postalCode": "15136"
 },
 {
  "id": 3602020019,
  "districtId": 3602020,
  "districtName": "PANGGARANGAN",
  "name": "CIBARENGKOK",
  "postalCode": "43283"
 }
]