[
 {
  "id": 3602150001,
  "districtId": 3602150,
  "districtName": "CIKULUR",
  "name": "ANGGALAN",
  "postalCode": "42356"
 },
 {
  "id": 3602150002,
  "districtId": 3602150,
  "districtName": "CIKULUR",
  "name": "MUARADUA",
  "postalCode": "43153"
 },
 {
  "id": 3602150003,
  "districtId": 3602150,
  "districtName": "CIKULUR",
  "name": "MUNCANGKOPONG",
  "postalCode": "42356"
 },
 {
  "id": 3602150004,
  "districtId": 3602150,
  "districtName": "CIKULUR",
  "name": "TAMAN JAYA",
  "postalCode": "34511"
 },
 {
  "id": 3602150005,
  "districtId": 3602150,
  "districtName": "CIKULUR",
  "name": "CURUGPANJANG",
  "postalCode": "42356"
 },
 {
  "id": 3602150006,
  "districtId": 3602150,
  "districtName": "CIKULUR",
  "name": "CIKULUR",
  "postalCode": "42356"
 },
 {
  "id": 3602150007,
  "districtId": 3602150,
  "districtName": "CIKULUR",
  "name": "CIGOONG SELATAN",
  "postalCode": "42356"
 },
 {
  "id": 3602150008,
  "districtId": 3602150,
  "districtName": "CIKULUR",
  "name": "CIGOONG UTARA",
  "postalCode": "42356"
 },
 {
  "id": 3602150009,
  "districtId": 3602150,
  "districtName": "CIKULUR",
  "name": "SUMURBANDUNG",
  "postalCode": "40554"
 },
 {
  "id": 3602150010,
  "districtId": 3602150,
  "districtName": "CIKULUR",
  "name": "SUKAHARJA",
  "postalCode": "45587"
 },
 {
  "id": 3602150011,
  "districtId": 3602150,
  "districtName": "CIKULUR",
  "name": "SUKADAYA",
  "postalCode": "17620"
 },
 {
  "id": 3602150012,
  "districtId": 3602150,
  "districtName": "CIKULUR",
  "name": "PARAGE",
  "postalCode": "42356"
 },
 {
  "id": 3602150013,
  "districtId": 3602150,
  "districtName": "CIKULUR",
  "name": "PASIR GINTUNG",
  "postalCode": "35113"
 }
]