[
 {
  "id": 3602111001,
  "districtId": 3602111,
  "districtName": "SOBANG",
  "name": "SINARJAYA",
  "postalCode": "44165"
 },
 {
  "id": 3602111002,
  "districtId": 3602111,
  "districtName": "SOBANG",
  "name": "CIROMPANG",
  "postalCode": "42318"
 },
 {
  "id": 3602111003,
  "districtId": 3602111,
  "districtName": "SOBANG",
  "name": "SUKAMAJU",
  "postalCode": "22465"
 },
 {
  "id": 3602111004,
  "districtId": 3602111,
  "districtName": "SOBANG",
  "name": "MAJASARI",
  "postalCode": "31124"
 },
 {
  "id": 3602111005,
  "districtId": 3602111,
  "districtName": "SOBANG",
  "name": "CIPARASI",
  "postalCode": ""
 },
 {
  "id": 3602111006,
  "districtId": 3602111,
  "districtName": "SOBANG",
  "name": "SINDANGLAYA",
  "postalCode": "40195"
 },
 {
  "id": 3602111007,
  "districtId": 3602111,
  "districtName": "SOBANG",
  "name": "SOBANG",
  "postalCode": "42318"
 },
 {
  "id": 3602111008,
  "districtId": 3602111,
  "districtName": "SOBANG",
  "name": "SUKAJAYA",
  "postalCode": "30756"
 },
 {
  "id": 3602111009,
  "districtId": 3602111,
  "districtName": "SOBANG",
  "name": "HARIANG",
  "postalCode": "45392"
 },
 {
  "id": 3602111010,
  "districtId": 3602111,
  "districtName": "SOBANG",
  "name": "SUKARESMI",
  "postalCode": "17530"
 }
]