[
 {
  "id": 3602090007,
  "districtId": 3602090,
  "districtName": "BOJONGMANIK",
  "name": "KEBONCAU",
  "postalCode": "42363"
 },
 {
  "id": 3602090008,
  "districtId": 3602090,
  "districtName": "BOJONGMANIK",
  "name": "CIMAYANG",
  "postalCode": "16810"
 },
 {
  "id": 3602090009,
  "districtId": 3602090,
  "districtName": "BOJONGMANIK",
  "name": "PARAKANBEUSI",
  "postalCode": "42363"
 },
 {
  "id": 3602090010,
  "districtId": 3602090,
  "districtName": "BOJONGMANIK",
  "name": "BOJONGMANIK",
  "postalCode": "42363"
 },
 {
  "id": 3602090011,
  "districtId": 3602090,
  "districtName": "BOJONGMANIK",
  "name": "MEKARMANIK",
  "postalCode": "40196"
 },
 {
  "id": 3602090014,
  "districtId": 3602090,
  "districtName": "BOJONGMANIK",
  "name": "KADURAHAYU",
  "postalCode": "42363"
 },
 {
  "id": 3602090015,
  "districtId": 3602090,
  "districtName": "BOJONGMANIK",
  "name": "HARJAWANA",
  "postalCode": "42363"
 },
 {
  "id": 3602090016,
  "districtId": 3602090,
  "districtName": "BOJONGMANIK",
  "name": "MEKAR RAHAYU",
  "postalCode": "40218"
 },
 {
  "id": 3602090017,
  "districtId": 3602090,
  "districtName": "BOJONGMANIK",
  "name": "PASIR BITUNG",
  "postalCode": ""
 }
]