[
 {
  "id": 3602050001,
  "districtId": 3602050,
  "districtName": "CIJAKU",
  "name": "KANDANGSAPI",
  "postalCode": "42395"
 },
 {
  "id": 3602050002,
  "districtId": 3602050,
  "districtName": "CIJAKU",
  "name": "CIHUJAN",
  "postalCode": "42395"
 },
 {
  "id": 3602050003,
  "districtId": 3602050,
  "districtName": "CIJAKU",
  "name": "CIAPUS",
  "postalCode": "40377"
 },
 {
  "id": 3602050005,
  "districtId": 3602050,
  "districtName": "CIJAKU",
  "name": "CIJAKU",
  "postalCode": "42395"
 },
 {
  "id": 3602050006,
  "districtId": 3602050,
  "districtName": "CIJAKU",
  "name": "MEKARJAYA",
  "postalCode": "30653"
 },
 {
  "id": 3602050007,
  "districtId": 3602050,
  "districtName": "CIJAKU",
  "name": "CIPALABUH",
  "postalCode": "42395"
 },
 {
  "id": 3602050008,
  "districtId": 3602050,
  "districtName": "CIJAKU",
  "name": "CIBEUREUM",
  "postalCode": "46313"
 },
 {
  "id": 3602050009,
  "districtId": 3602050,
  "districtName": "CIJAKU",
  "name": "CIMENGA",
  "postalCode": "45562"
 },
 {
  "id": 3602050010,
  "districtId": 3602050,
  "districtName": "CIJAKU",
  "name": "SUKASENANG",
  "postalCode": "44191"
 },
 {
  "id": 3602050011,
  "districtId": 3602050,
  "districtName": "CIJAKU",
  "name": "KAPUNDUHAN",
  "postalCode": "42395"
 }
]