[
 {
  "id": 3603210001,
  "districtId": 3603210,
  "districtName": "KOSAMBI",
  "name": "RAWA RENGAS",
  "postalCode": "15215"
 },
 {
  "id": 3603210002,
  "districtId": 3603210,
  "districtName": "KOSAMBI",
  "name": "RAWA BURUNG",
  "postalCode": "15215"
 },
 {
  "id": 3603210003,
  "districtId": 3603210,
  "districtName": "KOSAMBI",
  "name": "BELIMBING",
  "postalCode": "29355"
 },
 {
  "id": 3603210004,
  "districtId": 3603210,
  "districtName": "KOSAMBI",
  "name": "JATIMULYA",
  "postalCode": "45595"
 },
 {
  "id": 3603210005,
  "districtId": 3603210,
  "districtName": "KOSAMBI",
  "name": "D A D A P",
  "postalCode": ""
 },
 {
  "id": 3603210006,
  "districtId": 3603210,
  "districtName": "KOSAMBI",
  "name": "KOSAMBI TIMUR",
  "postalCode": "15213"
 },
 {
  "id": 3603210007,
  "districtId": 3603210,
  "districtName": "KOSAMBI",
  "name": "KOSAMBI BARAT",
  "postalCode": "15213"
 },
 {
  "id": 3603210008,
  "districtId": 3603210,
  "districtName": "KOSAMBI",
  "name": "CENGKLONG",
  "postalCode": "15212"
 },
 {
  "id": 3603210009,
  "districtId": 3603210,
  "districtName": "KOSAMBI",
  "name": "SALEMBARAN JATI",
  "postalCode": "15214"
 },
 {
  "id": 3603210010,
  "districtId": 3603210,
  "districtName": "KOSAMBI",
  "name": "SALEMBARAN",
  "postalCode": ""
 }
]