[
 {
  "id": 3603150003,
  "districtId": 3603150,
  "districtName": "KRONJO",
  "name": "BAKUNG",
  "postalCode": "36382"
 },
 {
  "id": 3603150004,
  "districtId": 3603150,
  "districtName": "KRONJO",
  "name": "PASIR",
  "postalCode": "24656"
 },
 {
  "id": 3603150005,
  "districtId": 3603150,
  "districtName": "KRONJO",
  "name": "CIRUMPAK",
  "postalCode": "15550"
 },
 {
  "id": 3603150006,
  "districtId": 3603150,
  "districtName": "KRONJO",
  "name": "PAGEDANGAN UDIK",
  "postalCode": "15550"
 },
 {
  "id": 3603150007,
  "districtId": 3603150,
  "districtName": "KRONJO",
  "name": "PASILIAN",
  "postalCode": "15550"
 },
 {
  "id": 3603150008,
  "districtId": 3603150,
  "districtName": "KRONJO",
  "name": "PAGENJAHAN",
  "postalCode": "15550"
 },
 {
  "id": 3603150017,
  "districtId": 3603150,
  "districtName": "KRONJO",
  "name": "KRONJO",
  "postalCode": "15550"
 },
 {
  "id": 3603150018,
  "districtId": 3603150,
  "districtName": "KRONJO",
  "name": "PAGEDANGAN ILIR",
  "postalCode": "15550"
 }
]