[
 {
  "id": 3603040001,
  "districtId": 3603040,
  "districtName": "PANONGAN",
  "name": "RANCA IYUH",
  "postalCode": "15710"
 },
 {
  "id": 3603040002,
  "districtId": 3603040,
  "districtName": "PANONGAN",
  "name": "MEKAR JAYA",
  "postalCode": "20771"
 },
 {
  "id": 3603040003,
  "districtId": 3603040,
  "districtName": "PANONGAN",
  "name": "RANCA KALAPA",
  "postalCode": "15710"
 },
 {
  "id": 3603040004,
  "districtId": 3603040,
  "districtName": "PANONGAN",
  "name": "PANONGAN",
  "postalCode": "45458"
 },
 {
  "id": 3603040005,
  "districtId": 3603040,
  "districtName": "PANONGAN",
  "name": "SERDANG KULON",
  "postalCode": "15710"
 },
 {
  "id": 3603040006,
  "districtId": 3603040,
  "districtName": "PANONGAN",
  "name": "CIAKAR",
  "postalCode": "46196"
 },
 {
  "id": 3603040007,
  "districtId": 3603040,
  "districtName": "PANONGAN",
  "name": "MEKAR BAKTI",
  "postalCode": "15710"
 },
 {
  "id": 3603040008,
  "districtId": 3603040,
  "districtName": "PANONGAN",
  "name": "PEUSAR",
  "postalCode": "15710"
 }
]