[
 {
  "id": 3603131001,
  "districtId": 3603131,
  "districtName": "JAYANTI",
  "name": "JAYANTI",
  "postalCode": "43364"
 },
 {
  "id": 3603131002,
  "districtId": 3603131,
  "districtName": "JAYANTI",
  "name": "PASIR MUNCANG",
  "postalCode": "16730"
 },
 {
  "id": 3603131003,
  "districtId": 3603131,
  "districtName": "JAYANTI",
  "name": "SUMUR BANDUNG",
  "postalCode": "34396"
 },
 {
  "id": 3603131004,
  "districtId": 3603131,
  "districtName": "JAYANTI",
  "name": "CIKANDE",
  "postalCode": "41353"
 },
 {
  "id": 3603131005,
  "districtId": 3603131,
  "districtName": "JAYANTI",
  "name": "PASIR GINTUNG",
  "postalCode": "35113"
 },
 {
  "id": 3603131006,
  "districtId": 3603131,
  "districtName": "JAYANTI",
  "name": "PANGKAT",
  "postalCode": "22994"
 },
 {
  "id": 3603131007,
  "districtId": 3603131,
  "districtName": "JAYANTI",
  "name": "DANG DEUR",
  "postalCode": "15610"
 },
 {
  "id": 3603131008,
  "districtId": 3603131,
  "districtName": "JAYANTI",
  "name": "PABUARAN",
  "postalCode": "16921"
 }
]