[
 {
  "id": 3604251001,
  "districtId": 3604251,
  "districtName": "LEBAK WANGI",
  "name": "KEBONRATU",
  "postalCode": "42182"
 },
 {
  "id": 3604251002,
  "districtId": 3604251,
  "districtName": "LEBAK WANGI",
  "name": "TERASBENDUNG",
  "postalCode": "42184"
 },
 {
  "id": 3604251003,
  "districtId": 3604251,
  "districtName": "LEBAK WANGI",
  "name": "KAMARUTON",
  "postalCode": "42184"
 },
 {
  "id": 3604251004,
  "districtId": 3604251,
  "districtName": "LEBAK WANGI",
  "name": "PURWADADI",
  "postalCode": "46385"
 },
 {
  "id": 3604251005,
  "districtId": 3604251,
  "districtName": "LEBAK WANGI",
  "name": "LEBAKWANGI",
  "postalCode": "40379"
 },
 {
  "id": 3604251006,
  "districtId": 3604251,
  "districtName": "LEBAK WANGI",
  "name": "TIREM",
  "postalCode": "58153"
 },
 {
  "id": 3604251007,
  "districtId": 3604251,
  "districtName": "LEBAK WANGI",
  "name": "LEBAK KEPUH",
  "postalCode": "42183"
 },
 {
  "id": 3604251008,
  "districtId": 3604251,
  "districtName": "LEBAK WANGI",
  "name": "KENCANA HARAPAN",
  "postalCode": "42183"
 },
 {
  "id": 3604251009,
  "districtId": 3604251,
  "districtName": "LEBAK WANGI",
  "name": "BOLANG",
  "postalCode": "41357"
 },
 {
  "id": 3604251010,
  "districtId": 3604251,
  "districtName": "LEBAK WANGI",
  "name": "PEGANDIKAN",
  "postalCode": ""
 }
]