[
 {
  "id": 3604090001,
  "districtId": 3604090,
  "districtName": "PAMARAYAN",
  "name": "WIRANA",
  "postalCode": "42176"
 },
 {
  "id": 3604090002,
  "districtId": 3604090,
  "districtName": "PAMARAYAN",
  "name": "SANGIANG",
  "postalCode": "45468"
 },
 {
  "id": 3604090003,
  "districtId": 3604090,
  "districtName": "PAMARAYAN",
  "name": "DAMPING",
  "postalCode": "42176"
 },
 {
  "id": 3604090004,
  "districtId": 3604090,
  "districtName": "PAMARAYAN",
  "name": "KEBON CAU",
  "postalCode": "45383"
 },
 {
  "id": 3604090005,
  "districtId": 3604090,
  "districtName": "PAMARAYAN",
  "name": "PUDAR",
  "postalCode": "42176"
 },
 {
  "id": 3604090006,
  "districtId": 3604090,
  "districtName": "PAMARAYAN",
  "name": "BINONG",
  "postalCode": "40275"
 },
 {
  "id": 3604090007,
  "districtId": 3604090,
  "districtName": "PAMARAYAN",
  "name": "PAMARAYAN",
  "postalCode": "42263"
 },
 {
  "id": 3604090008,
  "districtId": 3604090,
  "districtName": "PAMARAYAN",
  "name": "KAMPUNG BARU",
  "postalCode": "24652"
 },
 {
  "id": 3604090010,
  "districtId": 3604090,
  "districtName": "PAMARAYAN",
  "name": "PASIRLIMUS",
  "postalCode": "42176"
 },
 {
  "id": 3604090011,
  "districtId": 3604090,
  "districtName": "PAMARAYAN",
  "name": "PASIR KEMBANG",
  "postalCode": "42381"
 }
]