[
 {
  "id": 3671021001,
  "districtId": 3671021,
  "districtName": "PINANG",
  "name": "PANUNGGANGAN UTARA",
  "postalCode": "15143"
 },
 {
  "id": 3671021002,
  "districtId": 3671021,
  "districtName": "PINANG",
  "name": "PANUNGGANGAN",
  "postalCode": "15143"
 },
 {
  "id": 3671021003,
  "districtId": 3671021,
  "districtName": "PINANG",
  "name": "PANUNGGANGAN TIMUR",
  "postalCode": "15143"
 },
 {
  "id": 3671021004,
  "districtId": 3671021,
  "districtName": "PINANG",
  "name": "KUNCIRAN",
  "postalCode": "15144"
 },
 {
  "id": 3671021005,
  "districtId": 3671021,
  "districtName": "PINANG",
  "name": "KUNCIRAN INDAH",
  "postalCode": "15144"
 },
 {
  "id": 3671021006,
  "districtId": 3671021,
  "districtName": "PINANG",
  "name": "SUDIMARA PINANG",
  "postalCode": "15145"
 },
 {
  "id": 3671021007,
  "districtId": 3671021,
  "districtName": "PINANG",
  "name": "PINANG",
  "postalCode": "23765"
 },
 {
  "id": 3671021008,
  "districtId": 3671021,
  "districtName": "PINANG",
  "name": "NEROKTOG",
  "postalCode": ""
 },
 {
  "id": 3671021009,
  "districtId": 3671021,
  "districtName": "PINANG",
  "name": "KUNCIRAN JAYA",
  "postalCode": "15144"
 },
 {
  "id": 3671021010,
  "districtId": 3671021,
  "districtName": "PINANG",
  "name": "PAKOJAN",
  "postalCode": "15142"
 },
 {
  "id": 3671021011,
  "districtId": 3671021,
  "districtName": "PINANG",
  "name": "CIPETE",
  "postalCode": "53162"
 }
]