[
 {
  "id": 3671031001,
  "districtId": 3671031,
  "districtName": "KARAWACI",
  "name": "KARAWACI BARU",
  "postalCode": "15116"
 },
 {
  "id": 3671031002,
  "districtId": 3671031,
  "districtName": "KARAWACI",
  "name": "NUSAJAYA",
  "postalCode": ""
 },
 {
  "id": 3671031003,
  "districtId": 3671031,
  "districtName": "KARAWACI",
  "name": "BOJONGJAYA",
  "postalCode": ""
 },
 {
  "id": 3671031004,
  "districtId": 3671031,
  "districtName": "KARAWACI",
  "name": "KARAWACI",
  "postalCode": "15115"
 },
 {
  "id": 3671031005,
  "districtId": 3671031,
  "districtName": "KARAWACI",
  "name": "CIMONE JAYA",
  "postalCode": "15116"
 },
 {
  "id": 3671031006,
  "districtId": 3671031,
  "districtName": "KARAWACI",
  "name": "CIMONE",
  "postalCode": "15114"
 },
 {
  "id": 3671031008,
  "districtId": 3671031,
  "districtName": "KARAWACI",
  "name": "MARGASARI",
  "postalCode": "34198"
 },
 {
  "id": 3671031009,
  "districtId": 3671031,
  "districtName": "KARAWACI",
  "name": "PABUARAN",
  "postalCode": "16921"
 },
 {
  "id": 3671031010,
  "districtId": 3671031,
  "districtName": "KARAWACI",
  "name": "SUKAJADI",
  "postalCode": "24472"
 },
 {
  "id": 3671031012,
  "districtId": 3671031,
  "districtName": "KARAWACI",
  "name": "KOANGJAYA",
  "postalCode": ""
 },
 {
  "id": 3671031013,
  "districtId": 3671031,
  "districtName": "KARAWACI",
  "name": "PASARBARU",
  "postalCode": ""
 },
 {
  "id": 3671031014,
  "districtId": 3671031,
  "districtName": "KARAWACI",
  "name": "SUMUR PACING",
  "postalCode": ""
 },
 {
  "id": 3671031015,
  "districtId": 3671031,
  "districtName": "KARAWACI",
  "name": "PABUARAN TUMPENG",
  "postalCode": "15112"
 },
 {
  "id": 3671031016,
  "districtId": 3671031,
  "districtName": "KARAWACI",
  "name": "NAMBOJAYA",
  "postalCode": ""
 }
]