[
 {
  "id": 3671030004,
  "districtId": 3671030,
  "districtName": "TANGERANG",
  "name": "CIKOKOL",
  "postalCode": "15117"
 },
 {
  "id": 3671030005,
  "districtId": 3671030,
  "districtName": "TANGERANG",
  "name": "KELAPA INDAH",
  "postalCode": "15117"
 },
 {
  "id": 3671030006,
  "districtId": 3671030,
  "districtName": "TANGERANG",
  "name": "BABAKAN",
  "postalCode": "35675"
 },
 {
  "id": 3671030014,
  "districtId": 3671030,
  "districtName": "TANGERANG",
  "name": "SUKASARI",
  "postalCode": "20986"
 },
 {
  "id": 3671030015,
  "districtId": 3671030,
  "districtName": "TANGERANG",
  "name": "BUARAN INDAH",
  "postalCode": "15119"
 },
 {
  "id": 3671030016,
  "districtId": 3671030,
  "districtName": "TANGERANG",
  "name": "TANAH TINGGI",
  "postalCode": "21256"
 },
 {
  "id": 3671030017,
  "districtId": 3671030,
  "districtName": "TANGERANG",
  "name": "SUKAASIH",
  "postalCode": "46196"
 },
 {
  "id": 3671030018,
  "districtId": 3671030,
  "districtName": "TANGERANG",
  "name": "SUKARASA",
  "postalCode": "45562"
 }
]