[
 {
  "id": 3673020001,
  "districtId": 3673020,
  "districtName": "WALANTAKA",
  "name": "NYAPAH",
  "postalCode": "42183"
 },
 {
  "id": 3673020002,
  "districtId": 3673020,
  "districtName": "WALANTAKA",
  "name": "LEBAKWANGI",
  "postalCode": "40379"
 },
 {
  "id": 3673020003,
  "districtId": 3673020,
  "districtName": "WALANTAKA",
  "name": "CIGOONG",
  "postalCode": "42183"
 },
 {
  "id": 3673020004,
  "districtId": 3673020,
  "districtName": "WALANTAKA",
  "name": "TEGALSARI",
  "postalCode": "35372"
 },
 {
  "id": 3673020005,
  "districtId": 3673020,
  "districtName": "WALANTAKA",
  "name": "PASULUHAN",
  "postalCode": "42183"
 },
 {
  "id": 3673020006,
  "districtId": 3673020,
  "districtName": "WALANTAKA",
  "name": "PABUARAN",
  "postalCode": "16921"
 },
 {
  "id": 3673020007,
  "districtId": 3673020,
  "districtName": "WALANTAKA",
  "name": "WALANTAKA",
  "postalCode": "42183"
 },
 {
  "id": 3673020008,
  "districtId": 3673020,
  "districtName": "WALANTAKA",
  "name": "PENGAMPELAN",
  "postalCode": "42183"
 },
 {
  "id": 3673020009,
  "districtId": 3673020,
  "districtName": "WALANTAKA",
  "name": "PIPITAN",
  "postalCode": "42183"
 },
 {
  "id": 3673020010,
  "districtId": 3673020,
  "districtName": "WALANTAKA",
  "name": "KIARA",
  "postalCode": "41384"
 },
 {
  "id": 3673020011,
  "districtId": 3673020,
  "districtName": "WALANTAKA",
  "name": "PAGERAGUNG",
  "postalCode": "42183"
 },
 {
  "id": 3673020012,
  "districtId": 3673020,
  "districtName": "WALANTAKA",
  "name": "KALODRAN",
  "postalCode": ""
 },
 {
  "id": 3673020014,
  "districtId": 3673020,
  "districtName": "WALANTAKA",
  "name": "TERITIH",
  "postalCode": "42183"
 }
]