[
 {
  "id": 3673060001,
  "districtId": 3673060,
  "districtName": "KASEMEN",
  "name": "KASEMEN",
  "postalCode": "42191"
 },
 {
  "id": 3673060002,
  "districtId": 3673060,
  "districtName": "KASEMEN",
  "name": "WARUNG JAUD",
  "postalCode": "42191"
 },
 {
  "id": 3673060003,
  "districtId": 3673060,
  "districtName": "KASEMEN",
  "name": "MESJID PRIYAYI",
  "postalCode": "42191"
 },
 {
  "id": 3673060006,
  "districtId": 3673060,
  "districtName": "KASEMEN",
  "name": "SAWAH LUHUR",
  "postalCode": "42191"
 },
 {
  "id": 3673060007,
  "districtId": 3673060,
  "districtName": "KASEMEN",
  "name": "KILASAH",
  "postalCode": "42191"
 },
 {
  "id": 3673060008,
  "districtId": 3673060,
  "districtName": "KASEMEN",
  "name": "MARGALUYU",
  "postalCode": "43263"
 },
 {
  "id": 3673060009,
  "districtId": 3673060,
  "districtName": "KASEMEN",
  "name": "KASUNYATAN",
  "postalCode": "42191"
 },
 {
  "id": 3673060010,
  "districtId": 3673060,
  "districtName": "KASEMEN",
  "name": "BANTEN",
  "postalCode": "42191"
 }
]