[
 {
  "id": 5101030001,
  "districtId": 5101030,
  "districtName": "MENDOYO",
  "name": "MENDOYO DAUH TUKAD",
  "postalCode": "82261"
 },
 {
  "id": 5101030002,
  "districtId": 5101030,
  "districtName": "MENDOYO",
  "name": "MENDOYO DANGIN TUKAD",
  "postalCode": "82261"
 },
 {
  "id": 5101030003,
  "districtId": 5101030,
  "districtName": "MENDOYO",
  "name": "POHSANTEN",
  "postalCode": "82261"
 },
 {
  "id": 5101030005,
  "districtId": 5101030,
  "districtName": "MENDOYO",
  "name": "DELOD BERAWAH",
  "postalCode": "82261"
 },
 {
  "id": 5101030006,
  "districtId": 5101030,
  "districtName": "MENDOYO",
  "name": "TEGAL CANGKRING",
  "postalCode": "82261"
 },
 {
  "id": 5101030007,
  "districtId": 5101030,
  "districtName": "MENDOYO",
  "name": "PENYARINGAN",
  "postalCode": "82261"
 },
 {
  "id": 5101030008,
  "districtId": 5101030,
  "districtName": "MENDOYO",
  "name": "YEH EMBANG KAUH",
  "postalCode": "82261"
 },
 {
  "id": 5101030009,
  "districtId": 5101030,
  "districtName": "MENDOYO",
  "name": "YEH EMBANG",
  "postalCode": "82261"
 },
 {
  "id": 5101030010,
  "districtId": 5101030,
  "districtName": "MENDOYO",
  "name": "YEH EMBANG KANGIN",
  "postalCode": "82261"
 }
]