[
 {
  "id": 5102020001,
  "districtId": 5102020,
  "districtName": "KERAMBITAN",
  "name": "TIBUBIYU",
  "postalCode": ""
 },
 {
  "id": 5102020002,
  "districtId": 5102020,
  "districtName": "KERAMBITAN",
  "name": "KELATING",
  "postalCode": "82161"
 },
 {
  "id": 5102020003,
  "districtId": 5102020,
  "districtName": "KERAMBITAN",
  "name": "PENARUKAN",
  "postalCode": "52194"
 },
 {
  "id": 5102020004,
  "districtId": 5102020,
  "districtName": "KERAMBITAN",
  "name": "BELUMBANG",
  "postalCode": "82161"
 },
 {
  "id": 5102020005,
  "districtId": 5102020,
  "districtName": "KERAMBITAN",
  "name": "TISTA",
  "postalCode": "80852"
 },
 {
  "id": 5102020006,
  "districtId": 5102020,
  "districtName": "KERAMBITAN",
  "name": "KERAMBITAN",
  "postalCode": "82161"
 },
 {
  "id": 5102020007,
  "districtId": 5102020,
  "districtName": "KERAMBITAN",
  "name": "PANGKUNG KARUNG",
  "postalCode": "82161"
 },
 {
  "id": 5102020009,
  "districtId": 5102020,
  "districtName": "KERAMBITAN",
  "name": "BATURITI",
  "postalCode": "82191"
 },
 {
  "id": 5102020010,
  "districtId": 5102020,
  "districtName": "KERAMBITAN",
  "name": "MELILING",
  "postalCode": "82161"
 },
 {
  "id": 5102020012,
  "districtId": 5102020,
  "districtName": "KERAMBITAN",
  "name": "SAMSAM",
  "postalCode": "82161"
 },
 {
  "id": 5102020013,
  "districtId": 5102020,
  "districtName": "KERAMBITAN",
  "name": "BATUAJI",
  "postalCode": "64176"
 },
 {
  "id": 5102020014,
  "districtId": 5102020,
  "districtName": "KERAMBITAN",
  "name": "KESIUT",
  "postalCode": "82161"
 },
 {
  "id": 5102020015,
  "districtId": 5102020,
  "districtName": "KERAMBITAN",
  "name": "TIMPAG",
  "postalCode": "82161"
 }
]