[
 {
  "id": 5102060001,
  "districtId": 5102060,
  "districtName": "BATURITI",
  "name": "PEREAN",
  "postalCode": "82191"
 },
 {
  "id": 5102060002,
  "districtId": 5102060,
  "districtName": "BATURITI",
  "name": "PEREAN TENGAH",
  "postalCode": "82191"
 },
 {
  "id": 5102060003,
  "districtId": 5102060,
  "districtName": "BATURITI",
  "name": "PEREAN KANGIN",
  "postalCode": "82191"
 },
 {
  "id": 5102060005,
  "districtId": 5102060,
  "districtName": "BATURITI",
  "name": "MEKARSARI",
  "postalCode": "37482"
 },
 {
  "id": 5102060006,
  "districtId": 5102060,
  "districtName": "BATURITI",
  "name": "APUAN",
  "postalCode": "82191"
 },
 {
  "id": 5102060007,
  "districtId": 5102060,
  "districtName": "BATURITI",
  "name": "ANGSERI",
  "postalCode": "82191"
 },
 {
  "id": 5102060008,
  "districtId": 5102060,
  "districtName": "BATURITI",
  "name": "BANGLI",
  "postalCode": "82191"
 },
 {
  "id": 5102060009,
  "districtId": 5102060,
  "districtName": "BATURITI",
  "name": "BATURITI",
  "postalCode": "82191"
 },
 {
  "id": 5102060010,
  "districtId": 5102060,
  "districtName": "BATURITI",
  "name": "BATUNYA",
  "postalCode": "82191"
 },
 {
  "id": 5102060011,
  "districtId": 5102060,
  "districtName": "BATURITI",
  "name": "ANTAPAN",
  "postalCode": "82191"
 },
 {
  "id": 5102060012,
  "districtId": 5102060,
  "districtName": "BATURITI",
  "name": "CANDIKUNING",
  "postalCode": "82191"
 }
]