[
 {
  "id": 5102011001,
  "districtId": 5102011,
  "districtName": "SELEMADEG TIMUR",
  "name": "TEGAL MENGKEB",
  "postalCode": "82162"
 },
 {
  "id": 5102011002,
  "districtId": 5102011,
  "districtName": "SELEMADEG TIMUR",
  "name": "BERABAN",
  "postalCode": "82121"
 },
 {
  "id": 5102011003,
  "districtId": 5102011,
  "districtName": "SELEMADEG TIMUR",
  "name": "TANGGUNTITI",
  "postalCode": "82162"
 },
 {
  "id": 5102011004,
  "districtId": 5102011,
  "districtName": "SELEMADEG TIMUR",
  "name": "MAMBANG",
  "postalCode": "31663"
 },
 {
  "id": 5102011005,
  "districtId": 5102011,
  "districtName": "SELEMADEG TIMUR",
  "name": "BANTAS",
  "postalCode": "82162"
 },
 {
  "id": 5102011006,
  "districtId": 5102011,
  "districtName": "SELEMADEG TIMUR",
  "name": "MEGATI",
  "postalCode": "82162"
 },
 {
  "id": 5102011007,
  "districtId": 5102011,
  "districtName": "SELEMADEG TIMUR",
  "name": "GADUNGAN",
  "postalCode": "57461"
 },
 {
  "id": 5102011008,
  "districtId": 5102011,
  "districtName": "SELEMADEG TIMUR",
  "name": "GUNUNG SALAK",
  "postalCode": "82162"
 },
 {
  "id": 5102011009,
  "districtId": 5102011,
  "districtName": "SELEMADEG TIMUR",
  "name": "DALANG",
  "postalCode": "82162"
 },
 {
  "id": 5102011010,
  "districtId": 5102011,
  "districtName": "SELEMADEG TIMUR",
  "name": "GADUNG SARI",
  "postalCode": "82162"
 }
]