[
 {
  "id": 5106040001,
  "districtId": 5106040,
  "districtName": "KINTAMANI",
  "name": "MENGANI",
  "postalCode": "80652"
 },
 {
  "id": 5106040002,
  "districtId": 5106040,
  "districtName": "KINTAMANI",
  "name": "BINYAN",
  "postalCode": "80652"
 },
 {
  "id": 5106040003,
  "districtId": 5106040,
  "districtName": "KINTAMANI",
  "name": "ULIAN",
  "postalCode": "80652"
 },
 {
  "id": 5106040004,
  "districtId": 5106040,
  "districtName": "KINTAMANI",
  "name": "BUNUTIN",
  "postalCode": "80614"
 },
 {
  "id": 5106040005,
  "districtId": 5106040,
  "districtName": "KINTAMANI",
  "name": "LANGGAHAN",
  "postalCode": "80652"
 },
 {
  "id": 5106040006,
  "districtId": 5106040,
  "districtName": "KINTAMANI",
  "name": "LEMBEAN",
  "postalCode": "80652"
 },
 {
  "id": 5106040007,
  "districtId": 5106040,
  "districtName": "KINTAMANI",
  "name": "BAYUNGCERIK",
  "postalCode": "80652"
 },
 {
  "id": 5106040008,
  "districtId": 5106040,
  "districtName": "KINTAMANI",
  "name": "MANGGUH",
  "postalCode": "80652"
 },
 {
  "id": 5106040009,
  "districtId": 5106040,
  "districtName": "KINTAMANI",
  "name": "BELANCAN",
  "postalCode": "80652"
 },
 {
  "id": 5106040010,
  "districtId": 5106040,
  "districtName": "KINTAMANI",
  "name": "KATUNG",
  "postalCode": "80652"
 },
 {
  "id": 5106040011,
  "districtId": 5106040,
  "districtName": "KINTAMANI",
  "name": "BANUA",
  "postalCode": "80652"
 },
 {
  "id": 5106040012,
  "districtId": 5106040,
  "districtName": "KINTAMANI",
  "name": "ABUAN",
  "postalCode": "80652"
 },
 {
  "id": 5106040013,
  "districtId": 5106040,
  "districtName": "KINTAMANI",
  "name": "BONYOH",
  "postalCode": "80652"
 },
 {
  "id": 5106040014,
  "districtId": 5106040,
  "districtName": "KINTAMANI",
  "name": "SEKAAN",
  "postalCode": "80652"
 },
 {
  "id": 5106040015,
  "districtId": 5106040,
  "districtName": "KINTAMANI",
  "name": "BAYUNG GEDE",
  "postalCode": ""
 },
 {
  "id": 5106040016,
  "districtId": 5106040,
  "districtName": "KINTAMANI",
  "name": "SEKARDADI",
  "postalCode": "62352"
 },
 {
  "id": 5106040017,
  "districtId": 5106040,
  "districtName": "KINTAMANI",
  "name": "KEDISAN",
  "postalCode": "80652"
 },
 {
  "id": 5106040018,
  "districtId": 5106040,
  "districtName": "KINTAMANI",
  "name": "BUAHAN",
  "postalCode": "80652"
 },
 {
  "id": 5106040020,
  "districtId": 5106040,
  "districtName": "KINTAMANI",
  "name": "ABANG BATU DINDING",
  "postalCode": ""
 },
 {
  "id": 5106040021,
  "districtId": 5106040,
  "districtName": "KINTAMANI",
  "name": "ABANG SONGAN",
  "postalCode": "80652"
 },
 {
  "id": 5106040022,
  "districtId": 5106040,
  "districtName": "KINTAMANI",
  "name": "TERUNYAN",
  "postalCode": "80652"
 },
 {
  "id": 5106040023,
  "districtId": 5106040,
  "districtName": "KINTAMANI",
  "name": "SONGAN B",
  "postalCode": "80652"
 },
 {
  "id": 5106040024,
  "districtId": 5106040,
  "districtName": "KINTAMANI",
  "name": "SONGAN A",
  "postalCode": "80652"
 },
 {
  "id": 5106040025,
  "districtId": 5106040,
  "districtName": "KINTAMANI",
  "name": "BATUR SELATAN",
  "postalCode": "80652"
 },
 {
  "id": 5106040026,
  "districtId": 5106040,
  "districtName": "KINTAMANI",
  "name": "BATUR TENGAH",
  "postalCode": "80652"
 },
 {
  "id": 5106040027,
  "districtId": 5106040,
  "districtName": "KINTAMANI",
  "name": "BATUR UTARA",
  "postalCode": "80652"
 },
 {
  "id": 5106040028,
  "districtId": 5106040,
  "districtName": "KINTAMANI",
  "name": "KINTAMANI",
  "postalCode": "80652"
 },
 {
  "id": 5106040029,
  "districtId": 5106040,
  "districtName": "KINTAMANI",
  "name": "SERAHI",
  "postalCode": "80652"
 },
 {
  "id": 5106040030,
  "districtId": 5106040,
  "districtName": "KINTAMANI",
  "name": "MANIKLIYU",
  "postalCode": "80652"
 },
 {
  "id": 5106040031,
  "districtId": 5106040,
  "districtName": "KINTAMANI",
  "name": "AWAN",
  "postalCode": "80652"
 },
 {
  "id": 5106040032,
  "districtId": 5106040,
  "districtName": "KINTAMANI",
  "name": "BELANTIH",
  "postalCode": "80652"
 },
 {
  "id": 5106040033,
  "districtId": 5106040,
  "districtName": "KINTAMANI",
  "name": "GUNUNGBAU",
  "postalCode": "80652"
 },
 {
  "id": 5106040034,
  "districtId": 5106040,
  "districtName": "KINTAMANI",
  "name": "BELANGA",
  "postalCode": "80652"
 },
 {
  "id": 5106040035,
  "districtId": 5106040,
  "districtName": "KINTAMANI",
  "name": "BATUKAANG",
  "postalCode": "80652"
 },
 {
  "id": 5106040036,
  "districtId": 5106040,
  "districtName": "KINTAMANI",
  "name": "CATUR",
  "postalCode": "57376"
 },
 {
  "id": 5106040037,
  "districtId": 5106040,
  "districtName": "KINTAMANI",
  "name": "PENGEJARAN",
  "postalCode": "80652"
 },
 {
  "id": 5106040038,
  "districtId": 5106040,
  "districtName": "KINTAMANI",
  "name": "SATRA",
  "postalCode": "80652"
 },
 {
  "id": 5106040040,
  "districtId": 5106040,
  "districtName": "KINTAMANI",
  "name": "DAUSA",
  "postalCode": "80652"
 },
 {
  "id": 5106040041,
  "districtId": 5106040,
  "districtName": "KINTAMANI",
  "name": "DAUP",
  "postalCode": "80652"
 },
 {
  "id": 5106040042,
  "districtId": 5106040,
  "districtName": "KINTAMANI",
  "name": "BANTANG",
  "postalCode": "80652"
 },
 {
  "id": 5106040044,
  "districtId": 5106040,
  "districtName": "KINTAMANI",
  "name": "SUKAWANA",
  "postalCode": "45457"
 },
 {
  "id": 5106040045,
  "districtId": 5106040,
  "districtName": "KINTAMANI",
  "name": "SUBAYA",
  "postalCode": "80652"
 },
 {
  "id": 5106040046,
  "districtId": 5106040,
  "districtName": "KINTAMANI",
  "name": "SIYAKIN",
  "postalCode": "80652"
 },
 {
  "id": 5106040047,
  "districtId": 5106040,
  "districtName": "KINTAMANI",
  "name": "PINGGAN",
  "postalCode": "59255"
 },
 {
  "id": 5106040048,
  "districtId": 5106040,
  "districtName": "KINTAMANI",
  "name": "BELANDINGAN",
  "postalCode": "80652"
 }
]