[
 {
  "id": 5106020001,
  "districtId": 5106020,
  "districtName": "BANGLI",
  "name": "BUNUTIN",
  "postalCode": "80614"
 },
 {
  "id": 5106020002,
  "districtId": 5106020,
  "districtName": "BANGLI",
  "name": "TAMAN BALI",
  "postalCode": "80614"
 },
 {
  "id": 5106020003,
  "districtId": 5106020,
  "districtName": "BANGLI",
  "name": "BEBALANG",
  "postalCode": "80614"
 },
 {
  "id": 5106020004,
  "districtId": 5106020,
  "districtName": "BANGLI",
  "name": "KAWAN",
  "postalCode": "80613"
 },
 {
  "id": 5106020005,
  "districtId": 5106020,
  "districtName": "BANGLI",
  "name": "CEMPAGA",
  "postalCode": "80612"
 },
 {
  "id": 5106020007,
  "districtId": 5106020,
  "districtName": "BANGLI",
  "name": "KAYUBIHI",
  "postalCode": "80614"
 },
 {
  "id": 5106020008,
  "districtId": 5106020,
  "districtName": "BANGLI",
  "name": "PENGOTAN",
  "postalCode": "80614"
 },
 {
  "id": 5106020009,
  "districtId": 5106020,
  "districtName": "BANGLI",
  "name": "LANDIH",
  "postalCode": "80611"
 }
]