[
 {
  "id": 5107030001,
  "districtId": 5107030,
  "districtName": "MANGGIS",
  "name": "ANTIGA",
  "postalCode": "80871"
 },
 {
  "id": 5107030002,
  "districtId": 5107030,
  "districtName": "MANGGIS",
  "name": "GEGELANG",
  "postalCode": "80871"
 },
 {
  "id": 5107030003,
  "districtId": 5107030,
  "districtName": "MANGGIS",
  "name": "PADANGBAI",
  "postalCode": "80871"
 },
 {
  "id": 5107030004,
  "districtId": 5107030,
  "districtName": "MANGGIS",
  "name": "ULAKAN",
  "postalCode": "25572"
 },
 {
  "id": 5107030005,
  "districtId": 5107030,
  "districtName": "MANGGIS",
  "name": "MANGGIS",
  "postalCode": "22742"
 },
 {
  "id": 5107030007,
  "districtId": 5107030,
  "districtName": "MANGGIS",
  "name": "NGIS",
  "postalCode": "80871"
 },
 {
  "id": 5107030009,
  "districtId": 5107030,
  "districtName": "MANGGIS",
  "name": "TENGANAN",
  "postalCode": "80871"
 },
 {
  "id": 5107030010,
  "districtId": 5107030,
  "districtName": "MANGGIS",
  "name": "ANTIGA KELOD",
  "postalCode": "80871"
 },
 {
  "id": 5107030011,
  "districtId": 5107030,
  "districtName": "MANGGIS",
  "name": "SENGKIDU",
  "postalCode": "80871"
 },
 {
  "id": 5107030012,
  "districtId": 5107030,
  "districtName": "MANGGIS",
  "name": "PESEDAHAN",
  "postalCode": "80871"
 }
]