[
 {
  "id": 5108090001,
  "districtId": 5108090,
  "districtName": "TEJAKULA",
  "name": "SEMBIRAN",
  "postalCode": "81173"
 },
 {
  "id": 5108090002,
  "districtId": 5108090,
  "districtName": "TEJAKULA",
  "name": "PACUNG",
  "postalCode": "81173"
 },
 {
  "id": 5108090003,
  "districtId": 5108090,
  "districtName": "TEJAKULA",
  "name": "JULAH",
  "postalCode": "81173"
 },
 {
  "id": 5108090004,
  "districtId": 5108090,
  "districtName": "TEJAKULA",
  "name": "BONDALEM",
  "postalCode": "81173"
 },
 {
  "id": 5108090005,
  "districtId": 5108090,
  "districtName": "TEJAKULA",
  "name": "MADENAN",
  "postalCode": "81173"
 },
 {
  "id": 5108090006,
  "districtId": 5108090,
  "districtName": "TEJAKULA",
  "name": "TEJAKULA",
  "postalCode": "81173"
 },
 {
  "id": 5108090008,
  "districtId": 5108090,
  "districtName": "TEJAKULA",
  "name": "PENUKTUKAN",
  "postalCode": "81173"
 },
 {
  "id": 5108090009,
  "districtId": 5108090,
  "districtName": "TEJAKULA",
  "name": "SAMBIRENTENG",
  "postalCode": "81173"
 },
 {
  "id": 5108090010,
  "districtId": 5108090,
  "districtName": "TEJAKULA",
  "name": "TEMBOK",
  "postalCode": "51271"
 }
]