[
 {
  "id": 5201040005,
  "districtId": 5201040,
  "districtName": "KEDIRI",
  "name": "JAGARAGA INDAH",
  "postalCode": "83362"
 },
 {
  "id": 5201040006,
  "districtId": 5201040,
  "districtName": "KEDIRI",
  "name": "MONTONG ARE",
  "postalCode": "83362"
 },
 {
  "id": 5201040007,
  "districtId": 5201040,
  "districtName": "KEDIRI",
  "name": "KEDIRI",
  "postalCode": "35372"
 },
 {
  "id": 5201040008,
  "districtId": 5201040,
  "districtName": "KEDIRI",
  "name": "GELOGOR",
  "postalCode": "83362"
 },
 {
  "id": 5201040009,
  "districtId": 5201040,
  "districtName": "KEDIRI",
  "name": "RUMAK",
  "postalCode": "83362"
 },
 {
  "id": 5201040010,
  "districtId": 5201040,
  "districtName": "KEDIRI",
  "name": "BANYUMULEK",
  "postalCode": "83362"
 },
 {
  "id": 5201040011,
  "districtId": 5201040,
  "districtName": "KEDIRI",
  "name": "OMBE BARU",
  "postalCode": "83362"
 },
 {
  "id": 5201040012,
  "districtId": 5201040,
  "districtName": "KEDIRI",
  "name": "DASAN BARU",
  "postalCode": "83362"
 },
 {
  "id": 5201040013,
  "districtId": 5201040,
  "districtName": "KEDIRI",
  "name": "KEDIRI SELATAN",
  "postalCode": "83362"
 }
]