[
 {
  "id": 5201030001,
  "districtId": 5201030,
  "districtName": "LABU API",
  "name": "KURANJI",
  "postalCode": "25157"
 },
 {
  "id": 5201030002,
  "districtId": 5201030,
  "districtName": "LABU API",
  "name": "PERAMPUAN",
  "postalCode": "83361"
 },
 {
  "id": 5201030003,
  "districtId": 5201030,
  "districtName": "LABU API",
  "name": "KARANG BONGKOT",
  "postalCode": "83361"
 },
 {
  "id": 5201030004,
  "districtId": 5201030,
  "districtName": "LABU API",
  "name": "TERONG TAWAH",
  "postalCode": "83361"
 },
 {
  "id": 5201030005,
  "districtId": 5201030,
  "districtName": "LABU API",
  "name": "BAJUR",
  "postalCode": "69353"
 },
 {
  "id": 5201030006,
  "districtId": 5201030,
  "districtName": "LABU API",
  "name": "TELAGA WARU",
  "postalCode": "83654"
 },
 {
  "id": 5201030007,
  "districtId": 5201030,
  "districtName": "LABU API",
  "name": "BAGIK POLAK",
  "postalCode": "83361"
 },
 {
  "id": 5201030010,
  "districtId": 5201030,
  "districtName": "LABU API",
  "name": "LABU API",
  "postalCode": ""
 },
 {
  "id": 5201030011,
  "districtId": 5201030,
  "districtName": "LABU API",
  "name": "KURANJI DALANG",
  "postalCode": "83361"
 },
 {
  "id": 5201030012,
  "districtId": 5201030,
  "districtName": "LABU API",
  "name": "BAGIK POLAK BARAT",
  "postalCode": "83361"
 }
]