[
 {
  "id": 5201060001,
  "districtId": 5201060,
  "districtName": "GUNUNG SARI",
  "name": "JATI SELA",
  "postalCode": ""
 },
 {
  "id": 5201060002,
  "districtId": 5201060,
  "districtName": "GUNUNG SARI",
  "name": "SESELA",
  "postalCode": "83351"
 },
 {
  "id": 5201060003,
  "districtId": 5201060,
  "districtName": "GUNUNG SARI",
  "name": "MIDANG",
  "postalCode": "83351"
 },
 {
  "id": 5201060004,
  "districtId": 5201060,
  "districtName": "GUNUNG SARI",
  "name": "KEKERI",
  "postalCode": "83351"
 },
 {
  "id": 5201060005,
  "districtId": 5201060,
  "districtName": "GUNUNG SARI",
  "name": "PENIMBUNG",
  "postalCode": "83351"
 },
 {
  "id": 5201060006,
  "districtId": 5201060,
  "districtName": "GUNUNG SARI",
  "name": "MAMBALAN",
  "postalCode": ""
 },
 {
  "id": 5201060007,
  "districtId": 5201060,
  "districtName": "GUNUNG SARI",
  "name": "DOPANG",
  "postalCode": "83351"
 },
 {
  "id": 5201060008,
  "districtId": 5201060,
  "districtName": "GUNUNG SARI",
  "name": "TAMAN SARI",
  "postalCode": "21264"
 },
 {
  "id": 5201060009,
  "districtId": 5201060,
  "districtName": "GUNUNG SARI",
  "name": "GUNUNG SARI",
  "postalCode": "28471"
 },
 {
  "id": 5201060014,
  "districtId": 5201060,
  "districtName": "GUNUNG SARI",
  "name": "KEKAIT",
  "postalCode": "83351"
 },
 {
  "id": 5201060015,
  "districtId": 5201060,
  "districtName": "GUNUNG SARI",
  "name": "MEKAR SARI",
  "postalCode": "21261"
 },
 {
  "id": 5201060016,
  "districtId": 5201060,
  "districtName": "GUNUNG SARI",
  "name": "GUNTUR MACAN",
  "postalCode": "83351"
 },
 {
  "id": 5201060017,
  "districtId": 5201060,
  "districtName": "GUNUNG SARI",
  "name": "GELANGSAR",
  "postalCode": "83351"
 },
 {
  "id": 5201060018,
  "districtId": 5201060,
  "districtName": "GUNUNG SARI",
  "name": "RANJOK",
  "postalCode": "83351"
 },
 {
  "id": 5201060019,
  "districtId": 5201060,
  "districtName": "GUNUNG SARI",
  "name": "BUKIT TINGGI",
  "postalCode": "22756"
 },
 {
  "id": 5201060020,
  "districtId": 5201060,
  "districtName": "GUNUNG SARI",
  "name": "JERINGO",
  "postalCode": ""
 }
]