[
 {
  "id": 5202070001,
  "districtId": 5202070,
  "districtName": "JONGGAT",
  "name": "LABULIA",
  "postalCode": "83561"
 },
 {
  "id": 5202070002,
  "districtId": 5202070,
  "districtName": "JONGGAT",
  "name": "SUKARARA",
  "postalCode": "83561"
 },
 {
  "id": 5202070005,
  "districtId": 5202070,
  "districtName": "JONGGAT",
  "name": "BAREJULAT",
  "postalCode": "83561"
 },
 {
  "id": 5202070006,
  "districtId": 5202070,
  "districtName": "JONGGAT",
  "name": "BUNKATE",
  "postalCode": "83561"
 },
 {
  "id": 5202070007,
  "districtId": 5202070,
  "districtName": "JONGGAT",
  "name": "NYEROT",
  "postalCode": "83561"
 },
 {
  "id": 5202070008,
  "districtId": 5202070,
  "districtName": "JONGGAT",
  "name": "BATUTULIS",
  "postalCode": "16133"
 },
 {
  "id": 5202070009,
  "districtId": 5202070,
  "districtName": "JONGGAT",
  "name": "JELANTIK",
  "postalCode": "83561"
 },
 {
  "id": 5202070011,
  "districtId": 5202070,
  "districtName": "JONGGAT",
  "name": "BONJERUK",
  "postalCode": "83561"
 },
 {
  "id": 5202070012,
  "districtId": 5202070,
  "districtName": "JONGGAT",
  "name": "PERINA",
  "postalCode": "83561"
 }
]