[
 {
  "id": 5202061001,
  "districtId": 5202061,
  "districtName": "PRAYA TENGAH",
  "name": "JONTLAK",
  "postalCode": "83513"
 },
 {
  "id": 5202061002,
  "districtId": 5202061,
  "districtName": "PRAYA TENGAH",
  "name": "GERANTUNG",
  "postalCode": "83523"
 },
 {
  "id": 5202061003,
  "districtId": 5202061,
  "districtName": "PRAYA TENGAH",
  "name": "SASAKE",
  "postalCode": "83582"
 },
 {
  "id": 5202061004,
  "districtId": 5202061,
  "districtName": "PRAYA TENGAH",
  "name": "LAJUT",
  "postalCode": "83582"
 },
 {
  "id": 5202061005,
  "districtId": 5202061,
  "districtName": "PRAYA TENGAH",
  "name": "BATUNYALA",
  "postalCode": "83582"
 },
 {
  "id": 5202061006,
  "districtId": 5202061,
  "districtName": "PRAYA TENGAH",
  "name": "PEJANGGIK",
  "postalCode": "83127"
 },
 {
  "id": 5202061008,
  "districtId": 5202061,
  "districtName": "PRAYA TENGAH",
  "name": "BERAIM",
  "postalCode": "83582"
 },
 {
  "id": 5202061009,
  "districtId": 5202061,
  "districtName": "PRAYA TENGAH",
  "name": "PENGADANG",
  "postalCode": "83582"
 },
 {
  "id": 5202061010,
  "districtId": 5202061,
  "districtName": "PRAYA TENGAH",
  "name": "JURANG JALER",
  "postalCode": "83582"
 },
 {
  "id": 5202061011,
  "districtId": 5202061,
  "districtName": "PRAYA TENGAH",
  "name": "DAKUNG",
  "postalCode": ""
 },
 {
  "id": 5202061012,
  "districtId": 5202061,
  "districtName": "PRAYA TENGAH",
  "name": "PRAI MEKE",
  "postalCode": ""
 }
]