[
 {
  "id": 5202040001,
  "districtId": 5202040,
  "districtName": "JANAPRIA",
  "name": "LOANG MAKA",
  "postalCode": ""
 },
 {
  "id": 5202040002,
  "districtId": 5202040,
  "districtName": "JANAPRIA",
  "name": "LANGKO",
  "postalCode": "83554"
 },
 {
  "id": 5202040003,
  "districtId": 5202040,
  "districtName": "JANAPRIA",
  "name": "SELEBUNG REMBIGA",
  "postalCode": "83554"
 },
 {
  "id": 5202040004,
  "districtId": 5202040,
  "districtName": "JANAPRIA",
  "name": "BAKAN",
  "postalCode": "83554"
 },
 {
  "id": 5202040005,
  "districtId": 5202040,
  "districtName": "JANAPRIA",
  "name": "DURIAN",
  "postalCode": "20621"
 },
 {
  "id": 5202040007,
  "districtId": 5202040,
  "districtName": "JANAPRIA",
  "name": "JANAPRIA",
  "postalCode": "83554"
 },
 {
  "id": 5202040008,
  "districtId": 5202040,
  "districtName": "JANAPRIA",
  "name": "SABA",
  "postalCode": "22753"
 },
 {
  "id": 5202040009,
  "districtId": 5202040,
  "districtName": "JANAPRIA",
  "name": "LEKOR",
  "postalCode": "83554"
 },
 {
  "id": 5202040010,
  "districtId": 5202040,
  "districtName": "JANAPRIA",
  "name": "KEREMBONG",
  "postalCode": "83554"
 },
 {
  "id": 5202040011,
  "districtId": 5202040,
  "districtName": "JANAPRIA",
  "name": "JANGO",
  "postalCode": "73671"
 },
 {
  "id": 5202040012,
  "districtId": 5202040,
  "districtName": "JANAPRIA",
  "name": "SETUTA",
  "postalCode": ""
 }
]