[
 {
  "id": 5203100001,
  "districtId": 5203100,
  "districtName": "SAMBELIA",
  "name": "SAMBELIA",
  "postalCode": "83656"
 },
 {
  "id": 5203100002,
  "districtId": 5203100,
  "districtName": "SAMBELIA",
  "name": "BELANTING",
  "postalCode": "83656"
 },
 {
  "id": 5203100003,
  "districtId": 5203100,
  "districtName": "SAMBELIA",
  "name": "OBEL OBEL",
  "postalCode": "83656"
 },
 {
  "id": 5203100004,
  "districtId": 5203100,
  "districtName": "SAMBELIA",
  "name": "SUGIAN",
  "postalCode": "83656"
 },
 {
  "id": 5203100005,
  "districtId": 5203100,
  "districtName": "SAMBELIA",
  "name": "LABUHAN PANDAN",
  "postalCode": "83656"
 },
 {
  "id": 5203100006,
  "districtId": 5203100,
  "districtName": "SAMBELIA",
  "name": "DARA KUNCI",
  "postalCode": ""
 },
 {
  "id": 5203100007,
  "districtId": 5203100,
  "districtName": "SAMBELIA",
  "name": "BAGIK MANIS",
  "postalCode": "83656"
 },
 {
  "id": 5203100008,
  "districtId": 5203100,
  "districtName": "SAMBELIA",
  "name": "DADAP",
  "postalCode": "45282"
 },
 {
  "id": 5203100009,
  "districtId": 5203100,
  "districtName": "SAMBELIA",
  "name": "MADAYIN",
  "postalCode": "83656"
 },
 {
  "id": 5203100010,
  "districtId": 5203100,
  "districtName": "SAMBELIA",
  "name": "SENANGGALIH",
  "postalCode": "83656"
 },
 {
  "id": 5203100011,
  "districtId": 5203100,
  "districtName": "SAMBELIA",
  "name": "PADAK GUAR",
  "postalCode": "83656"
 }
]