[
 {
  "id": 5203090001,
  "districtId": 5203090,
  "districtName": "AIKMEL",
  "name": "LENEK DAYA",
  "postalCode": "83653"
 },
 {
  "id": 5203090003,
  "districtId": 5203090,
  "districtName": "AIKMEL",
  "name": "LENEK LAUQ",
  "postalCode": "83653"
 },
 {
  "id": 5203090004,
  "districtId": 5203090,
  "districtName": "AIKMEL",
  "name": "KALIJAGA",
  "postalCode": "45144"
 },
 {
  "id": 5203090008,
  "districtId": 5203090,
  "districtName": "AIKMEL",
  "name": "KEMBANG KERANG",
  "postalCode": "83653"
 },
 {
  "id": 5203090009,
  "districtId": 5203090,
  "districtName": "AIKMEL",
  "name": "AIKMEL",
  "postalCode": "83653"
 },
 {
  "id": 5203090010,
  "districtId": 5203090,
  "districtName": "AIKMEL",
  "name": "AIKMEL UTARA",
  "postalCode": "83653"
 },
 {
  "id": 5203090011,
  "districtId": 5203090,
  "districtName": "AIKMEL",
  "name": "KALIJAGA SELATAN",
  "postalCode": "83653"
 },
 {
  "id": 5203090012,
  "districtId": 5203090,
  "districtName": "AIKMEL",
  "name": "KALIJAGA TIMUR",
  "postalCode": "83653"
 },
 {
  "id": 5203090013,
  "districtId": 5203090,
  "districtName": "AIKMEL",
  "name": "LENEK BARU",
  "postalCode": "83653"
 },
 {
  "id": 5203090014,
  "districtId": 5203090,
  "districtName": "AIKMEL",
  "name": "KEMBANG KERANG DAYA",
  "postalCode": "83653"
 },
 {
  "id": 5203090015,
  "districtId": 5203090,
  "districtName": "AIKMEL",
  "name": "AIKMEL BARAT",
  "postalCode": "83653"
 },
 {
  "id": 5203090016,
  "districtId": 5203090,
  "districtName": "AIKMEL",
  "name": "LENEK PESIRAMAN",
  "postalCode": "83653"
 },
 {
  "id": 5203090017,
  "districtId": 5203090,
  "districtName": "AIKMEL",
  "name": "TOYA",
  "postalCode": "83653"
 },
 {
  "id": 5203090018,
  "districtId": 5203090,
  "districtName": "AIKMEL",
  "name": "LENEK RAMBAN BIAK",
  "postalCode": "83653"
 },
 {
  "id": 5203090019,
  "districtId": 5203090,
  "districtName": "AIKMEL",
  "name": "LENEK KALI BAMBANG",
  "postalCode": "83653"
 },
 {
  "id": 5203090020,
  "districtId": 5203090,
  "districtName": "AIKMEL",
  "name": "KALIJAGA TENGAH",
  "postalCode": "83653"
 },
 {
  "id": 5203090021,
  "districtId": 5203090,
  "districtName": "AIKMEL",
  "name": "BAGIK NYAKA SANTRI",
  "postalCode": "83653"
 },
 {
  "id": 5203090022,
  "districtId": 5203090,
  "districtName": "AIKMEL",
  "name": "AIK PRAPA",
  "postalCode": "83653"
 },
 {
  "id": 5203090023,
  "districtId": 5203090,
  "districtName": "AIKMEL",
  "name": "SUKAREMA",
  "postalCode": "83653"
 },
 {
  "id": 5203090024,
  "districtId": 5203090,
  "districtName": "AIKMEL",
  "name": "KALIJAGA BARU",
  "postalCode": "83653"
 },
 {
  "id": 5203090026,
  "districtId": 5203090,
  "districtName": "AIKMEL",
  "name": "KEROYA",
  "postalCode": "37352"
 },
 {
  "id": 5203090027,
  "districtId": 5203090,
  "districtName": "AIKMEL",
  "name": "AIKMEL TIMUR",
  "postalCode": "83653"
 }
]