[
 {
  "id": 5205020001,
  "districtId": 5205020,
  "districtName": "DOMPU",
  "name": "MBAWI",
  "postalCode": "84219"
 },
 {
  "id": 5205020002,
  "districtId": 5205020,
  "districtName": "DOMPU",
  "name": "DOREBARA",
  "postalCode": "84219"
 },
 {
  "id": 5205020004,
  "districtId": 5205020,
  "districtName": "DOMPU",
  "name": "KANDAI SATU",
  "postalCode": "84219"
 },
 {
  "id": 5205020005,
  "districtId": 5205020,
  "districtName": "DOMPU",
  "name": "KARIJAWA",
  "postalCode": "84217"
 },
 {
  "id": 5205020006,
  "districtId": 5205020,
  "districtName": "DOMPU",
  "name": "POTU",
  "postalCode": "84214"
 },
 {
  "id": 5205020007,
  "districtId": 5205020,
  "districtName": "DOMPU",
  "name": "BADA",
  "postalCode": "23371"
 },
 {
  "id": 5205020008,
  "districtId": 5205020,
  "districtName": "DOMPU",
  "name": "BALI",
  "postalCode": ""
 },
 {
  "id": 5205020009,
  "districtId": 5205020,
  "districtName": "DOMPU",
  "name": "DOROTANGGA",
  "postalCode": "84212"
 },
 {
  "id": 5205020010,
  "districtId": 5205020,
  "districtName": "DOMPU",
  "name": "OO",
  "postalCode": ""
 },
 {
  "id": 5205020011,
  "districtId": 5205020,
  "districtName": "DOMPU",
  "name": "KATUA",
  "postalCode": "84219"
 },
 {
  "id": 5205020012,
  "districtId": 5205020,
  "districtName": "DOMPU",
  "name": "KARAMABURA",
  "postalCode": "84219"
 },
 {
  "id": 5205020013,
  "districtId": 5205020,
  "districtName": "DOMPU",
  "name": "KAREKE",
  "postalCode": "84219"
 },
 {
  "id": 5205020014,
  "districtId": 5205020,
  "districtName": "DOMPU",
  "name": "MANGGE NAE",
  "postalCode": "84219"
 },
 {
  "id": 5205020015,
  "districtId": 5205020,
  "districtName": "DOMPU",
  "name": "MANGGE ASI",
  "postalCode": ""
 },
 {
  "id": 5205020016,
  "districtId": 5205020,
  "districtName": "DOMPU",
  "name": "PERSIAPAN SORISAKOLO",
  "postalCode": ""
 }
]