[
 {
  "id": 5206051002,
  "districtId": 5206051,
  "districtName": "LANGGUDU",
  "name": "LAJU",
  "postalCode": "84181"
 },
 {
  "id": 5206051004,
  "districtId": 5206051,
  "districtName": "LANGGUDU",
  "name": "DORO O'O",
  "postalCode": ""
 },
 {
  "id": 5206051006,
  "districtId": 5206051,
  "districtName": "LANGGUDU",
  "name": "WAWORADA",
  "postalCode": "84181"
 },
 {
  "id": 5206051007,
  "districtId": 5206051,
  "districtName": "LANGGUDU",
  "name": "KAWUWU",
  "postalCode": "84181"
 },
 {
  "id": 5206051008,
  "districtId": 5206051,
  "districtName": "LANGGUDU",
  "name": "KARUMBU",
  "postalCode": "84181"
 },
 {
  "id": 5206051009,
  "districtId": 5206051,
  "districtName": "LANGGUDU",
  "name": "KALODU",
  "postalCode": "84181"
 },
 {
  "id": 5206051011,
  "districtId": 5206051,
  "districtName": "LANGGUDU",
  "name": "KANGGA",
  "postalCode": "84181"
 },
 {
  "id": 5206051012,
  "districtId": 5206051,
  "districtName": "LANGGUDU",
  "name": "KARAMPI",
  "postalCode": "84181"
 },
 {
  "id": 5206051013,
  "districtId": 5206051,
  "districtName": "LANGGUDU",
  "name": "WADU RUKA",
  "postalCode": "84181"
 },
 {
  "id": 5206051015,
  "districtId": 5206051,
  "districtName": "LANGGUDU",
  "name": "ROMPO",
  "postalCode": "84181"
 },
 {
  "id": 5206051016,
  "districtId": 5206051,
  "districtName": "LANGGUDU",
  "name": "SAMBANE",
  "postalCode": ""
 },
 {
  "id": 5206051017,
  "districtId": 5206051,
  "districtName": "LANGGUDU",
  "name": "SARAE RUMA",
  "postalCode": ""
 }
]