[
 {
  "id": 5206021001,
  "districtId": 5206021,
  "districtName": "MADA PANGGA",
  "name": "WORO",
  "postalCode": "59273"
 },
 {
  "id": 5206021002,
  "districtId": 5206021,
  "districtName": "MADA PANGGA",
  "name": "CAMPA",
  "postalCode": "84111"
 },
 {
  "id": 5206021003,
  "districtId": 5206021,
  "districtName": "MADA PANGGA",
  "name": "MPURI",
  "postalCode": "84111"
 },
 {
  "id": 5206021004,
  "districtId": 5206021,
  "districtName": "MADA PANGGA",
  "name": "DENA",
  "postalCode": "84111"
 },
 {
  "id": 5206021005,
  "districtId": 5206021,
  "districtName": "MADA PANGGA",
  "name": "RADE",
  "postalCode": "84111"
 },
 {
  "id": 5206021006,
  "districtId": 5206021,
  "districtName": "MADA PANGGA",
  "name": "MONGGO",
  "postalCode": "84111"
 },
 {
  "id": 5206021007,
  "districtId": 5206021,
  "districtName": "MADA PANGGA",
  "name": "NDANO",
  "postalCode": "84111"
 },
 {
  "id": 5206021008,
  "districtId": 5206021,
  "districtName": "MADA PANGGA",
  "name": "TONDA",
  "postalCode": "84111"
 },
 {
  "id": 5206021010,
  "districtId": 5206021,
  "districtName": "MADA PANGGA",
  "name": "BOLO",
  "postalCode": "59517"
 },
 {
  "id": 5206021011,
  "districtId": 5206021,
  "districtName": "MADA PANGGA",
  "name": "MADA WAU",
  "postalCode": ""
 },
 {
  "id": 5206021012,
  "districtId": 5206021,
  "districtName": "MADA PANGGA",
  "name": "NCANDI",
  "postalCode": ""
 }
]