[
 {
  "id": 5206020004,
  "districtId": 5206020,
  "districtName": "BOLO",
  "name": "SANOLO",
  "postalCode": "84161"
 },
 {
  "id": 5206020005,
  "districtId": 5206020,
  "districtName": "BOLO",
  "name": "SONDOSIA",
  "postalCode": "84161"
 },
 {
  "id": 5206020006,
  "districtId": 5206020,
  "districtName": "BOLO",
  "name": "BONTOKAPE",
  "postalCode": "84161"
 },
 {
  "id": 5206020007,
  "districtId": 5206020,
  "districtName": "BOLO",
  "name": "TIMU",
  "postalCode": "84161"
 },
 {
  "id": 5206020013,
  "districtId": 5206020,
  "districtName": "BOLO",
  "name": "TAMBE",
  "postalCode": "84161"
 },
 {
  "id": 5206020014,
  "districtId": 5206020,
  "districtName": "BOLO",
  "name": "RASABOU",
  "postalCode": "84161"
 },
 {
  "id": 5206020015,
  "districtId": 5206020,
  "districtName": "BOLO",
  "name": "RATO",
  "postalCode": "84161"
 },
 {
  "id": 5206020016,
  "districtId": 5206020,
  "districtName": "BOLO",
  "name": "KANANGA",
  "postalCode": "45582"
 },
 {
  "id": 5206020019,
  "districtId": 5206020,
  "districtName": "BOLO",
  "name": "RADA",
  "postalCode": "84161"
 },
 {
  "id": 5206020020,
  "districtId": 5206020,
  "districtName": "BOLO",
  "name": "DARUSSALAM",
  "postalCode": "24671"
 },
 {
  "id": 5206020021,
  "districtId": 5206020,
  "districtName": "BOLO",
  "name": "KARA",
  "postalCode": "69271"
 }
]