[
 {
  "id": 5207050002,
  "districtId": 5207050,
  "districtName": "SETELUK",
  "name": "KELANIR",
  "postalCode": "84454"
 },
 {
  "id": 5207050003,
  "districtId": 5207050,
  "districtName": "SETELUK",
  "name": "MERARAN",
  "postalCode": "84454"
 },
 {
  "id": 5207050004,
  "districtId": 5207050,
  "districtName": "SETELUK",
  "name": "AIR SUNING",
  "postalCode": "84454"
 },
 {
  "id": 5207050006,
  "districtId": 5207050,
  "districtName": "SETELUK",
  "name": "TAPIR",
  "postalCode": "84454"
 },
 {
  "id": 5207050007,
  "districtId": 5207050,
  "districtName": "SETELUK",
  "name": "SETELUK ATAS",
  "postalCode": "84454"
 },
 {
  "id": 5207050008,
  "districtId": 5207050,
  "districtName": "SETELUK",
  "name": "SETELUK TENGAH",
  "postalCode": "84454"
 },
 {
  "id": 5207050009,
  "districtId": 5207050,
  "districtName": "SETELUK",
  "name": "LAMUSUNG",
  "postalCode": "84454"
 },
 {
  "id": 5207050010,
  "districtId": 5207050,
  "districtName": "SETELUK",
  "name": "LOKA",
  "postalCode": "92516"
 },
 {
  "id": 5207050011,
  "districtId": 5207050,
  "districtName": "SETELUK",
  "name": "SERAN",
  "postalCode": "84454"
 }
]