[
 {
  "id": 5272011001,
  "districtId": 5272011,
  "districtName": "MPUNDA",
  "name": "SAMBINAE",
  "postalCode": "84119"
 },
 {
  "id": 5272011002,
  "districtId": 5272011,
  "districtName": "MPUNDA",
  "name": "PANGGI",
  "postalCode": "84119"
 },
 {
  "id": 5272011003,
  "districtId": 5272011,
  "districtName": "MPUNDA",
  "name": "MANDE",
  "postalCode": "43292"
 },
 {
  "id": 5272011004,
  "districtId": 5272011,
  "districtName": "MPUNDA",
  "name": "SADIA",
  "postalCode": "84112"
 },
 {
  "id": 5272011005,
  "districtId": 5272011,
  "districtName": "MPUNDA",
  "name": "MANGGEMACI",
  "postalCode": "84119"
 },
 {
  "id": 5272011006,
  "districtId": 5272011,
  "districtName": "MPUNDA",
  "name": "MONGGONAO",
  "postalCode": "84111"
 },
 {
  "id": 5272011007,
  "districtId": 5272011,
  "districtName": "MPUNDA",
  "name": "LEWIRATO",
  "postalCode": "84119"
 },
 {
  "id": 5272011008,
  "districtId": 5272011,
  "districtName": "MPUNDA",
  "name": "PENATOI",
  "postalCode": "84115"
 },
 {
  "id": 5272011009,
  "districtId": 5272011,
  "districtName": "MPUNDA",
  "name": "SANTI",
  "postalCode": "84119"
 },
 {
  "id": 5272011010,
  "districtId": 5272011,
  "districtName": "MPUNDA",
  "name": "MATAKANDO",
  "postalCode": "84119"
 }
]