[
 {
  "id": 5301060002,
  "districtId": 5301060,
  "districtName": "KOTA WAIKABUBAK",
  "name": "WAILIANG",
  "postalCode": "87212"
 },
 {
  "id": 5301060003,
  "districtId": 5301060,
  "districtName": "KOTA WAIKABUBAK",
  "name": "MALITI",
  "postalCode": "87217"
 },
 {
  "id": 5301060004,
  "districtId": 5301060,
  "districtName": "KOTA WAIKABUBAK",
  "name": "KOMERDA",
  "postalCode": "87211"
 },
 {
  "id": 5301060005,
  "districtId": 5301060,
  "districtName": "KOTA WAIKABUBAK",
  "name": "KAMPUNG BARU",
  "postalCode": "24652"
 },
 {
  "id": 5301060006,
  "districtId": 5301060,
  "districtName": "KOTA WAIKABUBAK",
  "name": "KAMPUNG SAWAH",
  "postalCode": "23772"
 },
 {
  "id": 5301060007,
  "districtId": 5301060,
  "districtName": "KOTA WAIKABUBAK",
  "name": "KODAKA",
  "postalCode": "87215"
 },
 {
  "id": 5301060008,
  "districtId": 5301060,
  "districtName": "KOTA WAIKABUBAK",
  "name": "LAPALE",
  "postalCode": "87217"
 },
 {
  "id": 5301060009,
  "districtId": 5301060,
  "districtName": "KOTA WAIKABUBAK",
  "name": "TEBARA",
  "postalCode": "87216"
 },
 {
  "id": 5301060010,
  "districtId": 5301060,
  "districtName": "KOTA WAIKABUBAK",
  "name": "KALEMBU KUNI",
  "postalCode": "87217"
 },
 {
  "id": 5301060011,
  "districtId": 5301060,
  "districtName": "KOTA WAIKABUBAK",
  "name": "SOBA RADE",
  "postalCode": "87217"
 },
 {
  "id": 5301060012,
  "districtId": 5301060,
  "districtName": "KOTA WAIKABUBAK",
  "name": "PADA EWETA",
  "postalCode": "87217"
 },
 {
  "id": 5301060013,
  "districtId": 5301060,
  "districtName": "KOTA WAIKABUBAK",
  "name": "MODU WAIMARINGU",
  "postalCode": "87212"
 },
 {
  "id": 5301060014,
  "districtId": 5301060,
  "districtName": "KOTA WAIKABUBAK",
  "name": "PUU MAWO",
  "postalCode": "87212"
 }
]