[
 {
  "id": 5301021005,
  "districtId": 5301021,
  "districtName": "LAMBOYA",
  "name": "WELIBO",
  "postalCode": ""
 },
 {
  "id": 5301021006,
  "districtId": 5301021,
  "districtName": "LAMBOYA",
  "name": "PATIALA BAWA",
  "postalCode": "87271"
 },
 {
  "id": 5301021007,
  "districtId": 5301021,
  "districtName": "LAMBOYA",
  "name": "LABOYA BAWA",
  "postalCode": "87271"
 },
 {
  "id": 5301021008,
  "districtId": 5301021,
  "districtName": "LAMBOYA",
  "name": "WATU KARERE",
  "postalCode": "87271"
 },
 {
  "id": 5301021009,
  "districtId": 5301021,
  "districtName": "LAMBOYA",
  "name": "KABU KARUDI",
  "postalCode": "87271"
 },
 {
  "id": 5301021010,
  "districtId": 5301021,
  "districtName": "LAMBOYA",
  "name": "LABOYA DETE",
  "postalCode": "87271"
 },
 {
  "id": 5301021011,
  "districtId": 5301021,
  "districtName": "LAMBOYA",
  "name": "SODANA",
  "postalCode": ""
 },
 {
  "id": 5301021012,
  "districtId": 5301021,
  "districtName": "LAMBOYA",
  "name": "RAJAKA",
  "postalCode": ""
 },
 {
  "id": 5301021013,
  "districtId": 5301021,
  "districtName": "LAMBOYA",
  "name": "RINGU RARA",
  "postalCode": "87271"
 },
 {
  "id": 5301021014,
  "districtId": 5301021,
  "districtName": "LAMBOYA",
  "name": "BODO HULA",
  "postalCode": "87271"
 },
 {
  "id": 5301021015,
  "districtId": 5301021,
  "districtName": "LAMBOYA",
  "name": "PALA MOKO",
  "postalCode": "87271"
 }
]