[
 {
  "id": 5302010009,
  "districtId": 5302010,
  "districtName": "LEWA",
  "name": "KONDAMARA",
  "postalCode": "87152"
 },
 {
  "id": 5302010010,
  "districtId": 5302010,
  "districtName": "LEWA",
  "name": "LEWAPAKU",
  "postalCode": "87152"
 },
 {
  "id": 5302010011,
  "districtId": 5302010,
  "districtName": "LEWA",
  "name": "TANARARA",
  "postalCode": "87152"
 },
 {
  "id": 5302010014,
  "districtId": 5302010,
  "districtName": "LEWA",
  "name": "KAMBATA WUNDUT",
  "postalCode": "87152"
 },
 {
  "id": 5302010015,
  "districtId": 5302010,
  "districtName": "LEWA",
  "name": "RAKAWATU",
  "postalCode": "87152"
 },
 {
  "id": 5302010017,
  "districtId": 5302010,
  "districtName": "LEWA",
  "name": "KAMBU HAPANG",
  "postalCode": "87152"
 },
 {
  "id": 5302010018,
  "districtId": 5302010,
  "districtName": "LEWA",
  "name": "MATAWAI PAWALI",
  "postalCode": "87152"
 },
 {
  "id": 5302010019,
  "districtId": 5302010,
  "districtName": "LEWA",
  "name": "BIDI HUNGA",
  "postalCode": "87152"
 }
]