[
 {
  "id": 5303110001,
  "districtId": 5303110,
  "districtName": "KUPANG BARAT",
  "name": "TABLOLONG",
  "postalCode": "85351"
 },
 {
  "id": 5303110002,
  "districtId": 5303110,
  "districtName": "KUPANG BARAT",
  "name": "LIFULEO",
  "postalCode": "85351"
 },
 {
  "id": 5303110003,
  "districtId": 5303110,
  "districtName": "KUPANG BARAT",
  "name": "TESABELA",
  "postalCode": "85351"
 },
 {
  "id": 5303110004,
  "districtId": 5303110,
  "districtName": "KUPANG BARAT",
  "name": "SUMLILI",
  "postalCode": "85351"
 },
 {
  "id": 5303110005,
  "districtId": 5303110,
  "districtName": "KUPANG BARAT",
  "name": "OEMAT NUNU",
  "postalCode": ""
 },
 {
  "id": 5303110006,
  "districtId": 5303110,
  "districtName": "KUPANG BARAT",
  "name": "KUANHEUM",
  "postalCode": "85362"
 },
 {
  "id": 5303110007,
  "districtId": 5303110,
  "districtName": "KUPANG BARAT",
  "name": "BOLOK",
  "postalCode": "85351"
 },
 {
  "id": 5303110008,
  "districtId": 5303110,
  "districtName": "KUPANG BARAT",
  "name": "NITNEO",
  "postalCode": "85351"
 },
 {
  "id": 5303110009,
  "districtId": 5303110,
  "districtName": "KUPANG BARAT",
  "name": "BATAKTE",
  "postalCode": "85351"
 },
 {
  "id": 5303110010,
  "districtId": 5303110,
  "districtName": "KUPANG BARAT",
  "name": "MANULAI I",
  "postalCode": "85351"
 },
 {
  "id": 5303110011,
  "districtId": 5303110,
  "districtName": "KUPANG BARAT",
  "name": "OENESU",
  "postalCode": "85351"
 },
 {
  "id": 5303110012,
  "districtId": 5303110,
  "districtName": "KUPANG BARAT",
  "name": "OENAEK",
  "postalCode": "85351"
 }
]