[
 {
  "id": 5303130012,
  "districtId": 5303130,
  "districtName": "AMARASI",
  "name": "OESENA",
  "postalCode": "85367"
 },
 {
  "id": 5303130013,
  "districtId": 5303130,
  "districtName": "AMARASI",
  "name": "NONBES",
  "postalCode": "85367"
 },
 {
  "id": 5303130014,
  "districtId": 5303130,
  "districtName": "AMARASI",
  "name": "KOTABES",
  "postalCode": "85367"
 },
 {
  "id": 5303130015,
  "districtId": 5303130,
  "districtName": "AMARASI",
  "name": "PONAIN",
  "postalCode": "85367"
 },
 {
  "id": 5303130016,
  "districtId": 5303130,
  "districtName": "AMARASI",
  "name": "TESBATAN",
  "postalCode": "85367"
 },
 {
  "id": 5303130019,
  "districtId": 5303130,
  "districtName": "AMARASI",
  "name": "APREN",
  "postalCode": "85367"
 },
 {
  "id": 5303130020,
  "districtId": 5303130,
  "districtName": "AMARASI",
  "name": "OENONI",
  "postalCode": "85367"
 },
 {
  "id": 5303130021,
  "districtId": 5303130,
  "districtName": "AMARASI",
  "name": "TESBATAN II",
  "postalCode": "85367"
 },
 {
  "id": 5303130022,
  "districtId": 5303130,
  "districtName": "AMARASI",
  "name": "OENONI II",
  "postalCode": ""
 }
]