[
 {
  "id": 5304100001,
  "districtId": 5304100,
  "districtName": "AMANATUN SELATAN",
  "name": "OINLASI",
  "postalCode": "85573"
 },
 {
  "id": 5304100002,
  "districtId": 5304100,
  "districtName": "AMANATUN SELATAN",
  "name": "KOKOI",
  "postalCode": "85573"
 },
 {
  "id": 5304100003,
  "districtId": 5304100,
  "districtName": "AMANATUN SELATAN",
  "name": "FATULUNU",
  "postalCode": "85573"
 },
 {
  "id": 5304100012,
  "districtId": 5304100,
  "districtName": "AMANATUN SELATAN",
  "name": "KUALEU",
  "postalCode": "85573"
 },
 {
  "id": 5304100014,
  "districtId": 5304100,
  "districtName": "AMANATUN SELATAN",
  "name": "ANIN",
  "postalCode": "85573"
 },
 {
  "id": 5304100015,
  "districtId": 5304100,
  "districtName": "AMANATUN SELATAN",
  "name": "TOI",
  "postalCode": "85573"
 },
 {
  "id": 5304100017,
  "districtId": 5304100,
  "districtName": "AMANATUN SELATAN",
  "name": "LANU",
  "postalCode": "85573"
 },
 {
  "id": 5304100025,
  "districtId": 5304100,
  "districtName": "AMANATUN SELATAN",
  "name": "NIFULEO",
  "postalCode": "85573"
 },
 {
  "id": 5304100032,
  "districtId": 5304100,
  "districtName": "AMANATUN SELATAN",
  "name": "FAE",
  "postalCode": "85573"
 },
 {
  "id": 5304100033,
  "districtId": 5304100,
  "districtName": "AMANATUN SELATAN",
  "name": "NETUTNANA",
  "postalCode": "85573"
 }
]