[
 {
  "id": 5304050001,
  "districtId": 5304050,
  "districtName": "AMANUBAN SELATAN",
  "name": "POLLO",
  "postalCode": "85562"
 },
 {
  "id": 5304050002,
  "districtId": 5304050,
  "districtName": "AMANUBAN SELATAN",
  "name": "BENA",
  "postalCode": "85562"
 },
 {
  "id": 5304050003,
  "districtId": 5304050,
  "districtName": "AMANUBAN SELATAN",
  "name": "OEBELO",
  "postalCode": "85562"
 },
 {
  "id": 5304050008,
  "districtId": 5304050,
  "districtName": "AMANUBAN SELATAN",
  "name": "NOEMUKE",
  "postalCode": "85562"
 },
 {
  "id": 5304050009,
  "districtId": 5304050,
  "districtName": "AMANUBAN SELATAN",
  "name": "OEKIU",
  "postalCode": "85562"
 },
 {
  "id": 5304050010,
  "districtId": 5304050,
  "districtName": "AMANUBAN SELATAN",
  "name": "BATNUN",
  "postalCode": "85562"
 },
 {
  "id": 5304050011,
  "districtId": 5304050,
  "districtName": "AMANUBAN SELATAN",
  "name": "KIUBAAT",
  "postalCode": "85562"
 },
 {
  "id": 5304050012,
  "districtId": 5304050,
  "districtName": "AMANUBAN SELATAN",
  "name": "LINAMNUTU",
  "postalCode": "85562"
 },
 {
  "id": 5304050013,
  "districtId": 5304050,
  "districtName": "AMANUBAN SELATAN",
  "name": "MIO",
  "postalCode": "85562"
 },
 {
  "id": 5304050019,
  "districtId": 5304050,
  "districtName": "AMANUBAN SELATAN",
  "name": "ENO NETTEN",
  "postalCode": ""
 }
]