[
 {
  "id": 5304090006,
  "districtId": 5304090,
  "districtName": "KIE",
  "name": "FATU ULAN",
  "postalCode": ""
 },
 {
  "id": 5304090007,
  "districtId": 5304090,
  "districtName": "KIE",
  "name": "TESI AYOFANU",
  "postalCode": "85575"
 },
 {
  "id": 5304090010,
  "districtId": 5304090,
  "districtName": "KIE",
  "name": "BOTI",
  "postalCode": "85575"
 },
 {
  "id": 5304090011,
  "districtId": 5304090,
  "districtName": "KIE",
  "name": "OENAI",
  "postalCode": "85575"
 },
 {
  "id": 5304090012,
  "districtId": 5304090,
  "districtName": "KIE",
  "name": "OINLASI",
  "postalCode": "85573"
 },
 {
  "id": 5304090013,
  "districtId": 5304090,
  "districtName": "KIE",
  "name": "NAPI",
  "postalCode": "85575"
 },
 {
  "id": 5304090014,
  "districtId": 5304090,
  "districtName": "KIE",
  "name": "FALLAS",
  "postalCode": "85575"
 },
 {
  "id": 5304090015,
  "districtId": 5304090,
  "districtName": "KIE",
  "name": "PILI",
  "postalCode": "85575"
 },
 {
  "id": 5304090016,
  "districtId": 5304090,
  "districtName": "KIE",
  "name": "ENONAPI",
  "postalCode": "85575"
 },
 {
  "id": 5304090017,
  "districtId": 5304090,
  "districtName": "KIE",
  "name": "NAILEU",
  "postalCode": ""
 },
 {
  "id": 5304090018,
  "districtId": 5304090,
  "districtName": "KIE",
  "name": "FATUKUSI",
  "postalCode": "85575"
 }
]