[
 {
  "id": 5305022001,
  "districtId": 5305022,
  "districtName": "BIKOMI SELATAN",
  "name": "MAURISU",
  "postalCode": "85651"
 },
 {
  "id": 5305022002,
  "districtId": 5305022,
  "districtName": "BIKOMI SELATAN",
  "name": "NAIOLA",
  "postalCode": "85651"
 },
 {
  "id": 5305022003,
  "districtId": 5305022,
  "districtName": "BIKOMI SELATAN",
  "name": "OETALUS",
  "postalCode": "85651"
 },
 {
  "id": 5305022004,
  "districtId": 5305022,
  "districtName": "BIKOMI SELATAN",
  "name": "OELAMI",
  "postalCode": "85651"
 },
 {
  "id": 5305022005,
  "districtId": 5305022,
  "districtName": "BIKOMI SELATAN",
  "name": "KIUSILI",
  "postalCode": "85651"
 },
 {
  "id": 5305022006,
  "districtId": 5305022,
  "districtName": "BIKOMI SELATAN",
  "name": "MAURISU UTARA",
  "postalCode": "85651"
 },
 {
  "id": 5305022007,
  "districtId": 5305022,
  "districtName": "BIKOMI SELATAN",
  "name": "MAURISU SELATAN",
  "postalCode": "85651"
 },
 {
  "id": 5305022008,
  "districtId": 5305022,
  "districtName": "BIKOMI SELATAN",
  "name": "TUBLOPO",
  "postalCode": "85617"
 },
 {
  "id": 5305022009,
  "districtId": 5305022,
  "districtName": "BIKOMI SELATAN",
  "name": "MAURISU TENGAH",
  "postalCode": ""
 },
 {
  "id": 5305022010,
  "districtId": 5305022,
  "districtName": "BIKOMI SELATAN",
  "name": "NAIOLA TIMUR",
  "postalCode": ""
 }
]