[
 {
  "id": 5305040006,
  "districtId": 5305040,
  "districtName": "INSANA",
  "name": "NANSEAN",
  "postalCode": "85671"
 },
 {
  "id": 5305040007,
  "districtId": 5305040,
  "districtName": "INSANA",
  "name": "SUSULAKU",
  "postalCode": ""
 },
 {
  "id": 5305040008,
  "districtId": 5305040,
  "districtName": "INSANA",
  "name": "AINIUT",
  "postalCode": "85671"
 },
 {
  "id": 5305040009,
  "districtId": 5305040,
  "districtName": "INSANA",
  "name": "LOERAM",
  "postalCode": "85671"
 },
 {
  "id": 5305040010,
  "districtId": 5305040,
  "districtName": "INSANA",
  "name": "OINBIT",
  "postalCode": "85671"
 },
 {
  "id": 5305040011,
  "districtId": 5305040,
  "districtName": "INSANA",
  "name": "NUNMAFO",
  "postalCode": "85363"
 },
 {
  "id": 5305040012,
  "districtId": 5305040,
  "districtName": "INSANA",
  "name": "MANUNAIN  A",
  "postalCode": ""
 },
 {
  "id": 5305040013,
  "districtId": 5305040,
  "districtName": "INSANA",
  "name": "MANUNAIN  B",
  "postalCode": ""
 },
 {
  "id": 5305040014,
  "districtId": 5305040,
  "districtName": "INSANA",
  "name": "TAPENPAH",
  "postalCode": "85671"
 },
 {
  "id": 5305040015,
  "districtId": 5305040,
  "districtName": "INSANA",
  "name": "SEKON",
  "postalCode": "85671"
 },
 {
  "id": 5305040027,
  "districtId": 5305040,
  "districtName": "INSANA",
  "name": "SUSULAKU B",
  "postalCode": "85671"
 },
 {
  "id": 5305040030,
  "districtId": 5305040,
  "districtName": "INSANA",
  "name": "FATOIN",
  "postalCode": "85671"
 },
 {
  "id": 5305040031,
  "districtId": 5305040,
  "districtName": "INSANA",
  "name": "NANSEAN TIMUR",
  "postalCode": ""
 },
 {
  "id": 5305040032,
  "districtId": 5305040,
  "districtName": "INSANA",
  "name": "BITAUNI",
  "postalCode": ""
 },
 {
  "id": 5305040033,
  "districtId": 5305040,
  "districtName": "INSANA",
  "name": "FATUANA",
  "postalCode": ""
 },
 {
  "id": 5305040034,
  "districtId": 5305040,
  "districtName": "INSANA",
  "name": "BOTOF",
  "postalCode": ""
 }
]