[
 {
  "id": 5305020032,
  "districtId": 5305020,
  "districtName": "MIOMAFFO TIMUR",
  "name": "OESENA",
  "postalCode": "85367"
 },
 {
  "id": 5305020033,
  "districtId": 5305020,
  "districtName": "MIOMAFFO TIMUR",
  "name": "TAEKAS",
  "postalCode": "85651"
 },
 {
  "id": 5305020034,
  "districtId": 5305020,
  "districtName": "MIOMAFFO TIMUR",
  "name": "FEMNASI",
  "postalCode": "85651"
 },
 {
  "id": 5305020035,
  "districtId": 5305020,
  "districtName": "MIOMAFFO TIMUR",
  "name": "JAK",
  "postalCode": "85651"
 },
 {
  "id": 5305020036,
  "districtId": 5305020,
  "districtName": "MIOMAFFO TIMUR",
  "name": "TUNOE",
  "postalCode": "85651"
 },
 {
  "id": 5305020038,
  "districtId": 5305020,
  "districtName": "MIOMAFFO TIMUR",
  "name": "BOKON",
  "postalCode": "85651"
 },
 {
  "id": 5305020039,
  "districtId": 5305020,
  "districtName": "MIOMAFFO TIMUR",
  "name": "KAENBAUN",
  "postalCode": "85651"
 },
 {
  "id": 5305020040,
  "districtId": 5305020,
  "districtName": "MIOMAFFO TIMUR",
  "name": "FATUSENE",
  "postalCode": "85651"
 },
 {
  "id": 5305020041,
  "districtId": 5305020,
  "districtName": "MIOMAFFO TIMUR",
  "name": "AMOL",
  "postalCode": "85651"
 },
 {
  "id": 5305020051,
  "districtId": 5305020,
  "districtName": "MIOMAFFO TIMUR",
  "name": "BITEFA",
  "postalCode": "85651"
 }
]