[
 {
  "id": 5307060007,
  "districtId": 5307060,
  "districtName": "ALOR BARAT LAUT",
  "name": "ALOR KECIL",
  "postalCode": "85851"
 },
 {
  "id": 5307060008,
  "districtId": 5307060,
  "districtName": "ALOR BARAT LAUT",
  "name": "LEFOKISU",
  "postalCode": "85851"
 },
 {
  "id": 5307060009,
  "districtId": 5307060,
  "districtName": "ALOR BARAT LAUT",
  "name": "AMPERA",
  "postalCode": "24671"
 },
 {
  "id": 5307060010,
  "districtId": 5307060,
  "districtName": "ALOR BARAT LAUT",
  "name": "LEWALU",
  "postalCode": "85851"
 },
 {
  "id": 5307060011,
  "districtId": 5307060,
  "districtName": "ALOR BARAT LAUT",
  "name": "BAMPALOLA",
  "postalCode": "85851"
 },
 {
  "id": 5307060012,
  "districtId": 5307060,
  "districtName": "ALOR BARAT LAUT",
  "name": "DULOLONG BARAT",
  "postalCode": "85851"
 },
 {
  "id": 5307060013,
  "districtId": 5307060,
  "districtName": "ALOR BARAT LAUT",
  "name": "DULOLONG",
  "postalCode": "85851"
 },
 {
  "id": 5307060014,
  "districtId": 5307060,
  "districtName": "ALOR BARAT LAUT",
  "name": "HULNANI",
  "postalCode": "85851"
 },
 {
  "id": 5307060015,
  "districtId": 5307060,
  "districtName": "ALOR BARAT LAUT",
  "name": "ALOR BESAR",
  "postalCode": "85851"
 },
 {
  "id": 5307060016,
  "districtId": 5307060,
  "districtName": "ALOR BARAT LAUT",
  "name": "TERNATE SELATAN",
  "postalCode": "85851"
 },
 {
  "id": 5307060017,
  "districtId": 5307060,
  "districtName": "ALOR BARAT LAUT",
  "name": "TERNATE",
  "postalCode": "85851"
 },
 {
  "id": 5307060018,
  "districtId": 5307060,
  "districtName": "ALOR BARAT LAUT",
  "name": "PULAU BUAYA",
  "postalCode": "85851"
 },
 {
  "id": 5307060019,
  "districtId": 5307060,
  "districtName": "ALOR BARAT LAUT",
  "name": "O'AMATE",
  "postalCode": ""
 },
 {
  "id": 5307060020,
  "districtId": 5307060,
  "districtName": "ALOR BARAT LAUT",
  "name": "AIMOLI",
  "postalCode": "85851"
 },
 {
  "id": 5307060021,
  "districtId": 5307060,
  "districtName": "ALOR BARAT LAUT",
  "name": "ALAANG",
  "postalCode": "85851"
 },
 {
  "id": 5307060022,
  "districtId": 5307060,
  "districtName": "ALOR BARAT LAUT",
  "name": "ADANG",
  "postalCode": "24161"
 },
 {
  "id": 5307060023,
  "districtId": 5307060,
  "districtName": "ALOR BARAT LAUT",
  "name": "ALILA",
  "postalCode": "85851"
 },
 {
  "id": 5307060024,
  "districtId": 5307060,
  "districtName": "ALOR BARAT LAUT",
  "name": "OTVAI",
  "postalCode": "85851"
 },
 {
  "id": 5307060025,
  "districtId": 5307060,
  "districtName": "ALOR BARAT LAUT",
  "name": "ALILA SELATAN",
  "postalCode": "85851"
 }
]