[
 {
  "id": 5307041001,
  "districtId": 5307041,
  "districtName": "ALOR TIMUR LAUT",
  "name": "PIDO",
  "postalCode": "85872"
 },
 {
  "id": 5307041002,
  "districtId": 5307041,
  "districtName": "ALOR TIMUR LAUT",
  "name": "LIPPANG",
  "postalCode": "85872"
 },
 {
  "id": 5307041003,
  "districtId": 5307041,
  "districtName": "ALOR TIMUR LAUT",
  "name": "KENARIMBALA",
  "postalCode": "85872"
 },
 {
  "id": 5307041004,
  "districtId": 5307041,
  "districtName": "ALOR TIMUR LAUT",
  "name": "NAILANG",
  "postalCode": "85872"
 },
 {
  "id": 5307041005,
  "districtId": 5307041,
  "districtName": "ALOR TIMUR LAUT",
  "name": "WAISIKA",
  "postalCode": "85872"
 },
 {
  "id": 5307041006,
  "districtId": 5307041,
  "districtName": "ALOR TIMUR LAUT",
  "name": "KAMOT",
  "postalCode": "85872"
 },
 {
  "id": 5307041007,
  "districtId": 5307041,
  "districtName": "ALOR TIMUR LAUT",
  "name": "AIR MANCUR",
  "postalCode": "85872"
 },
 {
  "id": 5307041008,
  "districtId": 5307041,
  "districtName": "ALOR TIMUR LAUT",
  "name": "TARAMANA",
  "postalCode": "85872"
 }
]