[
 {
  "id": 5307010026,
  "districtId": 5307010,
  "districtName": "PANTAR",
  "name": "BAOLANG",
  "postalCode": "85881"
 },
 {
  "id": 5307010033,
  "districtId": 5307010,
  "districtName": "PANTAR",
  "name": "BANDAR",
  "postalCode": "32264"
 },
 {
  "id": 5307010034,
  "districtId": 5307010,
  "districtName": "PANTAR",
  "name": "MADAR",
  "postalCode": "85881"
 },
 {
  "id": 5307010035,
  "districtId": 5307010,
  "districtName": "PANTAR",
  "name": "BOUWELI",
  "postalCode": "85881"
 },
 {
  "id": 5307010040,
  "districtId": 5307010,
  "districtName": "PANTAR",
  "name": "MUNASELI",
  "postalCode": "85881"
 },
 {
  "id": 5307010041,
  "districtId": 5307010,
  "districtName": "PANTAR",
  "name": "HELANDOHI",
  "postalCode": "85881"
 },
 {
  "id": 5307010042,
  "districtId": 5307010,
  "districtName": "PANTAR",
  "name": "B A N A",
  "postalCode": ""
 },
 {
  "id": 5307010043,
  "districtId": 5307010,
  "districtName": "PANTAR",
  "name": "PANDAI",
  "postalCode": "84171"
 },
 {
  "id": 5307010044,
  "districtId": 5307010,
  "districtName": "PANTAR",
  "name": "BUKITMAS",
  "postalCode": ""
 },
 {
  "id": 5307010045,
  "districtId": 5307010,
  "districtName": "PANTAR",
  "name": "WAILAWAR",
  "postalCode": "85881"
 },
 {
  "id": 5307010046,
  "districtId": 5307010,
  "districtName": "PANTAR",
  "name": "KABIR",
  "postalCode": "85881"
 }
]