[
 {
  "id": 5308070001,
  "districtId": 5308070,
  "districtName": "BUYASARI",
  "name": "PANAMA",
  "postalCode": "86692"
 },
 {
  "id": 5308070002,
  "districtId": 5308070,
  "districtName": "BUYASARI",
  "name": "BEAN",
  "postalCode": "86692"
 },
 {
  "id": 5308070003,
  "districtId": 5308070,
  "districtName": "BUYASARI",
  "name": "BENIHADING",
  "postalCode": "86692"
 },
 {
  "id": 5308070004,
  "districtId": 5308070,
  "districtName": "BUYASARI",
  "name": "BENIHADING II",
  "postalCode": "86692"
 },
 {
  "id": 5308070005,
  "districtId": 5308070,
  "districtName": "BUYASARI",
  "name": "ATULALENG",
  "postalCode": "86692"
 },
 {
  "id": 5308070006,
  "districtId": 5308070,
  "districtName": "BUYASARI",
  "name": "TUBUNG WALANG",
  "postalCode": "86692"
 },
 {
  "id": 5308070007,
  "districtId": 5308070,
  "districtName": "BUYASARI",
  "name": "ROHO",
  "postalCode": "86692"
 },
 {
  "id": 5308070008,
  "districtId": 5308070,
  "districtName": "BUYASARI",
  "name": "LOYOBOHOR",
  "postalCode": "86692"
 },
 {
  "id": 5308070009,
  "districtId": 5308070,
  "districtName": "BUYASARI",
  "name": "LEUBURI",
  "postalCode": "86692"
 },
 {
  "id": 5308070010,
  "districtId": 5308070,
  "districtName": "BUYASARI",
  "name": "TOBOTANI",
  "postalCode": "86692"
 },
 {
  "id": 5308070011,
  "districtId": 5308070,
  "districtName": "BUYASARI",
  "name": "KALIKUR WL",
  "postalCode": "86692"
 },
 {
  "id": 5308070012,
  "districtId": 5308070,
  "districtName": "BUYASARI",
  "name": "KAOHUA",
  "postalCode": "86692"
 },
 {
  "id": 5308070013,
  "districtId": 5308070,
  "districtName": "BUYASARI",
  "name": "UMALEU",
  "postalCode": "86692"
 },
 {
  "id": 5308070014,
  "districtId": 5308070,
  "districtName": "BUYASARI",
  "name": "BURIWUTUNG",
  "postalCode": "86692"
 },
 {
  "id": 5308070015,
  "districtId": 5308070,
  "districtName": "BUYASARI",
  "name": "MAMPIR",
  "postalCode": "16820"
 },
 {
  "id": 5308070016,
  "districtId": 5308070,
  "districtName": "BUYASARI",
  "name": "LEUWOHUNG",
  "postalCode": "86692"
 },
 {
  "id": 5308070017,
  "districtId": 5308070,
  "districtName": "BUYASARI",
  "name": "BARENG",
  "postalCode": "57414"
 },
 {
  "id": 5308070018,
  "districtId": 5308070,
  "districtName": "BUYASARI",
  "name": "KALIKUR",
  "postalCode": "86692"
 },
 {
  "id": 5308070019,
  "districtId": 5308070,
  "districtName": "BUYASARI",
  "name": "RUMANG",
  "postalCode": "86692"
 },
 {
  "id": 5308070020,
  "districtId": 5308070,
  "districtName": "BUYASARI",
  "name": "ATU WALUPANG",
  "postalCode": ""
 }
]