[
 {
  "id": 5308011001,
  "districtId": 5308011,
  "districtName": "WULANDONI",
  "name": "LELATA",
  "postalCode": "86685"
 },
 {
  "id": 5308011002,
  "districtId": 5308011,
  "districtName": "WULANDONI",
  "name": "LAMALERA A",
  "postalCode": "86685"
 },
 {
  "id": 5308011003,
  "districtId": 5308011,
  "districtName": "WULANDONI",
  "name": "LAMALERA B",
  "postalCode": "86685"
 },
 {
  "id": 5308011004,
  "districtId": 5308011,
  "districtName": "WULANDONI",
  "name": "IMULOLONG",
  "postalCode": "86685"
 },
 {
  "id": 5308011005,
  "districtId": 5308011,
  "districtName": "WULANDONI",
  "name": "PUOR",
  "postalCode": "86685"
 },
 {
  "id": 5308011006,
  "districtId": 5308011,
  "districtName": "WULANDONI",
  "name": "BELOBAO",
  "postalCode": ""
 },
 {
  "id": 5308011007,
  "districtId": 5308011,
  "districtName": "WULANDONI",
  "name": "WULANDONI",
  "postalCode": "86685"
 },
 {
  "id": 5308011008,
  "districtId": 5308011,
  "districtName": "WULANDONI",
  "name": "PANTAI HARAPAN",
  "postalCode": "29872"
 },
 {
  "id": 5308011009,
  "districtId": 5308011,
  "districtName": "WULANDONI",
  "name": "ATAKERA",
  "postalCode": "86685"
 },
 {
  "id": 5308011010,
  "districtId": 5308011,
  "districtName": "WULANDONI",
  "name": "LEWORAJA",
  "postalCode": "86685"
 },
 {
  "id": 5308011011,
  "districtId": 5308011,
  "districtName": "WULANDONI",
  "name": "ALAP ATADEI",
  "postalCode": "86685"
 },
 {
  "id": 5308011012,
  "districtId": 5308011,
  "districtName": "WULANDONI",
  "name": "POSIWATU",
  "postalCode": "86685"
 },
 {
  "id": 5308011013,
  "districtId": 5308011,
  "districtName": "WULANDONI",
  "name": "TAPOBALI",
  "postalCode": "86261"
 },
 {
  "id": 5308011014,
  "districtId": 5308011,
  "districtName": "WULANDONI",
  "name": "PUOR B",
  "postalCode": "86685"
 },
 {
  "id": 5308011015,
  "districtId": 5308011,
  "districtName": "WULANDONI",
  "name": "ATAILI",
  "postalCode": "86685"
 }
]