[
 {
  "id": 5308031001,
  "districtId": 5308031,
  "districtName": "ILE APE TIMUR",
  "name": "TODANARA",
  "postalCode": "86683"
 },
 {
  "id": 5308031002,
  "districtId": 5308031,
  "districtName": "ILE APE TIMUR",
  "name": "JONTONA",
  "postalCode": "86683"
 },
 {
  "id": 5308031003,
  "districtId": 5308031,
  "districtName": "ILE APE TIMUR",
  "name": "LAMAWOLO",
  "postalCode": "86683"
 },
 {
  "id": 5308031004,
  "districtId": 5308031,
  "districtName": "ILE APE TIMUR",
  "name": "LAMATOKAN",
  "postalCode": "86683"
 },
 {
  "id": 5308031005,
  "districtId": 5308031,
  "districtName": "ILE APE TIMUR",
  "name": "LAMAAU",
  "postalCode": "86683"
 },
 {
  "id": 5308031006,
  "districtId": 5308031,
  "districtName": "ILE APE TIMUR",
  "name": "AULESA",
  "postalCode": "86683"
 },
 {
  "id": 5308031007,
  "districtId": 5308031,
  "districtName": "ILE APE TIMUR",
  "name": "WAIMATAN",
  "postalCode": "86683"
 },
 {
  "id": 5308031008,
  "districtId": 5308031,
  "districtName": "ILE APE TIMUR",
  "name": "LAMAGUTE",
  "postalCode": "86683"
 },
 {
  "id": 5308031009,
  "districtId": 5308031,
  "districtName": "ILE APE TIMUR",
  "name": "BAO LALI DULI",
  "postalCode": "86683"
 }
]