[
 {
  "id": 5309011001,
  "districtId": 5309011,
  "districtName": "TITEHENA",
  "name": "ADABANG",
  "postalCode": "86253"
 },
 {
  "id": 5309011002,
  "districtId": 5309011,
  "districtName": "TITEHENA",
  "name": "KOBASOMA",
  "postalCode": "86253"
 },
 {
  "id": 5309011003,
  "districtId": 5309011,
  "districtName": "TITEHENA",
  "name": "TENAWAHANG",
  "postalCode": "86253"
 },
 {
  "id": 5309011004,
  "districtId": 5309011,
  "districtName": "TITEHENA",
  "name": "KONGA",
  "postalCode": "86253"
 },
 {
  "id": 5309011005,
  "districtId": 5309011,
  "districtName": "TITEHENA",
  "name": "ILE GERONG",
  "postalCode": "86253"
 },
 {
  "id": 5309011006,
  "districtId": 5309011,
  "districtName": "TITEHENA",
  "name": "LEWOLAGA",
  "postalCode": "86253"
 },
 {
  "id": 5309011007,
  "districtId": 5309011,
  "districtName": "TITEHENA",
  "name": "LEWOINGU",
  "postalCode": "86253"
 },
 {
  "id": 5309011008,
  "districtId": 5309011,
  "districtName": "TITEHENA",
  "name": "TUAKEPA",
  "postalCode": "86253"
 },
 {
  "id": 5309011009,
  "districtId": 5309011,
  "districtName": "TITEHENA",
  "name": "LERABOLENG",
  "postalCode": "86253"
 },
 {
  "id": 5309011010,
  "districtId": 5309011,
  "districtName": "TITEHENA",
  "name": "WATOWARA",
  "postalCode": "86253"
 },
 {
  "id": 5309011011,
  "districtId": 5309011,
  "districtName": "TITEHENA",
  "name": "SERINUHO",
  "postalCode": "86253"
 },
 {
  "id": 5309011012,
  "districtId": 5309011,
  "districtName": "TITEHENA",
  "name": "DUN TANA LEWOINGU",
  "postalCode": "86253"
 },
 {
  "id": 5309011013,
  "districtId": 5309011,
  "districtName": "TITEHENA",
  "name": "BOKANG WOLOMATANG",
  "postalCode": "86253"
 },
 {
  "id": 5309011014,
  "districtId": 5309011,
  "districtName": "TITEHENA",
  "name": "DULI JAYA",
  "postalCode": "86253"
 }
]