[
 {
  "id": 5309030007,
  "districtId": 5309030,
  "districtName": "LARANTUKA",
  "name": "MOKANTARAK",
  "postalCode": "86219"
 },
 {
  "id": 5309030010,
  "districtId": 5309030,
  "districtName": "LARANTUKA",
  "name": "LAMAWALANG",
  "postalCode": "86219"
 },
 {
  "id": 5309030011,
  "districtId": 5309030,
  "districtName": "LARANTUKA",
  "name": "WAIBALUN",
  "postalCode": "86212"
 },
 {
  "id": 5309030012,
  "districtId": 5309030,
  "districtName": "LARANTUKA",
  "name": "LEWOLERE",
  "postalCode": "86212"
 },
 {
  "id": 5309030013,
  "districtId": 5309030,
  "districtName": "LARANTUKA",
  "name": "PANTAI BESAR",
  "postalCode": "86213"
 },
 {
  "id": 5309030014,
  "districtId": 5309030,
  "districtName": "LARANTUKA",
  "name": "LARANTUKA",
  "postalCode": "86213"
 },
 {
  "id": 5309030015,
  "districtId": 5309030,
  "districtName": "LARANTUKA",
  "name": "BALELA",
  "postalCode": "86214"
 },
 {
  "id": 5309030016,
  "districtId": 5309030,
  "districtName": "LARANTUKA",
  "name": "POHON SIRIH",
  "postalCode": "86214"
 },
 {
  "id": 5309030017,
  "districtId": 5309030,
  "districtName": "LARANTUKA",
  "name": "LOHAYONG",
  "postalCode": "86215"
 },
 {
  "id": 5309030018,
  "districtId": 5309030,
  "districtName": "LARANTUKA",
  "name": "LOKEA",
  "postalCode": "86215"
 },
 {
  "id": 5309030019,
  "districtId": 5309030,
  "districtName": "LARANTUKA",
  "name": "POSTOH",
  "postalCode": "86216"
 },
 {
  "id": 5309030020,
  "districtId": 5309030,
  "districtName": "LARANTUKA",
  "name": "AMAGARAPATI",
  "postalCode": "86219"
 },
 {
  "id": 5309030021,
  "districtId": 5309030,
  "districtName": "LARANTUKA",
  "name": "EKASAPTA",
  "postalCode": "86217"
 },
 {
  "id": 5309030022,
  "districtId": 5309030,
  "districtName": "LARANTUKA",
  "name": "PUKEN TOBI WANGI BAO",
  "postalCode": "86219"
 },
 {
  "id": 5309030023,
  "districtId": 5309030,
  "districtName": "LARANTUKA",
  "name": "SAROTARI",
  "postalCode": "86219"
 },
 {
  "id": 5309030024,
  "districtId": 5309030,
  "districtName": "LARANTUKA",
  "name": "WERI",
  "postalCode": "86219"
 },
 {
  "id": 5309030025,
  "districtId": 5309030,
  "districtName": "LARANTUKA",
  "name": "POHON BAO",
  "postalCode": "86219"
 },
 {
  "id": 5309030026,
  "districtId": 5309030,
  "districtName": "LARANTUKA",
  "name": "WAIHALI",
  "postalCode": "86219"
 },
 {
  "id": 5309030027,
  "districtId": 5309030,
  "districtName": "LARANTUKA",
  "name": "SAROTARI TENGAH",
  "postalCode": "86219"
 },
 {
  "id": 5309030028,
  "districtId": 5309030,
  "districtName": "LARANTUKA",
  "name": "SAROTARI TIMUR",
  "postalCode": "86219"
 }
]