[
 {
  "id": 5309071001,
  "districtId": 5309071,
  "districtName": "ILE BOLENG",
  "name": "LEWO KELENG",
  "postalCode": "86253"
 },
 {
  "id": 5309071002,
  "districtId": 5309071,
  "districtName": "ILE BOLENG",
  "name": "BEDALEWUN",
  "postalCode": "86253"
 },
 {
  "id": 5309071003,
  "districtId": 5309071,
  "districtName": "ILE BOLENG",
  "name": "NIHAONE",
  "postalCode": ""
 },
 {
  "id": 5309071004,
  "districtId": 5309071,
  "districtName": "ILE BOLENG",
  "name": "BUNGALAWAN",
  "postalCode": "86253"
 },
 {
  "id": 5309071005,
  "districtId": 5309071,
  "districtName": "ILE BOLENG",
  "name": "LEWOBELOLONG",
  "postalCode": ""
 },
 {
  "id": 5309071006,
  "districtId": 5309071,
  "districtName": "ILE BOLENG",
  "name": "LAMAWOLO",
  "postalCode": "86683"
 },
 {
  "id": 5309071007,
  "districtId": 5309071,
  "districtName": "ILE BOLENG",
  "name": "HELANLANGOWUYO",
  "postalCode": "86253"
 },
 {
  "id": 5309071008,
  "districtId": 5309071,
  "districtName": "ILE BOLENG",
  "name": "LEWOPAO",
  "postalCode": "86262"
 },
 {
  "id": 5309071009,
  "districtId": 5309071,
  "districtName": "ILE BOLENG",
  "name": "HARUBALA",
  "postalCode": "86253"
 },
 {
  "id": 5309071010,
  "districtId": 5309071,
  "districtName": "ILE BOLENG",
  "name": "NELELAMADIKEN",
  "postalCode": "86253"
 },
 {
  "id": 5309071011,
  "districtId": 5309071,
  "districtName": "ILE BOLENG",
  "name": "BOLENG",
  "postalCode": "86253"
 },
 {
  "id": 5309071012,
  "districtId": 5309071,
  "districtName": "ILE BOLENG",
  "name": "GAYAK",
  "postalCode": ""
 },
 {
  "id": 5309071013,
  "districtId": 5309071,
  "districtName": "ILE BOLENG",
  "name": "NELEBLOLONG",
  "postalCode": "86253"
 },
 {
  "id": 5309071014,
  "districtId": 5309071,
  "districtName": "ILE BOLENG",
  "name": "NELE LAMAWANGI",
  "postalCode": "86253"
 },
 {
  "id": 5309071015,
  "districtId": 5309071,
  "districtName": "ILE BOLENG",
  "name": "DUABLOLONG",
  "postalCode": "86253"
 },
 {
  "id": 5309071016,
  "districtId": 5309071,
  "districtName": "ILE BOLENG",
  "name": "LAMABAYUNG",
  "postalCode": "86253"
 },
 {
  "id": 5309071017,
  "districtId": 5309071,
  "districtName": "ILE BOLENG",
  "name": "LEWAT",
  "postalCode": "86253"
 },
 {
  "id": 5309071018,
  "districtId": 5309071,
  "districtName": "ILE BOLENG",
  "name": "DOKENG",
  "postalCode": "86253"
 },
 {
  "id": 5309071019,
  "districtId": 5309071,
  "districtName": "ILE BOLENG",
  "name": "BAJUNTAA",
  "postalCode": ""
 },
 {
  "id": 5309071020,
  "districtId": 5309071,
  "districtName": "ILE BOLENG",
  "name": "NOBO",
  "postalCode": "86253"
 },
 {
  "id": 5309071021,
  "districtId": 5309071,
  "districtName": "ILE BOLENG",
  "name": "NELE LAMAWANGI II",
  "postalCode": ""
 }
]