[
 {
  "id": 5309010001,
  "districtId": 5309010,
  "districtName": "WULANGGITANG",
  "name": "OJAN DETUN",
  "postalCode": ""
 },
 {
  "id": 5309010002,
  "districtId": 5309010,
  "districtName": "WULANGGITANG",
  "name": "HEWA",
  "postalCode": "86253"
 },
 {
  "id": 5309010003,
  "districtId": 5309010,
  "districtName": "WULANGGITANG",
  "name": "PANTAI OA",
  "postalCode": "86253"
 },
 {
  "id": 5309010004,
  "districtId": 5309010,
  "districtName": "WULANGGITANG",
  "name": "WAIULA",
  "postalCode": "86253"
 },
 {
  "id": 5309010009,
  "districtId": 5309010,
  "districtName": "WULANGGITANG",
  "name": "NAWOKOTE",
  "postalCode": "86253"
 },
 {
  "id": 5309010010,
  "districtId": 5309010,
  "districtName": "WULANGGITANG",
  "name": "BORU KEDANG",
  "postalCode": "86253"
 },
 {
  "id": 5309010011,
  "districtId": 5309010,
  "districtName": "WULANGGITANG",
  "name": "BORU",
  "postalCode": "86253"
 },
 {
  "id": 5309010012,
  "districtId": 5309010,
  "districtName": "WULANGGITANG",
  "name": "HOKENG JAYA",
  "postalCode": "86253"
 },
 {
  "id": 5309010014,
  "districtId": 5309010,
  "districtName": "WULANGGITANG",
  "name": "PULULERA",
  "postalCode": "86253"
 },
 {
  "id": 5309010015,
  "districtId": 5309010,
  "districtName": "WULANGGITANG",
  "name": "NILEKNOHENG",
  "postalCode": "86253"
 },
 {
  "id": 5309010016,
  "districtId": 5309010,
  "districtName": "WULANGGITANG",
  "name": "KLATANLO",
  "postalCode": "86253"
 }
]