[
 {
  "id": 5309070001,
  "districtId": 5309070,
  "districtName": "ADONARA TIMUR",
  "name": "BLOTO",
  "postalCode": ""
 },
 {
  "id": 5309070002,
  "districtId": 5309070,
  "districtName": "ADONARA TIMUR",
  "name": "TERONG",
  "postalCode": "33414"
 },
 {
  "id": 5309070003,
  "districtId": 5309070,
  "districtName": "ADONARA TIMUR",
  "name": "DAWATAA",
  "postalCode": "86261"
 },
 {
  "id": 5309070004,
  "districtId": 5309070,
  "districtName": "ADONARA TIMUR",
  "name": "BILAL",
  "postalCode": "86261"
 },
 {
  "id": 5309070005,
  "districtId": 5309070,
  "districtName": "ADONARA TIMUR",
  "name": "IPIEBANG",
  "postalCode": "86261"
 },
 {
  "id": 5309070006,
  "districtId": 5309070,
  "districtName": "ADONARA TIMUR",
  "name": "LAMAHALA JAYA",
  "postalCode": "86261"
 },
 {
  "id": 5309070007,
  "districtId": 5309070,
  "districtName": "ADONARA TIMUR",
  "name": "WAIWERANG KOTA",
  "postalCode": "86261"
 },
 {
  "id": 5309070008,
  "districtId": 5309070,
  "districtName": "ADONARA TIMUR",
  "name": "WAIBURAK",
  "postalCode": "86261"
 },
 {
  "id": 5309070009,
  "districtId": 5309070,
  "districtName": "ADONARA TIMUR",
  "name": "NARASAOSINA",
  "postalCode": "86261"
 },
 {
  "id": 5309070010,
  "districtId": 5309070,
  "districtName": "ADONARA TIMUR",
  "name": "LEWOBUNGA",
  "postalCode": "86261"
 },
 {
  "id": 5309070011,
  "districtId": 5309070,
  "districtName": "ADONARA TIMUR",
  "name": "LAMALOTA",
  "postalCode": ""
 },
 {
  "id": 5309070012,
  "districtId": 5309070,
  "districtName": "ADONARA TIMUR",
  "name": "KIWANG ONA",
  "postalCode": "86261"
 },
 {
  "id": 5309070013,
  "districtId": 5309070,
  "districtName": "ADONARA TIMUR",
  "name": "KARINGLAMALOUK",
  "postalCode": "86261"
 },
 {
  "id": 5309070014,
  "districtId": 5309070,
  "districtName": "ADONARA TIMUR",
  "name": "TUAWOLO",
  "postalCode": "86261"
 },
 {
  "id": 5309070015,
  "districtId": 5309070,
  "districtName": "ADONARA TIMUR",
  "name": "LAMATEWELU",
  "postalCode": "86261"
 },
 {
  "id": 5309070056,
  "districtId": 5309070,
  "districtName": "ADONARA TIMUR",
  "name": "TAPOBALI",
  "postalCode": "86261"
 },
 {
  "id": 5309070058,
  "districtId": 5309070,
  "districtName": "ADONARA TIMUR",
  "name": "KWAELAGA LAMAWATO",
  "postalCode": "86261"
 },
 {
  "id": 5309070059,
  "districtId": 5309070,
  "districtName": "ADONARA TIMUR",
  "name": "GELONG",
  "postalCode": "86261"
 },
 {
  "id": 5309070060,
  "districtId": 5309070,
  "districtName": "ADONARA TIMUR",
  "name": "LELEN BALA",
  "postalCode": ""
 },
 {
  "id": 5309070061,
  "districtId": 5309070,
  "districtName": "ADONARA TIMUR",
  "name": "SAOSINA",
  "postalCode": ""
 }
]