[
 {
  "id": 5309061001,
  "districtId": 5309061,
  "districtName": "WOTAN ULU MADO",
  "name": "WAILEBE",
  "postalCode": "86261"
 },
 {
  "id": 5309061002,
  "districtId": 5309061,
  "districtName": "WOTAN ULU MADO",
  "name": "TOBILOTA",
  "postalCode": "86261"
 },
 {
  "id": 5309061003,
  "districtId": 5309061,
  "districtName": "WOTAN ULU MADO",
  "name": "WOTANULUMADO",
  "postalCode": "86261"
 },
 {
  "id": 5309061004,
  "districtId": 5309061,
  "districtName": "WOTAN ULU MADO",
  "name": "TANAH TUKAN",
  "postalCode": "86261"
 },
 {
  "id": 5309061005,
  "districtId": 5309061,
  "districtName": "WOTAN ULU MADO",
  "name": "SAMASOGE",
  "postalCode": "86261"
 },
 {
  "id": 5309061006,
  "districtId": 5309061,
  "districtName": "WOTAN ULU MADO",
  "name": "NAYUBAYA",
  "postalCode": "86261"
 },
 {
  "id": 5309061007,
  "districtId": 5309061,
  "districtName": "WOTAN ULU MADO",
  "name": "OYANGBARANG",
  "postalCode": "86261"
 },
 {
  "id": 5309061008,
  "districtId": 5309061,
  "districtName": "WOTAN ULU MADO",
  "name": "KAWELA",
  "postalCode": "86261"
 },
 {
  "id": 5309061009,
  "districtId": 5309061,
  "districtName": "WOTAN ULU MADO",
  "name": "BLIKO",
  "postalCode": ""
 },
 {
  "id": 5309061010,
  "districtId": 5309061,
  "districtName": "WOTAN ULU MADO",
  "name": "KLUKENGNUKING",
  "postalCode": "86261"
 },
 {
  "id": 5309061011,
  "districtId": 5309061,
  "districtName": "WOTAN ULU MADO",
  "name": "PANDAI",
  "postalCode": "84171"
 },
 {
  "id": 5309061012,
  "districtId": 5309061,
  "districtName": "WOTAN ULU MADO",
  "name": "DEMONDEIN",
  "postalCode": ""
 }
]