[
 {
  "id": 5310050005,
  "districtId": 5310050,
  "districtName": "KEWAPANTE",
  "name": "UMAGERA",
  "postalCode": "86181"
 },
 {
  "id": 5310050006,
  "districtId": 5310050,
  "districtName": "KEWAPANTE",
  "name": "IAN TENA",
  "postalCode": "86181"
 },
 {
  "id": 5310050007,
  "districtId": 5310050,
  "districtName": "KEWAPANTE",
  "name": "KOPONG",
  "postalCode": "86181"
 },
 {
  "id": 5310050008,
  "districtId": 5310050,
  "districtName": "KEWAPANTE",
  "name": "SEUSINA",
  "postalCode": "86181"
 },
 {
  "id": 5310050014,
  "districtId": 5310050,
  "districtName": "KEWAPANTE",
  "name": "NAMANGKEWA",
  "postalCode": "86181"
 },
 {
  "id": 5310050022,
  "districtId": 5310050,
  "districtName": "KEWAPANTE",
  "name": "WAIARA",
  "postalCode": "86181"
 },
 {
  "id": 5310050023,
  "districtId": 5310050,
  "districtName": "KEWAPANTE",
  "name": "GELITING",
  "postalCode": "86181"
 },
 {
  "id": 5310050024,
  "districtId": 5310050,
  "districtName": "KEWAPANTE",
  "name": "WAIRKOJA",
  "postalCode": "86181"
 }
]