[
 {
  "id": 5310061001,
  "districtId": 5310061,
  "districtName": "PALUE",
  "name": "NITUNGLEA",
  "postalCode": "86111"
 },
 {
  "id": 5310061002,
  "districtId": 5310061,
  "districtName": "PALUE",
  "name": "LIDI",
  "postalCode": "29783"
 },
 {
  "id": 5310061003,
  "districtId": 5310061,
  "districtName": "PALUE",
  "name": "RERUWAIRERE",
  "postalCode": "86111"
 },
 {
  "id": 5310061004,
  "districtId": 5310061,
  "districtName": "PALUE",
  "name": "MALURIWU",
  "postalCode": "86111"
 },
 {
  "id": 5310061005,
  "districtId": 5310061,
  "districtName": "PALUE",
  "name": "KESOKOJA",
  "postalCode": "86111"
 },
 {
  "id": 5310061006,
  "districtId": 5310061,
  "districtName": "PALUE",
  "name": "LADOLAKA",
  "postalCode": "86111"
 },
 {
  "id": 5310061007,
  "districtId": 5310061,
  "districtName": "PALUE",
  "name": "TUANGGEO",
  "postalCode": "86111"
 },
 {
  "id": 5310061008,
  "districtId": 5310061,
  "districtName": "PALUE",
  "name": "ROKIROLE",
  "postalCode": "86111"
 }
]