[
 {
  "id": 5310011001,
  "districtId": 5310011,
  "districtName": "MEGO",
  "name": "KOROBHERA",
  "postalCode": "86113"
 },
 {
  "id": 5310011002,
  "districtId": 5310011,
  "districtName": "MEGO",
  "name": "DOBO",
  "postalCode": "86113"
 },
 {
  "id": 5310011003,
  "districtId": 5310011,
  "districtName": "MEGO",
  "name": "BHERA",
  "postalCode": "86113"
 },
 {
  "id": 5310011004,
  "districtId": 5310011,
  "districtName": "MEGO",
  "name": "WOLODHESA",
  "postalCode": "86113"
 },
 {
  "id": 5310011005,
  "districtId": 5310011,
  "districtName": "MEGO",
  "name": "GERA",
  "postalCode": "86113"
 },
 {
  "id": 5310011006,
  "districtId": 5310011,
  "districtName": "MEGO",
  "name": "LIAKUTU",
  "postalCode": "86113"
 },
 {
  "id": 5310011007,
  "districtId": 5310011,
  "districtName": "MEGO",
  "name": "PARABUBU",
  "postalCode": "86113"
 },
 {
  "id": 5310011008,
  "districtId": 5310011,
  "districtName": "MEGO",
  "name": "DOBO NUA PUU",
  "postalCode": "86113"
 },
 {
  "id": 5310011009,
  "districtId": 5310011,
  "districtName": "MEGO",
  "name": "KOWI",
  "postalCode": "86113"
 },
 {
  "id": 5310011010,
  "districtId": 5310011,
  "districtName": "MEGO",
  "name": "NAPU GERA",
  "postalCode": "86113"
 }
]