[
 {
  "id": 5310082009,
  "districtId": 5310082,
  "districtName": "ALOK TIMUR",
  "name": "KOTA BARU",
  "postalCode": "23125"
 },
 {
  "id": 5310082011,
  "districtId": 5310082,
  "districtName": "ALOK TIMUR",
  "name": "NANGAMETING",
  "postalCode": "86118"
 },
 {
  "id": 5310082012,
  "districtId": 5310082,
  "districtName": "ALOK TIMUR",
  "name": "WAIROTANG",
  "postalCode": "86111"
 },
 {
  "id": 5310082013,
  "districtId": 5310082,
  "districtName": "ALOK TIMUR",
  "name": "WAIOTI",
  "postalCode": "86118"
 },
 {
  "id": 5310082014,
  "districtId": 5310082,
  "districtName": "ALOK TIMUR",
  "name": "WATUGONG",
  "postalCode": "86116"
 },
 {
  "id": 5310082015,
  "districtId": 5310082,
  "districtName": "ALOK TIMUR",
  "name": "KOJADOI",
  "postalCode": "86116"
 },
 {
  "id": 5310082016,
  "districtId": 5310082,
  "districtName": "ALOK TIMUR",
  "name": "KOJAGETE",
  "postalCode": "86116"
 },
 {
  "id": 5310082017,
  "districtId": 5310082,
  "districtName": "ALOK TIMUR",
  "name": "PARUMAAN",
  "postalCode": "86116"
 },
 {
  "id": 5310082018,
  "districtId": 5310082,
  "districtName": "ALOK TIMUR",
  "name": "LEPOLIMA",
  "postalCode": "86116"
 }
]