[
 {
  "id": 5310040010,
  "districtId": 5310040,
  "districtName": "TALIBURA",
  "name": "NANGAHALE",
  "postalCode": "86183"
 },
 {
  "id": 5310040015,
  "districtId": 5310040,
  "districtName": "TALIBURA",
  "name": "TALIBURA",
  "postalCode": "86183"
 },
 {
  "id": 5310040016,
  "districtId": 5310040,
  "districtName": "TALIBURA",
  "name": "DARAT GUNUNG",
  "postalCode": "86183"
 },
 {
  "id": 5310040017,
  "districtId": 5310040,
  "districtName": "TALIBURA",
  "name": "DARAT PANTAI",
  "postalCode": "86183"
 },
 {
  "id": 5310040019,
  "districtId": 5310040,
  "districtName": "TALIBURA",
  "name": "HIKONG",
  "postalCode": "86183"
 },
 {
  "id": 5310040020,
  "districtId": 5310040,
  "districtName": "TALIBURA",
  "name": "KRINGA",
  "postalCode": "86183"
 },
 {
  "id": 5310040021,
  "districtId": 5310040,
  "districtName": "TALIBURA",
  "name": "OJANG",
  "postalCode": "86183"
 },
 {
  "id": 5310040022,
  "districtId": 5310040,
  "districtName": "TALIBURA",
  "name": "WAILAMUNG",
  "postalCode": "86183"
 },
 {
  "id": 5310040023,
  "districtId": 5310040,
  "districtName": "TALIBURA",
  "name": "LEWOMADA",
  "postalCode": "86183"
 },
 {
  "id": 5310040026,
  "districtId": 5310040,
  "districtName": "TALIBURA",
  "name": "TIMUTAWA",
  "postalCode": "86183"
 },
 {
  "id": 5310040027,
  "districtId": 5310040,
  "districtName": "TALIBURA",
  "name": "BAANG KOOR",
  "postalCode": "86183"
 }
]