[
 {
  "id": 5311054001,
  "districtId": 5311054,
  "districtName": "NDORI",
  "name": "SERANDORI",
  "postalCode": "86372"
 },
 {
  "id": 5311054002,
  "districtId": 5311054,
  "districtName": "NDORI",
  "name": "MAUBASA",
  "postalCode": "86372"
 },
 {
  "id": 5311054003,
  "districtId": 5311054,
  "districtName": "NDORI",
  "name": "MAUBASA TIMUR",
  "postalCode": "86372"
 },
 {
  "id": 5311054004,
  "districtId": 5311054,
  "districtName": "NDORI",
  "name": "WONDA",
  "postalCode": "86372"
 },
 {
  "id": 5311054005,
  "districtId": 5311054,
  "districtName": "NDORI",
  "name": "KELISAMBA",
  "postalCode": "86372"
 },
 {
  "id": 5311054006,
  "districtId": 5311054,
  "districtName": "NDORI",
  "name": "MAUBASA BARAT",
  "postalCode": "86372"
 },
 {
  "id": 5311054007,
  "districtId": 5311054,
  "districtName": "NDORI",
  "name": "LUNGGARIA",
  "postalCode": ""
 },
 {
  "id": 5311054008,
  "districtId": 5311054,
  "districtName": "NDORI",
  "name": "AEBARA",
  "postalCode": "86372"
 },
 {
  "id": 5311054009,
  "districtId": 5311054,
  "districtName": "NDORI",
  "name": "RATEMANGGA",
  "postalCode": "86372"
 },
 {
  "id": 5311054010,
  "districtId": 5311054,
  "districtName": "NDORI",
  "name": "MOLE",
  "postalCode": "86372"
 }
]