[
 {
  "id": 5312010014,
  "districtId": 5312010,
  "districtName": "AIMERE",
  "name": "FOA",
  "postalCode": ""
 },
 {
  "id": 5312010015,
  "districtId": 5312010,
  "districtName": "AIMERE",
  "name": "AIMERE TIMUR",
  "postalCode": "86452"
 },
 {
  "id": 5312010016,
  "districtId": 5312010,
  "districtName": "AIMERE",
  "name": "AIMERE",
  "postalCode": "86452"
 },
 {
  "id": 5312010017,
  "districtId": 5312010,
  "districtName": "AIMERE",
  "name": "KELIGEJO",
  "postalCode": "86452"
 },
 {
  "id": 5312010018,
  "districtId": 5312010,
  "districtName": "AIMERE",
  "name": "HEAWEA",
  "postalCode": "86452"
 },
 {
  "id": 5312010019,
  "districtId": 5312010,
  "districtName": "AIMERE",
  "name": "LEKOGOKO",
  "postalCode": ""
 },
 {
  "id": 5312010020,
  "districtId": 5312010,
  "districtName": "AIMERE",
  "name": "LEGELAPU",
  "postalCode": "86452"
 },
 {
  "id": 5312010021,
  "districtId": 5312010,
  "districtName": "AIMERE",
  "name": "BINAWALI",
  "postalCode": "86452"
 },
 {
  "id": 5312010022,
  "districtId": 5312010,
  "districtName": "AIMERE",
  "name": "KILA",
  "postalCode": "23671"
 },
 {
  "id": 5312010023,
  "districtId": 5312010,
  "districtName": "AIMERE",
  "name": "WAESAE",
  "postalCode": "86452"
 }
]