[
 {
  "id": 5312030007,
  "districtId": 5312030,
  "districtName": "GOLEWA",
  "name": "SARASEDU",
  "postalCode": "86461"
 },
 {
  "id": 5312030008,
  "districtId": 5312030,
  "districtName": "GOLEWA",
  "name": "MALANUZA",
  "postalCode": "86461"
 },
 {
  "id": 5312030009,
  "districtId": 5312030,
  "districtName": "GOLEWA",
  "name": "TODABELU",
  "postalCode": "86461"
 },
 {
  "id": 5312030010,
  "districtId": 5312030,
  "districtName": "GOLEWA",
  "name": "RATOGESA",
  "postalCode": "86461"
 },
 {
  "id": 5312030011,
  "districtId": 5312030,
  "districtName": "GOLEWA",
  "name": "DADAWEA",
  "postalCode": "86461"
 },
 {
  "id": 5312030012,
  "districtId": 5312030,
  "districtName": "GOLEWA",
  "name": "WERE I",
  "postalCode": "86461"
 },
 {
  "id": 5312030013,
  "districtId": 5312030,
  "districtName": "GOLEWA",
  "name": "RADABATA",
  "postalCode": "86461"
 },
 {
  "id": 5312030019,
  "districtId": 5312030,
  "districtName": "GOLEWA",
  "name": "MATALOKO",
  "postalCode": "86461"
 },
 {
  "id": 5312030020,
  "districtId": 5312030,
  "districtName": "GOLEWA",
  "name": "SANGADETO",
  "postalCode": "86461"
 },
 {
  "id": 5312030027,
  "districtId": 5312030,
  "districtName": "GOLEWA",
  "name": "WERE IV",
  "postalCode": "86461"
 },
 {
  "id": 5312030030,
  "districtId": 5312030,
  "districtName": "GOLEWA",
  "name": "SARASEDU I",
  "postalCode": "86461"
 },
 {
  "id": 5312030031,
  "districtId": 5312030,
  "districtName": "GOLEWA",
  "name": "MALANUZA I",
  "postalCode": "86461"
 },
 {
  "id": 5312030033,
  "districtId": 5312030,
  "districtName": "GOLEWA",
  "name": "EKO ROKA",
  "postalCode": "86461"
 },
 {
  "id": 5312030034,
  "districtId": 5312030,
  "districtName": "GOLEWA",
  "name": "WAE IA",
  "postalCode": "86461"
 }
]