[
 {
  "id": 5313141001,
  "districtId": 5313141,
  "districtName": "REOK BARAT",
  "name": "NGGALAK",
  "postalCode": "86592"
 },
 {
  "id": 5313141002,
  "districtId": 5313141,
  "districtName": "REOK BARAT",
  "name": "LANTE",
  "postalCode": "86592"
 },
 {
  "id": 5313141003,
  "districtId": 5313141,
  "districtName": "REOK BARAT",
  "name": "SAMBI",
  "postalCode": "57376"
 },
 {
  "id": 5313141004,
  "districtId": 5313141,
  "districtName": "REOK BARAT",
  "name": "LOCE",
  "postalCode": "86592"
 },
 {
  "id": 5313141005,
  "districtId": 5313141,
  "districtName": "REOK BARAT",
  "name": "TORONG KOE",
  "postalCode": "86592"
 },
 {
  "id": 5313141006,
  "districtId": 5313141,
  "districtName": "REOK BARAT",
  "name": "RURA",
  "postalCode": "86592"
 },
 {
  "id": 5313141007,
  "districtId": 5313141,
  "districtName": "REOK BARAT",
  "name": "TOE",
  "postalCode": "86592"
 },
 {
  "id": 5313141008,
  "districtId": 5313141,
  "districtName": "REOK BARAT",
  "name": "WAE KAJONG",
  "postalCode": "86592"
 },
 {
  "id": 5313141009,
  "districtId": 5313141,
  "districtName": "REOK BARAT",
  "name": "PARA LANDO",
  "postalCode": "86592"
 },
 {
  "id": 5313141010,
  "districtId": 5313141,
  "districtName": "REOK BARAT",
  "name": "LEMARANG",
  "postalCode": "86592"
 }
]