[
 {
  "id": 5313042001,
  "districtId": 5313042,
  "districtName": "SATAR MESE UTARA",
  "name": "RENDA",
  "postalCode": "84173"
 },
 {
  "id": 5313042002,
  "districtId": 5313042,
  "districtName": "SATAR MESE UTARA",
  "name": "TODO",
  "postalCode": "86561"
 },
 {
  "id": 5313042004,
  "districtId": 5313042,
  "districtName": "SATAR MESE UTARA",
  "name": "POPO",
  "postalCode": "86561"
 },
 {
  "id": 5313042005,
  "districtId": 5313042,
  "districtName": "SATAR MESE UTARA",
  "name": "LIA",
  "postalCode": "86561"
 },
 {
  "id": 5313042006,
  "districtId": 5313042,
  "districtName": "SATAR MESE UTARA",
  "name": "KOLE",
  "postalCode": "84153"
 },
 {
  "id": 5313042007,
  "districtId": 5313042,
  "districtName": "SATAR MESE UTARA",
  "name": "LING",
  "postalCode": "86561"
 },
 {
  "id": 5313042008,
  "districtId": 5313042,
  "districtName": "SATAR MESE UTARA",
  "name": "NAO",
  "postalCode": "86561"
 },
 {
  "id": 5313042009,
  "districtId": 5313042,
  "districtName": "SATAR MESE UTARA",
  "name": "CIRENG",
  "postalCode": "86561"
 },
 {
  "id": 5313042010,
  "districtId": 5313042,
  "districtName": "SATAR MESE UTARA",
  "name": "RUANG",
  "postalCode": "86561"
 },
 {
  "id": 5313042011,
  "districtId": 5313042,
  "districtName": "SATAR MESE UTARA",
  "name": "MATA WAE",
  "postalCode": "86757"
 }
]