[
 {
  "id": 5313131002,
  "districtId": 5313131,
  "districtName": "CIBAL BARAT",
  "name": "LENDA",
  "postalCode": "86591"
 },
 {
  "id": 5313131003,
  "districtId": 5313131,
  "districtName": "CIBAL BARAT",
  "name": "COMPANG CIBAL",
  "postalCode": "86591"
 },
 {
  "id": 5313131004,
  "districtId": 5313131,
  "districtName": "CIBAL BARAT",
  "name": "BANGKA ARA",
  "postalCode": "86591"
 },
 {
  "id": 5313131005,
  "districtId": 5313131,
  "districtName": "CIBAL BARAT",
  "name": "WAE CODI",
  "postalCode": "86591"
 },
 {
  "id": 5313131006,
  "districtId": 5313131,
  "districtName": "CIBAL BARAT",
  "name": "TIMBU",
  "postalCode": "86591"
 },
 {
  "id": 5313131007,
  "districtId": 5313131,
  "districtName": "CIBAL BARAT",
  "name": "GOLO WOI",
  "postalCode": "86591"
 },
 {
  "id": 5313131008,
  "districtId": 5313131,
  "districtName": "CIBAL BARAT",
  "name": "WAE RENCA",
  "postalCode": "86591"
 },
 {
  "id": 5313131009,
  "districtId": 5313131,
  "districtName": "CIBAL BARAT",
  "name": "LATUNG",
  "postalCode": "86591"
 },
 {
  "id": 5313131010,
  "districtId": 5313131,
  "districtName": "CIBAL BARAT",
  "name": "GOLO LANAK",
  "postalCode": "86591"
 }
]