[
 {
  "id": 5314050001,
  "districtId": 5314050,
  "districtName": "PANTAI BARU",
  "name": "NUSAKDALE",
  "postalCode": "85973"
 },
 {
  "id": 5314050002,
  "districtId": 5314050,
  "districtName": "PANTAI BARU",
  "name": "BATULILOK",
  "postalCode": "85973"
 },
 {
  "id": 5314050004,
  "districtId": 5314050,
  "districtName": "PANTAI BARU",
  "name": "SONIMANU",
  "postalCode": "85973"
 },
 {
  "id": 5314050005,
  "districtId": 5314050,
  "districtName": "PANTAI BARU",
  "name": "OEBAU",
  "postalCode": "85973"
 },
 {
  "id": 5314050006,
  "districtId": 5314050,
  "districtName": "PANTAI BARU",
  "name": "OELEDO",
  "postalCode": "85973"
 },
 {
  "id": 5314050007,
  "districtId": 5314050,
  "districtName": "PANTAI BARU",
  "name": "KEOEN",
  "postalCode": "85973"
 },
 {
  "id": 5314050008,
  "districtId": 5314050,
  "districtName": "PANTAI BARU",
  "name": "EDALODE",
  "postalCode": "85973"
 },
 {
  "id": 5314050009,
  "districtId": 5314050,
  "districtName": "PANTAI BARU",
  "name": "OLAFULIHAA",
  "postalCode": "85973"
 },
 {
  "id": 5314050010,
  "districtId": 5314050,
  "districtName": "PANTAI BARU",
  "name": "TUNGANAMO",
  "postalCode": "85973"
 },
 {
  "id": 5314050011,
  "districtId": 5314050,
  "districtName": "PANTAI BARU",
  "name": "TESABELA",
  "postalCode": "85351"
 }
]