[
 {
  "id": 5315040001,
  "districtId": 5315040,
  "districtName": "KUWUS",
  "name": "GOLO WEDONG",
  "postalCode": "86752"
 },
 {
  "id": 5315040002,
  "districtId": 5315040,
  "districtName": "KUWUS",
  "name": "RANGGU",
  "postalCode": "86752"
 },
 {
  "id": 5315040003,
  "districtId": 5315040,
  "districtName": "KUWUS",
  "name": "GOLO RUU",
  "postalCode": "86752"
 },
 {
  "id": 5315040005,
  "districtId": 5315040,
  "districtName": "KUWUS",
  "name": "COMPANG SUKA",
  "postalCode": "86752"
 },
 {
  "id": 5315040006,
  "districtId": 5315040,
  "districtName": "KUWUS",
  "name": "NANTAL",
  "postalCode": "31419"
 },
 {
  "id": 5315040007,
  "districtId": 5315040,
  "districtName": "KUWUS",
  "name": "COAL",
  "postalCode": "86752"
 },
 {
  "id": 5315040008,
  "districtId": 5315040,
  "districtName": "KUWUS",
  "name": "SAMA",
  "postalCode": "86752"
 },
 {
  "id": 5315040010,
  "districtId": 5315040,
  "districtName": "KUWUS",
  "name": "LAWI",
  "postalCode": "86752"
 },
 {
  "id": 5315040016,
  "districtId": 5315040,
  "districtName": "KUWUS",
  "name": "PANGGA",
  "postalCode": "86752"
 },
 {
  "id": 5315040017,
  "districtId": 5315040,
  "districtName": "KUWUS",
  "name": "KOLANG",
  "postalCode": "86752"
 },
 {
  "id": 5315040019,
  "districtId": 5315040,
  "districtName": "KUWUS",
  "name": "GOLO LEWE",
  "postalCode": "86752"
 },
 {
  "id": 5315040021,
  "districtId": 5315040,
  "districtName": "KUWUS",
  "name": "GOLO RIWU",
  "postalCode": "86752"
 },
 {
  "id": 5315040022,
  "districtId": 5315040,
  "districtName": "KUWUS",
  "name": "COMPANG KULES",
  "postalCode": "86752"
 },
 {
  "id": 5315040023,
  "districtId": 5315040,
  "districtName": "KUWUS",
  "name": "GOLO PUA",
  "postalCode": ""
 },
 {
  "id": 5315040024,
  "districtId": 5315040,
  "districtName": "KUWUS",
  "name": "SUKA KIONG",
  "postalCode": ""
 },
 {
  "id": 5315040025,
  "districtId": 5315040,
  "districtName": "KUWUS",
  "name": "BANGKA LEWAT",
  "postalCode": ""
 },
 {
  "id": 5315040026,
  "districtId": 5315040,
  "districtName": "KUWUS",
  "name": "SOMPANG KOLANG",
  "postalCode": ""
 },
 {
  "id": 5315040027,
  "districtId": 5315040,
  "districtName": "KUWUS",
  "name": "WAJUR",
  "postalCode": ""
 }
]