[
 {
  "id": 5316030001,
  "districtId": 5316030,
  "districtName": "UMBU RATU NGGAY",
  "name": "MBILUR PANGADU",
  "postalCode": "87283"
 },
 {
  "id": 5316030002,
  "districtId": 5316030,
  "districtName": "UMBU RATU NGGAY",
  "name": "PRAI KAROKU JANGGA",
  "postalCode": "87283"
 },
 {
  "id": 5316030003,
  "districtId": 5316030,
  "districtName": "UMBU RATU NGGAY",
  "name": "PADIRA TANA",
  "postalCode": "87283"
 },
 {
  "id": 5316030004,
  "districtId": 5316030,
  "districtName": "UMBU RATU NGGAY",
  "name": "SORU",
  "postalCode": "87283"
 },
 {
  "id": 5316030005,
  "districtId": 5316030,
  "districtName": "UMBU RATU NGGAY",
  "name": "WELUK PRAI MEMANG",
  "postalCode": "87283"
 },
 {
  "id": 5316030006,
  "districtId": 5316030,
  "districtName": "UMBU RATU NGGAY",
  "name": "MARADESA",
  "postalCode": ""
 },
 {
  "id": 5316030007,
  "districtId": 5316030,
  "districtName": "UMBU RATU NGGAY",
  "name": "BOLUBOKAT",
  "postalCode": ""
 },
 {
  "id": 5316030008,
  "districtId": 5316030,
  "districtName": "UMBU RATU NGGAY",
  "name": "BOLUBOKAT UTARA",
  "postalCode": ""
 },
 {
  "id": 5316030009,
  "districtId": 5316030,
  "districtName": "UMBU RATU NGGAY",
  "name": "LENANG",
  "postalCode": "86583"
 },
 {
  "id": 5316030010,
  "districtId": 5316030,
  "districtName": "UMBU RATU NGGAY",
  "name": "NGADU MBOLU",
  "postalCode": ""
 },
 {
  "id": 5316030011,
  "districtId": 5316030,
  "districtName": "UMBU RATU NGGAY",
  "name": "TANA MBANAS",
  "postalCode": "87283"
 },
 {
  "id": 5316030012,
  "districtId": 5316030,
  "districtName": "UMBU RATU NGGAY",
  "name": "MARADESA TIMUR",
  "postalCode": "87283"
 },
 {
  "id": 5316030013,
  "districtId": 5316030,
  "districtName": "UMBU RATU NGGAY",
  "name": "MARADESA SELATAN",
  "postalCode": "87283"
 },
 {
  "id": 5316030014,
  "districtId": 5316030,
  "districtName": "UMBU RATU NGGAY",
  "name": "TANA MBANAS SELATAN",
  "postalCode": "87283"
 },
 {
  "id": 5316030015,
  "districtId": 5316030,
  "districtName": "UMBU RATU NGGAY",
  "name": "TANA MBANAS BARAT",
  "postalCode": "87283"
 },
 {
  "id": 5316030016,
  "districtId": 5316030,
  "districtName": "UMBU RATU NGGAY",
  "name": "NGADU OLU",
  "postalCode": "87283"
 },
 {
  "id": 5316030017,
  "districtId": 5316030,
  "districtName": "UMBU RATU NGGAY",
  "name": "LENANG SELATAN",
  "postalCode": "87283"
 },
 {
  "id": 5316030018,
  "districtId": 5316030,
  "districtName": "UMBU RATU NGGAY",
  "name": "BOLUBOKAT BARAT",
  "postalCode": "87283"
 }
]