[
 {
  "id": 5316040001,
  "districtId": 5316040,
  "districtName": "MAMBORO",
  "name": "WEE LURI",
  "postalCode": "87258"
 },
 {
  "id": 5316040002,
  "districtId": 5316040,
  "districtName": "MAMBORO",
  "name": "WENDEWA BARAT",
  "postalCode": "87258"
 },
 {
  "id": 5316040003,
  "districtId": 5316040,
  "districtName": "MAMBORO",
  "name": "OLE ATE",
  "postalCode": "87258"
 },
 {
  "id": 5316040004,
  "districtId": 5316040,
  "districtName": "MAMBORO",
  "name": "CENDANA",
  "postalCode": "21417"
 },
 {
  "id": 5316040005,
  "districtId": 5316040,
  "districtName": "MAMBORO",
  "name": "WENDEWA SELATAN",
  "postalCode": "87258"
 },
 {
  "id": 5316040006,
  "districtId": 5316040,
  "districtName": "MAMBORO",
  "name": "WENDEWA UTARA",
  "postalCode": "87258"
 },
 {
  "id": 5316040007,
  "districtId": 5316040,
  "districtName": "MAMBORO",
  "name": "MANU WOLU",
  "postalCode": "87258"
 },
 {
  "id": 5316040008,
  "districtId": 5316040,
  "districtName": "MAMBORO",
  "name": "WENDEWA TIMUR",
  "postalCode": "87258"
 },
 {
  "id": 5316040009,
  "districtId": 5316040,
  "districtName": "MAMBORO",
  "name": "WATU ASA",
  "postalCode": "87258"
 },
 {
  "id": 5316040010,
  "districtId": 5316040,
  "districtName": "MAMBORO",
  "name": "BONDO SULLA",
  "postalCode": "87258"
 },
 {
  "id": 5316040011,
  "districtId": 5316040,
  "districtName": "MAMBORO",
  "name": "SUSU WENDEWA",
  "postalCode": "87258"
 },
 {
  "id": 5316040012,
  "districtId": 5316040,
  "districtName": "MAMBORO",
  "name": "OLE DEWA",
  "postalCode": "87258"
 },
 {
  "id": 5316040013,
  "districtId": 5316040,
  "districtName": "MAMBORO",
  "name": "CENDANA BARAT",
  "postalCode": "87258"
 }
]