[
 {
  "id": 5318040001,
  "districtId": 5318040,
  "districtName": "BOAWAE",
  "name": "ROWA",
  "postalCode": "86462"
 },
 {
  "id": 5318040002,
  "districtId": 5318040,
  "districtName": "BOAWAE",
  "name": "SOLO",
  "postalCode": "86462"
 },
 {
  "id": 5318040003,
  "districtId": 5318040,
  "districtName": "BOAWAE",
  "name": "KELEWAE",
  "postalCode": "86462"
 },
 {
  "id": 5318040005,
  "districtId": 5318040,
  "districtName": "BOAWAE",
  "name": "NAGESAPADHI",
  "postalCode": "86462"
 },
 {
  "id": 5318040006,
  "districtId": 5318040,
  "districtName": "BOAWAE",
  "name": "RIGI",
  "postalCode": "86462"
 },
 {
  "id": 5318040007,
  "districtId": 5318040,
  "districtName": "BOAWAE",
  "name": "OLAKILE",
  "postalCode": "86462"
 },
 {
  "id": 5318040008,
  "districtId": 5318040,
  "districtName": "BOAWAE",
  "name": "NATANAGE",
  "postalCode": "86462"
 },
 {
  "id": 5318040009,
  "districtId": 5318040,
  "districtName": "BOAWAE",
  "name": "NAGEOGA",
  "postalCode": "86462"
 },
 {
  "id": 5318040010,
  "districtId": 5318040,
  "districtName": "BOAWAE",
  "name": "WOLOPOGO",
  "postalCode": "86462"
 },
 {
  "id": 5318040011,
  "districtId": 5318040,
  "districtName": "BOAWAE",
  "name": "REGA",
  "postalCode": "86462"
 },
 {
  "id": 5318040012,
  "districtId": 5318040,
  "districtName": "BOAWAE",
  "name": "MULAKOLI",
  "postalCode": "86462"
 },
 {
  "id": 5318040013,
  "districtId": 5318040,
  "districtName": "BOAWAE",
  "name": "KELIMADO",
  "postalCode": "86462"
 },
 {
  "id": 5318040014,
  "districtId": 5318040,
  "districtName": "BOAWAE",
  "name": "WEA AU",
  "postalCode": "86462"
 },
 {
  "id": 5318040015,
  "districtId": 5318040,
  "districtName": "BOAWAE",
  "name": "RAJA",
  "postalCode": "24472"
 },
 {
  "id": 5318040016,
  "districtId": 5318040,
  "districtName": "BOAWAE",
  "name": "WOLOWEA",
  "postalCode": "86462"
 },
 {
  "id": 5318040017,
  "districtId": 5318040,
  "districtName": "BOAWAE",
  "name": "RATONGAMOBO",
  "postalCode": "86462"
 },
 {
  "id": 5318040018,
  "districtId": 5318040,
  "districtName": "BOAWAE",
  "name": "DHEREISA",
  "postalCode": "86462"
 },
 {
  "id": 5318040019,
  "districtId": 5318040,
  "districtName": "BOAWAE",
  "name": "GERODHERE",
  "postalCode": "86462"
 },
 {
  "id": 5318040020,
  "districtId": 5318040,
  "districtName": "BOAWAE",
  "name": "NAGERAWE",
  "postalCode": "86462"
 },
 {
  "id": 5318040021,
  "districtId": 5318040,
  "districtName": "BOAWAE",
  "name": "FOCOLODORAWE",
  "postalCode": "86462"
 },
 {
  "id": 5318040022,
  "districtId": 5318040,
  "districtName": "BOAWAE",
  "name": "ALORAWE",
  "postalCode": "86462"
 },
 {
  "id": 5318040023,
  "districtId": 5318040,
  "districtName": "BOAWAE",
  "name": "NATANAGE TIMUR",
  "postalCode": "86462"
 },
 {
  "id": 5318040024,
  "districtId": 5318040,
  "districtName": "BOAWAE",
  "name": "RAJA TIMUR",
  "postalCode": "86462"
 },
 {
  "id": 5318040025,
  "districtId": 5318040,
  "districtName": "BOAWAE",
  "name": "RAJA SELATAN",
  "postalCode": "86462"
 },
 {
  "id": 5318040026,
  "districtId": 5318040,
  "districtName": "BOAWAE",
  "name": "WOLOWEA BARAT",
  "postalCode": "86462"
 },
 {
  "id": 5318040027,
  "districtId": 5318040,
  "districtName": "BOAWAE",
  "name": "WOLOWEA TIMUR",
  "postalCode": "86462"
 }
]