[
 {
  "id": 5319031001,
  "districtId": 5319031,
  "districtName": "ELAR SELATAN",
  "name": "GOLO WUAS",
  "postalCode": "86581"
 },
 {
  "id": 5319031002,
  "districtId": 5319031,
  "districtName": "ELAR SELATAN",
  "name": "SIPI",
  "postalCode": "86581"
 },
 {
  "id": 5319031003,
  "districtId": 5319031,
  "districtName": "ELAR SELATAN",
  "name": "PAAN WARU",
  "postalCode": "86581"
 },
 {
  "id": 5319031004,
  "districtId": 5319031,
  "districtName": "ELAR SELATAN",
  "name": "NANGA MEJE",
  "postalCode": "86581"
 },
 {
  "id": 5319031005,
  "districtId": 5319031,
  "districtName": "ELAR SELATAN",
  "name": "LANGGASAI",
  "postalCode": "86581"
 },
 {
  "id": 5319031006,
  "districtId": 5319031,
  "districtName": "ELAR SELATAN",
  "name": "SANGAN KALO",
  "postalCode": "86581"
 },
 {
  "id": 5319031007,
  "districtId": 5319031,
  "districtName": "ELAR SELATAN",
  "name": "GOLO LINUS",
  "postalCode": "86581"
 },
 {
  "id": 5319031008,
  "districtId": 5319031,
  "districtName": "ELAR SELATAN",
  "name": "GISING",
  "postalCode": "86581"
 },
 {
  "id": 5319031009,
  "districtId": 5319031,
  "districtName": "ELAR SELATAN",
  "name": "TENO MESE",
  "postalCode": "86581"
 },
 {
  "id": 5319031010,
  "districtId": 5319031,
  "districtName": "ELAR SELATAN",
  "name": "LEMPANG PAJI",
  "postalCode": "86581"
 },
 {
  "id": 5319031011,
  "districtId": 5319031,
  "districtName": "ELAR SELATAN",
  "name": "NANGA PU'UN",
  "postalCode": ""
 },
 {
  "id": 5319031012,
  "districtId": 5319031,
  "districtName": "ELAR SELATAN",
  "name": "MOSI NGARAN",
  "postalCode": "86581"
 },
 {
  "id": 5319031013,
  "districtId": 5319031,
  "districtName": "ELAR SELATAN",
  "name": "WAE RASAN",
  "postalCode": "86581"
 },
 {
  "id": 5319031014,
  "districtId": 5319031,
  "districtName": "ELAR SELATAN",
  "name": "BENTENG PAU",
  "postalCode": "86581"
 }
]