[
 {
  "id": 5319030010,
  "districtId": 5319030,
  "districtName": "ELAR",
  "name": "GOLO MUNDE",
  "postalCode": "86581"
 },
 {
  "id": 5319030012,
  "districtId": 5319030,
  "districtName": "ELAR",
  "name": "TIWU KONDO",
  "postalCode": "86581"
 },
 {
  "id": 5319030013,
  "districtId": 5319030,
  "districtName": "ELAR",
  "name": "RANA GAPANG",
  "postalCode": "86581"
 },
 {
  "id": 5319030014,
  "districtId": 5319030,
  "districtName": "ELAR",
  "name": "HAJU NGENDONG",
  "postalCode": "86581"
 },
 {
  "id": 5319030015,
  "districtId": 5319030,
  "districtName": "ELAR",
  "name": "LENGKO NAMUT",
  "postalCode": "86581"
 },
 {
  "id": 5319030016,
  "districtId": 5319030,
  "districtName": "ELAR",
  "name": "SISIR",
  "postalCode": "65314"
 },
 {
  "id": 5319030017,
  "districtId": 5319030,
  "districtName": "ELAR",
  "name": "RANA KULAN",
  "postalCode": "86581"
 },
 {
  "id": 5319030018,
  "districtId": 5319030,
  "districtName": "ELAR",
  "name": "BITING",
  "postalCode": "53454"
 },
 {
  "id": 5319030019,
  "districtId": 5319030,
  "districtName": "ELAR",
  "name": "GOLO LEBO",
  "postalCode": "86581"
 },
 {
  "id": 5319030020,
  "districtId": 5319030,
  "districtName": "ELAR",
  "name": "LEGUR LAI",
  "postalCode": "86581"
 },
 {
  "id": 5319030021,
  "districtId": 5319030,
  "districtName": "ELAR",
  "name": "GOLO LIJUN",
  "postalCode": "86581"
 },
 {
  "id": 5319030026,
  "districtId": 5319030,
  "districtName": "ELAR",
  "name": "WAE LOKOM",
  "postalCode": ""
 },
 {
  "id": 5319030027,
  "districtId": 5319030,
  "districtName": "ELAR",
  "name": "COMPANG TEO",
  "postalCode": ""
 },
 {
  "id": 5319030028,
  "districtId": 5319030,
  "districtName": "ELAR",
  "name": "COMPANG SOBA",
  "postalCode": ""
 },
 {
  "id": 5319030029,
  "districtId": 5319030,
  "districtName": "ELAR",
  "name": "KAJU WANGI",
  "postalCode": ""
 }
]