[
 {
  "id": 5319060001,
  "districtId": 5319060,
  "districtName": "LAMBA LEDA",
  "name": "TENGKULAWAR",
  "postalCode": "86582"
 },
 {
  "id": 5319060002,
  "districtId": 5319060,
  "districtName": "LAMBA LEDA",
  "name": "COMPANG NECAK",
  "postalCode": "86582"
 },
 {
  "id": 5319060003,
  "districtId": 5319060,
  "districtName": "LAMBA LEDA",
  "name": "COMPANG MEKAR",
  "postalCode": "86582"
 },
 {
  "id": 5319060004,
  "districtId": 5319060,
  "districtName": "LAMBA LEDA",
  "name": "TENGKU LEDA",
  "postalCode": "86582"
 },
 {
  "id": 5319060005,
  "districtId": 5319060,
  "districtName": "LAMBA LEDA",
  "name": "COMPANG DERU",
  "postalCode": "86582"
 },
 {
  "id": 5319060006,
  "districtId": 5319060,
  "districtName": "LAMBA LEDA",
  "name": "GORENG MENI",
  "postalCode": "86582"
 },
 {
  "id": 5319060007,
  "districtId": 5319060,
  "districtName": "LAMBA LEDA",
  "name": "GOLO MUNGA",
  "postalCode": "86582"
 },
 {
  "id": 5319060008,
  "districtId": 5319060,
  "districtName": "LAMBA LEDA",
  "name": "GOLO RENTUNG",
  "postalCode": "86582"
 },
 {
  "id": 5319060009,
  "districtId": 5319060,
  "districtName": "LAMBA LEDA",
  "name": "GOLO LEMBUR",
  "postalCode": "86582"
 },
 {
  "id": 5319060010,
  "districtId": 5319060,
  "districtName": "LAMBA LEDA",
  "name": "GOLO NIMBUNG",
  "postalCode": "86582"
 },
 {
  "id": 5319060012,
  "districtId": 5319060,
  "districtName": "LAMBA LEDA",
  "name": "GOLO MANGUNG",
  "postalCode": "86582"
 },
 {
  "id": 5319060013,
  "districtId": 5319060,
  "districtName": "LAMBA LEDA",
  "name": "SATAR PADUT",
  "postalCode": "86582"
 },
 {
  "id": 5319060014,
  "districtId": 5319060,
  "districtName": "LAMBA LEDA",
  "name": "NAMPAR TABANG",
  "postalCode": "86582"
 },
 {
  "id": 5319060015,
  "districtId": 5319060,
  "districtName": "LAMBA LEDA",
  "name": "LIANG DERUK",
  "postalCode": "86582"
 },
 {
  "id": 5319060016,
  "districtId": 5319060,
  "districtName": "LAMBA LEDA",
  "name": "SATAR PUNDA",
  "postalCode": "86582"
 },
 {
  "id": 5319060017,
  "districtId": 5319060,
  "districtName": "LAMBA LEDA",
  "name": "LAMBA KELI",
  "postalCode": ""
 },
 {
  "id": 5319060018,
  "districtId": 5319060,
  "districtName": "LAMBA LEDA",
  "name": "GORENG MENI UTARA",
  "postalCode": "86582"
 },
 {
  "id": 5319060019,
  "districtId": 5319060,
  "districtName": "LAMBA LEDA",
  "name": "GOLO MUNGA BARAT",
  "postalCode": "86582"
 },
 {
  "id": 5319060020,
  "districtId": 5319060,
  "districtName": "LAMBA LEDA",
  "name": "GOLO PALENG",
  "postalCode": "86582"
 },
 {
  "id": 5319060021,
  "districtId": 5319060,
  "districtName": "LAMBA LEDA",
  "name": "HAJU WANGI",
  "postalCode": "86582"
 },
 {
  "id": 5319060022,
  "districtId": 5319060,
  "districtName": "LAMBA LEDA",
  "name": "GOLO WONTONG",
  "postalCode": "86582"
 },
 {
  "id": 5319060023,
  "districtId": 5319060,
  "districtName": "LAMBA LEDA",
  "name": "SATAR KAMPAS",
  "postalCode": "86582"
 },
 {
  "id": 5319060024,
  "districtId": 5319060,
  "districtName": "LAMBA LEDA",
  "name": "SATAR PUNDA BARAT",
  "postalCode": "86582"
 }
]