[
 {
  "id": 5319040001,
  "districtId": 5319040,
  "districtName": "SAMBI RAMPAS",
  "name": "COMPANG CONGKAR",
  "postalCode": "86584"
 },
 {
  "id": 5319040002,
  "districtId": 5319040,
  "districtName": "SAMBI RAMPAS",
  "name": "RANA MESE",
  "postalCode": "86584"
 },
 {
  "id": 5319040003,
  "districtId": 5319040,
  "districtName": "SAMBI RAMPAS",
  "name": "SATAR NAWANG",
  "postalCode": "86584"
 },
 {
  "id": 5319040004,
  "districtId": 5319040,
  "districtName": "SAMBI RAMPAS",
  "name": "GOLO NGAWAN",
  "postalCode": "86584"
 },
 {
  "id": 5319040005,
  "districtId": 5319040,
  "districtName": "SAMBI RAMPAS",
  "name": "BUTI",
  "postalCode": "86584"
 },
 {
  "id": 5319040006,
  "districtId": 5319040,
  "districtName": "SAMBI RAMPAS",
  "name": "GOLO WANGKUNG",
  "postalCode": "86584"
 },
 {
  "id": 5319040007,
  "districtId": 5319040,
  "districtName": "SAMBI RAMPAS",
  "name": "LADA MESE",
  "postalCode": "86584"
 },
 {
  "id": 5319040008,
  "districtId": 5319040,
  "districtName": "SAMBI RAMPAS",
  "name": "NANGA BARAS",
  "postalCode": "86584"
 },
 {
  "id": 5319040009,
  "districtId": 5319040,
  "districtName": "SAMBI RAMPAS",
  "name": "NANGA MBALING",
  "postalCode": "86584"
 },
 {
  "id": 5319040010,
  "districtId": 5319040,
  "districtName": "SAMBI RAMPAS",
  "name": "POTA",
  "postalCode": "86584"
 },
 {
  "id": 5319040011,
  "districtId": 5319040,
  "districtName": "SAMBI RAMPAS",
  "name": "NANGA MBAUR",
  "postalCode": "86584"
 },
 {
  "id": 5319040012,
  "districtId": 5319040,
  "districtName": "SAMBI RAMPAS",
  "name": "COMPANG LAWI",
  "postalCode": "86584"
 },
 {
  "id": 5319040013,
  "districtId": 5319040,
  "districtName": "SAMBI RAMPAS",
  "name": "WEA",
  "postalCode": "86584"
 },
 {
  "id": 5319040014,
  "districtId": 5319040,
  "districtName": "SAMBI RAMPAS",
  "name": "GOLO PARI",
  "postalCode": "86584"
 },
 {
  "id": 5319040015,
  "districtId": 5319040,
  "districtName": "SAMBI RAMPAS",
  "name": "GOLO WANGKUNG BARAT",
  "postalCode": "86584"
 },
 {
  "id": 5319040016,
  "districtId": 5319040,
  "districtName": "SAMBI RAMPAS",
  "name": "GOLO WANGKUNG UTARA",
  "postalCode": "86584"
 },
 {
  "id": 5319040017,
  "districtId": 5319040,
  "districtName": "SAMBI RAMPAS",
  "name": "KEMBANG MEKAR",
  "postalCode": "86584"
 },
 {
  "id": 5319040018,
  "districtId": 5319040,
  "districtName": "SAMBI RAMPAS",
  "name": "WELA LADA",
  "postalCode": "86584"
 },
 {
  "id": 5319040019,
  "districtId": 5319040,
  "districtName": "SAMBI RAMPAS",
  "name": "ULUNG BARAS",
  "postalCode": "86584"
 },
 {
  "id": 5319040020,
  "districtId": 5319040,
  "districtName": "SAMBI RAMPAS",
  "name": "NAMPAR SEPANG",
  "postalCode": "86584"
 }
]