[
 {
  "id": 5319011001,
  "districtId": 5319011,
  "districtName": "RANA MESE",
  "name": "BEA NGENCUNG",
  "postalCode": "86571"
 },
 {
  "id": 5319011002,
  "districtId": 5319011,
  "districtName": "RANA MESE",
  "name": "SATAR LAHING",
  "postalCode": "86571"
 },
 {
  "id": 5319011003,
  "districtId": 5319011,
  "districtName": "RANA MESE",
  "name": "GOLO MELENG",
  "postalCode": "86571"
 },
 {
  "id": 5319011004,
  "districtId": 5319011,
  "districtName": "RANA MESE",
  "name": "GOLO RUTUK",
  "postalCode": "86571"
 },
 {
  "id": 5319011005,
  "districtId": 5319011,
  "districtName": "RANA MESE",
  "name": "GOLO LONI",
  "postalCode": "86571"
 },
 {
  "id": 5319011006,
  "districtId": 5319011,
  "districtName": "RANA MESE",
  "name": "SITA",
  "postalCode": "86571"
 },
 {
  "id": 5319011007,
  "districtId": 5319011,
  "districtName": "RANA MESE",
  "name": "TOROK GOLO",
  "postalCode": "86571"
 },
 {
  "id": 5319011008,
  "districtId": 5319011,
  "districtName": "RANA MESE",
  "name": "GOLO ROS",
  "postalCode": "86571"
 },
 {
  "id": 5319011009,
  "districtId": 5319011,
  "districtName": "RANA MESE",
  "name": "SANO LOKOM",
  "postalCode": ""
 },
 {
  "id": 5319011010,
  "districtId": 5319011,
  "districtName": "RANA MESE",
  "name": "RONDO WOING",
  "postalCode": "86571"
 },
 {
  "id": 5319011011,
  "districtId": 5319011,
  "districtName": "RANA MESE",
  "name": "LIDI",
  "postalCode": "29783"
 },
 {
  "id": 5319011012,
  "districtId": 5319011,
  "districtName": "RANA MESE",
  "name": "SATAR LENDA",
  "postalCode": "86571"
 },
 {
  "id": 5319011013,
  "districtId": 5319011,
  "districtName": "RANA MESE",
  "name": "LALANG",
  "postalCode": "20127"
 },
 {
  "id": 5319011014,
  "districtId": 5319011,
  "districtName": "RANA MESE",
  "name": "WAE NGGORI",
  "postalCode": "86571"
 },
 {
  "id": 5319011015,
  "districtId": 5319011,
  "districtName": "RANA MESE",
  "name": "COMPANG KANTAR",
  "postalCode": "86571"
 },
 {
  "id": 5319011016,
  "districtId": 5319011,
  "districtName": "RANA MESE",
  "name": "BANGKA KEMPO",
  "postalCode": "86571"
 },
 {
  "id": 5319011017,
  "districtId": 5319011,
  "districtName": "RANA MESE",
  "name": "COMPANG TEBER",
  "postalCode": "86571"
 },
 {
  "id": 5319011018,
  "districtId": 5319011,
  "districtName": "RANA MESE",
  "name": "COMPANG LONI",
  "postalCode": "86571"
 },
 {
  "id": 5319011019,
  "districtId": 5319011,
  "districtName": "RANA MESE",
  "name": "COMPANG KEMPO",
  "postalCode": "86571"
 },
 {
  "id": 5319011020,
  "districtId": 5319011,
  "districtName": "RANA MESE",
  "name": "WATU MORI",
  "postalCode": "86571"
 },
 {
  "id": 5319011021,
  "districtId": 5319011,
  "districtName": "RANA MESE",
  "name": "BANGKA MASA",
  "postalCode": "86571"
 }
]