[
 {
  "id": 5320060001,
  "districtId": 5320060,
  "districtName": "SABU TIMUR",
  "name": "HUWAGA",
  "postalCode": "85392"
 },
 {
  "id": 5320060002,
  "districtId": 5320060,
  "districtName": "SABU TIMUR",
  "name": "LOBODEI",
  "postalCode": "85392"
 },
 {
  "id": 5320060003,
  "districtId": 5320060,
  "districtName": "SABU TIMUR",
  "name": "EIADA",
  "postalCode": "85392"
 },
 {
  "id": 5320060005,
  "districtId": 5320060,
  "districtName": "SABU TIMUR",
  "name": "BOLOU",
  "postalCode": "85392"
 },
 {
  "id": 5320060006,
  "districtId": 5320060,
  "districtName": "SABU TIMUR",
  "name": "LIMAGGU",
  "postalCode": ""
 },
 {
  "id": 5320060007,
  "districtId": 5320060,
  "districtName": "SABU TIMUR",
  "name": "LOBORAI",
  "postalCode": "85392"
 },
 {
  "id": 5320060008,
  "districtId": 5320060,
  "districtName": "SABU TIMUR",
  "name": "BODAE",
  "postalCode": "85392"
 },
 {
  "id": 5320060009,
  "districtId": 5320060,
  "districtName": "SABU TIMUR",
  "name": "KUJIRATU",
  "postalCode": "85392"
 },
 {
  "id": 5320060010,
  "districtId": 5320060,
  "districtName": "SABU TIMUR",
  "name": "KELIHA",
  "postalCode": "85392"
 }
]