[
 {
  "id": 5320040001,
  "districtId": 5320040,
  "districtName": "SABU BARAT",
  "name": "TERIWU",
  "postalCode": "85391"
 },
 {
  "id": 5320040002,
  "districtId": 5320040,
  "districtName": "SABU BARAT",
  "name": "RAENALULU",
  "postalCode": "85391"
 },
 {
  "id": 5320040004,
  "districtId": 5320040,
  "districtName": "SABU BARAT",
  "name": "TITINALEDE",
  "postalCode": "85391"
 },
 {
  "id": 5320040005,
  "districtId": 5320040,
  "districtName": "SABU BARAT",
  "name": "RAEMUDE",
  "postalCode": "85391"
 },
 {
  "id": 5320040006,
  "districtId": 5320040,
  "districtName": "SABU BARAT",
  "name": "RAENYALE",
  "postalCode": "85391"
 },
 {
  "id": 5320040007,
  "districtId": 5320040,
  "districtName": "SABU BARAT",
  "name": "RAEKORE",
  "postalCode": ""
 },
 {
  "id": 5320040008,
  "districtId": 5320040,
  "districtName": "SABU BARAT",
  "name": "NADAWAWI",
  "postalCode": ""
 },
 {
  "id": 5320040009,
  "districtId": 5320040,
  "districtName": "SABU BARAT",
  "name": "DELO",
  "postalCode": "85391"
 },
 {
  "id": 5320040010,
  "districtId": 5320040,
  "districtName": "SABU BARAT",
  "name": "MENIA",
  "postalCode": "85391"
 },
 {
  "id": 5320040011,
  "districtId": 5320040,
  "districtName": "SABU BARAT",
  "name": "RAELORO",
  "postalCode": "85391"
 },
 {
  "id": 5320040012,
  "districtId": 5320040,
  "districtName": "SABU BARAT",
  "name": "ROBOABA",
  "postalCode": "85391"
 },
 {
  "id": 5320040013,
  "districtId": 5320040,
  "districtName": "SABU BARAT",
  "name": "MEBBA",
  "postalCode": "85391"
 },
 {
  "id": 5320040014,
  "districtId": 5320040,
  "districtName": "SABU BARAT",
  "name": "RAEMADIA",
  "postalCode": "85391"
 },
 {
  "id": 5320040015,
  "districtId": 5320040,
  "districtName": "SABU BARAT",
  "name": "LEDEANA",
  "postalCode": "85391"
 },
 {
  "id": 5320040016,
  "districtId": 5320040,
  "districtName": "SABU BARAT",
  "name": "JADU",
  "postalCode": ""
 },
 {
  "id": 5320040017,
  "districtId": 5320040,
  "districtName": "SABU BARAT",
  "name": "LEDEKEPAKA",
  "postalCode": "85391"
 },
 {
  "id": 5320040018,
  "districtId": 5320040,
  "districtName": "SABU BARAT",
  "name": "RAEDEWA",
  "postalCode": "85391"
 }
]