[
 {
  "id": 5321020001,
  "districtId": 5321020,
  "districtName": "MALAKA BARAT",
  "name": "RABASA",
  "postalCode": "85763"
 },
 {
  "id": 5321020002,
  "districtId": 5321020,
  "districtName": "MALAKA BARAT",
  "name": "RABASA HAERAIN",
  "postalCode": "85763"
 },
 {
  "id": 5321020003,
  "districtId": 5321020,
  "districtName": "MALAKA BARAT",
  "name": "LOOFOUN",
  "postalCode": "85763"
 },
 {
  "id": 5321020004,
  "districtId": 5321020,
  "districtName": "MALAKA BARAT",
  "name": "RAIMATAUS",
  "postalCode": "85763"
 },
 {
  "id": 5321020005,
  "districtId": 5321020,
  "districtName": "MALAKA BARAT",
  "name": "RABASAHAIN",
  "postalCode": "85763"
 },
 {
  "id": 5321020006,
  "districtId": 5321020,
  "districtName": "MALAKA BARAT",
  "name": "UMALOR",
  "postalCode": "85763"
 },
 {
  "id": 5321020007,
  "districtId": 5321020,
  "districtName": "MALAKA BARAT",
  "name": "UMATOOS",
  "postalCode": "85763"
 },
 {
  "id": 5321020008,
  "districtId": 5321020,
  "districtName": "MALAKA BARAT",
  "name": "MOTAAIN",
  "postalCode": "85763"
 },
 {
  "id": 5321020009,
  "districtId": 5321020,
  "districtName": "MALAKA BARAT",
  "name": "OAN MANE",
  "postalCode": "85763"
 },
 {
  "id": 5321020010,
  "districtId": 5321020,
  "districtName": "MALAKA BARAT",
  "name": "FAFOE",
  "postalCode": "85763"
 },
 {
  "id": 5321020011,
  "districtId": 5321020,
  "districtName": "MALAKA BARAT",
  "name": "SIKUN",
  "postalCode": "85763"
 },
 {
  "id": 5321020012,
  "districtId": 5321020,
  "districtName": "MALAKA BARAT",
  "name": "LASAEN",
  "postalCode": "85763"
 },
 {
  "id": 5321020013,
  "districtId": 5321020,
  "districtName": "MALAKA BARAT",
  "name": "BESIKAMA",
  "postalCode": "85763"
 },
 {
  "id": 5321020014,
  "districtId": 5321020,
  "districtName": "MALAKA BARAT",
  "name": "MAKTIHAN",
  "postalCode": "85763"
 },
 {
  "id": 5321020015,
  "districtId": 5321020,
  "districtName": "MALAKA BARAT",
  "name": "NAAS",
  "postalCode": "85763"
 },
 {
  "id": 5321020016,
  "districtId": 5321020,
  "districtName": "MALAKA BARAT",
  "name": "MOTAULUN",
  "postalCode": "85763"
 }
]