[
 {
  "id": 5321090002,
  "districtId": 5321090,
  "districtName": "LAEN MANEN",
  "name": "UABAU",
  "postalCode": "85718"
 },
 {
  "id": 5321090003,
  "districtId": 5321090,
  "districtName": "LAEN MANEN",
  "name": "BONIBAIS",
  "postalCode": "85718"
 },
 {
  "id": 5321090004,
  "districtId": 5321090,
  "districtName": "LAEN MANEN",
  "name": "NAEKEKUSA",
  "postalCode": "85718"
 },
 {
  "id": 5321090005,
  "districtId": 5321090,
  "districtName": "LAEN MANEN",
  "name": "OENAEK",
  "postalCode": "85351"
 },
 {
  "id": 5321090006,
  "districtId": 5321090,
  "districtName": "LAEN MANEN",
  "name": "KAPITANMEO",
  "postalCode": "85718"
 },
 {
  "id": 5321090007,
  "districtId": 5321090,
  "districtName": "LAEN MANEN",
  "name": "TNIUMANU",
  "postalCode": "85718"
 },
 {
  "id": 5321090008,
  "districtId": 5321090,
  "districtName": "LAEN MANEN",
  "name": "TESA",
  "postalCode": "85718"
 },
 {
  "id": 5321090009,
  "districtId": 5321090,
  "districtName": "LAEN MANEN",
  "name": "MEOTROY",
  "postalCode": "85718"
 }
]