[
 {
  "id": 5371010001,
  "districtId": 5371010,
  "districtName": "ALAK",
  "name": "NAIONI",
  "postalCode": "85239"
 },
 {
  "id": 5371010002,
  "districtId": 5371010,
  "districtName": "ALAK",
  "name": "MANULAI II",
  "postalCode": "85238"
 },
 {
  "id": 5371010003,
  "districtId": 5371010,
  "districtName": "ALAK",
  "name": "BATUPLAT",
  "postalCode": "85237"
 },
 {
  "id": 5371010004,
  "districtId": 5371010,
  "districtName": "ALAK",
  "name": "ALAK",
  "postalCode": "85231"
 },
 {
  "id": 5371010005,
  "districtId": 5371010,
  "districtName": "ALAK",
  "name": "MANUTAPEN",
  "postalCode": "85236"
 },
 {
  "id": 5371010006,
  "districtId": 5371010,
  "districtName": "ALAK",
  "name": "MANTASI",
  "postalCode": "85235"
 },
 {
  "id": 5371010007,
  "districtId": 5371010,
  "districtName": "ALAK",
  "name": "FATUFETO",
  "postalCode": "85234"
 },
 {
  "id": 5371010008,
  "districtId": 5371010,
  "districtName": "ALAK",
  "name": "NUNHILA",
  "postalCode": "85234"
 },
 {
  "id": 5371010009,
  "districtId": 5371010,
  "districtName": "ALAK",
  "name": "NUNBAUN DELHA",
  "postalCode": "85233"
 },
 {
  "id": 5371010010,
  "districtId": 5371010,
  "districtName": "ALAK",
  "name": "NUNBAUN SABU",
  "postalCode": "85233"
 },
 {
  "id": 5371010011,
  "districtId": 5371010,
  "districtName": "ALAK",
  "name": "NAMOSAIN",
  "postalCode": "85232"
 },
 {
  "id": 5371010012,
  "districtId": 5371010,
  "districtName": "ALAK",
  "name": "PENKASE-OELETA",
  "postalCode": ""
 }
]