[
 {
  "id": 6102050006,
  "districtId": 6102050,
  "districtName": "LEDO",
  "name": "SERANGKAT",
  "postalCode": "79283"
 },
 {
  "id": 6102050008,
  "districtId": 6102050,
  "districtName": "LEDO",
  "name": "LESABELA",
  "postalCode": "79283"
 },
 {
  "id": 6102050009,
  "districtId": 6102050,
  "districtName": "LEDO",
  "name": "RODAYA",
  "postalCode": "79283"
 },
 {
  "id": 6102050011,
  "districtId": 6102050,
  "districtName": "LEDO",
  "name": "SIDAI",
  "postalCode": "79283"
 },
 {
  "id": 6102050016,
  "districtId": 6102050,
  "districtName": "LEDO",
  "name": "LOMBA KARYA",
  "postalCode": "79283"
 },
 {
  "id": 6102050017,
  "districtId": 6102050,
  "districtName": "LEDO",
  "name": "DAYUNG",
  "postalCode": "79283"
 },
 {
  "id": 6102050018,
  "districtId": 6102050,
  "districtName": "LEDO",
  "name": "JESAPE",
  "postalCode": "79283"
 },
 {
  "id": 6102050019,
  "districtId": 6102050,
  "districtName": "LEDO",
  "name": "SUKA JAYA",
  "postalCode": "24784"
 },
 {
  "id": 6102050020,
  "districtId": 6102050,
  "districtName": "LEDO",
  "name": "SEMANGAT",
  "postalCode": "22172"
 },
 {
  "id": 6102050021,
  "districtId": 6102050,
  "districtName": "LEDO",
  "name": "TEBUAH MARONG",
  "postalCode": ""
 },
 {
  "id": 6102050022,
  "districtId": 6102050,
  "districtName": "LEDO",
  "name": "SUKA DAMAI",
  "postalCode": "24472"
 }
]