[
 {
  "id": 6103070007,
  "districtId": 6103070,
  "districtName": "MEMPAWAH HULU",
  "name": "SAMPURO",
  "postalCode": "79363"
 },
 {
  "id": 6103070009,
  "districtId": 6103070,
  "districtName": "MEMPAWAH HULU",
  "name": "SEI LAKI",
  "postalCode": ""
 },
 {
  "id": 6103070010,
  "districtId": 6103070,
  "districtName": "MEMPAWAH HULU",
  "name": "KARANGAN",
  "postalCode": "31131"
 },
 {
  "id": 6103070011,
  "districtId": 6103070,
  "districtName": "MEMPAWAH HULU",
  "name": "GARU",
  "postalCode": "64394"
 },
 {
  "id": 6103070012,
  "districtId": 6103070,
  "districtName": "MEMPAWAH HULU",
  "name": "BABATN",
  "postalCode": "79363"
 },
 {
  "id": 6103070013,
  "districtId": 6103070,
  "districtName": "MEMPAWAH HULU",
  "name": "PAHOKNG",
  "postalCode": ""
 },
 {
  "id": 6103070014,
  "districtId": 6103070,
  "districtName": "MEMPAWAH HULU",
  "name": "MENTONYEK",
  "postalCode": "79363"
 },
 {
  "id": 6103070015,
  "districtId": 6103070,
  "districtName": "MEMPAWAH HULU",
  "name": "SAILO",
  "postalCode": "79363"
 },
 {
  "id": 6103070016,
  "districtId": 6103070,
  "districtName": "MEMPAWAH HULU",
  "name": "S A L A A S",
  "postalCode": ""
 },
 {
  "id": 6103070017,
  "districtId": 6103070,
  "districtName": "MEMPAWAH HULU",
  "name": "TIANG TANJUNG",
  "postalCode": "79363"
 },
 {
  "id": 6103070018,
  "districtId": 6103070,
  "districtName": "MEMPAWAH HULU",
  "name": "TUNANG",
  "postalCode": "79363"
 },
 {
  "id": 6103070019,
  "districtId": 6103070,
  "districtName": "MEMPAWAH HULU",
  "name": "BILAYUK",
  "postalCode": "79363"
 },
 {
  "id": 6103070020,
  "districtId": 6103070,
  "districtName": "MEMPAWAH HULU",
  "name": "SABAKA",
  "postalCode": "79363"
 },
 {
  "id": 6103070021,
  "districtId": 6103070,
  "districtName": "MEMPAWAH HULU",
  "name": "ANSOLOK",
  "postalCode": "79363"
 },
 {
  "id": 6103070022,
  "districtId": 6103070,
  "districtName": "MEMPAWAH HULU",
  "name": "CAOKNG",
  "postalCode": "79363"
 },
 {
  "id": 6103070023,
  "districtId": 6103070,
  "districtName": "MEMPAWAH HULU",
  "name": "PARIGI",
  "postalCode": "22756"
 },
 {
  "id": 6103070024,
  "districtId": 6103070,
  "districtName": "MEMPAWAH HULU",
  "name": "SALUMANG",
  "postalCode": "79363"
 }
]