[
 {
  "id": 6103050001,
  "districtId": 6103050,
  "districtName": "MANDOR",
  "name": "NGARAK",
  "postalCode": "79355"
 },
 {
  "id": 6103050002,
  "districtId": 6103050,
  "districtName": "MANDOR",
  "name": "KAYU TANAM",
  "postalCode": "25584"
 },
 {
  "id": 6103050003,
  "districtId": 6103050,
  "districtName": "MANDOR",
  "name": "SALA TIGA",
  "postalCode": "79355"
 },
 {
  "id": 6103050004,
  "districtId": 6103050,
  "districtName": "MANDOR",
  "name": "SIMPANG KASTURI",
  "postalCode": "79355"
 },
 {
  "id": 6103050005,
  "districtId": 6103050,
  "districtName": "MANDOR",
  "name": "MANDOR",
  "postalCode": "79271"
 },
 {
  "id": 6103050006,
  "districtId": 6103050,
  "districtName": "MANDOR",
  "name": "PONGOK",
  "postalCode": "33791"
 },
 {
  "id": 6103050007,
  "districtId": 6103050,
  "districtName": "MANDOR",
  "name": "KAYU ARA",
  "postalCode": "28755"
 },
 {
  "id": 6103050009,
  "districtId": 6103050,
  "districtName": "MANDOR",
  "name": "KEROHOK",
  "postalCode": "79355"
 },
 {
  "id": 6103050010,
  "districtId": 6103050,
  "districtName": "MANDOR",
  "name": "BEBATUNG",
  "postalCode": "79355"
 },
 {
  "id": 6103050012,
  "districtId": 6103050,
  "districtName": "MANDOR",
  "name": "MANGGANG",
  "postalCode": "79355"
 },
 {
  "id": 6103050013,
  "districtId": 6103050,
  "districtName": "MANDOR",
  "name": "SEKILAP",
  "postalCode": "79355"
 },
 {
  "id": 6103050014,
  "districtId": 6103050,
  "districtName": "MANDOR",
  "name": "KERAMAS",
  "postalCode": "80581"
 },
 {
  "id": 6103050015,
  "districtId": 6103050,
  "districtName": "MANDOR",
  "name": "SEBADU",
  "postalCode": "79355"
 },
 {
  "id": 6103050016,
  "districtId": 6103050,
  "districtName": "MANDOR",
  "name": "SEMENOK",
  "postalCode": "79355"
 },
 {
  "id": 6103050017,
  "districtId": 6103050,
  "districtName": "MANDOR",
  "name": "MENGKUNYIT",
  "postalCode": "79355"
 }
]