[
 {
  "id": 6103031001,
  "districtId": 6103031,
  "districtName": "JELIMPO",
  "name": "DARA ITAM I",
  "postalCode": "79357"
 },
 {
  "id": 6103031002,
  "districtId": 6103031,
  "districtName": "JELIMPO",
  "name": "BALAI PELUNTAN",
  "postalCode": "79357"
 },
 {
  "id": 6103031003,
  "districtId": 6103031,
  "districtName": "JELIMPO",
  "name": "ANGAN TEMBAWANG",
  "postalCode": "79357"
 },
 {
  "id": 6103031004,
  "districtId": 6103031,
  "districtName": "JELIMPO",
  "name": "KAYU ARA",
  "postalCode": "28755"
 },
 {
  "id": 6103031005,
  "districtId": 6103031,
  "districtName": "JELIMPO",
  "name": "PAWIS HILIR",
  "postalCode": "79357"
 },
 {
  "id": 6103031006,
  "districtId": 6103031,
  "districtName": "JELIMPO",
  "name": "TUBANG RAENG",
  "postalCode": "79357"
 },
 {
  "id": 6103031007,
  "districtId": 6103031,
  "districtName": "JELIMPO",
  "name": "JELIMPO",
  "postalCode": "79357"
 },
 {
  "id": 6103031008,
  "districtId": 6103031,
  "districtName": "JELIMPO",
  "name": "MANDOR KIRU",
  "postalCode": "79357"
 },
 {
  "id": 6103031009,
  "districtId": 6103031,
  "districtName": "JELIMPO",
  "name": "NYIIN",
  "postalCode": "79357"
 },
 {
  "id": 6103031010,
  "districtId": 6103031,
  "districtName": "JELIMPO",
  "name": "PAPUNG",
  "postalCode": "79357"
 },
 {
  "id": 6103031011,
  "districtId": 6103031,
  "districtName": "JELIMPO",
  "name": "SEKAIS",
  "postalCode": "79357"
 },
 {
  "id": 6103031012,
  "districtId": 6103031,
  "districtName": "JELIMPO",
  "name": "TEMAHAR",
  "postalCode": "79357"
 },
 {
  "id": 6103031013,
  "districtId": 6103031,
  "districtName": "JELIMPO",
  "name": "KERSIK BELANTIAN",
  "postalCode": "79357"
 }
]