[
 {
  "id": 6106100001,
  "districtId": 6106100,
  "districtName": "SANDAI",
  "name": "PENJAWAAN",
  "postalCode": "78871"
 },
 {
  "id": 6106100002,
  "districtId": 6106100,
  "districtName": "SANDAI",
  "name": "SANDAI",
  "postalCode": ""
 },
 {
  "id": 6106100003,
  "districtId": 6106100,
  "districtName": "SANDAI",
  "name": "MUARA JEKAK",
  "postalCode": "78871"
 },
 {
  "id": 6106100004,
  "districtId": 6106100,
  "districtName": "SANDAI",
  "name": "PETAI PATAH",
  "postalCode": "78871"
 },
 {
  "id": 6106100005,
  "districtId": 6106100,
  "districtName": "SANDAI",
  "name": "RANDAU JUNGKAL",
  "postalCode": "78871"
 },
 {
  "id": 6106100009,
  "districtId": 6106100,
  "districtName": "SANDAI",
  "name": "RANDAU",
  "postalCode": "78871"
 },
 {
  "id": 6106100011,
  "districtId": 6106100,
  "districtName": "SANDAI",
  "name": "SANDAI KIRI",
  "postalCode": "78871"
 },
 {
  "id": 6106100012,
  "districtId": 6106100,
  "districtName": "SANDAI",
  "name": "DEMIT",
  "postalCode": "62362"
 },
 {
  "id": 6106100013,
  "districtId": 6106100,
  "districtName": "SANDAI",
  "name": "JAGO BERSATU",
  "postalCode": "78871"
 },
 {
  "id": 6106100014,
  "districtId": 6106100,
  "districtName": "SANDAI",
  "name": "PENDAMAR INDAH",
  "postalCode": ""
 },
 {
  "id": 6106100015,
  "districtId": 6106100,
  "districtName": "SANDAI",
  "name": "MERIMBANG JAYA",
  "postalCode": "78871"
 },
 {
  "id": 6106100016,
  "districtId": 6106100,
  "districtName": "SANDAI",
  "name": "ALAM PAKUAN",
  "postalCode": "78871"
 },
 {
  "id": 6106100017,
  "districtId": 6106100,
  "districtName": "SANDAI",
  "name": "ISTANA",
  "postalCode": ""
 }
]