[
 {
  "id": 6106031001,
  "districtId": 6106031,
  "districtName": "SINGKUP",
  "name": "SUKASARI",
  "postalCode": "20986"
 },
 {
  "id": 6106031002,
  "districtId": 6106031,
  "districtName": "SINGKUP",
  "name": "SUKARAJA",
  "postalCode": "21256"
 },
 {
  "id": 6106031003,
  "districtId": 6106031,
  "districtName": "SINGKUP",
  "name": "BUKIT KELAMBING",
  "postalCode": "78863"
 },
 {
  "id": 6106031004,
  "districtId": 6106031,
  "districtName": "SINGKUP",
  "name": "MUNTAI",
  "postalCode": "28754"
 },
 {
  "id": 6106031005,
  "districtId": 6106031,
  "districtName": "SINGKUP",
  "name": "SUKAHARJA",
  "postalCode": "45587"
 },
 {
  "id": 6106031006,
  "districtId": 6106031,
  "districtName": "SINGKUP",
  "name": "SUKAMULYA",
  "postalCode": "30657"
 },
 {
  "id": 6106031007,
  "districtId": 6106031,
  "districtName": "SINGKUP",
  "name": "TANAH HITAM",
  "postalCode": "27112"
 },
 {
  "id": 6106031008,
  "districtId": 6106031,
  "districtName": "SINGKUP",
  "name": "PANTAI KETIKAL",
  "postalCode": "78863"
 }
]