[
 {
  "id": 6106061001,
  "districtId": 6106061,
  "districtName": "BENUA KAYONG",
  "name": "PADANG",
  "postalCode": "23762"
 },
 {
  "id": 6106061002,
  "districtId": 6106061,
  "districtName": "BENUA KAYONG",
  "name": "TUAN TUAN",
  "postalCode": "78822"
 },
 {
  "id": 6106061003,
  "districtId": 6106061,
  "districtName": "BENUA KAYONG",
  "name": "NEGERI BARU",
  "postalCode": "21471"
 },
 {
  "id": 6106061004,
  "districtId": 6106061,
  "districtName": "BENUA KAYONG",
  "name": "MULIA KERTA",
  "postalCode": "78822"
 },
 {
  "id": 6106061005,
  "districtId": 6106061,
  "districtName": "BENUA KAYONG",
  "name": "SUNGAI KINJIL",
  "postalCode": ""
 },
 {
  "id": 6106061006,
  "districtId": 6106061,
  "districtName": "BENUA KAYONG",
  "name": "KAUMAN",
  "postalCode": "51215"
 },
 {
  "id": 6106061007,
  "districtId": 6106061,
  "districtName": "BENUA KAYONG",
  "name": "BARU",
  "postalCode": "23764"
 },
 {
  "id": 6106061008,
  "districtId": 6106061,
  "districtName": "BENUA KAYONG",
  "name": "SUKA BARU",
  "postalCode": "32387"
 },
 {
  "id": 6106061009,
  "districtId": 6106061,
  "districtName": "BENUA KAYONG",
  "name": "BANJAR",
  "postalCode": "21263"
 },
 {
  "id": 6106061010,
  "districtId": 6106061,
  "districtName": "BENUA KAYONG",
  "name": "MEKAR SARI",
  "postalCode": "21261"
 },
 {
  "id": 6106061011,
  "districtId": 6106061,
  "districtName": "BENUA KAYONG",
  "name": "KINJIL PESISIR",
  "postalCode": "78822"
 }
]