[
 {
  "id": 6107190001,
  "districtId": 6107190,
  "districtName": "KETUNGAU HILIR",
  "name": "SEMUNTAI",
  "postalCode": "78652"
 },
 {
  "id": 6107190002,
  "districtId": 6107190,
  "districtName": "KETUNGAU HILIR",
  "name": "NANGA SEJIRAK",
  "postalCode": "78652"
 },
 {
  "id": 6107190004,
  "districtId": 6107190,
  "districtName": "KETUNGAU HILIR",
  "name": "NANGA KETUNGAU",
  "postalCode": "78652"
 },
 {
  "id": 6107190005,
  "districtId": 6107190,
  "districtName": "KETUNGAU HILIR",
  "name": "KENUAK",
  "postalCode": "78652"
 },
 {
  "id": 6107190006,
  "districtId": 6107190,
  "districtName": "KETUNGAU HILIR",
  "name": "SUNGAI DERAS",
  "postalCode": "37152"
 },
 {
  "id": 6107190007,
  "districtId": 6107190,
  "districtName": "KETUNGAU HILIR",
  "name": "NANGA MERKAK",
  "postalCode": "78652"
 },
 {
  "id": 6107190008,
  "districtId": 6107190,
  "districtName": "KETUNGAU HILIR",
  "name": "SUNGAI MALI",
  "postalCode": ""
 },
 {
  "id": 6107190009,
  "districtId": 6107190,
  "districtName": "KETUNGAU HILIR",
  "name": "AIR NYURUK",
  "postalCode": "78652"
 },
 {
  "id": 6107190010,
  "districtId": 6107190,
  "districtName": "KETUNGAU HILIR",
  "name": "SEMAJAU MEKAR",
  "postalCode": "78652"
 },
 {
  "id": 6107190011,
  "districtId": 6107190,
  "districtName": "KETUNGAU HILIR",
  "name": "BAUNG SENGATAP",
  "postalCode": "78652"
 },
 {
  "id": 6107190012,
  "districtId": 6107190,
  "districtName": "KETUNGAU HILIR",
  "name": "TANJUNG BAUNG",
  "postalCode": "78652"
 },
 {
  "id": 6107190013,
  "districtId": 6107190,
  "districtName": "KETUNGAU HILIR",
  "name": "SENIBUNG",
  "postalCode": "78652"
 },
 {
  "id": 6107190014,
  "districtId": 6107190,
  "districtName": "KETUNGAU HILIR",
  "name": "BELUH MULYO",
  "postalCode": "78652"
 },
 {
  "id": 6107190015,
  "districtId": 6107190,
  "districtName": "KETUNGAU HILIR",
  "name": "BATU AMPAR",
  "postalCode": "29274"
 },
 {
  "id": 6107190016,
  "districtId": 6107190,
  "districtName": "KETUNGAU HILIR",
  "name": "BUKIT SIDIN PERMAI",
  "postalCode": "78652"
 },
 {
  "id": 6107190017,
  "districtId": 6107190,
  "districtName": "KETUNGAU HILIR",
  "name": "BETUNG PERMAI",
  "postalCode": "78652"
 },
 {
  "id": 6107190018,
  "districtId": 6107190,
  "districtName": "KETUNGAU HILIR",
  "name": "JENTAWANG HILIR",
  "postalCode": ""
 },
 {
  "id": 6107190019,
  "districtId": 6107190,
  "districtName": "KETUNGAU HILIR",
  "name": "BATU NYADI",
  "postalCode": ""
 },
 {
  "id": 6107190020,
  "districtId": 6107190,
  "districtName": "KETUNGAU HILIR",
  "name": "RATU DAMAI",
  "postalCode": ""
 },
 {
  "id": 6107190021,
  "districtId": 6107190,
  "districtName": "KETUNGAU HILIR",
  "name": "LEPUNG PANTAK",
  "postalCode": ""
 },
 {
  "id": 6107190022,
  "districtId": 6107190,
  "districtName": "KETUNGAU HILIR",
  "name": "PAMPANG DUA",
  "postalCode": "78571"
 },
 {
  "id": 6107190023,
  "districtId": 6107190,
  "districtName": "KETUNGAU HILIR",
  "name": "MUNGGUK KEPALA",
  "postalCode": ""
 },
 {
  "id": 6107190024,
  "districtId": 6107190,
  "districtName": "KETUNGAU HILIR",
  "name": "MAUNG",
  "postalCode": ""
 }
]