[
 {
  "id": 6108040001,
  "districtId": 6108040,
  "districtName": "BUNUT HULU",
  "name": "NANGA DUA",
  "postalCode": "78762"
 },
 {
  "id": 6108040002,
  "districtId": 6108040,
  "districtName": "BUNUT HULU",
  "name": "SELAUP",
  "postalCode": "78762"
 },
 {
  "id": 6108040003,
  "districtId": 6108040,
  "districtName": "BUNUT HULU",
  "name": "NANGA SEMANGUT",
  "postalCode": "78762"
 },
 {
  "id": 6108040005,
  "districtId": 6108040,
  "districtName": "BUNUT HULU",
  "name": "NANGA SURUK",
  "postalCode": "78762"
 },
 {
  "id": 6108040006,
  "districtId": 6108040,
  "districtName": "BUNUT HULU",
  "name": "RIAM PIYANG",
  "postalCode": "78762"
 },
 {
  "id": 6108040007,
  "districtId": 6108040,
  "districtName": "BUNUT HULU",
  "name": "NANGA PAYANG",
  "postalCode": "78762"
 },
 {
  "id": 6108040008,
  "districtId": 6108040,
  "districtName": "BUNUT HULU",
  "name": "BATU TIGA",
  "postalCode": "86754"
 },
 {
  "id": 6108040009,
  "districtId": 6108040,
  "districtName": "BUNUT HULU",
  "name": "SEMANGUT UTARA",
  "postalCode": "78762"
 },
 {
  "id": 6108040010,
  "districtId": 6108040,
  "districtName": "BUNUT HULU",
  "name": "SEGITAK",
  "postalCode": "78762"
 },
 {
  "id": 6108040011,
  "districtId": 6108040,
  "districtName": "BUNUT HULU",
  "name": "NANGA KELIBANG",
  "postalCode": "78762"
 },
 {
  "id": 6108040012,
  "districtId": 6108040,
  "districtName": "BUNUT HULU",
  "name": "SUNGAI BESAR",
  "postalCode": "29874"
 },
 {
  "id": 6108040013,
  "districtId": 6108040,
  "districtName": "BUNUT HULU",
  "name": "BAKUNG PERMAI",
  "postalCode": ""
 },
 {
  "id": 6108040014,
  "districtId": 6108040,
  "districtName": "BUNUT HULU",
  "name": "BERINGIN",
  "postalCode": "20552"
 },
 {
  "id": 6108040015,
  "districtId": 6108040,
  "districtName": "BUNUT HULU",
  "name": "PANTAS BERSATU",
  "postalCode": "78762"
 }
]