[
 {
  "id": 6108220001,
  "districtId": 6108220,
  "districtName": "EMBALOH HULU",
  "name": "PULAU MANAK",
  "postalCode": "78755"
 },
 {
  "id": 6108220002,
  "districtId": 6108220,
  "districtName": "EMBALOH HULU",
  "name": "BENUA MARTINUS",
  "postalCode": ""
 },
 {
  "id": 6108220003,
  "districtId": 6108220,
  "districtName": "EMBALOH HULU",
  "name": "BENUA UJUNG",
  "postalCode": ""
 },
 {
  "id": 6108220004,
  "districtId": 6108220,
  "districtName": "EMBALOH HULU",
  "name": "SAUJUNG GILING MANIK",
  "postalCode": "78755"
 },
 {
  "id": 6108220005,
  "districtId": 6108220,
  "districtName": "EMBALOH HULU",
  "name": "ULAK PAUK",
  "postalCode": "78755"
 },
 {
  "id": 6108220006,
  "districtId": 6108220,
  "districtName": "EMBALOH HULU",
  "name": "RANTAU PRAPAT",
  "postalCode": "78755"
 },
 {
  "id": 6108220007,
  "districtId": 6108220,
  "districtName": "EMBALOH HULU",
  "name": "LANGAN BARU",
  "postalCode": "78755"
 },
 {
  "id": 6108220008,
  "districtId": 6108220,
  "districtName": "EMBALOH HULU",
  "name": "MENUA SADAP",
  "postalCode": "78755"
 },
 {
  "id": 6108220009,
  "districtId": 6108220,
  "districtName": "EMBALOH HULU",
  "name": "BATU LINTANG",
  "postalCode": "31594"
 },
 {
  "id": 6108220010,
  "districtId": 6108220,
  "districtName": "EMBALOH HULU",
  "name": "TAMAO",
  "postalCode": "78755"
 }
]