[
 {
  "id": 6108120001,
  "districtId": 6108120,
  "districtName": "PENGKADAN",
  "name": "PERMATA",
  "postalCode": "78392"
 },
 {
  "id": 6108120002,
  "districtId": 6108120,
  "districtName": "PENGKADAN",
  "name": "MARTA DANA",
  "postalCode": ""
 },
 {
  "id": 6108120003,
  "districtId": 6108120,
  "districtName": "PENGKADAN",
  "name": "RIAM PANJANG",
  "postalCode": "78694"
 },
 {
  "id": 6108120004,
  "districtId": 6108120,
  "districtName": "PENGKADAN",
  "name": "BUAK LIMBANG",
  "postalCode": "78759"
 },
 {
  "id": 6108120005,
  "districtId": 6108120,
  "districtName": "PENGKADAN",
  "name": "MAWAN",
  "postalCode": "78759"
 },
 {
  "id": 6108120006,
  "districtId": 6108120,
  "districtName": "PENGKADAN",
  "name": "KERANGAN PANJANG",
  "postalCode": "78759"
 },
 {
  "id": 6108120007,
  "districtId": 6108120,
  "districtName": "PENGKADAN",
  "name": "HULU PENGKADAN",
  "postalCode": "78759"
 },
 {
  "id": 6108120008,
  "districtId": 6108120,
  "districtName": "PENGKADAN",
  "name": "PINANG LAKA",
  "postalCode": "78759"
 },
 {
  "id": 6108120009,
  "districtId": 6108120,
  "districtName": "PENGKADAN",
  "name": "SASAN",
  "postalCode": "78759"
 },
 {
  "id": 6108120010,
  "districtId": 6108120,
  "districtName": "PENGKADAN",
  "name": "PENGKADAN HILIR",
  "postalCode": "78759"
 },
 {
  "id": 6108120011,
  "districtId": 6108120,
  "districtName": "PENGKADAN",
  "name": "SIRA JAYA",
  "postalCode": "78759"
 }
]