[
 {
  "id": 6108020001,
  "districtId": 6108020,
  "districtName": "SILAT HULU",
  "name": "NANGA NGERI",
  "postalCode": "78774"
 },
 {
  "id": 6108020002,
  "districtId": 6108020,
  "districtName": "SILAT HULU",
  "name": "LANDAU BADAI",
  "postalCode": "78774"
 },
 {
  "id": 6108020003,
  "districtId": 6108020,
  "districtName": "SILAT HULU",
  "name": "NANGA LUNGU",
  "postalCode": "78774"
 },
 {
  "id": 6108020004,
  "districtId": 6108020,
  "districtName": "SILAT HULU",
  "name": "NANGA LUAN",
  "postalCode": "78774"
 },
 {
  "id": 6108020005,
  "districtId": 6108020,
  "districtName": "SILAT HULU",
  "name": "BELIMBING",
  "postalCode": "29355"
 },
 {
  "id": 6108020006,
  "districtId": 6108020,
  "districtName": "SILAT HULU",
  "name": "NANGA DANGKAN I",
  "postalCode": "78774"
 },
 {
  "id": 6108020007,
  "districtId": 6108020,
  "districtName": "SILAT HULU",
  "name": "RIAM TAPANG",
  "postalCode": "78774"
 },
 {
  "id": 6108020008,
  "districtId": 6108020,
  "districtName": "SILAT HULU",
  "name": "NANGA DANGKAN II",
  "postalCode": ""
 },
 {
  "id": 6108020009,
  "districtId": 6108020,
  "districtName": "SILAT HULU",
  "name": "LEBAK NAJAH",
  "postalCode": "78774"
 },
 {
  "id": 6108020011,
  "districtId": 6108020,
  "districtName": "SILAT HULU",
  "name": "LANDAU RANTAU",
  "postalCode": "78774"
 },
 {
  "id": 6108020012,
  "districtId": 6108020,
  "districtName": "SILAT HULU",
  "name": "ENTABI",
  "postalCode": ""
 },
 {
  "id": 6108020013,
  "districtId": 6108020,
  "districtName": "SILAT HULU",
  "name": "SELANGKAI",
  "postalCode": "78774"
 },
 {
  "id": 6108020014,
  "districtId": 6108020,
  "districtName": "SILAT HULU",
  "name": "SELIMU",
  "postalCode": "78774"
 }
]