[
 {
  "id": 6110050008,
  "districtId": 6110050,
  "districtName": "NANGA PINOH",
  "name": "NANGA KEBEBU",
  "postalCode": "79672"
 },
 {
  "id": 6110050010,
  "districtId": 6110050,
  "districtName": "NANGA PINOH",
  "name": "PORING",
  "postalCode": "79672"
 },
 {
  "id": 6110050011,
  "districtId": 6110050,
  "districtName": "NANGA PINOH",
  "name": "TANJUNG SARI",
  "postalCode": "24673"
 },
 {
  "id": 6110050012,
  "districtId": 6110050,
  "districtName": "NANGA PINOH",
  "name": "TEMBAWANG PANJANG",
  "postalCode": "79672"
 },
 {
  "id": 6110050013,
  "districtId": 6110050,
  "districtName": "NANGA PINOH",
  "name": "PAAL",
  "postalCode": "79672"
 },
 {
  "id": 6110050014,
  "districtId": 6110050,
  "districtName": "NANGA PINOH",
  "name": "TANJUNG NIAGA",
  "postalCode": "79672"
 },
 {
  "id": 6110050015,
  "districtId": 6110050,
  "districtName": "NANGA PINOH",
  "name": "SIDO MULYO",
  "postalCode": "24371"
 },
 {
  "id": 6110050016,
  "districtId": 6110050,
  "districtName": "NANGA PINOH",
  "name": "B A R U",
  "postalCode": ""
 },
 {
  "id": 6110050021,
  "districtId": 6110050,
  "districtName": "NANGA PINOH",
  "name": "NANGA KAYAN",
  "postalCode": "79672"
 },
 {
  "id": 6110050023,
  "districtId": 6110050,
  "districtName": "NANGA PINOH",
  "name": "NUSA PANDAU",
  "postalCode": "79672"
 },
 {
  "id": 6110050024,
  "districtId": 6110050,
  "districtName": "NANGA PINOH",
  "name": "TEBING KARANGAN",
  "postalCode": "79672"
 },
 {
  "id": 6110050025,
  "districtId": 6110050,
  "districtName": "NANGA PINOH",
  "name": "KELAKIK",
  "postalCode": "79672"
 },
 {
  "id": 6110050026,
  "districtId": 6110050,
  "districtName": "NANGA PINOH",
  "name": "SEMADIN LENGKONG",
  "postalCode": "79672"
 },
 {
  "id": 6110050027,
  "districtId": 6110050,
  "districtName": "NANGA PINOH",
  "name": "TANJUNG LAY",
  "postalCode": "79672"
 },
 {
  "id": 6110050028,
  "districtId": 6110050,
  "districtName": "NANGA PINOH",
  "name": "LABAI MANDIRI",
  "postalCode": "79672"
 },
 {
  "id": 6110050029,
  "districtId": 6110050,
  "districtName": "NANGA PINOH",
  "name": "KENUAL",
  "postalCode": "79672"
 },
 {
  "id": 6110050030,
  "districtId": 6110050,
  "districtName": "NANGA PINOH",
  "name": "TANJUNG TENGANG",
  "postalCode": "79672"
 }
]