[
 {
  "id": 6110052001,
  "districtId": 6110052,
  "districtName": "PINOH UTARA",
  "name": "SUNGAI PINANG",
  "postalCode": "25654"
 },
 {
  "id": 6110052002,
  "districtId": 6110052,
  "districtName": "PINOH UTARA",
  "name": "ENGKURAI",
  "postalCode": "79672"
 },
 {
  "id": 6110052003,
  "districtId": 6110052,
  "districtName": "PINOH UTARA",
  "name": "MERPAK",
  "postalCode": "78656"
 },
 {
  "id": 6110052004,
  "districtId": 6110052,
  "districtName": "PINOH UTARA",
  "name": "NANGA MAN",
  "postalCode": "79672"
 },
 {
  "id": 6110052005,
  "districtId": 6110052,
  "districtName": "PINOH UTARA",
  "name": "MERAH ARAI",
  "postalCode": "78694"
 },
 {
  "id": 6110052006,
  "districtId": 6110052,
  "districtName": "PINOH UTARA",
  "name": "TANJUNG ARAK",
  "postalCode": "79672"
 },
 {
  "id": 6110052007,
  "districtId": 6110052,
  "districtName": "PINOH UTARA",
  "name": "TANJUNG PAOH",
  "postalCode": "79672"
 },
 {
  "id": 6110052008,
  "districtId": 6110052,
  "districtName": "PINOH UTARA",
  "name": "TEKELAK",
  "postalCode": "79672"
 },
 {
  "id": 6110052009,
  "districtId": 6110052,
  "districtName": "PINOH UTARA",
  "name": "MELAWI KIRI HILIR",
  "postalCode": "79672"
 },
 {
  "id": 6110052010,
  "districtId": 6110052,
  "districtName": "PINOH UTARA",
  "name": "KOMPAS RAYA",
  "postalCode": "79672"
 },
 {
  "id": 6110052011,
  "districtId": 6110052,
  "districtName": "PINOH UTARA",
  "name": "MANDING",
  "postalCode": "56224"
 },
 {
  "id": 6110052012,
  "districtId": 6110052,
  "districtName": "PINOH UTARA",
  "name": "NATAI PANJANG",
  "postalCode": "79672"
 },
 {
  "id": 6110052013,
  "districtId": 6110052,
  "districtName": "PINOH UTARA",
  "name": "SUNGAI RAYA",
  "postalCode": "22254"
 },
 {
  "id": 6110052014,
  "districtId": 6110052,
  "districtName": "PINOH UTARA",
  "name": "NANGA BELIMBING",
  "postalCode": "79672"
 },
 {
  "id": 6110052015,
  "districtId": 6110052,
  "districtName": "PINOH UTARA",
  "name": "SUKA DAMAI",
  "postalCode": "24472"
 },
 {
  "id": 6110052016,
  "districtId": 6110052,
  "districtName": "PINOH UTARA",
  "name": "TENGKAJAU",
  "postalCode": "79672"
 },
 {
  "id": 6110052017,
  "districtId": 6110052,
  "districtName": "PINOH UTARA",
  "name": "SENIBUNG",
  "postalCode": "78652"
 },
 {
  "id": 6110052018,
  "districtId": 6110052,
  "districtName": "PINOH UTARA",
  "name": "MELAMUT BERSATU",
  "postalCode": "79672"
 },
 {
  "id": 6110052019,
  "districtId": 6110052,
  "districtName": "PINOH UTARA",
  "name": "KAYAN SEMAPAU",
  "postalCode": "79672"
 }
]