[
 {
  "id": 6111030001,
  "districtId": 6111030,
  "districtName": "SIMPANG HILIR",
  "name": "PADU BANJAR",
  "postalCode": "78853"
 },
 {
  "id": 6111030002,
  "districtId": 6111030,
  "districtName": "SIMPANG HILIR",
  "name": "PULAU KUMBANG",
  "postalCode": "78853"
 },
 {
  "id": 6111030003,
  "districtId": 6111030,
  "districtName": "SIMPANG HILIR",
  "name": "PEMANGKAT",
  "postalCode": "78853"
 },
 {
  "id": 6111030004,
  "districtId": 6111030,
  "districtName": "SIMPANG HILIR",
  "name": "NIPAH KUNING",
  "postalCode": "78853"
 },
 {
  "id": 6111030005,
  "districtId": 6111030,
  "districtName": "SIMPANG HILIR",
  "name": "RANTAU PANJANG",
  "postalCode": "24476"
 },
 {
  "id": 6111030006,
  "districtId": 6111030,
  "districtName": "SIMPANG HILIR",
  "name": "PENJALAAN",
  "postalCode": ""
 },
 {
  "id": 6111030007,
  "districtId": 6111030,
  "districtName": "SIMPANG HILIR",
  "name": "TELUK MELANAU",
  "postalCode": ""
 },
 {
  "id": 6111030008,
  "districtId": 6111030,
  "districtName": "SIMPANG HILIR",
  "name": "SUNGAI MATA-MATA",
  "postalCode": ""
 },
 {
  "id": 6111030009,
  "districtId": 6111030,
  "districtName": "SIMPANG HILIR",
  "name": "BATU BARAT",
  "postalCode": "78853"
 },
 {
  "id": 6111030010,
  "districtId": 6111030,
  "districtName": "SIMPANG HILIR",
  "name": "MATAN JAYA",
  "postalCode": "78853"
 },
 {
  "id": 6111030011,
  "districtId": 6111030,
  "districtName": "SIMPANG HILIR",
  "name": "LUBUK BATU",
  "postalCode": "78853"
 },
 {
  "id": 6111030012,
  "districtId": 6111030,
  "districtName": "SIMPANG HILIR",
  "name": "MEDAN JAYA",
  "postalCode": "38764"
 }
]