[
 {
  "id": 6111020001,
  "districtId": 6111020,
  "districtName": "SUKADANA",
  "name": "SIMPANG TIGA",
  "postalCode": "23772"
 },
 {
  "id": 6111020002,
  "districtId": 6111020,
  "districtName": "SUKADANA",
  "name": "SEJAHTERA",
  "postalCode": "24673"
 },
 {
  "id": 6111020003,
  "districtId": 6111020,
  "districtName": "SUKADANA",
  "name": "PANGKALAN BUTON",
  "postalCode": "78852"
 },
 {
  "id": 6111020004,
  "districtId": 6111020,
  "districtName": "SUKADANA",
  "name": "SUTRA",
  "postalCode": ""
 },
 {
  "id": 6111020005,
  "districtId": 6111020,
  "districtName": "SUKADANA",
  "name": "BENAWAI AGUNG",
  "postalCode": "78852"
 },
 {
  "id": 6111020006,
  "districtId": 6111020,
  "districtName": "SUKADANA",
  "name": "HARAPAN MULIA",
  "postalCode": "78852"
 },
 {
  "id": 6111020007,
  "districtId": 6111020,
  "districtName": "SUKADANA",
  "name": "SEDAHAN JAYA",
  "postalCode": "78852"
 },
 {
  "id": 6111020008,
  "districtId": 6111020,
  "districtName": "SUKADANA",
  "name": "GUNUNG SEMBILAN",
  "postalCode": "78852"
 },
 {
  "id": 6111020009,
  "districtId": 6111020,
  "districtName": "SUKADANA",
  "name": "PAMPANG HARAPAN",
  "postalCode": "78852"
 },
 {
  "id": 6111020010,
  "districtId": 6111020,
  "districtName": "SUKADANA",
  "name": "RIAM BERASAPJAYA",
  "postalCode": ""
 }
]