[
 {
  "id": 6112030001,
  "districtId": 6112030,
  "districtName": "KUBU",
  "name": "DABUNG",
  "postalCode": ""
 },
 {
  "id": 6112030003,
  "districtId": 6112030,
  "districtName": "KUBU",
  "name": "SUNGAI TERUS",
  "postalCode": ""
 },
 {
  "id": 6112030004,
  "districtId": 6112030,
  "districtName": "KUBU",
  "name": "TELUK NANGKA",
  "postalCode": "78384"
 },
 {
  "id": 6112030005,
  "districtId": 6112030,
  "districtName": "KUBU",
  "name": "JANGKANG I",
  "postalCode": ""
 },
 {
  "id": 6112030006,
  "districtId": 6112030,
  "districtName": "KUBU",
  "name": "JANGKANG II",
  "postalCode": ""
 },
 {
  "id": 6112030007,
  "districtId": 6112030,
  "districtName": "KUBU",
  "name": "PINANG DALAM",
  "postalCode": "78384"
 },
 {
  "id": 6112030008,
  "districtId": 6112030,
  "districtName": "KUBU",
  "name": "KAMPUNG BARU",
  "postalCode": "24652"
 },
 {
  "id": 6112030009,
  "districtId": 6112030,
  "districtName": "KUBU",
  "name": "OLAK OLAK KUBU",
  "postalCode": "78384"
 },
 {
  "id": 6112030010,
  "districtId": 6112030,
  "districtName": "KUBU",
  "name": "PELITA JAYA",
  "postalCode": "32362"
 },
 {
  "id": 6112030011,
  "districtId": 6112030,
  "districtName": "KUBU",
  "name": "SERUAT III",
  "postalCode": ""
 },
 {
  "id": 6112030012,
  "districtId": 6112030,
  "districtName": "KUBU",
  "name": "SERUAT II",
  "postalCode": ""
 },
 {
  "id": 6112030013,
  "districtId": 6112030,
  "districtName": "KUBU",
  "name": "SUNGAI SELAMAT",
  "postalCode": ""
 },
 {
  "id": 6112030014,
  "districtId": 6112030,
  "districtName": "KUBU",
  "name": "AMBAWANG",
  "postalCode": "78384"
 },
 {
  "id": 6112030015,
  "districtId": 6112030,
  "districtName": "KUBU",
  "name": "AIR PUTIH",
  "postalCode": "21264"
 },
 {
  "id": 6112030016,
  "districtId": 6112030,
  "districtName": "KUBU",
  "name": "PINANG LUAR",
  "postalCode": "78384"
 },
 {
  "id": 6112030017,
  "districtId": 6112030,
  "districtName": "KUBU",
  "name": "SEI BEMBAN",
  "postalCode": ""
 },
 {
  "id": 6112030018,
  "districtId": 6112030,
  "districtName": "KUBU",
  "name": "SEPAKAT BARU",
  "postalCode": "78384"
 },
 {
  "id": 6112030019,
  "districtId": 6112030,
  "districtName": "KUBU",
  "name": "MENGKALANG",
  "postalCode": "78384"
 },
 {
  "id": 6112030020,
  "districtId": 6112030,
  "districtName": "KUBU",
  "name": "MENGKALANG JAMBU",
  "postalCode": "78384"
 }
]