[
 {
  "id": 6201061001,
  "districtId": 6201061,
  "districtName": "PANGKALAN BANTENG",
  "name": "PANGKALAN BANTENG",
  "postalCode": "74183"
 },
 {
  "id": 6201061002,
  "districtId": 6201061,
  "districtName": "PANGKALAN BANTENG",
  "name": "MULYA JADI",
  "postalCode": ""
 },
 {
  "id": 6201061003,
  "districtId": 6201061,
  "districtName": "PANGKALAN BANTENG",
  "name": "AMIN JAYA",
  "postalCode": "74183"
 },
 {
  "id": 6201061004,
  "districtId": 6201061,
  "districtName": "PANGKALAN BANTENG",
  "name": "NATAI KERBAU",
  "postalCode": "74183"
 },
 {
  "id": 6201061005,
  "districtId": 6201061,
  "districtName": "PANGKALAN BANTENG",
  "name": "KARANGMULYA",
  "postalCode": "17356"
 },
 {
  "id": 6201061006,
  "districtId": 6201061,
  "districtName": "PANGKALAN BANTENG",
  "name": "MARGA MULYA",
  "postalCode": "28565"
 },
 {
  "id": 6201061007,
  "districtId": 6201061,
  "districtName": "PANGKALAN BANTENG",
  "name": "ARGA MULYA",
  "postalCode": "38965"
 },
 {
  "id": 6201061008,
  "districtId": 6201061,
  "districtName": "PANGKALAN BANTENG",
  "name": "KEBUN AGUNG",
  "postalCode": ""
 },
 {
  "id": 6201061009,
  "districtId": 6201061,
  "districtName": "PANGKALAN BANTENG",
  "name": "SIDO MULYO",
  "postalCode": "24371"
 },
 {
  "id": 6201061010,
  "districtId": 6201061,
  "districtName": "PANGKALAN BANTENG",
  "name": "SIMPANG BERAMBAI",
  "postalCode": "74183"
 },
 {
  "id": 6201061011,
  "districtId": 6201061,
  "districtName": "PANGKALAN BANTENG",
  "name": "SUNGAI HIJAU",
  "postalCode": ""
 },
 {
  "id": 6201061012,
  "districtId": 6201061,
  "districtName": "PANGKALAN BANTENG",
  "name": "SUNGAI BENGKUANG",
  "postalCode": "74183"
 },
 {
  "id": 6201061013,
  "districtId": 6201061,
  "districtName": "PANGKALAN BANTENG",
  "name": "SUNGAI KUNING",
  "postalCode": "29563"
 },
 {
  "id": 6201061014,
  "districtId": 6201061,
  "districtName": "PANGKALAN BANTENG",
  "name": "SUNGAI PAKIT",
  "postalCode": "74183"
 },
 {
  "id": 6201061015,
  "districtId": 6201061,
  "districtName": "PANGKALAN BANTENG",
  "name": "BERAMBAI MAKMUR",
  "postalCode": "74183"
 },
 {
  "id": 6201061016,
  "districtId": 6201061,
  "districtName": "PANGKALAN BANTENG",
  "name": "KARANG SARI",
  "postalCode": "21174"
 },
 {
  "id": 6201061017,
  "districtId": 6201061,
  "districtName": "PANGKALAN BANTENG",
  "name": "SUNGAI PULAU",
  "postalCode": "74183"
 }
]