[
 {
  "id": 6202020005,
  "districtId": 6202020,
  "districtName": "MENTAYA HILIR SELATAN",
  "name": "SABAMBAN",
  "postalCode": "74363"
 },
 {
  "id": 6202020006,
  "districtId": 6202020,
  "districtName": "MENTAYA HILIR SELATAN",
  "name": "SAMUDA BESAR",
  "postalCode": "74363"
 },
 {
  "id": 6202020007,
  "districtId": 6202020,
  "districtName": "MENTAYA HILIR SELATAN",
  "name": "SAMUDA KECIL",
  "postalCode": "74363"
 },
 {
  "id": 6202020008,
  "districtId": 6202020,
  "districtName": "MENTAYA HILIR SELATAN",
  "name": "SAMUDA KOTA",
  "postalCode": "74363"
 },
 {
  "id": 6202020009,
  "districtId": 6202020,
  "districtName": "MENTAYA HILIR SELATAN",
  "name": "BASIRIH HILIR",
  "postalCode": "74363"
 },
 {
  "id": 6202020010,
  "districtId": 6202020,
  "districtName": "MENTAYA HILIR SELATAN",
  "name": "JAYA KELAPA",
  "postalCode": "74363"
 },
 {
  "id": 6202020011,
  "districtId": 6202020,
  "districtName": "MENTAYA HILIR SELATAN",
  "name": "BASIRIH HULU",
  "postalCode": "74363"
 },
 {
  "id": 6202020012,
  "districtId": 6202020,
  "districtName": "MENTAYA HILIR SELATAN",
  "name": "JAYA KARET",
  "postalCode": "74363"
 },
 {
  "id": 6202020013,
  "districtId": 6202020,
  "districtName": "MENTAYA HILIR SELATAN",
  "name": "SEI IJUM RAYA",
  "postalCode": ""
 },
 {
  "id": 6202020014,
  "districtId": 6202020,
  "districtName": "MENTAYA HILIR SELATAN",
  "name": "HANDIL SOHOR",
  "postalCode": "74363"
 }
]