[
 {
  "id": 6203020001,
  "districtId": 6203020,
  "districtName": "KAPUAS KUALA",
  "name": "BATANJUNG",
  "postalCode": "73583"
 },
 {
  "id": 6203020002,
  "districtId": 6203020,
  "districtName": "KAPUAS KUALA",
  "name": "CEMARA LABAT",
  "postalCode": "73583"
 },
 {
  "id": 6203020003,
  "districtId": 6203020,
  "districtName": "KAPUAS KUALA",
  "name": "PALAMPAI",
  "postalCode": "73583"
 },
 {
  "id": 6203020004,
  "districtId": 6203020,
  "districtName": "KAPUAS KUALA",
  "name": "SUNGAI TERAS",
  "postalCode": ""
 },
 {
  "id": 6203020005,
  "districtId": 6203020,
  "districtName": "KAPUAS KUALA",
  "name": "LUPAK DALAM",
  "postalCode": "73583"
 },
 {
  "id": 6203020006,
  "districtId": 6203020,
  "districtName": "KAPUAS KUALA",
  "name": "TAMBAN BARU SELATAN",
  "postalCode": ""
 },
 {
  "id": 6203020011,
  "districtId": 6203020,
  "districtName": "KAPUAS KUALA",
  "name": "TAMBAN LUPAK",
  "postalCode": "73583"
 },
 {
  "id": 6203020012,
  "districtId": 6203020,
  "districtName": "KAPUAS KUALA",
  "name": "SIMPANG BUNGA TANJUNG",
  "postalCode": "73583"
 },
 {
  "id": 6203020013,
  "districtId": 6203020,
  "districtName": "KAPUAS KUALA",
  "name": "BARANGGAU",
  "postalCode": "73583"
 },
 {
  "id": 6203020014,
  "districtId": 6203020,
  "districtName": "KAPUAS KUALA",
  "name": "LUPAK TIMUR",
  "postalCode": "73583"
 },
 {
  "id": 6203020015,
  "districtId": 6203020,
  "districtName": "KAPUAS KUALA",
  "name": "PEMATANG",
  "postalCode": "21454"
 },
 {
  "id": 6203020016,
  "districtId": 6203020,
  "districtName": "KAPUAS KUALA",
  "name": "WARGO MULYO",
  "postalCode": "73583"
 },
 {
  "id": 6203020017,
  "districtId": 6203020,
  "districtName": "KAPUAS KUALA",
  "name": "SEI BAKUT",
  "postalCode": "73583"
 }
]