[
 {
  "id": 6203171001,
  "districtId": 6203171,
  "districtName": "PASAK TALAWANG",
  "name": "DANDANG",
  "postalCode": "67292"
 },
 {
  "id": 6203171002,
  "districtId": 6203171,
  "districtName": "PASAK TALAWANG",
  "name": "BALAI BANJANG",
  "postalCode": "73555"
 },
 {
  "id": 6203171003,
  "districtId": 6203171,
  "districtName": "PASAK TALAWANG",
  "name": "JANGKANG",
  "postalCode": "28754"
 },
 {
  "id": 6203171004,
  "districtId": 6203171,
  "districtName": "PASAK TALAWANG",
  "name": "KABURAN",
  "postalCode": "73555"
 },
 {
  "id": 6203171005,
  "districtId": 6203171,
  "districtName": "PASAK TALAWANG",
  "name": "SEI RINGIN",
  "postalCode": ""
 },
 {
  "id": 6203171006,
  "districtId": 6203171,
  "districtName": "PASAK TALAWANG",
  "name": "HURUNG KAMPIN",
  "postalCode": "73555"
 },
 {
  "id": 6203171007,
  "districtId": 6203171,
  "districtName": "PASAK TALAWANG",
  "name": "TUMBANG TUKUN",
  "postalCode": "73555"
 },
 {
  "id": 6203171008,
  "districtId": 6203171,
  "districtName": "PASAK TALAWANG",
  "name": "TUMBANG DIRING",
  "postalCode": "73555"
 },
 {
  "id": 6203171009,
  "districtId": 6203171,
  "districtName": "PASAK TALAWANG",
  "name": "BATU SAMBUNG",
  "postalCode": "73555"
 },
 {
  "id": 6203171010,
  "districtId": 6203171,
  "districtName": "PASAK TALAWANG",
  "name": "TUMBANG NUSA",
  "postalCode": "74816"
 }
]