[
 {
  "id": 6205061001,
  "districtId": 6205061,
  "districtName": "LAHEI BARAT",
  "name": "NIHAN HILIR",
  "postalCode": "73852"
 },
 {
  "id": 6205061002,
  "districtId": 6205061,
  "districtName": "LAHEI BARAT",
  "name": "NIHAN HULU",
  "postalCode": "73852"
 },
 {
  "id": 6205061003,
  "districtId": 6205061,
  "districtName": "LAHEI BARAT",
  "name": "LUWE HILIR",
  "postalCode": "73852"
 },
 {
  "id": 6205061005,
  "districtId": 6205061,
  "districtName": "LAHEI BARAT",
  "name": "JANGKANG BARU",
  "postalCode": "73852"
 },
 {
  "id": 6205061006,
  "districtId": 6205061,
  "districtName": "LAHEI BARAT",
  "name": "JANGKANG LAMA",
  "postalCode": "73852"
 },
 {
  "id": 6205061007,
  "districtId": 6205061,
  "districtName": "LAHEI BARAT",
  "name": "PAPAR PUJUNG",
  "postalCode": "73852"
 },
 {
  "id": 6205061008,
  "districtId": 6205061,
  "districtName": "LAHEI BARAT",
  "name": "TELUK MALEWAI",
  "postalCode": "73852"
 },
 {
  "id": 6205061009,
  "districtId": 6205061,
  "districtName": "LAHEI BARAT",
  "name": "BENAO HILIR",
  "postalCode": "73852"
 },
 {
  "id": 6205061010,
  "districtId": 6205061,
  "districtName": "LAHEI BARAT",
  "name": "BENAO HULU",
  "postalCode": "73852"
 },
 {
  "id": 6205061011,
  "districtId": 6205061,
  "districtName": "LAHEI BARAT",
  "name": "KARAMUAN",
  "postalCode": "73852"
 }
]