[
 {
  "id": 6205010001,
  "districtId": 6205010,
  "districtName": "MONTALLAT",
  "name": "PEPAS",
  "postalCode": "73861"
 },
 {
  "id": 6205010002,
  "districtId": 6205010,
  "districtName": "MONTALLAT",
  "name": "TUMPUNG LAUNG II",
  "postalCode": "73861"
 },
 {
  "id": 6205010003,
  "districtId": 6205010,
  "districtName": "MONTALLAT",
  "name": "TUMPUNG LAUNG I",
  "postalCode": "73861"
 },
 {
  "id": 6205010004,
  "districtId": 6205010,
  "districtName": "MONTALLAT",
  "name": "MONTALLAT I",
  "postalCode": "73861"
 },
 {
  "id": 6205010005,
  "districtId": 6205010,
  "districtName": "MONTALLAT",
  "name": "MONTALLAT II",
  "postalCode": "73861"
 },
 {
  "id": 6205010006,
  "districtId": 6205010,
  "districtName": "MONTALLAT",
  "name": "SIKAN",
  "postalCode": "73861"
 },
 {
  "id": 6205010007,
  "districtId": 6205010,
  "districtName": "MONTALLAT",
  "name": "RUBEI",
  "postalCode": "73861"
 },
 {
  "id": 6205010008,
  "districtId": 6205010,
  "districtName": "MONTALLAT",
  "name": "RUJI",
  "postalCode": "73861"
 },
 {
  "id": 6205010009,
  "districtId": 6205010,
  "districtName": "MONTALLAT",
  "name": "PARING LAHUNG",
  "postalCode": "73861"
 },
 {
  "id": 6205010010,
  "districtId": 6205010,
  "districtName": "MONTALLAT",
  "name": "KAMAWEN",
  "postalCode": "73861"
 }
]