[
 {
  "id": 6207012001,
  "districtId": 6207012,
  "districtName": "MENTHOBI RAYA",
  "name": "BUKIT MAKMUR",
  "postalCode": "24457"
 },
 {
  "id": 6207012002,
  "districtId": 6207012,
  "districtName": "MENTHOBI RAYA",
  "name": "BUKIT RAYA",
  "postalCode": "29563"
 },
 {
  "id": 6207012003,
  "districtId": 6207012,
  "districtName": "MENTHOBI RAYA",
  "name": "SUMBER JAYA",
  "postalCode": "24553"
 },
 {
  "id": 6207012004,
  "districtId": 6207012,
  "districtName": "MENTHOBI RAYA",
  "name": "BUKIT HARUM",
  "postalCode": "74162"
 },
 {
  "id": 6207012005,
  "districtId": 6207012,
  "districtName": "MENTHOBI RAYA",
  "name": "MELATA",
  "postalCode": "74162"
 },
 {
  "id": 6207012006,
  "districtId": 6207012,
  "districtName": "MENTHOBI RAYA",
  "name": "MUKTI MANUNGGAL",
  "postalCode": "74162"
 },
 {
  "id": 6207012007,
  "districtId": 6207012,
  "districtName": "MENTHOBI RAYA",
  "name": "MODANG MAS",
  "postalCode": "74162"
 },
 {
  "id": 6207012008,
  "districtId": 6207012,
  "districtName": "MENTHOBI RAYA",
  "name": "NANUAH",
  "postalCode": "74162"
 },
 {
  "id": 6207012009,
  "districtId": 6207012,
  "districtName": "MENTHOBI RAYA",
  "name": "TOPALAN",
  "postalCode": "74162"
 },
 {
  "id": 6207012010,
  "districtId": 6207012,
  "districtName": "MENTHOBI RAYA",
  "name": "BATU AMPAR",
  "postalCode": "29274"
 },
 {
  "id": 6207012011,
  "districtId": 6207012,
  "districtName": "MENTHOBI RAYA",
  "name": "LUBUK HIJU",
  "postalCode": "74162"
 }
]