[
 {
  "id": 6207031001,
  "districtId": 6207031,
  "districtName": "BATANGKAWA",
  "name": "BATU TAMBUN",
  "postalCode": "22753"
 },
 {
  "id": 6207031002,
  "districtId": 6207031,
  "districtName": "BATANGKAWA",
  "name": "KINIPAN",
  "postalCode": "74664"
 },
 {
  "id": 6207031003,
  "districtId": 6207031,
  "districtName": "BATANGKAWA",
  "name": "GINIH",
  "postalCode": "74664"
 },
 {
  "id": 6207031004,
  "districtId": 6207031,
  "districtName": "BATANGKAWA",
  "name": "BENAKITAN",
  "postalCode": "74664"
 },
 {
  "id": 6207031005,
  "districtId": 6207031,
  "districtName": "BATANGKAWA",
  "name": "LIKU",
  "postalCode": "74664"
 },
 {
  "id": 6207031006,
  "districtId": 6207031,
  "districtName": "BATANGKAWA",
  "name": "MENGKALANG",
  "postalCode": "78384"
 },
 {
  "id": 6207031007,
  "districtId": 6207031,
  "districtName": "BATANGKAWA",
  "name": "KARANG MAS",
  "postalCode": "74664"
 },
 {
  "id": 6207031008,
  "districtId": 6207031,
  "districtName": "BATANGKAWA",
  "name": "KINA",
  "postalCode": "74664"
 },
 {
  "id": 6207031009,
  "districtId": 6207031,
  "districtName": "BATANGKAWA",
  "name": "JEMUAT",
  "postalCode": "74664"
 }
]