[
 {
  "id": 6208051001,
  "districtId": 6208051,
  "districtName": "SULING TAMBUN",
  "name": "TUMBANG MAGIN",
  "postalCode": "74291"
 },
 {
  "id": 6208051002,
  "districtId": 6208051,
  "districtName": "SULING TAMBUN",
  "name": "TUMBANG SETOLI",
  "postalCode": "74291"
 },
 {
  "id": 6208051003,
  "districtId": 6208051,
  "districtName": "SULING TAMBUN",
  "name": "TUMBANG HENTAS",
  "postalCode": "74291"
 },
 {
  "id": 6208051004,
  "districtId": 6208051,
  "districtName": "SULING TAMBUN",
  "name": "TUMBANG LANGKAI",
  "postalCode": "74291"
 },
 {
  "id": 6208051005,
  "districtId": 6208051,
  "districtName": "SULING TAMBUN",
  "name": "TANJUNG TUKAL",
  "postalCode": "74291"
 },
 {
  "id": 6208051006,
  "districtId": 6208051,
  "districtName": "SULING TAMBUN",
  "name": "RANGKANG MUNDUK",
  "postalCode": "74291"
 },
 {
  "id": 6208051007,
  "districtId": 6208051,
  "districtName": "SULING TAMBUN",
  "name": "TUMBANG SALAU",
  "postalCode": "74291"
 },
 {
  "id": 6208051008,
  "districtId": 6208051,
  "districtName": "SULING TAMBUN",
  "name": "RANTAU BETUNG",
  "postalCode": "74291"
 },
 {
  "id": 6208051009,
  "districtId": 6208051,
  "districtName": "SULING TAMBUN",
  "name": "TUMBANG GUGUP",
  "postalCode": "74291"
 }
]