[
 {
  "id": 6208041001,
  "districtId": 6208041,
  "districtName": "BATU AMPAR",
  "name": "SEBABI",
  "postalCode": "74281"
 },
 {
  "id": 6208041002,
  "districtId": 6208041,
  "districtName": "BATU AMPAR",
  "name": "SANDUL",
  "postalCode": "74281"
 },
 {
  "id": 6208041003,
  "districtId": 6208041,
  "districtName": "BATU AMPAR",
  "name": "SUKA MULYA",
  "postalCode": "28463"
 },
 {
  "id": 6208041004,
  "districtId": 6208041,
  "districtName": "BATU AMPAR",
  "name": "KALANG",
  "postalCode": "22213"
 },
 {
  "id": 6208041005,
  "districtId": 6208041,
  "districtName": "BATU AMPAR",
  "name": "DURIAN KAIT",
  "postalCode": "74281"
 },
 {
  "id": 6208041006,
  "districtId": 6208041,
  "districtName": "BATU AMPAR",
  "name": "SAHABU",
  "postalCode": ""
 },
 {
  "id": 6208041007,
  "districtId": 6208041,
  "districtName": "BATU AMPAR",
  "name": "WANA TIRTA",
  "postalCode": "74281"
 },
 {
  "id": 6208041008,
  "districtId": 6208041,
  "districtName": "BATU AMPAR",
  "name": "BATU MANANGIS",
  "postalCode": "74281"
 },
 {
  "id": 6208041009,
  "districtId": 6208041,
  "districtName": "BATU AMPAR",
  "name": "DERAWA",
  "postalCode": "74281"
 }
]