[
 {
  "id": 6209080001,
  "districtId": 6209080,
  "districtName": "KATINGAN TENGAH",
  "name": "MIRAH KALANAMAN",
  "postalCode": "74454"
 },
 {
  "id": 6209080002,
  "districtId": 6209080,
  "districtName": "KATINGAN TENGAH",
  "name": "TUMBANG LAHANG",
  "postalCode": "74454"
 },
 {
  "id": 6209080003,
  "districtId": 6209080,
  "districtName": "KATINGAN TENGAH",
  "name": "TEWANG PANJANG",
  "postalCode": "74454"
 },
 {
  "id": 6209080004,
  "districtId": 6209080,
  "districtName": "KATINGAN TENGAH",
  "name": "PETAK PUTI",
  "postalCode": "74454"
 },
 {
  "id": 6209080005,
  "districtId": 6209080,
  "districtName": "KATINGAN TENGAH",
  "name": "TELOK",
  "postalCode": "74454"
 },
 {
  "id": 6209080006,
  "districtId": 6209080,
  "districtName": "KATINGAN TENGAH",
  "name": "SAMBA DANUM",
  "postalCode": "74454"
 },
 {
  "id": 6209080007,
  "districtId": 6209080,
  "districtName": "KATINGAN TENGAH",
  "name": "SAMBA BAKUMPAI",
  "postalCode": "74454"
 },
 {
  "id": 6209080008,
  "districtId": 6209080,
  "districtName": "KATINGAN TENGAH",
  "name": "SAMBA KATUNG",
  "postalCode": "74454"
 },
 {
  "id": 6209080009,
  "districtId": 6209080,
  "districtName": "KATINGAN TENGAH",
  "name": "SAMBA KAHAYAN",
  "postalCode": "74454"
 },
 {
  "id": 6209080010,
  "districtId": 6209080,
  "districtName": "KATINGAN TENGAH",
  "name": "NAPU SAHUR",
  "postalCode": "74454"
 },
 {
  "id": 6209080011,
  "districtId": 6209080,
  "districtName": "KATINGAN TENGAH",
  "name": "BATU BADINDING",
  "postalCode": "74454"
 },
 {
  "id": 6209080012,
  "districtId": 6209080,
  "districtName": "KATINGAN TENGAH",
  "name": "RANTAU ASEM",
  "postalCode": "74454"
 },
 {
  "id": 6209080013,
  "districtId": 6209080,
  "districtName": "KATINGAN TENGAH",
  "name": "TUMBANG KALAMEI",
  "postalCode": "74454"
 },
 {
  "id": 6209080014,
  "districtId": 6209080,
  "districtName": "KATINGAN TENGAH",
  "name": "TUMBANG MARAK",
  "postalCode": "74454"
 },
 {
  "id": 6209080015,
  "districtId": 6209080,
  "districtName": "KATINGAN TENGAH",
  "name": "TUMBANG HANGEI",
  "postalCode": "74454"
 },
 {
  "id": 6209080016,
  "districtId": 6209080,
  "districtName": "KATINGAN TENGAH",
  "name": "TUMBANG PARIYEI",
  "postalCode": "74454"
 }
]