[
 {
  "id": 6210040001,
  "districtId": 6210040,
  "districtName": "KAHAYAN HILIR",
  "name": "BUNTOI",
  "postalCode": "74861"
 },
 {
  "id": 6210040002,
  "districtId": 6210040,
  "districtName": "KAHAYAN HILIR",
  "name": "MINTIN",
  "postalCode": "74816"
 },
 {
  "id": 6210040003,
  "districtId": 6210040,
  "districtName": "KAHAYAN HILIR",
  "name": "MANTAREN II",
  "postalCode": "74861"
 },
 {
  "id": 6210040004,
  "districtId": 6210040,
  "districtName": "KAHAYAN HILIR",
  "name": "MANTAREN I",
  "postalCode": "74861"
 },
 {
  "id": 6210040005,
  "districtId": 6210040,
  "districtName": "KAHAYAN HILIR",
  "name": "PULANG PISAU",
  "postalCode": ""
 },
 {
  "id": 6210040006,
  "districtId": 6210040,
  "districtName": "KAHAYAN HILIR",
  "name": "ANJIR PULANG PISAU",
  "postalCode": "74813"
 },
 {
  "id": 6210040007,
  "districtId": 6210040,
  "districtName": "KAHAYAN HILIR",
  "name": "GOHONG",
  "postalCode": "74812"
 },
 {
  "id": 6210040008,
  "districtId": 6210040,
  "districtName": "KAHAYAN HILIR",
  "name": "KALAWA",
  "postalCode": "74812"
 },
 {
  "id": 6210040009,
  "districtId": 6210040,
  "districtName": "KAHAYAN HILIR",
  "name": "HANJAK MAJU",
  "postalCode": "74821"
 }
]