[
 {
  "id": 6212060001,
  "districtId": 6212060,
  "districtName": "PEMATANG KARAU",
  "name": "MUARA PALANTAU",
  "postalCode": "73653"
 },
 {
  "id": 6212060002,
  "districtId": 6212060,
  "districtName": "PEMATANG KARAU",
  "name": "KETAB",
  "postalCode": ""
 },
 {
  "id": 6212060003,
  "districtId": 6212060,
  "districtName": "PEMATANG KARAU",
  "name": "KUPANG BERSIH",
  "postalCode": "73653"
 },
 {
  "id": 6212060004,
  "districtId": 6212060,
  "districtName": "PEMATANG KARAU",
  "name": "TUYAU",
  "postalCode": "73653"
 },
 {
  "id": 6212060005,
  "districtId": 6212060,
  "districtName": "PEMATANG KARAU",
  "name": "PINANG TUNGGAL",
  "postalCode": "73653"
 },
 {
  "id": 6212060006,
  "districtId": 6212060,
  "districtName": "PEMATANG KARAU",
  "name": "NAGALEAH",
  "postalCode": "73653"
 },
 {
  "id": 6212060007,
  "districtId": 6212060,
  "districtName": "PEMATANG KARAU",
  "name": "LAMPEONG",
  "postalCode": "73653"
 },
 {
  "id": 6212060008,
  "districtId": 6212060,
  "districtName": "PEMATANG KARAU",
  "name": "BARARAWA",
  "postalCode": "73653"
 },
 {
  "id": 6212060009,
  "districtId": 6212060,
  "districtName": "PEMATANG KARAU",
  "name": "BAMBULUNG",
  "postalCode": "73653"
 },
 {
  "id": 6212060010,
  "districtId": 6212060,
  "districtName": "PEMATANG KARAU",
  "name": "LEBO",
  "postalCode": "51281"
 },
 {
  "id": 6212060013,
  "districtId": 6212060,
  "districtName": "PEMATANG KARAU",
  "name": "SUMBEREJO",
  "postalCode": "20551"
 }
]