[
 {
  "id": 6213050001,
  "districtId": 6213050,
  "districtName": "SUMBER BARITO",
  "name": "KALAPEH BARU",
  "postalCode": "73981"
 },
 {
  "id": 6213050002,
  "districtId": 6213050,
  "districtName": "SUMBER BARITO",
  "name": "TUMBANG MASAO",
  "postalCode": "73981"
 },
 {
  "id": 6213050003,
  "districtId": 6213050,
  "districtName": "SUMBER BARITO",
  "name": "BATU MAKAP",
  "postalCode": "73981"
 },
 {
  "id": 6213050004,
  "districtId": 6213050,
  "districtName": "SUMBER BARITO",
  "name": "TUMBANG KUNYI",
  "postalCode": "73981"
 },
 {
  "id": 6213050005,
  "districtId": 6213050,
  "districtName": "SUMBER BARITO",
  "name": "OLONG LIKO",
  "postalCode": "73981"
 },
 {
  "id": 6213050006,
  "districtId": 6213050,
  "districtName": "SUMBER BARITO",
  "name": "TELUK JOLO",
  "postalCode": ""
 },
 {
  "id": 6213050007,
  "districtId": 6213050,
  "districtName": "SUMBER BARITO",
  "name": "LAAS BARU",
  "postalCode": "73981"
 },
 {
  "id": 6213050008,
  "districtId": 6213050,
  "districtName": "SUMBER BARITO",
  "name": "TUMBANG TUAN",
  "postalCode": "73981"
 },
 {
  "id": 6213050019,
  "districtId": 6213050,
  "districtName": "SUMBER BARITO",
  "name": "TUMBANG MULUT",
  "postalCode": "73981"
 }
]