[
 {
  "id": 6213010001,
  "districtId": 6213010,
  "districtName": "PERMATA INTAN",
  "name": "SUNGAI LOBANG",
  "postalCode": ""
 },
 {
  "id": 6213010002,
  "districtId": 6213010,
  "districtName": "PERMATA INTAN",
  "name": "SUNGAI GULA",
  "postalCode": ""
 },
 {
  "id": 6213010003,
  "districtId": 6213010,
  "districtName": "PERMATA INTAN",
  "name": "SUNGAI BATANG",
  "postalCode": "26471"
 },
 {
  "id": 6213010004,
  "districtId": 6213010,
  "districtName": "PERMATA INTAN",
  "name": "TUMBANG SALIO",
  "postalCode": "73971"
 },
 {
  "id": 6213010005,
  "districtId": 6213010,
  "districtName": "PERMATA INTAN",
  "name": "MUARA BAKANON",
  "postalCode": "73971"
 },
 {
  "id": 6213010006,
  "districtId": 6213010,
  "districtName": "PERMATA INTAN",
  "name": "PURNAMA",
  "postalCode": "28823"
 },
 {
  "id": 6213010007,
  "districtId": 6213010,
  "districtName": "PERMATA INTAN",
  "name": "TUMBANG LAHUNG",
  "postalCode": "73971"
 },
 {
  "id": 6213010008,
  "districtId": 6213010,
  "districtName": "PERMATA INTAN",
  "name": "MUARA BABUAT",
  "postalCode": "73971"
 },
 {
  "id": 6213010009,
  "districtId": 6213010,
  "districtName": "PERMATA INTAN",
  "name": "JUKING SUPAN",
  "postalCode": "73971"
 },
 {
  "id": 6213010010,
  "districtId": 6213010,
  "districtName": "PERMATA INTAN",
  "name": "BERATU",
  "postalCode": ""
 },
 {
  "id": 6213010011,
  "districtId": 6213010,
  "districtName": "PERMATA INTAN",
  "name": "PANTAI LAGA",
  "postalCode": "73971"
 },
 {
  "id": 6213010018,
  "districtId": 6213010,
  "districtName": "PERMATA INTAN",
  "name": "SEI BAKANON",
  "postalCode": ""
 }
]