[
 {
  "id": 6213040007,
  "districtId": 6213040,
  "districtName": "TANAH SIANG",
  "name": "SUNGAI LUNUK",
  "postalCode": ""
 },
 {
  "id": 6213040008,
  "districtId": 6213040,
  "districtName": "TANAH SIANG",
  "name": "TINO TALIH",
  "postalCode": "73961"
 },
 {
  "id": 6213040009,
  "districtId": 6213040,
  "districtName": "TANAH SIANG",
  "name": "OLONG NANGO",
  "postalCode": ""
 },
 {
  "id": 6213040010,
  "districtId": 6213040,
  "districtName": "TANAH SIANG",
  "name": "DIRUNG BAKUNG",
  "postalCode": "73961"
 },
 {
  "id": 6213040011,
  "districtId": 6213040,
  "districtName": "TANAH SIANG",
  "name": "TABULANG",
  "postalCode": "73961"
 },
 {
  "id": 6213040012,
  "districtId": 6213040,
  "districtName": "TANAH SIANG",
  "name": "MAHANYAN",
  "postalCode": "73961"
 },
 {
  "id": 6213040013,
  "districtId": 6213040,
  "districtName": "TANAH SIANG",
  "name": "OLONG DOJOU",
  "postalCode": ""
 },
 {
  "id": 6213040014,
  "districtId": 6213040,
  "districtName": "TANAH SIANG",
  "name": "OLONG SIRON",
  "postalCode": ""
 },
 {
  "id": 6213040015,
  "districtId": 6213040,
  "districtName": "TANAH SIANG",
  "name": "KONUT",
  "postalCode": "73961"
 },
 {
  "id": 6213040016,
  "districtId": 6213040,
  "districtName": "TANAH SIANG",
  "name": "BELAWAN",
  "postalCode": "73961"
 },
 {
  "id": 6213040017,
  "districtId": 6213040,
  "districtName": "TANAH SIANG",
  "name": "MANGKOLISOI",
  "postalCode": "73961"
 },
 {
  "id": 6213040018,
  "districtId": 6213040,
  "districtName": "TANAH SIANG",
  "name": "KALANG KALUH",
  "postalCode": "73961"
 },
 {
  "id": 6213040019,
  "districtId": 6213040,
  "districtName": "TANAH SIANG",
  "name": "MANTIAT PARI",
  "postalCode": "73961"
 },
 {
  "id": 6213040020,
  "districtId": 6213040,
  "districtName": "TANAH SIANG",
  "name": "OLONG ULU",
  "postalCode": ""
 },
 {
  "id": 6213040021,
  "districtId": 6213040,
  "districtName": "TANAH SIANG",
  "name": "SARIPOI",
  "postalCode": "73961"
 },
 {
  "id": 6213040022,
  "districtId": 6213040,
  "districtName": "TANAH SIANG",
  "name": "PURUK BATU",
  "postalCode": "73961"
 },
 {
  "id": 6213040023,
  "districtId": 6213040,
  "districtName": "TANAH SIANG",
  "name": "DOAN ARUNG",
  "postalCode": "73961"
 },
 {
  "id": 6213040024,
  "districtId": 6213040,
  "districtName": "TANAH SIANG",
  "name": "CANGKANG",
  "postalCode": "73961"
 },
 {
  "id": 6213040026,
  "districtId": 6213040,
  "districtName": "TANAH SIANG",
  "name": "KOLAM",
  "postalCode": "20371"
 },
 {
  "id": 6213040027,
  "districtId": 6213040,
  "districtName": "TANAH SIANG",
  "name": "NONOKALIWON",
  "postalCode": "73961"
 },
 {
  "id": 6213040028,
  "districtId": 6213040,
  "districtName": "TANAH SIANG",
  "name": "SARUHUNG",
  "postalCode": "73961"
 },
 {
  "id": 6213040029,
  "districtId": 6213040,
  "districtName": "TANAH SIANG",
  "name": "OLONG SOLOI",
  "postalCode": ""
 },
 {
  "id": 6213040030,
  "districtId": 6213040,
  "districtName": "TANAH SIANG",
  "name": "TOKUNG",
  "postalCode": "73961"
 },
 {
  "id": 6213040031,
  "districtId": 6213040,
  "districtName": "TANAH SIANG",
  "name": "OLONG BALO",
  "postalCode": ""
 },
 {
  "id": 6213040032,
  "districtId": 6213040,
  "districtName": "TANAH SIANG",
  "name": "KARALI",
  "postalCode": "73961"
 },
 {
  "id": 6213040033,
  "districtId": 6213040,
  "districtName": "TANAH SIANG",
  "name": "OSOM TOMPOK",
  "postalCode": "73961"
 }
]