[
 {
  "id": 6301050001,
  "districtId": 6301050,
  "districtName": "TAMBANG ULANG",
  "name": "BINGKULU",
  "postalCode": "70854"
 },
 {
  "id": 6301050002,
  "districtId": 6301050,
  "districtName": "TAMBANG ULANG",
  "name": "KAYU ABANG",
  "postalCode": "71291"
 },
 {
  "id": 6301050004,
  "districtId": 6301050,
  "districtName": "TAMBANG ULANG",
  "name": "GUNUNG RAJA",
  "postalCode": "31173"
 },
 {
  "id": 6301050005,
  "districtId": 6301050,
  "districtName": "TAMBANG ULANG",
  "name": "PULAU SARI",
  "postalCode": "70854"
 },
 {
  "id": 6301050006,
  "districtId": 6301050,
  "districtName": "TAMBANG ULANG",
  "name": "TAMBANG ULANG",
  "postalCode": "70854"
 },
 {
  "id": 6301050007,
  "districtId": 6301050,
  "districtName": "TAMBANG ULANG",
  "name": "SUNGAI JELAI",
  "postalCode": ""
 },
 {
  "id": 6301050008,
  "districtId": 6301050,
  "districtName": "TAMBANG ULANG",
  "name": "SUNGAI PINANG",
  "postalCode": "25654"
 },
 {
  "id": 6301050009,
  "districtId": 6301050,
  "districtName": "TAMBANG ULANG",
  "name": "MARTADAH",
  "postalCode": "70854"
 },
 {
  "id": 6301050010,
  "districtId": 6301050,
  "districtName": "TAMBANG ULANG",
  "name": "MARTADAH BARU",
  "postalCode": "70854"
 }
]