[
 {
  "id": 6301080001,
  "districtId": 6301080,
  "districtName": "JORONG",
  "name": "SABUHUR",
  "postalCode": "70881"
 },
 {
  "id": 6301080002,
  "districtId": 6301080,
  "districtName": "JORONG",
  "name": "SWARANGAN",
  "postalCode": "70881"
 },
 {
  "id": 6301080003,
  "districtId": 6301080,
  "districtName": "JORONG",
  "name": "ALUR",
  "postalCode": "70881"
 },
 {
  "id": 6301080004,
  "districtId": 6301080,
  "districtName": "JORONG",
  "name": "JORONG",
  "postalCode": "83617"
 },
 {
  "id": 6301080005,
  "districtId": 6301080,
  "districtName": "JORONG",
  "name": "KARANG REJO",
  "postalCode": "24581"
 },
 {
  "id": 6301080006,
  "districtId": 6301080,
  "districtName": "JORONG",
  "name": "MUARA ASAM ASAM",
  "postalCode": "70881"
 },
 {
  "id": 6301080007,
  "districtId": 6301080,
  "districtName": "JORONG",
  "name": "ASAM JAYA",
  "postalCode": "70881"
 },
 {
  "id": 6301080008,
  "districtId": 6301080,
  "districtName": "JORONG",
  "name": "ASRI MULIA",
  "postalCode": "70881"
 },
 {
  "id": 6301080009,
  "districtId": 6301080,
  "districtName": "JORONG",
  "name": "ASAM ASAM",
  "postalCode": "70881"
 },
 {
  "id": 6301080010,
  "districtId": 6301080,
  "districtName": "JORONG",
  "name": "BATALANG",
  "postalCode": "70881"
 },
 {
  "id": 6301080011,
  "districtId": 6301080,
  "districtName": "JORONG",
  "name": "SIMPANG EMPAT SUNGAI BARU",
  "postalCode": ""
 }
]