[
 {
  "id": 6301090001,
  "districtId": 6301090,
  "districtName": "KINTAP",
  "name": "PANDANSARI",
  "postalCode": "16720"
 },
 {
  "id": 6301090002,
  "districtId": 6301090,
  "districtName": "KINTAP",
  "name": "SALAMAN",
  "postalCode": "56162"
 },
 {
  "id": 6301090003,
  "districtId": 6301090,
  "districtName": "KINTAP",
  "name": "KINTAPURA",
  "postalCode": ""
 },
 {
  "id": 6301090004,
  "districtId": 6301090,
  "districtName": "KINTAP",
  "name": "PASIR PUTIH",
  "postalCode": "24453"
 },
 {
  "id": 6301090005,
  "districtId": 6301090,
  "districtName": "KINTAP",
  "name": "KINTAP KECIL",
  "postalCode": "70883"
 },
 {
  "id": 6301090006,
  "districtId": 6301090,
  "districtName": "KINTAP",
  "name": "KINTAP",
  "postalCode": "70883"
 },
 {
  "id": 6301090007,
  "districtId": 6301090,
  "districtName": "KINTAP",
  "name": "MUARA KINTAP",
  "postalCode": "70883"
 },
 {
  "id": 6301090008,
  "districtId": 6301090,
  "districtName": "KINTAP",
  "name": "BUKIT MULIA",
  "postalCode": "70883"
 },
 {
  "id": 6301090009,
  "districtId": 6301090,
  "districtName": "KINTAP",
  "name": "SUMBER JAYA",
  "postalCode": "24553"
 },
 {
  "id": 6301090010,
  "districtId": 6301090,
  "districtName": "KINTAP",
  "name": "KEBUN RAYA",
  "postalCode": "70883"
 },
 {
  "id": 6301090011,
  "districtId": 6301090,
  "districtName": "KINTAP",
  "name": "MEKAR SARI",
  "postalCode": "21261"
 },
 {
  "id": 6301090012,
  "districtId": 6301090,
  "districtName": "KINTAP",
  "name": "SEBAMBAN BARU",
  "postalCode": "70883"
 },
 {
  "id": 6301090013,
  "districtId": 6301090,
  "districtName": "KINTAP",
  "name": "SUNGAI CUKA",
  "postalCode": ""
 },
 {
  "id": 6301090014,
  "districtId": 6301090,
  "districtName": "KINTAP",
  "name": "RIAM ADUNGAN",
  "postalCode": "70883"
 }
]