[
 {
  "id": 6303110001,
  "districtId": 6303110,
  "districtName": "MATARAMAN",
  "name": "BARU",
  "postalCode": "23764"
 },
 {
  "id": 6303110002,
  "districtId": 6303110,
  "districtName": "MATARAMAN",
  "name": "GUNUNG ULIN",
  "postalCode": "70672"
 },
 {
  "id": 6303110003,
  "districtId": 6303110,
  "districtName": "MATARAMAN",
  "name": "SUNGAI JATI",
  "postalCode": ""
 },
 {
  "id": 6303110004,
  "districtId": 6303110,
  "districtName": "MATARAMAN",
  "name": "TAKUTI",
  "postalCode": "70672"
 },
 {
  "id": 6303110005,
  "districtId": 6303110,
  "districtName": "MATARAMAN",
  "name": "TANAH ABANG",
  "postalCode": "20585"
 },
 {
  "id": 6303110006,
  "districtId": 6303110,
  "districtName": "MATARAMAN",
  "name": "BAWAHAN PASAR",
  "postalCode": "70672"
 },
 {
  "id": 6303110007,
  "districtId": 6303110,
  "districtName": "MATARAMAN",
  "name": "SURIAN",
  "postalCode": "27373"
 },
 {
  "id": 6303110008,
  "districtId": 6303110,
  "districtName": "MATARAMAN",
  "name": "PEMATANG DANAU",
  "postalCode": "32273"
 },
 {
  "id": 6303110009,
  "districtId": 6303110,
  "districtName": "MATARAMAN",
  "name": "PASIRAMAN",
  "postalCode": "66173"
 },
 {
  "id": 6303110010,
  "districtId": 6303110,
  "districtName": "MATARAMAN",
  "name": "BAWAHAN SELAN",
  "postalCode": "70672"
 },
 {
  "id": 6303110011,
  "districtId": 6303110,
  "districtName": "MATARAMAN",
  "name": "BAWAHAN SEBERANG",
  "postalCode": "70672"
 },
 {
  "id": 6303110012,
  "districtId": 6303110,
  "districtName": "MATARAMAN",
  "name": "MANGKA LAWAT",
  "postalCode": "70672"
 },
 {
  "id": 6303110013,
  "districtId": 6303110,
  "districtName": "MATARAMAN",
  "name": "MATARAMAN",
  "postalCode": "70672"
 },
 {
  "id": 6303110014,
  "districtId": 6303110,
  "districtName": "MATARAMAN",
  "name": "SIMPANG TIGA",
  "postalCode": "23772"
 },
 {
  "id": 6303110015,
  "districtId": 6303110,
  "districtName": "MATARAMAN",
  "name": "LOK TAMU",
  "postalCode": "70672"
 }
]