[
 {
  "id": 6303011001,
  "districtId": 6303011,
  "districtName": "BERUNTUNG BARU",
  "name": "PINDAHAN BARU",
  "postalCode": "70655"
 },
 {
  "id": 6303011002,
  "districtId": 6303011,
  "districtName": "BERUNTUNG BARU",
  "name": "HAUR KUNING",
  "postalCode": "70655"
 },
 {
  "id": 6303011003,
  "districtId": 6303011,
  "districtName": "BERUNTUNG BARU",
  "name": "SELAT MAKMUR",
  "postalCode": "70655"
 },
 {
  "id": 6303011004,
  "districtId": 6303011,
  "districtName": "BERUNTUNG BARU",
  "name": "KAMPUNG BARU",
  "postalCode": "24652"
 },
 {
  "id": 6303011005,
  "districtId": 6303011,
  "districtName": "BERUNTUNG BARU",
  "name": "TAMBAK PADI",
  "postalCode": "70655"
 },
 {
  "id": 6303011006,
  "districtId": 6303011,
  "districtName": "BERUNTUNG BARU",
  "name": "LAWAHAN",
  "postalCode": "70655"
 },
 {
  "id": 6303011007,
  "districtId": 6303011,
  "districtName": "BERUNTUNG BARU",
  "name": "BABIRIK",
  "postalCode": "70655"
 },
 {
  "id": 6303011008,
  "districtId": 6303011,
  "districtName": "BERUNTUNG BARU",
  "name": "JAMBU RAYA",
  "postalCode": "70655"
 },
 {
  "id": 6303011009,
  "districtId": 6303011,
  "districtName": "BERUNTUNG BARU",
  "name": "HANDIL PURAI",
  "postalCode": "70655"
 },
 {
  "id": 6303011010,
  "districtId": 6303011,
  "districtName": "BERUNTUNG BARU",
  "name": "MUARA HALAYUNG",
  "postalCode": "70655"
 },
 {
  "id": 6303011011,
  "districtId": 6303011,
  "districtName": "BERUNTUNG BARU",
  "name": "JAMBU BURUNG",
  "postalCode": "70655"
 },
 {
  "id": 6303011012,
  "districtId": 6303011,
  "districtName": "BERUNTUNG BARU",
  "name": "RUMPIANG",
  "postalCode": "70655"
 }
]