[
 {
  "id": 6303031001,
  "districtId": 6303031,
  "districtName": "TATAH MAKMUR",
  "name": "TATAH BANGKAL",
  "postalCode": "70654"
 },
 {
  "id": 6303031002,
  "districtId": 6303031,
  "districtName": "TATAH MAKMUR",
  "name": "TATAH BANGKALTENGAH",
  "postalCode": ""
 },
 {
  "id": 6303031003,
  "districtId": 6303031,
  "districtName": "TATAH MAKMUR",
  "name": "LAYAP BARU",
  "postalCode": "70654"
 },
 {
  "id": 6303031004,
  "districtId": 6303031,
  "districtName": "TATAH MAKMUR",
  "name": "TAMPANG AWANG",
  "postalCode": "70654"
 },
 {
  "id": 6303031005,
  "districtId": 6303031,
  "districtName": "TATAH MAKMUR",
  "name": "TATAH PEMANGKIH DARAT",
  "postalCode": ""
 },
 {
  "id": 6303031006,
  "districtId": 6303031,
  "districtName": "TATAH MAKMUR",
  "name": "PEMANGKIH BARU",
  "postalCode": "70654"
 },
 {
  "id": 6303031007,
  "districtId": 6303031,
  "districtName": "TATAH MAKMUR",
  "name": "JARUJU LAUT",
  "postalCode": "70654"
 },
 {
  "id": 6303031008,
  "districtId": 6303031,
  "districtName": "TATAH MAKMUR",
  "name": "TATAH JARUJU",
  "postalCode": ""
 },
 {
  "id": 6303031009,
  "districtId": 6303031,
  "districtName": "TATAH MAKMUR",
  "name": "TATAH PEMANGKIH TENGAH",
  "postalCode": ""
 },
 {
  "id": 6303031010,
  "districtId": 6303031,
  "districtName": "TATAH MAKMUR",
  "name": "TAIBAH RAYA",
  "postalCode": "70654"
 },
 {
  "id": 6303031011,
  "districtId": 6303031,
  "districtName": "TATAH MAKMUR",
  "name": "TATAH LAYAP",
  "postalCode": "70654"
 },
 {
  "id": 6303031012,
  "districtId": 6303031,
  "districtName": "TATAH MAKMUR",
  "name": "MEKAR SARI",
  "postalCode": "21261"
 },
 {
  "id": 6303031013,
  "districtId": 6303031,
  "districtName": "TATAH MAKMUR",
  "name": "PANDAN SARI",
  "postalCode": "24784"
 }
]