[
 {
  "id": 6303100001,
  "districtId": 6303100,
  "districtName": "PENGARON",
  "name": "MANIAPUN",
  "postalCode": "70674"
 },
 {
  "id": 6303100002,
  "districtId": 6303100,
  "districtName": "PENGARON",
  "name": "LOBANG BARU",
  "postalCode": "70674"
 },
 {
  "id": 6303100003,
  "districtId": 6303100,
  "districtName": "PENGARON",
  "name": "LOKTUNGGUL",
  "postalCode": "70674"
 },
 {
  "id": 6303100004,
  "districtId": 6303100,
  "districtName": "PENGARON",
  "name": "KERTAK EMPAT",
  "postalCode": "70674"
 },
 {
  "id": 6303100005,
  "districtId": 6303100,
  "districtName": "PENGARON",
  "name": "PENGARON",
  "postalCode": "70674"
 },
 {
  "id": 6303100007,
  "districtId": 6303100,
  "districtName": "PENGARON",
  "name": "LUMPANGI",
  "postalCode": "71282"
 },
 {
  "id": 6303100008,
  "districtId": 6303100,
  "districtName": "PENGARON",
  "name": "ATI`IM",
  "postalCode": ""
 },
 {
  "id": 6303100009,
  "districtId": 6303100,
  "districtName": "PENGARON",
  "name": "ALIMUKIM",
  "postalCode": "70674"
 },
 {
  "id": 6303100010,
  "districtId": 6303100,
  "districtName": "PENGARON",
  "name": "ANTARAKU",
  "postalCode": "70674"
 },
 {
  "id": 6303100011,
  "districtId": 6303100,
  "districtName": "PENGARON",
  "name": "PANYIURAN",
  "postalCode": "71452"
 },
 {
  "id": 6303100014,
  "districtId": 6303100,
  "districtName": "PENGARON",
  "name": "MANGKAUK",
  "postalCode": "70674"
 }
]