[
 {
  "id": 6304030001,
  "districtId": 6304030,
  "districtName": "MEKAR SARI",
  "name": "TAMBAN RAYA",
  "postalCode": "70568"
 },
 {
  "id": 6304030002,
  "districtId": 6304030,
  "districtName": "MEKAR SARI",
  "name": "TAMBAN RAYA BARU",
  "postalCode": "70568"
 },
 {
  "id": 6304030003,
  "districtId": 6304030,
  "districtName": "MEKAR SARI",
  "name": "KARANG MEKAR",
  "postalCode": "17540"
 },
 {
  "id": 6304030004,
  "districtId": 6304030,
  "districtName": "MEKAR SARI",
  "name": "INDAH SARI",
  "postalCode": "70568"
 },
 {
  "id": 6304030005,
  "districtId": 6304030,
  "districtName": "MEKAR SARI",
  "name": "MEKAR SARI",
  "postalCode": "21261"
 },
 {
  "id": 6304030006,
  "districtId": 6304030,
  "districtName": "MEKAR SARI",
  "name": "TINGGIRAN DARAT",
  "postalCode": "70568"
 },
 {
  "id": 6304030007,
  "districtId": 6304030,
  "districtName": "MEKAR SARI",
  "name": "JELAPAT II",
  "postalCode": "70568"
 },
 {
  "id": 6304030008,
  "districtId": 6304030,
  "districtName": "MEKAR SARI",
  "name": "TINGGIRAN TENGAH",
  "postalCode": "70568"
 },
 {
  "id": 6304030009,
  "districtId": 6304030,
  "districtName": "MEKAR SARI",
  "name": "TINGGIRAN BARU",
  "postalCode": "70568"
 }
]