[
 {
  "id": 6304160001,
  "districtId": 6304160,
  "districtName": "KURIPAN",
  "name": "JAMBU BARU",
  "postalCode": "70552"
 },
 {
  "id": 6304160002,
  "districtId": 6304160,
  "districtName": "KURIPAN",
  "name": "JAMBU",
  "postalCode": "20998"
 },
 {
  "id": 6304160003,
  "districtId": 6304160,
  "districtName": "KURIPAN",
  "name": "KABUAU",
  "postalCode": "74355"
 },
 {
  "id": 6304160004,
  "districtId": 6304160,
  "districtName": "KURIPAN",
  "name": "ASIA BARU",
  "postalCode": "70552"
 },
 {
  "id": 6304160005,
  "districtId": 6304160,
  "districtName": "KURIPAN",
  "name": "JARENANG",
  "postalCode": "70552"
 },
 {
  "id": 6304160006,
  "districtId": 6304160,
  "districtName": "KURIPAN",
  "name": "KURIPAN",
  "postalCode": "32384"
 },
 {
  "id": 6304160007,
  "districtId": 6304160,
  "districtName": "KURIPAN",
  "name": "RIMBUN TULANG",
  "postalCode": "70552"
 },
 {
  "id": 6304160008,
  "districtId": 6304160,
  "districtName": "KURIPAN",
  "name": "TABATAN",
  "postalCode": "73763"
 },
 {
  "id": 6304160009,
  "districtId": 6304160,
  "districtName": "KURIPAN",
  "name": "TABATAN BARU",
  "postalCode": "70552"
 }
]