[
 {
  "id": 6304130001,
  "districtId": 6304130,
  "districtName": "BAKUMPAI",
  "name": "BATIK",
  "postalCode": "70513"
 },
 {
  "id": 6304130002,
  "districtId": 6304130,
  "districtName": "BAKUMPAI",
  "name": "LEPASAN",
  "postalCode": "70512"
 },
 {
  "id": 6304130003,
  "districtId": 6304130,
  "districtName": "BAKUMPAI",
  "name": "BAHALAYUNG",
  "postalCode": "70513"
 },
 {
  "id": 6304130004,
  "districtId": 6304130,
  "districtName": "BAKUMPAI",
  "name": "BENUA ANYAR",
  "postalCode": "70513"
 },
 {
  "id": 6304130005,
  "districtId": 6304130,
  "districtName": "BAKUMPAI",
  "name": "MURUNG RAYA",
  "postalCode": "70513"
 },
 {
  "id": 6304130006,
  "districtId": 6304130,
  "districtName": "BAKUMPAI",
  "name": "SUNGAI LIRIK",
  "postalCode": ""
 },
 {
  "id": 6304130007,
  "districtId": 6304130,
  "districtName": "BAKUMPAI",
  "name": "BANITAN",
  "postalCode": "70513"
 },
 {
  "id": 6304130008,
  "districtId": 6304130,
  "districtName": "BAKUMPAI",
  "name": "PALINGKAU",
  "postalCode": "74261"
 },
 {
  "id": 6304130009,
  "districtId": 6304130,
  "districtName": "BAKUMPAI",
  "name": "BALUKUNG",
  "postalCode": "70513"
 }
]