[
 {
  "id": 6304100001,
  "districtId": 6304100,
  "districtName": "BARAMBAI",
  "name": "HANDIL BARABAI",
  "postalCode": "70562"
 },
 {
  "id": 6304100002,
  "districtId": 6304100,
  "districtName": "BARAMBAI",
  "name": "SUNGAI KALI",
  "postalCode": ""
 },
 {
  "id": 6304100003,
  "districtId": 6304100,
  "districtName": "BARAMBAI",
  "name": "BAGAGAP",
  "postalCode": "70562"
 },
 {
  "id": 6304100004,
  "districtId": 6304100,
  "districtName": "BARAMBAI",
  "name": "BARAMBAI",
  "postalCode": "70562"
 },
 {
  "id": 6304100005,
  "districtId": 6304100,
  "districtName": "BARAMBAI",
  "name": "KARYA BARU",
  "postalCode": "30151"
 },
 {
  "id": 6304100006,
  "districtId": 6304100,
  "districtName": "BARAMBAI",
  "name": "KARYA TANI",
  "postalCode": "29261"
 },
 {
  "id": 6304100007,
  "districtId": 6304100,
  "districtName": "BARAMBAI",
  "name": "BARAMBAI KOLAM KIRI",
  "postalCode": "70562"
 },
 {
  "id": 6304100008,
  "districtId": 6304100,
  "districtName": "BARAMBAI",
  "name": "BARAMBAI KOLAM KANAN",
  "postalCode": "70562"
 },
 {
  "id": 6304100009,
  "districtId": 6304100,
  "districtName": "BARAMBAI",
  "name": "PENDALAMAN",
  "postalCode": "70562"
 },
 {
  "id": 6304100010,
  "districtId": 6304100,
  "districtName": "BARAMBAI",
  "name": "PENDALAMAN BARU",
  "postalCode": "70562"
 },
 {
  "id": 6304100011,
  "districtId": 6304100,
  "districtName": "BARAMBAI",
  "name": "KOLAM KIRI DALAM",
  "postalCode": "70562"
 }
]