[
 {
  "id": 6304060001,
  "districtId": 6304060,
  "districtName": "ALALAK",
  "name": "PULAU SUGARA",
  "postalCode": "70582"
 },
 {
  "id": 6304060002,
  "districtId": 6304060,
  "districtName": "ALALAK",
  "name": "PULAU SEWANGI",
  "postalCode": "70582"
 },
 {
  "id": 6304060003,
  "districtId": 6304060,
  "districtName": "ALALAK",
  "name": "PULAU ALALAK",
  "postalCode": "70582"
 },
 {
  "id": 6304060004,
  "districtId": 6304060,
  "districtName": "ALALAK",
  "name": "SEMANGAT KARYA",
  "postalCode": "70582"
 },
 {
  "id": 6304060005,
  "districtId": 6304060,
  "districtName": "ALALAK",
  "name": "SEMANGAT BAKTI",
  "postalCode": "70582"
 },
 {
  "id": 6304060006,
  "districtId": 6304060,
  "districtName": "ALALAK",
  "name": "SEMANGAT DALAM",
  "postalCode": "70582"
 },
 {
  "id": 6304060007,
  "districtId": 6304060,
  "districtName": "ALALAK",
  "name": "HANDIL BAKTI",
  "postalCode": "70582"
 },
 {
  "id": 6304060008,
  "districtId": 6304060,
  "districtName": "ALALAK",
  "name": "TATAH MESJID",
  "postalCode": "70582"
 },
 {
  "id": 6304060009,
  "districtId": 6304060,
  "districtName": "ALALAK",
  "name": "BERANGAS TIMUR",
  "postalCode": "70582"
 },
 {
  "id": 6304060010,
  "districtId": 6304060,
  "districtName": "ALALAK",
  "name": "BERANGAS",
  "postalCode": "70582"
 },
 {
  "id": 6304060011,
  "districtId": 6304060,
  "districtName": "ALALAK",
  "name": "BERANGAS BARAT",
  "postalCode": "70582"
 },
 {
  "id": 6304060012,
  "districtId": 6304060,
  "districtName": "ALALAK",
  "name": "SUNGAI LUMBAH",
  "postalCode": ""
 },
 {
  "id": 6304060013,
  "districtId": 6304060,
  "districtName": "ALALAK",
  "name": "BERINGIN",
  "postalCode": "20552"
 },
 {
  "id": 6304060014,
  "districtId": 6304060,
  "districtName": "ALALAK",
  "name": "SUNGAI PITUNG",
  "postalCode": ""
 },
 {
  "id": 6304060015,
  "districtId": 6304060,
  "districtName": "ALALAK",
  "name": "BELANDEAN MUARA",
  "postalCode": "70582"
 },
 {
  "id": 6304060016,
  "districtId": 6304060,
  "districtName": "ALALAK",
  "name": "BELANDEAN",
  "postalCode": "70582"
 },
 {
  "id": 6304060017,
  "districtId": 6304060,
  "districtName": "ALALAK",
  "name": "PANCA KARYA",
  "postalCode": "37382"
 },
 {
  "id": 6304060018,
  "districtId": 6304060,
  "districtName": "ALALAK",
  "name": "TANJUNG HARAPAN",
  "postalCode": "23754"
 }
]