[
 {
  "id": 6304150001,
  "districtId": 6304150,
  "districtName": "TABUKAN",
  "name": "PANTANG BARU",
  "postalCode": "70553"
 },
 {
  "id": 6304150002,
  "districtId": 6304150,
  "districtName": "TABUKAN",
  "name": "PANTANG RAYA",
  "postalCode": "70553"
 },
 {
  "id": 6304150003,
  "districtId": 6304150,
  "districtName": "TABUKAN",
  "name": "BANDAR KARYA",
  "postalCode": "70553"
 },
 {
  "id": 6304150004,
  "districtId": 6304150,
  "districtName": "TABUKAN",
  "name": "TABUKAN RAYA",
  "postalCode": "70553"
 },
 {
  "id": 6304150005,
  "districtId": 6304150,
  "districtName": "TABUKAN",
  "name": "KARYA INDAH",
  "postalCode": "24673"
 },
 {
  "id": 6304150006,
  "districtId": 6304150,
  "districtName": "TABUKAN",
  "name": "KARYA JADI",
  "postalCode": "20852"
 },
 {
  "id": 6304150007,
  "districtId": 6304150,
  "districtName": "TABUKAN",
  "name": "KARYA MAKMUR",
  "postalCode": "32385"
 },
 {
  "id": 6304150008,
  "districtId": 6304150,
  "districtName": "TABUKAN",
  "name": "TELUK TAMBA",
  "postalCode": "70553"
 },
 {
  "id": 6304150009,
  "districtId": 6304150,
  "districtName": "TABUKAN",
  "name": "TAMBA JAYA",
  "postalCode": "70553"
 },
 {
  "id": 6304150010,
  "districtId": 6304150,
  "districtName": "TABUKAN",
  "name": "RANTAU BAMBAN",
  "postalCode": "70553"
 },
 {
  "id": 6304150011,
  "districtId": 6304150,
  "districtName": "TABUKAN",
  "name": "MUARA PULAU",
  "postalCode": "70553"
 }
]