[
 {
  "id": 6304140001,
  "districtId": 6304140,
  "districtName": "MARABAHAN",
  "name": "BAGUS",
  "postalCode": "70511"
 },
 {
  "id": 6304140002,
  "districtId": 6304140,
  "districtName": "MARABAHAN",
  "name": "BALIUK",
  "postalCode": "70511"
 },
 {
  "id": 6304140004,
  "districtId": 6304140,
  "districtName": "MARABAHAN",
  "name": "MARABAHAN KOTA",
  "postalCode": "70511"
 },
 {
  "id": 6304140006,
  "districtId": 6304140,
  "districtName": "MARABAHAN",
  "name": "ANTAR BARU",
  "postalCode": "70511"
 },
 {
  "id": 6304140007,
  "districtId": 6304140,
  "districtName": "MARABAHAN",
  "name": "ANTAR RAYA",
  "postalCode": "70511"
 },
 {
  "id": 6304140008,
  "districtId": 6304140,
  "districtName": "MARABAHAN",
  "name": "ANTAR JAYA",
  "postalCode": "70511"
 },
 {
  "id": 6304140009,
  "districtId": 6304140,
  "districtName": "MARABAHAN",
  "name": "SIDO MAKMUR",
  "postalCode": "20772"
 },
 {
  "id": 6304140010,
  "districtId": 6304140,
  "districtName": "MARABAHAN",
  "name": "KARYA MAJU",
  "postalCode": "20853"
 }
]