[
 {
  "id": 6305090001,
  "districtId": 6305090,
  "districtName": "CANDI LARAS SELATAN",
  "name": "SUNGAI RUTAS",
  "postalCode": ""
 },
 {
  "id": 6305090002,
  "districtId": 6305090,
  "districtName": "CANDI LARAS SELATAN",
  "name": "SUNGAI RUTAS HULU",
  "postalCode": ""
 },
 {
  "id": 6305090003,
  "districtId": 6305090,
  "districtName": "CANDI LARAS SELATAN",
  "name": "PABAUNGAN HULU",
  "postalCode": "71162"
 },
 {
  "id": 6305090004,
  "districtId": 6305090,
  "districtName": "CANDI LARAS SELATAN",
  "name": "PABAUNGAN PANTAI",
  "postalCode": "71162"
 },
 {
  "id": 6305090005,
  "districtId": 6305090,
  "districtName": "CANDI LARAS SELATAN",
  "name": "PABAUNGAN HILIR",
  "postalCode": "71162"
 },
 {
  "id": 6305090006,
  "districtId": 6305090,
  "districtName": "CANDI LARAS SELATAN",
  "name": "MARAMPIAU",
  "postalCode": "71162"
 },
 {
  "id": 6305090007,
  "districtId": 6305090,
  "districtName": "CANDI LARAS SELATAN",
  "name": "MARAMPIAU HILIR",
  "postalCode": "71162"
 },
 {
  "id": 6305090008,
  "districtId": 6305090,
  "districtName": "CANDI LARAS SELATAN",
  "name": "BARINGIN",
  "postalCode": "22456"
 },
 {
  "id": 6305090009,
  "districtId": 6305090,
  "districtName": "CANDI LARAS SELATAN",
  "name": "BARINGIN B",
  "postalCode": "71162"
 },
 {
  "id": 6305090010,
  "districtId": 6305090,
  "districtName": "CANDI LARAS SELATAN",
  "name": "MARGASARI HULU",
  "postalCode": ""
 },
 {
  "id": 6305090011,
  "districtId": 6305090,
  "districtName": "CANDI LARAS SELATAN",
  "name": "CANDI LARAS",
  "postalCode": "71162"
 },
 {
  "id": 6305090012,
  "districtId": 6305090,
  "districtName": "CANDI LARAS SELATAN",
  "name": "BAULIN",
  "postalCode": "71162"
 }
]