[
 {
  "id": 6305020001,
  "districtId": 6305020,
  "districtName": "TAPIN SELATAN",
  "name": "TATAKAN",
  "postalCode": "71181"
 },
 {
  "id": 6305020005,
  "districtId": 6305020,
  "districtName": "TAPIN SELATAN",
  "name": "SUATO TATAKAN",
  "postalCode": "71181"
 },
 {
  "id": 6305020006,
  "districtId": 6305020,
  "districtName": "TAPIN SELATAN",
  "name": "TANDUI",
  "postalCode": "71181"
 },
 {
  "id": 6305020007,
  "districtId": 6305020,
  "districtName": "TAPIN SELATAN",
  "name": "LAWAHAN",
  "postalCode": "70655"
 },
 {
  "id": 6305020008,
  "districtId": 6305020,
  "districtName": "TAPIN SELATAN",
  "name": "RUMINTIN",
  "postalCode": "71181"
 },
 {
  "id": 6305020012,
  "districtId": 6305020,
  "districtName": "TAPIN SELATAN",
  "name": "SAWANG",
  "postalCode": "24184"
 },
 {
  "id": 6305020013,
  "districtId": 6305020,
  "districtName": "TAPIN SELATAN",
  "name": "TAMBARANGAN",
  "postalCode": "71181"
 },
 {
  "id": 6305020014,
  "districtId": 6305020,
  "districtName": "TAPIN SELATAN",
  "name": "CEMPAKA",
  "postalCode": "37152"
 },
 {
  "id": 6305020015,
  "districtId": 6305020,
  "districtName": "TAPIN SELATAN",
  "name": "TIMBAAN",
  "postalCode": "21184"
 },
 {
  "id": 6305020016,
  "districtId": 6305020,
  "districtName": "TAPIN SELATAN",
  "name": "HARAPAN MASA",
  "postalCode": "71181"
 },
 {
  "id": 6305020017,
  "districtId": 6305020,
  "districtName": "TAPIN SELATAN",
  "name": "HATIWIN",
  "postalCode": "71181"
 }
]