[
 {
  "id": 6305080001,
  "districtId": 6305080,
  "districtName": "BAKARANGAN",
  "name": "PARIGI KACIL",
  "postalCode": ""
 },
 {
  "id": 6305080002,
  "districtId": 6305080,
  "districtName": "BAKARANGAN",
  "name": "PARIGI",
  "postalCode": "22756"
 },
 {
  "id": 6305080003,
  "districtId": 6305080,
  "districtName": "BAKARANGAN",
  "name": "BAKARANGAN",
  "postalCode": "71152"
 },
 {
  "id": 6305080004,
  "districtId": 6305080,
  "districtName": "BAKARANGAN",
  "name": "PAUL",
  "postalCode": "71152"
 },
 {
  "id": 6305080005,
  "districtId": 6305080,
  "districtName": "BAKARANGAN",
  "name": "WARINGIN",
  "postalCode": "45475"
 },
 {
  "id": 6305080006,
  "districtId": 6305080,
  "districtName": "BAKARANGAN",
  "name": "TANGKAWANG BARU",
  "postalCode": "71152"
 },
 {
  "id": 6305080007,
  "districtId": 6305080,
  "districtName": "BAKARANGAN",
  "name": "TANGKAWANG",
  "postalCode": "71152"
 },
 {
  "id": 6305080008,
  "districtId": 6305080,
  "districtName": "BAKARANGAN",
  "name": "GADUNG KARAMAT",
  "postalCode": "71152"
 },
 {
  "id": 6305080009,
  "districtId": 6305080,
  "districtName": "BAKARANGAN",
  "name": "KETAPANG",
  "postalCode": "35596"
 },
 {
  "id": 6305080011,
  "districtId": 6305080,
  "districtName": "BAKARANGAN",
  "name": "GADUNG",
  "postalCode": "33783"
 },
 {
  "id": 6305080012,
  "districtId": 6305080,
  "districtName": "BAKARANGAN",
  "name": "MASTA",
  "postalCode": "71152"
 }
]