[
 {
  "id": 6305010001,
  "districtId": 6305010,
  "districtName": "BINUANG",
  "name": "TUNGKAP",
  "postalCode": "71183"
 },
 {
  "id": 6305010002,
  "districtId": 6305010,
  "districtName": "BINUANG",
  "name": "A YANI PURA",
  "postalCode": "71183"
 },
 {
  "id": 6305010003,
  "districtId": 6305010,
  "districtName": "BINUANG",
  "name": "GUNUNG BATU",
  "postalCode": "32384"
 },
 {
  "id": 6305010012,
  "districtId": 6305010,
  "districtName": "BINUANG",
  "name": "PADANG SARI",
  "postalCode": "21261"
 },
 {
  "id": 6305010013,
  "districtId": 6305010,
  "districtName": "BINUANG",
  "name": "PUALAM SARI",
  "postalCode": "71183"
 },
 {
  "id": 6305010014,
  "districtId": 6305010,
  "districtName": "BINUANG",
  "name": "BINUANG",
  "postalCode": "28463"
 },
 {
  "id": 6305010015,
  "districtId": 6305010,
  "districtName": "BINUANG",
  "name": "PULAU PINANG",
  "postalCode": "31461"
 },
 {
  "id": 6305010016,
  "districtId": 6305010,
  "districtName": "BINUANG",
  "name": "PULAU PINANG UTARA",
  "postalCode": "71183"
 },
 {
  "id": 6305010017,
  "districtId": 6305010,
  "districtName": "BINUANG",
  "name": "RAYA BELANTI",
  "postalCode": "71183"
 },
 {
  "id": 6305010018,
  "districtId": 6305010,
  "districtName": "BINUANG",
  "name": "KARANGAN PUTIH",
  "postalCode": "71552"
 },
 {
  "id": 6305010019,
  "districtId": 6305010,
  "districtName": "BINUANG",
  "name": "MEKAR SARI",
  "postalCode": "21261"
 }
]