[
 {
  "id": 6306070009,
  "districtId": 6306070,
  "districtName": "SIMPUR",
  "name": "WASAH HULU",
  "postalCode": "71261"
 },
 {
  "id": 6306070010,
  "districtId": 6306070,
  "districtName": "SIMPUR",
  "name": "WASAH TENGAH",
  "postalCode": "71261"
 },
 {
  "id": 6306070011,
  "districtId": 6306070,
  "districtName": "SIMPUR",
  "name": "WASAH HILIR",
  "postalCode": "71261"
 },
 {
  "id": 6306070012,
  "districtId": 6306070,
  "districtName": "SIMPUR",
  "name": "SIMPUR",
  "postalCode": "24582"
 },
 {
  "id": 6306070014,
  "districtId": 6306070,
  "districtName": "SIMPUR",
  "name": "TEBING TINGGI",
  "postalCode": "24477"
 },
 {
  "id": 6306070015,
  "districtId": 6306070,
  "districtName": "SIMPUR",
  "name": "GARUNGGANG",
  "postalCode": "20772"
 },
 {
  "id": 6306070018,
  "districtId": 6306070,
  "districtName": "SIMPUR",
  "name": "AMPARAYA",
  "postalCode": "71261"
 },
 {
  "id": 6306070019,
  "districtId": 6306070,
  "districtName": "SIMPUR",
  "name": "PANJAMPANG BAHAGIA",
  "postalCode": "71261"
 },
 {
  "id": 6306070021,
  "districtId": 6306070,
  "districtName": "SIMPUR",
  "name": "ULIN",
  "postalCode": "71261"
 },
 {
  "id": 6306070022,
  "districtId": 6306070,
  "districtName": "SIMPUR",
  "name": "PANTAI ULIN",
  "postalCode": "71261"
 },
 {
  "id": 6306070025,
  "districtId": 6306070,
  "districtName": "SIMPUR",
  "name": "KAPUH",
  "postalCode": "25654"
 }
]