[
 {
  "id": 6306060001,
  "districtId": 6306060,
  "districtName": "SUNGAI RAYA",
  "name": "BUMI BARKAT",
  "postalCode": "71271"
 },
 {
  "id": 6306060004,
  "districtId": 6306060,
  "districtName": "SUNGAI RAYA",
  "name": "IDA MANGGALA",
  "postalCode": "71271"
 },
 {
  "id": 6306060005,
  "districtId": 6306060,
  "districtName": "SUNGAI RAYA",
  "name": "BATANG KULUR TENGAH",
  "postalCode": "71271"
 },
 {
  "id": 6306060006,
  "districtId": 6306060,
  "districtName": "SUNGAI RAYA",
  "name": "BATANG KULUR KANAN",
  "postalCode": "71271"
 },
 {
  "id": 6306060010,
  "districtId": 6306060,
  "districtName": "SUNGAI RAYA",
  "name": "TAMIYANG",
  "postalCode": "72169"
 },
 {
  "id": 6306060012,
  "districtId": 6306060,
  "districtName": "SUNGAI RAYA",
  "name": "ASAM",
  "postalCode": "33135"
 },
 {
  "id": 6306060013,
  "districtId": 6306060,
  "districtName": "SUNGAI RAYA",
  "name": "BARU",
  "postalCode": "23764"
 },
 {
  "id": 6306060014,
  "districtId": 6306060,
  "districtName": "SUNGAI RAYA",
  "name": "SUNGAI KALI",
  "postalCode": ""
 },
 {
  "id": 6306060015,
  "districtId": 6306060,
  "districtName": "SUNGAI RAYA",
  "name": "BATANG KULUR KIRI",
  "postalCode": "71271"
 },
 {
  "id": 6306060016,
  "districtId": 6306060,
  "districtName": "SUNGAI RAYA",
  "name": "HARITI",
  "postalCode": "71271"
 },
 {
  "id": 6306060017,
  "districtId": 6306060,
  "districtName": "SUNGAI RAYA",
  "name": "SUNGAI RAYA SELATAN",
  "postalCode": ""
 },
 {
  "id": 6306060020,
  "districtId": 6306060,
  "districtName": "SUNGAI RAYA",
  "name": "PARING AGUNG",
  "postalCode": "71271"
 },
 {
  "id": 6306060021,
  "districtId": 6306060,
  "districtName": "SUNGAI RAYA",
  "name": "SARANG HALANG",
  "postalCode": "70815"
 },
 {
  "id": 6306060022,
  "districtId": 6306060,
  "districtName": "SUNGAI RAYA",
  "name": "SUNGAI RAYA UTARA",
  "postalCode": ""
 },
 {
  "id": 6306060025,
  "districtId": 6306060,
  "districtName": "SUNGAI RAYA",
  "name": "TANAH BANGKANG",
  "postalCode": "71271"
 },
 {
  "id": 6306060027,
  "districtId": 6306060,
  "districtName": "SUNGAI RAYA",
  "name": "KARASIKAN",
  "postalCode": "71271"
 },
 {
  "id": 6306060028,
  "districtId": 6306060,
  "districtName": "SUNGAI RAYA",
  "name": "HAMALAU",
  "postalCode": "71271"
 },
 {
  "id": 6306060030,
  "districtId": 6306060,
  "districtName": "SUNGAI RAYA",
  "name": "TELAGA BIDADARI",
  "postalCode": "71271"
 }
]