[
 {
  "id": 6307041002,
  "districtId": 6307041,
  "districtName": "BATANG ALAI TIMUR",
  "name": "HINAS KIRI",
  "postalCode": "71382"
 },
 {
  "id": 6307041003,
  "districtId": 6307041,
  "districtName": "BATANG ALAI TIMUR",
  "name": "ATIRAN",
  "postalCode": "71382"
 },
 {
  "id": 6307041004,
  "districtId": 6307041,
  "districtName": "BATANG ALAI TIMUR",
  "name": "MUARA HUNGI",
  "postalCode": "71382"
 },
 {
  "id": 6307041005,
  "districtId": 6307041,
  "districtName": "BATANG ALAI TIMUR",
  "name": "PEMBAKULAN",
  "postalCode": "71382"
 },
 {
  "id": 6307041006,
  "districtId": 6307041,
  "districtName": "BATANG ALAI TIMUR",
  "name": "NATEH",
  "postalCode": "71382"
 },
 {
  "id": 6307041007,
  "districtId": 6307041,
  "districtName": "BATANG ALAI TIMUR",
  "name": "BATU TANGGA",
  "postalCode": "71382"
 },
 {
  "id": 6307041008,
  "districtId": 6307041,
  "districtName": "BATANG ALAI TIMUR",
  "name": "TANDILANG",
  "postalCode": "71382"
 },
 {
  "id": 6307041009,
  "districtId": 6307041,
  "districtName": "BATANG ALAI TIMUR",
  "name": "BATU PERAHU",
  "postalCode": "71382"
 },
 {
  "id": 6307041010,
  "districtId": 6307041,
  "districtName": "BATANG ALAI TIMUR",
  "name": "AING BANTAI",
  "postalCode": "71382"
 },
 {
  "id": 6307041011,
  "districtId": 6307041,
  "districtName": "BATANG ALAI TIMUR",
  "name": "DATAR BATUNG",
  "postalCode": "71382"
 }
]