[
 {
  "id": 6307080001,
  "districtId": 6307080,
  "districtName": "PANDAWAN",
  "name": "MASIRAAN",
  "postalCode": "71352"
 },
 {
  "id": 6307080003,
  "districtId": 6307080,
  "districtName": "PANDAWAN",
  "name": "JARANIH",
  "postalCode": "71352"
 },
 {
  "id": 6307080004,
  "districtId": 6307080,
  "districtName": "PANDAWAN",
  "name": "BANUA HANYAR",
  "postalCode": "71663"
 },
 {
  "id": 6307080006,
  "districtId": 6307080,
  "districtName": "PANDAWAN",
  "name": "BANUA ASAM",
  "postalCode": "71352"
 },
 {
  "id": 6307080009,
  "districtId": 6307080,
  "districtName": "PANDAWAN",
  "name": "MATANG GINALUN",
  "postalCode": "71352"
 },
 {
  "id": 6307080010,
  "districtId": 6307080,
  "districtName": "PANDAWAN",
  "name": "HULU RASAU",
  "postalCode": "71352"
 },
 {
  "id": 6307080011,
  "districtId": 6307080,
  "districtName": "PANDAWAN",
  "name": "BANUA SUPANGGAL",
  "postalCode": "71352"
 },
 {
  "id": 6307080014,
  "districtId": 6307080,
  "districtName": "PANDAWAN",
  "name": "MAHANG PUTAT",
  "postalCode": "71352"
 },
 {
  "id": 6307080016,
  "districtId": 6307080,
  "districtName": "PANDAWAN",
  "name": "MAHANG SEI HANYAR",
  "postalCode": ""
 },
 {
  "id": 6307080017,
  "districtId": 6307080,
  "districtName": "PANDAWAN",
  "name": "MAHANG MATANG LANDUNG",
  "postalCode": "71352"
 },
 {
  "id": 6307080021,
  "districtId": 6307080,
  "districtName": "PANDAWAN",
  "name": "BULUAN",
  "postalCode": "71352"
 },
 {
  "id": 6307080022,
  "districtId": 6307080,
  "districtName": "PANDAWAN",
  "name": "PANDAWAN",
  "postalCode": "71352"
 },
 {
  "id": 6307080023,
  "districtId": 6307080,
  "districtName": "PANDAWAN",
  "name": "BANUA BATUNG",
  "postalCode": "71352"
 },
 {
  "id": 6307080025,
  "districtId": 6307080,
  "districtName": "PANDAWAN",
  "name": "JATUH",
  "postalCode": "71352"
 },
 {
  "id": 6307080027,
  "districtId": 6307080,
  "districtName": "PANDAWAN",
  "name": "HILIR BANUA",
  "postalCode": "71352"
 },
 {
  "id": 6307080028,
  "districtId": 6307080,
  "districtName": "PANDAWAN",
  "name": "KAMBAT SELATAN",
  "postalCode": "71352"
 },
 {
  "id": 6307080030,
  "districtId": 6307080,
  "districtName": "PANDAWAN",
  "name": "WALATUNG",
  "postalCode": "71352"
 },
 {
  "id": 6307080033,
  "districtId": 6307080,
  "districtName": "PANDAWAN",
  "name": "KAYU RABAH",
  "postalCode": "71352"
 },
 {
  "id": 6307080037,
  "districtId": 6307080,
  "districtName": "PANDAWAN",
  "name": "SETIAP",
  "postalCode": "71352"
 },
 {
  "id": 6307080039,
  "districtId": 6307080,
  "districtName": "PANDAWAN",
  "name": "KAMBAT UTARA",
  "postalCode": "71352"
 },
 {
  "id": 6307080042,
  "districtId": 6307080,
  "districtName": "PANDAWAN",
  "name": "PALAJAU",
  "postalCode": "71352"
 }
]