[
 {
  "id": 6308070004,
  "districtId": 6308070,
  "districtName": "AMUNTAI UTARA",
  "name": "PAMINTANGAN",
  "postalCode": "71471"
 },
 {
  "id": 6308070005,
  "districtId": 6308070,
  "districtName": "AMUNTAI UTARA",
  "name": "PAKACANGAN",
  "postalCode": "71471"
 },
 {
  "id": 6308070006,
  "districtId": 6308070,
  "districtName": "AMUNTAI UTARA",
  "name": "CAKERU",
  "postalCode": ""
 },
 {
  "id": 6308070007,
  "districtId": 6308070,
  "districtName": "AMUNTAI UTARA",
  "name": "PAKAPURAN",
  "postalCode": "71471"
 },
 {
  "id": 6308070008,
  "districtId": 6308070,
  "districtName": "AMUNTAI UTARA",
  "name": "PANANGKALAAN",
  "postalCode": "71471"
 },
 {
  "id": 6308070017,
  "districtId": 6308070,
  "districtName": "AMUNTAI UTARA",
  "name": "PANANGKALAAN HULU",
  "postalCode": "71471"
 },
 {
  "id": 6308070018,
  "districtId": 6308070,
  "districtName": "AMUNTAI UTARA",
  "name": "PADANG BASAR HILIR",
  "postalCode": "71471"
 },
 {
  "id": 6308070019,
  "districtId": 6308070,
  "districtName": "AMUNTAI UTARA",
  "name": "PADANG BASAR",
  "postalCode": ""
 },
 {
  "id": 6308070020,
  "districtId": 6308070,
  "districtName": "AMUNTAI UTARA",
  "name": "MURUNG KARANGAN",
  "postalCode": "71471"
 },
 {
  "id": 6308070021,
  "districtId": 6308070,
  "districtName": "AMUNTAI UTARA",
  "name": "PANANGIAN",
  "postalCode": "71471"
 },
 {
  "id": 6308070022,
  "districtId": 6308070,
  "districtName": "AMUNTAI UTARA",
  "name": "KAMAYAHAN",
  "postalCode": "71471"
 },
 {
  "id": 6308070023,
  "districtId": 6308070,
  "districtName": "AMUNTAI UTARA",
  "name": "TELUK DAUN",
  "postalCode": "71471"
 },
 {
  "id": 6308070024,
  "districtId": 6308070,
  "districtName": "AMUNTAI UTARA",
  "name": "KUANGAN",
  "postalCode": "71471"
 },
 {
  "id": 6308070025,
  "districtId": 6308070,
  "districtName": "AMUNTAI UTARA",
  "name": "SUNGAI TURAK",
  "postalCode": ""
 },
 {
  "id": 6308070026,
  "districtId": 6308070,
  "districtName": "AMUNTAI UTARA",
  "name": "TELAGA BAMBAN",
  "postalCode": "71471"
 },
 {
  "id": 6308070027,
  "districtId": 6308070,
  "districtName": "AMUNTAI UTARA",
  "name": "TABALONG MATI",
  "postalCode": "71471"
 },
 {
  "id": 6308070035,
  "districtId": 6308070,
  "districtName": "AMUNTAI UTARA",
  "name": "SUNGAI TURAK DALAM",
  "postalCode": ""
 },
 {
  "id": 6308070036,
  "districtId": 6308070,
  "districtName": "AMUNTAI UTARA",
  "name": "MUARA BARUH",
  "postalCode": "71471"
 },
 {
  "id": 6308070037,
  "districtId": 6308070,
  "districtName": "AMUNTAI UTARA",
  "name": "PANYAUNGAN",
  "postalCode": "42392"
 },
 {
  "id": 6308070038,
  "districtId": 6308070,
  "districtName": "AMUNTAI UTARA",
  "name": "PANDAWANAN",
  "postalCode": ""
 },
 {
  "id": 6308070039,
  "districtId": 6308070,
  "districtName": "AMUNTAI UTARA",
  "name": "PIMPING",
  "postalCode": "71471"
 },
 {
  "id": 6308070040,
  "districtId": 6308070,
  "districtName": "AMUNTAI UTARA",
  "name": "PADANG LUAR",
  "postalCode": "71471"
 },
 {
  "id": 6308070041,
  "districtId": 6308070,
  "districtName": "AMUNTAI UTARA",
  "name": "AIR TAWAR",
  "postalCode": "29255"
 },
 {
  "id": 6308070042,
  "districtId": 6308070,
  "districtName": "AMUNTAI UTARA",
  "name": "TAYUR",
  "postalCode": "71471"
 },
 {
  "id": 6308070044,
  "districtId": 6308070,
  "districtName": "AMUNTAI UTARA",
  "name": "TABING LIRING",
  "postalCode": ""
 }
]