[
 {
  "id": 6308071001,
  "districtId": 6308071,
  "districtName": "HAUR GADING",
  "name": "PALIMBANGAN GUSTI",
  "postalCode": "71471"
 },
 {
  "id": 6308071002,
  "districtId": 6308071,
  "districtName": "HAUR GADING",
  "name": "PALIMBANGAN",
  "postalCode": "71471"
 },
 {
  "id": 6308071003,
  "districtId": 6308071,
  "districtName": "HAUR GADING",
  "name": "BAYUR",
  "postalCode": "71471"
 },
 {
  "id": 6308071004,
  "districtId": 6308071,
  "districtName": "HAUR GADING",
  "name": "LOKSUGA",
  "postalCode": ""
 },
 {
  "id": 6308071005,
  "districtId": 6308071,
  "districtName": "HAUR GADING",
  "name": "PALIMBANGAN SARI",
  "postalCode": "71471"
 },
 {
  "id": 6308071006,
  "districtId": 6308071,
  "districtName": "HAUR GADING",
  "name": "JINGAH BUJUR",
  "postalCode": "71471"
 },
 {
  "id": 6308071007,
  "districtId": 6308071,
  "districtName": "HAUR GADING",
  "name": "TAMBAK SARI PANJI",
  "postalCode": "71471"
 },
 {
  "id": 6308071008,
  "districtId": 6308071,
  "districtName": "HAUR GADING",
  "name": "PULANTANI",
  "postalCode": ""
 },
 {
  "id": 6308071009,
  "districtId": 6308071,
  "districtName": "HAUR GADING",
  "name": "HAUR GADING",
  "postalCode": "71391"
 },
 {
  "id": 6308071010,
  "districtId": 6308071,
  "districtName": "HAUR GADING",
  "name": "SUNGAI LIMAS",
  "postalCode": ""
 },
 {
  "id": 6308071011,
  "districtId": 6308071,
  "districtName": "HAUR GADING",
  "name": "PIHAUNG",
  "postalCode": "71471"
 },
 {
  "id": 6308071012,
  "districtId": 6308071,
  "districtName": "HAUR GADING",
  "name": "KERAMAT",
  "postalCode": "33134"
 },
 {
  "id": 6308071013,
  "districtId": 6308071,
  "districtName": "HAUR GADING",
  "name": "TELUK HAUR",
  "postalCode": "71171"
 },
 {
  "id": 6308071014,
  "districtId": 6308071,
  "districtName": "HAUR GADING",
  "name": "WARINGIN",
  "postalCode": "45475"
 },
 {
  "id": 6308071015,
  "districtId": 6308071,
  "districtName": "HAUR GADING",
  "name": "SUNGAI BINUANG",
  "postalCode": ""
 },
 {
  "id": 6308071016,
  "districtId": 6308071,
  "districtName": "HAUR GADING",
  "name": "PANAWAKAN",
  "postalCode": "71471"
 },
 {
  "id": 6308071017,
  "districtId": 6308071,
  "districtName": "HAUR GADING",
  "name": "TANGKAWANG",
  "postalCode": "71152"
 },
 {
  "id": 6308071018,
  "districtId": 6308071,
  "districtName": "HAUR GADING",
  "name": "TUHURAN",
  "postalCode": "71471"
 }
]