[
 {
  "id": 6309110001,
  "districtId": 6309110,
  "districtName": "JARO",
  "name": "NAMUN",
  "postalCode": "71574"
 },
 {
  "id": 6309110002,
  "districtId": 6309110,
  "districtName": "JARO",
  "name": "MUANG",
  "postalCode": "71574"
 },
 {
  "id": 6309110003,
  "districtId": 6309110,
  "districtName": "JARO",
  "name": "TERATAU",
  "postalCode": "71574"
 },
 {
  "id": 6309110004,
  "districtId": 6309110,
  "districtName": "JARO",
  "name": "PURUI",
  "postalCode": "71574"
 },
 {
  "id": 6309110005,
  "districtId": 6309110,
  "districtName": "JARO",
  "name": "NALUI",
  "postalCode": "71574"
 },
 {
  "id": 6309110006,
  "districtId": 6309110,
  "districtName": "JARO",
  "name": "JARO",
  "postalCode": "71574"
 },
 {
  "id": 6309110007,
  "districtId": 6309110,
  "districtName": "JARO",
  "name": "GARAGATA",
  "postalCode": "71574"
 },
 {
  "id": 6309110008,
  "districtId": 6309110,
  "districtName": "JARO",
  "name": "SOLAN",
  "postalCode": "71574"
 },
 {
  "id": 6309110009,
  "districtId": 6309110,
  "districtName": "JARO",
  "name": "LANO",
  "postalCode": "71574"
 }
]