[
 {
  "id": 6310031001,
  "districtId": 6310031,
  "districtName": "ANGSANA",
  "name": "SUMBER BARU",
  "postalCode": "30681"
 },
 {
  "id": 6310031002,
  "districtId": 6310031,
  "districtName": "ANGSANA",
  "name": "ANGSANA",
  "postalCode": "42277"
 },
 {
  "id": 6310031003,
  "districtId": 6310031,
  "districtName": "ANGSANA",
  "name": "BUNATI",
  "postalCode": "72275"
 },
 {
  "id": 6310031004,
  "districtId": 6310031,
  "districtName": "ANGSANA",
  "name": "KARANG INDAH",
  "postalCode": "32274"
 },
 {
  "id": 6310031005,
  "districtId": 6310031,
  "districtName": "ANGSANA",
  "name": "BANJAR SARI",
  "postalCode": "31471"
 },
 {
  "id": 6310031006,
  "districtId": 6310031,
  "districtName": "ANGSANA",
  "name": "BAYAN SARI",
  "postalCode": "72275"
 },
 {
  "id": 6310031007,
  "districtId": 6310031,
  "districtName": "ANGSANA",
  "name": "PURWODADI",
  "postalCode": "24652"
 },
 {
  "id": 6310031008,
  "districtId": 6310031,
  "districtName": "ANGSANA",
  "name": "MAKMUR",
  "postalCode": "24562"
 },
 {
  "id": 6310031009,
  "districtId": 6310031,
  "districtName": "ANGSANA",
  "name": "MEKAR JAYA",
  "postalCode": "20771"
 }
]