[
 {
  "id": 6310051001,
  "districtId": 6310051,
  "districtName": "KARANG BINTANG",
  "name": "REJO WINANGUN",
  "postalCode": "72211"
 },
 {
  "id": 6310051002,
  "districtId": 6310051,
  "districtName": "KARANG BINTANG",
  "name": "PEMATANG ULIN",
  "postalCode": "72211"
 },
 {
  "id": 6310051003,
  "districtId": 6310051,
  "districtName": "KARANG BINTANG",
  "name": "KARANG BINTANG",
  "postalCode": "72211"
 },
 {
  "id": 6310051004,
  "districtId": 6310051,
  "districtName": "KARANG BINTANG",
  "name": "BATULICIN IRIGASI",
  "postalCode": "72211"
 },
 {
  "id": 6310051005,
  "districtId": 6310051,
  "districtName": "KARANG BINTANG",
  "name": "PANDAN SARI",
  "postalCode": "24784"
 },
 {
  "id": 6310051006,
  "districtId": 6310051,
  "districtName": "KARANG BINTANG",
  "name": "SELA SELILAU",
  "postalCode": "72211"
 },
 {
  "id": 6310051007,
  "districtId": 6310051,
  "districtName": "KARANG BINTANG",
  "name": "MANUNGGAL",
  "postalCode": "20373"
 },
 {
  "id": 6310051008,
  "districtId": 6310051,
  "districtName": "KARANG BINTANG",
  "name": "MAJU SEJAHTERA",
  "postalCode": ""
 },
 {
  "id": 6310051009,
  "districtId": 6310051,
  "districtName": "KARANG BINTANG",
  "name": "SUMBER WANGI",
  "postalCode": "72211"
 },
 {
  "id": 6310051010,
  "districtId": 6310051,
  "districtName": "KARANG BINTANG",
  "name": "MADU RETNO",
  "postalCode": "72211"
 },
 {
  "id": 6310051011,
  "districtId": 6310051,
  "districtName": "KARANG BINTANG",
  "name": "KARANG REJO",
  "postalCode": "24581"
 }
]