[
 {
  "id": 6311031003,
  "districtId": 6311031,
  "districtName": "TEBING TINGGI",
  "name": "AUH",
  "postalCode": "71664"
 },
 {
  "id": 6311031004,
  "districtId": 6311031,
  "districtName": "TEBING TINGGI",
  "name": "DAYAK PITAP",
  "postalCode": "71664"
 },
 {
  "id": 6311031005,
  "districtId": 6311031,
  "districtName": "TEBING TINGGI",
  "name": "LANGKAP",
  "postalCode": "30755"
 },
 {
  "id": 6311031006,
  "districtId": 6311031,
  "districtName": "TEBING TINGGI",
  "name": "MAYANAU",
  "postalCode": "71664"
 },
 {
  "id": 6311031007,
  "districtId": 6311031,
  "districtName": "TEBING TINGGI",
  "name": "SIMPANG BUMBUAN",
  "postalCode": "71664"
 },
 {
  "id": 6311031008,
  "districtId": 6311031,
  "districtName": "TEBING TINGGI",
  "name": "SIMPANG NADUNG",
  "postalCode": ""
 },
 {
  "id": 6311031009,
  "districtId": 6311031,
  "districtName": "TEBING TINGGI",
  "name": "GUNUNG BATU",
  "postalCode": "32384"
 },
 {
  "id": 6311031010,
  "districtId": 6311031,
  "districtName": "TEBING TINGGI",
  "name": "TEBING TINGGI",
  "postalCode": "24477"
 },
 {
  "id": 6311031011,
  "districtId": 6311031,
  "districtName": "TEBING TINGGI",
  "name": "AJUNG",
  "postalCode": "68175"
 },
 {
  "id": 6311031012,
  "districtId": 6311031,
  "districtName": "TEBING TINGGI",
  "name": "KAMBIYAIN",
  "postalCode": "71664"
 }
]