[
 {
  "id": 6401030002,
  "districtId": 6401030,
  "districtName": "PASIR BELENGKONG",
  "name": "BEKOSO",
  "postalCode": "76271"
 },
 {
  "id": 6401030003,
  "districtId": 6401030,
  "districtName": "PASIR BELENGKONG",
  "name": "DAMIT",
  "postalCode": "70882"
 },
 {
  "id": 6401030004,
  "districtId": 6401030,
  "districtName": "PASIR BELENGKONG",
  "name": "SANGKURIMAN",
  "postalCode": "76271"
 },
 {
  "id": 6401030005,
  "districtId": 6401030,
  "districtName": "PASIR BELENGKONG",
  "name": "SUATANG",
  "postalCode": "76271"
 },
 {
  "id": 6401030006,
  "districtId": 6401030,
  "districtName": "PASIR BELENGKONG",
  "name": "KERESIK BURA",
  "postalCode": ""
 },
 {
  "id": 6401030007,
  "districtId": 6401030,
  "districtName": "PASIR BELENGKONG",
  "name": "PASIR BELENGKONG",
  "postalCode": "76271"
 },
 {
  "id": 6401030008,
  "districtId": 6401030,
  "districtName": "PASIR BELENGKONG",
  "name": "SENIUNG JAYA",
  "postalCode": "76271"
 },
 {
  "id": 6401030009,
  "districtId": 6401030,
  "districtName": "PASIR BELENGKONG",
  "name": "SULILIRAN BARU",
  "postalCode": "76271"
 },
 {
  "id": 6401030010,
  "districtId": 6401030,
  "districtName": "PASIR BELENGKONG",
  "name": "SULILIRAN",
  "postalCode": "76271"
 },
 {
  "id": 6401030011,
  "districtId": 6401030,
  "districtName": "PASIR BELENGKONG",
  "name": "LABURAN BARU",
  "postalCode": "76271"
 },
 {
  "id": 6401030012,
  "districtId": 6401030,
  "districtName": "PASIR BELENGKONG",
  "name": "LABURAN",
  "postalCode": "72162"
 },
 {
  "id": 6401030013,
  "districtId": 6401030,
  "districtName": "PASIR BELENGKONG",
  "name": "OLONG PINANG",
  "postalCode": "76271"
 },
 {
  "id": 6401030014,
  "districtId": 6401030,
  "districtName": "PASIR BELENGKONG",
  "name": "SUNGE BATU",
  "postalCode": "76271"
 },
 {
  "id": 6401030015,
  "districtId": 6401030,
  "districtName": "PASIR BELENGKONG",
  "name": "SUATANG KETEBAN",
  "postalCode": "76271"
 }
]