[
 {
  "id": 6401021001,
  "districtId": 6401021,
  "districtName": "BATU ENGAU",
  "name": "KERANG",
  "postalCode": "34881"
 },
 {
  "id": 6401021002,
  "districtId": 6401021,
  "districtName": "BATU ENGAU",
  "name": "TEMPAKAN",
  "postalCode": ""
 },
 {
  "id": 6401021004,
  "districtId": 6401021,
  "districtName": "BATU ENGAU",
  "name": "LOMU",
  "postalCode": "76261"
 },
 {
  "id": 6401021005,
  "districtId": 6401021,
  "districtName": "BATU ENGAU",
  "name": "SEGENDANG",
  "postalCode": "76261"
 },
 {
  "id": 6401021006,
  "districtId": 6401021,
  "districtName": "BATU ENGAU",
  "name": "RIWANG",
  "postalCode": "76261"
 },
 {
  "id": 6401021007,
  "districtId": 6401021,
  "districtName": "BATU ENGAU",
  "name": "LANGGAI",
  "postalCode": "76261"
 },
 {
  "id": 6401021008,
  "districtId": 6401021,
  "districtName": "BATU ENGAU",
  "name": "PETANGIS",
  "postalCode": "76261"
 },
 {
  "id": 6401021009,
  "districtId": 6401021,
  "districtName": "BATU ENGAU",
  "name": "KERANG DAYO",
  "postalCode": "76261"
 },
 {
  "id": 6401021010,
  "districtId": 6401021,
  "districtName": "BATU ENGAU",
  "name": "SAING PRUPUK",
  "postalCode": "76261"
 },
 {
  "id": 6401021011,
  "districtId": 6401021,
  "districtName": "BATU ENGAU",
  "name": "BAI JAYA",
  "postalCode": "76261"
 },
 {
  "id": 6401021012,
  "districtId": 6401021,
  "districtName": "BATU ENGAU",
  "name": "PENGGUREN JAYA",
  "postalCode": "76261"
 },
 {
  "id": 6401021013,
  "districtId": 6401021,
  "districtName": "BATU ENGAU",
  "name": "TEBRU PASER DAMAI",
  "postalCode": "76261"
 }
]