[
 {
  "id": 6402071001,
  "districtId": 6402071,
  "districtName": "LINGGANG BIGUNG",
  "name": "MELAPEH BARU",
  "postalCode": "75576"
 },
 {
  "id": 6402071002,
  "districtId": 6402071,
  "districtName": "LINGGANG BIGUNG",
  "name": "BIGUNG BARU",
  "postalCode": "75576"
 },
 {
  "id": 6402071003,
  "districtId": 6402071,
  "districtName": "LINGGANG BIGUNG",
  "name": "PURWODADI",
  "postalCode": "24652"
 },
 {
  "id": 6402071004,
  "districtId": 6402071,
  "districtName": "LINGGANG BIGUNG",
  "name": "LINGGANG BIGUNG",
  "postalCode": "75576"
 },
 {
  "id": 6402071005,
  "districtId": 6402071,
  "districtName": "LINGGANG BIGUNG",
  "name": "BANGUN SARI",
  "postalCode": "24782"
 },
 {
  "id": 6402071006,
  "districtId": 6402071,
  "districtName": "LINGGANG BIGUNG",
  "name": "LINGGANG AMER",
  "postalCode": "75576"
 },
 {
  "id": 6402071007,
  "districtId": 6402071,
  "districtName": "LINGGANG BIGUNG",
  "name": "LINGGANG MAPAN",
  "postalCode": "75576"
 },
 {
  "id": 6402071008,
  "districtId": 6402071,
  "districtName": "LINGGANG BIGUNG",
  "name": "LINGGANG MELAPEH",
  "postalCode": "75576"
 },
 {
  "id": 6402071010,
  "districtId": 6402071,
  "districtName": "LINGGANG BIGUNG",
  "name": "LINGGANG KEBUT",
  "postalCode": "75576"
 },
 {
  "id": 6402071011,
  "districtId": 6402071,
  "districtName": "LINGGANG BIGUNG",
  "name": "LINGGANG MENCELEW",
  "postalCode": "75576"
 }
]