[
 {
  "id": 6403010001,
  "districtId": 6403010,
  "districtName": "SEMBOJA",
  "name": "SEI MERDEKA",
  "postalCode": "21472"
 },
 {
  "id": 6403010002,
  "districtId": 6403010,
  "districtName": "SEMBOJA",
  "name": "SALOK API DARAT",
  "postalCode": "75271"
 },
 {
  "id": 6403010003,
  "districtId": 6403010,
  "districtName": "SEMBOJA",
  "name": "TANI BAKTI",
  "postalCode": "75391"
 },
 {
  "id": 6403010004,
  "districtId": 6403010,
  "districtName": "SEMBOJA",
  "name": "SALOK API LAUT",
  "postalCode": "75271"
 },
 {
  "id": 6403010005,
  "districtId": 6403010,
  "districtName": "SEMBOJA",
  "name": "AMBARAWANG DARAT",
  "postalCode": "75274"
 },
 {
  "id": 6403010006,
  "districtId": 6403010,
  "districtName": "SEMBOJA",
  "name": "ARGOSARI",
  "postalCode": "54473"
 },
 {
  "id": 6403010007,
  "districtId": 6403010,
  "districtName": "SEMBOJA",
  "name": "AMBARAWANG LAUT",
  "postalCode": "75274"
 },
 {
  "id": 6403010008,
  "districtId": 6403010,
  "districtName": "SEMBOJA",
  "name": "MARGOMULYO",
  "postalCode": "35679"
 },
 {
  "id": 6403010009,
  "districtId": 6403010,
  "districtName": "SEMBOJA",
  "name": "KARYA JAYA",
  "postalCode": "20611"
 },
 {
  "id": 6403010010,
  "districtId": 6403010,
  "districtName": "SEMBOJA",
  "name": "TANJUNG HARAPAN",
  "postalCode": "23754"
 },
 {
  "id": 6403010011,
  "districtId": 6403010,
  "districtName": "SEMBOJA",
  "name": "WONOTIRTO",
  "postalCode": "56253"
 },
 {
  "id": 6403010012,
  "districtId": 6403010,
  "districtName": "SEMBOJA",
  "name": "SUNGAI SELUANG",
  "postalCode": ""
 },
 {
  "id": 6403010013,
  "districtId": 6403010,
  "districtName": "SEMBOJA",
  "name": "BUKIT RAYA",
  "postalCode": "29563"
 },
 {
  "id": 6403010014,
  "districtId": 6403010,
  "districtName": "SEMBOJA",
  "name": "BERINGIN AGUNG",
  "postalCode": "30975"
 },
 {
  "id": 6403010015,
  "districtId": 6403010,
  "districtName": "SEMBOJA",
  "name": "SAMBOJA KUALA",
  "postalCode": "75277"
 },
 {
  "id": 6403010016,
  "districtId": 6403010,
  "districtName": "SEMBOJA",
  "name": "SANIPAH",
  "postalCode": "75271"
 },
 {
  "id": 6403010017,
  "districtId": 6403010,
  "districtName": "SEMBOJA",
  "name": "HANDIL BARU",
  "postalCode": "70655"
 },
 {
  "id": 6403010018,
  "districtId": 6403010,
  "districtName": "SEMBOJA",
  "name": "MUARA SEMBILANG",
  "postalCode": "75279"
 },
 {
  "id": 6403010019,
  "districtId": 6403010,
  "districtName": "SEMBOJA",
  "name": "BUKIT MERDEKA",
  "postalCode": "24673"
 },
 {
  "id": 6403010020,
  "districtId": 6403010,
  "districtName": "SEMBOJA",
  "name": "KARYA MERDEKA",
  "postalCode": "75271"
 },
 {
  "id": 6403010021,
  "districtId": 6403010,
  "districtName": "SEMBOJA",
  "name": "TELUK PEMEDAS",
  "postalCode": "75271"
 },
 {
  "id": 6403010022,
  "districtId": 6403010,
  "districtName": "SEMBOJA",
  "name": "KAMPUNG LAMA",
  "postalCode": "20859"
 },
 {
  "id": 6403010023,
  "districtId": 6403010,
  "districtName": "SEMBOJA",
  "name": "HANDIL BARU DARAT",
  "postalCode": "75276"
 }
]