[
 {
  "id": 6403170001,
  "districtId": 6403170,
  "districtName": "KEMBANG JANGGUT",
  "name": "GENTING TANAH",
  "postalCode": "75557"
 },
 {
  "id": 6403170002,
  "districtId": 6403170,
  "districtName": "KEMBANG JANGGUT",
  "name": "LOA SAKOH",
  "postalCode": "75557"
 },
 {
  "id": 6403170003,
  "districtId": 6403170,
  "districtName": "KEMBANG JANGGUT",
  "name": "HAMBAU",
  "postalCode": "75557"
 },
 {
  "id": 6403170004,
  "districtId": 6403170,
  "districtName": "KEMBANG JANGGUT",
  "name": "KEMBANG JANGGUT",
  "postalCode": "75557"
 },
 {
  "id": 6403170005,
  "districtId": 6403170,
  "districtName": "KEMBANG JANGGUT",
  "name": "KELEKAT",
  "postalCode": "75557"
 },
 {
  "id": 6403170006,
  "districtId": 6403170,
  "districtName": "KEMBANG JANGGUT",
  "name": "PULAU PINANG",
  "postalCode": "31461"
 },
 {
  "id": 6403170007,
  "districtId": 6403170,
  "districtName": "KEMBANG JANGGUT",
  "name": "LONG BELEH HALOQ",
  "postalCode": "75557"
 },
 {
  "id": 6403170008,
  "districtId": 6403170,
  "districtName": "KEMBANG JANGGUT",
  "name": "LONG BELEH MODANG",
  "postalCode": "75557"
 },
 {
  "id": 6403170009,
  "districtId": 6403170,
  "districtName": "KEMBANG JANGGUT",
  "name": "BUKIT LAYANG",
  "postalCode": "33252"
 },
 {
  "id": 6403170010,
  "districtId": 6403170,
  "districtName": "KEMBANG JANGGUT",
  "name": "MUAI",
  "postalCode": "75557"
 },
 {
  "id": 6403170011,
  "districtId": 6403170,
  "districtName": "KEMBANG JANGGUT",
  "name": "PERDANA",
  "postalCode": "42265"
 }
]