[
 {
  "id": 6403040001,
  "districtId": 6403040,
  "districtName": "LOA JANAN",
  "name": "BATUAH",
  "postalCode": "73564"
 },
 {
  "id": 6403040002,
  "districtId": 6403040,
  "districtName": "LOA JANAN",
  "name": "TANI BAKTI",
  "postalCode": "75391"
 },
 {
  "id": 6403040003,
  "districtId": 6403040,
  "districtName": "LOA JANAN",
  "name": "PURWAJAYA",
  "postalCode": "34682"
 },
 {
  "id": 6403040004,
  "districtId": 6403040,
  "districtName": "LOA JANAN",
  "name": "LOA JANAN ULU",
  "postalCode": "75391"
 },
 {
  "id": 6403040005,
  "districtId": 6403040,
  "districtName": "LOA JANAN",
  "name": "LOA DURI ULU",
  "postalCode": "75391"
 },
 {
  "id": 6403040006,
  "districtId": 6403040,
  "districtName": "LOA JANAN",
  "name": "BAKUNGAN",
  "postalCode": "57464"
 },
 {
  "id": 6403040007,
  "districtId": 6403040,
  "districtName": "LOA JANAN",
  "name": "LOA DURI ILIR",
  "postalCode": "75391"
 },
 {
  "id": 6403040008,
  "districtId": 6403040,
  "districtName": "LOA JANAN",
  "name": "TANI HARAPAN",
  "postalCode": "75391"
 }
]