[
 {
  "id": 6403060001,
  "districtId": 6403060,
  "districtName": "MUARA MUNTAI",
  "name": "PERIAN",
  "postalCode": "83663"
 },
 {
  "id": 6403060002,
  "districtId": 6403060,
  "districtName": "MUARA MUNTAI",
  "name": "MUARA LEKA",
  "postalCode": "75562"
 },
 {
  "id": 6403060003,
  "districtId": 6403060,
  "districtName": "MUARA MUNTAI",
  "name": "MUARA ALOH",
  "postalCode": "75562"
 },
 {
  "id": 6403060004,
  "districtId": 6403060,
  "districtName": "MUARA MUNTAI",
  "name": "JANTUR",
  "postalCode": "75562"
 },
 {
  "id": 6403060005,
  "districtId": 6403060,
  "districtName": "MUARA MUNTAI",
  "name": "BATUQ",
  "postalCode": "75562"
 },
 {
  "id": 6403060006,
  "districtId": 6403060,
  "districtName": "MUARA MUNTAI",
  "name": "REBAQ RINDING",
  "postalCode": "75562"
 },
 {
  "id": 6403060007,
  "districtId": 6403060,
  "districtName": "MUARA MUNTAI",
  "name": "MUARA MUNTAI ULU",
  "postalCode": "75562"
 },
 {
  "id": 6403060008,
  "districtId": 6403060,
  "districtName": "MUARA MUNTAI",
  "name": "MUARA MUNTAI ILIR",
  "postalCode": "75562"
 },
 {
  "id": 6403060009,
  "districtId": 6403060,
  "districtName": "MUARA MUNTAI",
  "name": "KAYU BATU",
  "postalCode": "34768"
 },
 {
  "id": 6403060010,
  "districtId": 6403060,
  "districtName": "MUARA MUNTAI",
  "name": "JANTUR SELATAN",
  "postalCode": "75562"
 },
 {
  "id": 6403060011,
  "districtId": 6403060,
  "districtName": "MUARA MUNTAI",
  "name": "TANJUNG BATUQ HARAPAN",
  "postalCode": "75562"
 },
 {
  "id": 6403060012,
  "districtId": 6403060,
  "districtName": "MUARA MUNTAI",
  "name": "PULAU HARAPAN",
  "postalCode": "30953"
 },
 {
  "id": 6403060013,
  "districtId": 6403060,
  "districtName": "MUARA MUNTAI",
  "name": "JANTUR BARU",
  "postalCode": "75562"
 }
]