[
 {
  "id": 6405020003,
  "districtId": 6405020,
  "districtName": "TALISAYAN",
  "name": "CAMPUR SARI",
  "postalCode": "31657"
 },
 {
  "id": 6405020004,
  "districtId": 6405020,
  "districtName": "TALISAYAN",
  "name": "BUMI JAYA",
  "postalCode": "34583"
 },
 {
  "id": 6405020006,
  "districtId": 6405020,
  "districtName": "TALISAYAN",
  "name": "TUNGGAL BUMI",
  "postalCode": "77372"
 },
 {
  "id": 6405020007,
  "districtId": 6405020,
  "districtName": "TALISAYAN",
  "name": "DUMARING",
  "postalCode": "77372"
 },
 {
  "id": 6405020008,
  "districtId": 6405020,
  "districtName": "TALISAYAN",
  "name": "SUKA MURYA",
  "postalCode": "77372"
 },
 {
  "id": 6405020009,
  "districtId": 6405020,
  "districtName": "TALISAYAN",
  "name": "PURNA SARI JAYA",
  "postalCode": "77372"
 },
 {
  "id": 6405020010,
  "districtId": 6405020,
  "districtName": "TALISAYAN",
  "name": "SUMBER MULIA",
  "postalCode": "32274"
 },
 {
  "id": 6405020011,
  "districtId": 6405020,
  "districtName": "TALISAYAN",
  "name": "EKA SAPTA",
  "postalCode": "77372"
 },
 {
  "id": 6405020012,
  "districtId": 6405020,
  "districtName": "TALISAYAN",
  "name": "TALISAYAN",
  "postalCode": "77372"
 },
 {
  "id": 6405020013,
  "districtId": 6405020,
  "districtName": "TALISAYAN",
  "name": "CAPUAK",
  "postalCode": ""
 }
]