[
 {
  "id": 6405110001,
  "districtId": 6405110,
  "districtName": "BIATAN",
  "name": "BIATAN BAPINANG",
  "postalCode": "77372"
 },
 {
  "id": 6405110002,
  "districtId": 6405110,
  "districtName": "BIATAN",
  "name": "BIATAN BARU",
  "postalCode": "77372"
 },
 {
  "id": 6405110003,
  "districtId": 6405110,
  "districtName": "BIATAN",
  "name": "BUKIT MAKMUR JAYA",
  "postalCode": "77372"
 },
 {
  "id": 6405110004,
  "districtId": 6405110,
  "districtName": "BIATAN",
  "name": "MANUNGGAL JAYA",
  "postalCode": "29256"
 },
 {
  "id": 6405110005,
  "districtId": 6405110,
  "districtName": "BIATAN",
  "name": "BIATAN LEMPAKE",
  "postalCode": "77372"
 },
 {
  "id": 6405110006,
  "districtId": 6405110,
  "districtName": "BIATAN",
  "name": "BIATAN ULU",
  "postalCode": "77372"
 },
 {
  "id": 6405110007,
  "districtId": 6405110,
  "districtName": "BIATAN",
  "name": "KARANGAN",
  "postalCode": "31131"
 },
 {
  "id": 6405110008,
  "districtId": 6405110,
  "districtName": "BIATAN",
  "name": "BIATAN ILIR",
  "postalCode": "77372"
 }
]