[
 {
  "id": 6405010001,
  "districtId": 6405010,
  "districtName": "KELAY",
  "name": "MERAPUN",
  "postalCode": "77362"
 },
 {
  "id": 6405010002,
  "districtId": 6405010,
  "districtName": "KELAY",
  "name": "MERABU",
  "postalCode": "77362"
 },
 {
  "id": 6405010003,
  "districtId": 6405010,
  "districtName": "KELAY",
  "name": "MAPULU",
  "postalCode": "77362"
 },
 {
  "id": 6405010004,
  "districtId": 6405010,
  "districtName": "KELAY",
  "name": "PANAAN",
  "postalCode": "69362"
 },
 {
  "id": 6405010005,
  "districtId": 6405010,
  "districtName": "KELAY",
  "name": "MERASA",
  "postalCode": "77362"
 },
 {
  "id": 6405010006,
  "districtId": 6405010,
  "districtName": "KELAY",
  "name": "MUARA LESAN",
  "postalCode": "77362"
 },
 {
  "id": 6405010007,
  "districtId": 6405010,
  "districtName": "KELAY",
  "name": "LESAN DAYAK",
  "postalCode": "77362"
 },
 {
  "id": 6405010008,
  "districtId": 6405010,
  "districtName": "KELAY",
  "name": "SIDO BANGEN",
  "postalCode": "77362"
 },
 {
  "id": 6405010009,
  "districtId": 6405010,
  "districtName": "KELAY",
  "name": "LONG BELIU",
  "postalCode": "77362"
 },
 {
  "id": 6405010010,
  "districtId": 6405010,
  "districtName": "KELAY",
  "name": "LONG DUHUNG",
  "postalCode": "77362"
 },
 {
  "id": 6405010011,
  "districtId": 6405010,
  "districtName": "KELAY",
  "name": "LONG KELUH",
  "postalCode": "77362"
 },
 {
  "id": 6405010012,
  "districtId": 6405010,
  "districtName": "KELAY",
  "name": "LONG PELAY",
  "postalCode": "77362"
 },
 {
  "id": 6405010013,
  "districtId": 6405010,
  "districtName": "KELAY",
  "name": "LONG LAMCIN",
  "postalCode": "77362"
 },
 {
  "id": 6405010014,
  "districtId": 6405010,
  "districtName": "KELAY",
  "name": "LONG SULUI",
  "postalCode": "77362"
 }
]