[
 {
  "id": 6472050001,
  "districtId": 6472050,
  "districtName": "SAMARINDA ULU",
  "name": "TELUK LERONG ILIR",
  "postalCode": "75128"
 },
 {
  "id": 6472050002,
  "districtId": 6472050,
  "districtName": "SAMARINDA ULU",
  "name": "JAWA",
  "postalCode": "23654"
 },
 {
  "id": 6472050004,
  "districtId": 6472050,
  "districtName": "SAMARINDA ULU",
  "name": "DADI MULYA",
  "postalCode": "75123"
 },
 {
  "id": 6472050005,
  "districtId": 6472050,
  "districtName": "SAMARINDA ULU",
  "name": "SIDODADI",
  "postalCode": "24582"
 },
 {
  "id": 6472050006,
  "districtId": 6472050,
  "districtName": "SAMARINDA ULU",
  "name": "GUNUNG KELUA",
  "postalCode": "75123"
 },
 {
  "id": 6472050007,
  "districtId": 6472050,
  "districtName": "SAMARINDA ULU",
  "name": "AIR HITAM",
  "postalCode": "20856"
 },
 {
  "id": 6472050008,
  "districtId": 6472050,
  "districtName": "SAMARINDA ULU",
  "name": "AIR PUTIH",
  "postalCode": "21264"
 },
 {
  "id": 6472050009,
  "districtId": 6472050,
  "districtName": "SAMARINDA ULU",
  "name": "BUKIT PINANG",
  "postalCode": "75124"
 }
]