[
 {
  "id": 6501140001,
  "districtId": 6501140,
  "districtName": "MALINAU BARAT",
  "name": "PUNAN BENGALUN",
  "postalCode": "77554"
 },
 {
  "id": 6501140002,
  "districtId": 6501140,
  "districtName": "MALINAU BARAT",
  "name": "SESUA",
  "postalCode": "77554"
 },
 {
  "id": 6501140003,
  "districtId": 6501140,
  "districtName": "MALINAU BARAT",
  "name": "SEMPAYANG",
  "postalCode": "77554"
 },
 {
  "id": 6501140004,
  "districtId": 6501140,
  "districtName": "MALINAU BARAT",
  "name": "KUALA LAPANG",
  "postalCode": "77554"
 },
 {
  "id": 6501140005,
  "districtId": 6501140,
  "districtName": "MALINAU BARAT",
  "name": "TANJUNG LAPANG",
  "postalCode": "77554"
 },
 {
  "id": 6501140006,
  "districtId": 6501140,
  "districtName": "MALINAU BARAT",
  "name": "TARAS",
  "postalCode": "77554"
 },
 {
  "id": 6501140007,
  "districtId": 6501140,
  "districtName": "MALINAU BARAT",
  "name": "LONG KENIPE",
  "postalCode": "77554"
 },
 {
  "id": 6501140008,
  "districtId": 6501140,
  "districtName": "MALINAU BARAT",
  "name": "SENTABAN",
  "postalCode": "77554"
 },
 {
  "id": 6501140009,
  "districtId": 6501140,
  "districtName": "MALINAU BARAT",
  "name": "LONG BILA",
  "postalCode": "77554"
 }
]