[
 {
  "id": 6501110001,
  "districtId": 6501110,
  "districtName": "MENTARANG",
  "name": "HARAPAN MAJU",
  "postalCode": "20773"
 },
 {
  "id": 6501110002,
  "districtId": 6501110,
  "districtName": "MENTARANG",
  "name": "PAKING",
  "postalCode": "77555"
 },
 {
  "id": 6501110003,
  "districtId": 6501110,
  "districtName": "MENTARANG",
  "name": "LONG LIKU",
  "postalCode": "77555"
 },
 {
  "id": 6501110004,
  "districtId": 6501110,
  "districtName": "MENTARANG",
  "name": "MENTARANG BARU",
  "postalCode": "77555"
 },
 {
  "id": 6501110005,
  "districtId": 6501110,
  "districtName": "MENTARANG",
  "name": "LONG BISAI",
  "postalCode": "77555"
 },
 {
  "id": 6501110006,
  "districtId": 6501110,
  "districtName": "MENTARANG",
  "name": "LONG GAFID",
  "postalCode": "77555"
 },
 {
  "id": 6501110007,
  "districtId": 6501110,
  "districtName": "MENTARANG",
  "name": "TEMALANG",
  "postalCode": "37382"
 },
 {
  "id": 6501110008,
  "districtId": 6501110,
  "districtName": "MENTARANG",
  "name": "LIDUNG KEMENCI",
  "postalCode": "77555"
 },
 {
  "id": 6501110009,
  "districtId": 6501110,
  "districtName": "MENTARANG",
  "name": "PULAU SAPI",
  "postalCode": "77555"
 }
]