[
 {
  "id": 7101110002,
  "districtId": 7101110,
  "districtName": "LOLAK",
  "name": "BUNTALO",
  "postalCode": ""
 },
 {
  "id": 7101110003,
  "districtId": 7101110,
  "districtName": "LOLAK",
  "name": "TOTABUAN",
  "postalCode": "95761"
 },
 {
  "id": 7101110004,
  "districtId": 7101110,
  "districtName": "LOLAK",
  "name": "SOLOG",
  "postalCode": "95761"
 },
 {
  "id": 7101110005,
  "districtId": 7101110,
  "districtName": "LOLAK",
  "name": "TANDU",
  "postalCode": "95761"
 },
 {
  "id": 7101110006,
  "districtId": 7101110,
  "districtName": "LOLAK",
  "name": "TUYAT",
  "postalCode": "95761"
 },
 {
  "id": 7101110007,
  "districtId": 7101110,
  "districtName": "LOLAK",
  "name": "LALOW",
  "postalCode": "95761"
 },
 {
  "id": 7101110008,
  "districtId": 7101110,
  "districtName": "LOLAK",
  "name": "LOLAK",
  "postalCode": ""
 },
 {
  "id": 7101110009,
  "districtId": 7101110,
  "districtName": "LOLAK",
  "name": "MOTABANG",
  "postalCode": "95761"
 },
 {
  "id": 7101110010,
  "districtId": 7101110,
  "districtName": "LOLAK",
  "name": "MONGKOINIT",
  "postalCode": "95761"
 },
 {
  "id": 7101110011,
  "districtId": 7101110,
  "districtName": "LOLAK",
  "name": "PINOGALUMAN",
  "postalCode": "95761"
 },
 {
  "id": 7101110012,
  "districtId": 7101110,
  "districtName": "LOLAK",
  "name": "BATURAPA",
  "postalCode": ""
 },
 {
  "id": 7101110013,
  "districtId": 7101110,
  "districtName": "LOLAK",
  "name": "LABUHAN UKI",
  "postalCode": ""
 },
 {
  "id": 7101110014,
  "districtId": 7101110,
  "districtName": "LOLAK",
  "name": "SAUK",
  "postalCode": "95761"
 },
 {
  "id": 7101110015,
  "districtId": 7101110,
  "districtName": "LOLAK",
  "name": "PINDOL",
  "postalCode": "95761"
 },
 {
  "id": 7101110016,
  "districtId": 7101110,
  "districtName": "LOLAK",
  "name": "PINDOLILI",
  "postalCode": "95761"
 },
 {
  "id": 7101110017,
  "districtId": 7101110,
  "districtName": "LOLAK",
  "name": "LOLAK TOMBOLANGO",
  "postalCode": "95761"
 },
 {
  "id": 7101110018,
  "districtId": 7101110,
  "districtName": "LOLAK",
  "name": "LOLAK II",
  "postalCode": "95761"
 },
 {
  "id": 7101110019,
  "districtId": 7101110,
  "districtName": "LOLAK",
  "name": "BATURAPA II",
  "postalCode": ""
 },
 {
  "id": 7101110020,
  "districtId": 7101110,
  "districtName": "LOLAK",
  "name": "BUNTALO TIMUR",
  "postalCode": "95761"
 },
 {
  "id": 7101110021,
  "districtId": 7101110,
  "districtName": "LOLAK",
  "name": "BUNTALO SELATAN",
  "postalCode": "95761"
 },
 {
  "id": 7101110022,
  "districtId": 7101110,
  "districtName": "LOLAK",
  "name": "DIAT",
  "postalCode": "95761"
 },
 {
  "id": 7101110023,
  "districtId": 7101110,
  "districtName": "LOLAK",
  "name": "PINOGALUMAN TIMUR",
  "postalCode": ""
 },
 {
  "id": 7101110024,
  "districtId": 7101110,
  "districtName": "LOLAK",
  "name": "PADANG LALOW",
  "postalCode": ""
 },
 {
  "id": 7101110025,
  "districtId": 7101110,
  "districtName": "LOLAK",
  "name": "DULANGON",
  "postalCode": ""
 },
 {
  "id": 7101110026,
  "districtId": 7101110,
  "districtName": "LOLAK",
  "name": "MONGKOINIT BARAT",
  "postalCode": ""
 }
]