[
 {
  "id": 7101022001,
  "districtId": 7101022,
  "districtName": "DUMOGA UTARA",
  "name": "TUMOKANG BARU",
  "postalCode": "95772"
 },
 {
  "id": 7101022002,
  "districtId": 7101022,
  "districtName": "DUMOGA UTARA",
  "name": "MOPUGAD UTARA",
  "postalCode": "95772"
 },
 {
  "id": 7101022003,
  "districtId": 7101022,
  "districtName": "DUMOGA UTARA",
  "name": "MOPUGAD SELATAN",
  "postalCode": "95772"
 },
 {
  "id": 7101022004,
  "districtId": 7101022,
  "districtName": "DUMOGA UTARA",
  "name": "MOPUYA UTARA",
  "postalCode": "95772"
 },
 {
  "id": 7101022005,
  "districtId": 7101022,
  "districtName": "DUMOGA UTARA",
  "name": "MOPUYA SELATAN",
  "postalCode": "95772"
 },
 {
  "id": 7101022006,
  "districtId": 7101022,
  "districtName": "DUMOGA UTARA",
  "name": "DONDOMON",
  "postalCode": "95772"
 },
 {
  "id": 7101022014,
  "districtId": 7101022,
  "districtName": "DUMOGA UTARA",
  "name": "MOPUGAD SELATAN I",
  "postalCode": ""
 },
 {
  "id": 7101022015,
  "districtId": 7101022,
  "districtName": "DUMOGA UTARA",
  "name": "MOPUGAD UTARA II",
  "postalCode": ""
 },
 {
  "id": 7101022016,
  "districtId": 7101022,
  "districtName": "DUMOGA UTARA",
  "name": "MOPUGAD UTARA I",
  "postalCode": ""
 },
 {
  "id": 7101022017,
  "districtId": 7101022,
  "districtName": "DUMOGA UTARA",
  "name": "TUMOKANG TIMUR",
  "postalCode": "95772"
 },
 {
  "id": 7101022018,
  "districtId": 7101022,
  "districtName": "DUMOGA UTARA",
  "name": "MOPUYA UTARA I",
  "postalCode": ""
 },
 {
  "id": 7101022019,
  "districtId": 7101022,
  "districtName": "DUMOGA UTARA",
  "name": "MOPUYA UTARA II",
  "postalCode": ""
 },
 {
  "id": 7101022020,
  "districtId": 7101022,
  "districtName": "DUMOGA UTARA",
  "name": "MOPUYA SELATAN I",
  "postalCode": ""
 },
 {
  "id": 7101022021,
  "districtId": 7101022,
  "districtName": "DUMOGA UTARA",
  "name": "MOPUYA SELATAN II",
  "postalCode": ""
 },
 {
  "id": 7101022022,
  "districtId": 7101022,
  "districtName": "DUMOGA UTARA",
  "name": "DONDOMON UTARA",
  "postalCode": "95772"
 },
 {
  "id": 7101022023,
  "districtId": 7101022,
  "districtName": "DUMOGA UTARA",
  "name": "DONDOMON SELATAN",
  "postalCode": "95772"
 }
]