[
 {
  "id": 7102111001,
  "districtId": 7102111,
  "districtName": "TOMPASO BARAT",
  "name": "PINABETENGAN",
  "postalCode": "95693"
 },
 {
  "id": 7102111002,
  "districtId": 7102111,
  "districtName": "TOMPASO BARAT",
  "name": "TONSEWER",
  "postalCode": "95693"
 },
 {
  "id": 7102111003,
  "districtId": 7102111,
  "districtName": "TOMPASO BARAT",
  "name": "TOUURE",
  "postalCode": "95693"
 },
 {
  "id": 7102111004,
  "districtId": 7102111,
  "districtName": "TOMPASO BARAT",
  "name": "TOMPASO DUA",
  "postalCode": "95693"
 },
 {
  "id": 7102111005,
  "districtId": 7102111,
  "districtName": "TOMPASO BARAT",
  "name": "PINABETENGAN UTARA",
  "postalCode": "95693"
 },
 {
  "id": 7102111006,
  "districtId": 7102111,
  "districtName": "TOMPASO BARAT",
  "name": "TONSEWER SELATAN",
  "postalCode": "95693"
 },
 {
  "id": 7102111007,
  "districtId": 7102111,
  "districtName": "TOMPASO BARAT",
  "name": "TOUURE DUA",
  "postalCode": "95693"
 },
 {
  "id": 7102111008,
  "districtId": 7102111,
  "districtName": "TOMPASO BARAT",
  "name": "PINABETENGAN SELATAN",
  "postalCode": "95693"
 },
 {
  "id": 7102111009,
  "districtId": 7102111,
  "districtName": "TOMPASO BARAT",
  "name": "TOMPASO II UTARA",
  "postalCode": ""
 },
 {
  "id": 7102111010,
  "districtId": 7102111,
  "districtName": "TOMPASO BARAT",
  "name": "PINAESAAN",
  "postalCode": "95357"
 }
]