[
 {
  "id": 7102121001,
  "districtId": 7102121,
  "districtName": "KAWANGKOAN BARAT",
  "name": "RANOLAMBOT",
  "postalCode": "95692"
 },
 {
  "id": 7102121002,
  "districtId": 7102121,
  "districtName": "KAWANGKOAN BARAT",
  "name": "TOMBASIAN ATAS",
  "postalCode": "95692"
 },
 {
  "id": 7102121003,
  "districtId": 7102121,
  "districtName": "KAWANGKOAN BARAT",
  "name": "KANONANG DUA",
  "postalCode": "95692"
 },
 {
  "id": 7102121004,
  "districtId": 7102121,
  "districtName": "KAWANGKOAN BARAT",
  "name": "KANONANG EMPAT",
  "postalCode": "95692"
 },
 {
  "id": 7102121005,
  "districtId": 7102121,
  "districtName": "KAWANGKOAN BARAT",
  "name": "KANONANG LIMA",
  "postalCode": "95692"
 },
 {
  "id": 7102121006,
  "districtId": 7102121,
  "districtName": "KAWANGKOAN BARAT",
  "name": "KANONANG SATU",
  "postalCode": "95692"
 },
 {
  "id": 7102121007,
  "districtId": 7102121,
  "districtName": "KAWANGKOAN BARAT",
  "name": "TOMBASIAN ATAS SATU",
  "postalCode": "95692"
 },
 {
  "id": 7102121008,
  "districtId": 7102121,
  "districtName": "KAWANGKOAN BARAT",
  "name": "TOMBASIAN BAWAH",
  "postalCode": "95692"
 },
 {
  "id": 7102121009,
  "districtId": 7102121,
  "districtName": "KAWANGKOAN BARAT",
  "name": "KAYUUWI SATU",
  "postalCode": "95692"
 },
 {
  "id": 7102121010,
  "districtId": 7102121,
  "districtName": "KAWANGKOAN BARAT",
  "name": "KAYUUWI",
  "postalCode": ""
 }
]