[
 {
  "id": 7102211001,
  "districtId": 7102211,
  "districtName": "KAKAS BARAT",
  "name": "BUKITTINGGI",
  "postalCode": "22283"
 },
 {
  "id": 7102211002,
  "districtId": 7102211,
  "districtName": "KAKAS BARAT",
  "name": "WAILANG",
  "postalCode": "95682"
 },
 {
  "id": 7102211003,
  "districtId": 7102211,
  "districtName": "KAKAS BARAT",
  "name": "SIMBEL",
  "postalCode": "95682"
 },
 {
  "id": 7102211004,
  "districtId": 7102211,
  "districtName": "KAKAS BARAT",
  "name": "TOULIANG",
  "postalCode": "95682"
 },
 {
  "id": 7102211005,
  "districtId": 7102211,
  "districtName": "KAKAS BARAT",
  "name": "WASIAN",
  "postalCode": "95373"
 },
 {
  "id": 7102211006,
  "districtId": 7102211,
  "districtName": "KAKAS BARAT",
  "name": "KALAWIRAN",
  "postalCode": "95682"
 },
 {
  "id": 7102211007,
  "districtId": 7102211,
  "districtName": "KAKAS BARAT",
  "name": "PANASEN",
  "postalCode": "95682"
 },
 {
  "id": 7102211008,
  "districtId": 7102211,
  "districtName": "KAKAS BARAT",
  "name": "TOTOLAN",
  "postalCode": "95682"
 },
 {
  "id": 7102211009,
  "districtId": 7102211,
  "districtName": "KAKAS BARAT",
  "name": "TOUNTIMOMOR",
  "postalCode": "95682"
 },
 {
  "id": 7102211010,
  "districtId": 7102211,
  "districtName": "KAKAS BARAT",
  "name": "PASSO",
  "postalCode": "97232"
 }
]