[
 {
  "id": 7103070001,
  "districtId": 7103070,
  "districtName": "TABUKAN TENGAH",
  "name": "BOWONGKALI",
  "postalCode": "95857"
 },
 {
  "id": 7103070002,
  "districtId": 7103070,
  "districtName": "TABUKAN TENGAH",
  "name": "KULUR II",
  "postalCode": "95857"
 },
 {
  "id": 7103070003,
  "districtId": 7103070,
  "districtName": "TABUKAN TENGAH",
  "name": "KULUR I",
  "postalCode": "95857"
 },
 {
  "id": 7103070004,
  "districtId": 7103070,
  "districtName": "TABUKAN TENGAH",
  "name": "BIRA",
  "postalCode": "95857"
 },
 {
  "id": 7103070005,
  "districtId": 7103070,
  "districtName": "TABUKAN TENGAH",
  "name": "KUMA",
  "postalCode": "95883"
 },
 {
  "id": 7103070006,
  "districtId": 7103070,
  "districtName": "TABUKAN TENGAH",
  "name": "BUNGALAWANG",
  "postalCode": "95857"
 },
 {
  "id": 7103070007,
  "districtId": 7103070,
  "districtName": "TABUKAN TENGAH",
  "name": "MIULU",
  "postalCode": "95857"
 },
 {
  "id": 7103070009,
  "districtId": 7103070,
  "districtName": "TABUKAN TENGAH",
  "name": "TALENGEN",
  "postalCode": "95857"
 },
 {
  "id": 7103070010,
  "districtId": 7103070,
  "districtName": "TABUKAN TENGAH",
  "name": "BIRU",
  "postalCode": "22758"
 },
 {
  "id": 7103070011,
  "districtId": 7103070,
  "districtName": "TABUKAN TENGAH",
  "name": "RENDINGAN",
  "postalCode": "95857"
 },
 {
  "id": 7103070012,
  "districtId": 7103070,
  "districtName": "TABUKAN TENGAH",
  "name": "TARIANGBARU",
  "postalCode": "95857"
 },
 {
  "id": 7103070013,
  "districtId": 7103070,
  "districtName": "TABUKAN TENGAH",
  "name": "SENSONG",
  "postalCode": "95857"
 },
 {
  "id": 7103070014,
  "districtId": 7103070,
  "districtName": "TABUKAN TENGAH",
  "name": "PALAHANAENG",
  "postalCode": "95857"
 },
 {
  "id": 7103070015,
  "districtId": 7103070,
  "districtName": "TABUKAN TENGAH",
  "name": "TIMBELANG",
  "postalCode": "95857"
 },
 {
  "id": 7103070016,
  "districtId": 7103070,
  "districtName": "TABUKAN TENGAH",
  "name": "PALELANGEN",
  "postalCode": ""
 },
 {
  "id": 7103070017,
  "districtId": 7103070,
  "districtName": "TABUKAN TENGAH",
  "name": "MALUENG",
  "postalCode": "95857"
 },
 {
  "id": 7103070018,
  "districtId": 7103070,
  "districtName": "TABUKAN TENGAH",
  "name": "KUMA I",
  "postalCode": "95857"
 }
]