[
 {
  "id": 7104010001,
  "districtId": 7104010,
  "districtName": "KABARUAN",
  "name": "PANGERAN",
  "postalCode": "78773"
 },
 {
  "id": 7104010007,
  "districtId": 7104010,
  "districtName": "KABARUAN",
  "name": "PANTUGE",
  "postalCode": ""
 },
 {
  "id": 7104010008,
  "districtId": 7104010,
  "districtName": "KABARUAN",
  "name": "KABARUAN",
  "postalCode": "95872"
 },
 {
  "id": 7104010009,
  "districtId": 7104010,
  "districtName": "KABARUAN",
  "name": "MANGARAN",
  "postalCode": "68175"
 },
 {
  "id": 7104010010,
  "districtId": 7104010,
  "districtName": "KABARUAN",
  "name": "KORDAKEL",
  "postalCode": "95872"
 },
 {
  "id": 7104010012,
  "districtId": 7104010,
  "districtName": "KABARUAN",
  "name": "RARANGE",
  "postalCode": "95872"
 },
 {
  "id": 7104010013,
  "districtId": 7104010,
  "districtName": "KABARUAN",
  "name": "TADUNA",
  "postalCode": "95872"
 },
 {
  "id": 7104010014,
  "districtId": 7104010,
  "districtName": "KABARUAN",
  "name": "KABARUAN TIMUR",
  "postalCode": "95872"
 },
 {
  "id": 7104010015,
  "districtId": 7104010,
  "districtName": "KABARUAN",
  "name": "PANTUGE BARAT",
  "postalCode": ""
 },
 {
  "id": 7104010016,
  "districtId": 7104010,
  "districtName": "KABARUAN",
  "name": "BULUDE SELATAN",
  "postalCode": "95883"
 },
 {
  "id": 7104010017,
  "districtId": 7104010,
  "districtName": "KABARUAN",
  "name": "PANULAN",
  "postalCode": ""
 }
]