[
 {
  "id": 7104041001,
  "districtId": 7104041,
  "districtName": "BEO UTARA",
  "name": "MAKATARA",
  "postalCode": "95881"
 },
 {
  "id": 7104041002,
  "districtId": 7104041,
  "districtName": "BEO UTARA",
  "name": "MAKATARA TIMUR",
  "postalCode": "95881"
 },
 {
  "id": 7104041003,
  "districtId": 7104041,
  "districtName": "BEO UTARA",
  "name": "LOBBO",
  "postalCode": "95881"
 },
 {
  "id": 7104041004,
  "districtId": 7104041,
  "districtName": "BEO UTARA",
  "name": "LOBBO I",
  "postalCode": "95881"
 },
 {
  "id": 7104041005,
  "districtId": 7104041,
  "districtName": "BEO UTARA",
  "name": "RAE",
  "postalCode": "95881"
 },
 {
  "id": 7104041006,
  "districtId": 7104041,
  "districtName": "BEO UTARA",
  "name": "RAE SELATAN",
  "postalCode": "95881"
 },
 {
  "id": 7104041007,
  "districtId": 7104041,
  "districtName": "BEO UTARA",
  "name": "AWIT",
  "postalCode": "95881"
 },
 {
  "id": 7104041008,
  "districtId": 7104041,
  "districtName": "BEO UTARA",
  "name": "AWIT SELATAN",
  "postalCode": "95881"
 }
]