[
 {
  "id": 7105020009,
  "districtId": 7105020,
  "districtName": "TOMPASO BARU",
  "name": "RARAATEAN",
  "postalCode": "95357"
 },
 {
  "id": 7105020010,
  "districtId": 7105020,
  "districtName": "TOMPASO BARU",
  "name": "SION",
  "postalCode": "95357"
 },
 {
  "id": 7105020011,
  "districtId": 7105020,
  "districtName": "TOMPASO BARU",
  "name": "TOMPASO BARU DUA",
  "postalCode": "95357"
 },
 {
  "id": 7105020012,
  "districtId": 7105020,
  "districtName": "TOMPASO BARU",
  "name": "KINALAWIRAN",
  "postalCode": "95357"
 },
 {
  "id": 7105020013,
  "districtId": 7105020,
  "districtName": "TOMPASO BARU",
  "name": "TOMPASO BARU SATU",
  "postalCode": "95357"
 },
 {
  "id": 7105020014,
  "districtId": 7105020,
  "districtName": "TOMPASO BARU",
  "name": "PINAESAAN",
  "postalCode": "95357"
 },
 {
  "id": 7105020015,
  "districtId": 7105020,
  "districtName": "TOMPASO BARU",
  "name": "TOROUT",
  "postalCode": "95357"
 },
 {
  "id": 7105020016,
  "districtId": 7105020,
  "districtName": "TOMPASO BARU",
  "name": "LINDANGAN",
  "postalCode": "95357"
 },
 {
  "id": 7105020017,
  "districtId": 7105020,
  "districtName": "TOMPASO BARU",
  "name": "KAROWA",
  "postalCode": "95357"
 },
 {
  "id": 7105020018,
  "districtId": 7105020,
  "districtName": "TOMPASO BARU",
  "name": "LIANDOK",
  "postalCode": "95357"
 }
]