[
 {
  "id": 7105131002,
  "districtId": 7105131,
  "districtName": "TATAPAAN",
  "name": "PASLATEN",
  "postalCode": "95682"
 },
 {
  "id": 7105131003,
  "districtId": 7105131,
  "districtName": "TATAPAAN",
  "name": "BAJO",
  "postalCode": "58381"
 },
 {
  "id": 7105131004,
  "districtId": 7105131,
  "districtName": "TATAPAAN",
  "name": "POPARENG",
  "postalCode": "95352"
 },
 {
  "id": 7105131005,
  "districtId": 7105131,
  "districtName": "TATAPAAN",
  "name": "WAWONTULAP",
  "postalCode": "95352"
 },
 {
  "id": 7105131006,
  "districtId": 7105131,
  "districtName": "TATAPAAN",
  "name": "WAWONA",
  "postalCode": "95352"
 },
 {
  "id": 7105131007,
  "districtId": 7105131,
  "districtName": "TATAPAAN",
  "name": "SONDAKEN",
  "postalCode": "95352"
 },
 {
  "id": 7105131008,
  "districtId": 7105131,
  "districtName": "TATAPAAN",
  "name": "RAP-RAP",
  "postalCode": "95371"
 },
 {
  "id": 7105131009,
  "districtId": 7105131,
  "districtName": "TATAPAAN",
  "name": "PUNGKOL",
  "postalCode": "95352"
 },
 {
  "id": 7105131010,
  "districtId": 7105131,
  "districtName": "TATAPAAN",
  "name": "PASLATEN SATU",
  "postalCode": "95352"
 },
 {
  "id": 7105131011,
  "districtId": 7105131,
  "districtName": "TATAPAAN",
  "name": "ARAKAN",
  "postalCode": "95352"
 }
]