[
 {
  "id": 7106060001,
  "districtId": 7106060,
  "districtName": "WORI",
  "name": "TIWOHO",
  "postalCode": "95376"
 },
 {
  "id": 7106060002,
  "districtId": 7106060,
  "districtName": "WORI",
  "name": "WORI",
  "postalCode": "95376"
 },
 {
  "id": 7106060003,
  "districtId": 7106060,
  "districtName": "WORI",
  "name": "KIMA BAJO",
  "postalCode": "95376"
 },
 {
  "id": 7106060004,
  "districtId": 7106060,
  "districtName": "WORI",
  "name": "MINAESA",
  "postalCode": "95376"
 },
 {
  "id": 7106060005,
  "districtId": 7106060,
  "districtName": "WORI",
  "name": "TALAWAAN BANTIK",
  "postalCode": "95376"
 },
 {
  "id": 7106060006,
  "districtId": 7106060,
  "districtName": "WORI",
  "name": "TALAWAAN ATAS",
  "postalCode": "95376"
 },
 {
  "id": 7106060007,
  "districtId": 7106060,
  "districtName": "WORI",
  "name": "BUDO",
  "postalCode": "95376"
 },
 {
  "id": 7106060008,
  "districtId": 7106060,
  "districtName": "WORI",
  "name": "DARUNU",
  "postalCode": "95376"
 },
 {
  "id": 7106060009,
  "districtId": 7106060,
  "districtName": "WORI",
  "name": "BULO",
  "postalCode": "95858"
 },
 {
  "id": 7106060010,
  "districtId": 7106060,
  "districtName": "WORI",
  "name": "PONTO",
  "postalCode": "95376"
 },
 {
  "id": 7106060011,
  "districtId": 7106060,
  "districtName": "WORI",
  "name": "LANSA",
  "postalCode": "95376"
 },
 {
  "id": 7106060012,
  "districtId": 7106060,
  "districtName": "WORI",
  "name": "LANTUNG",
  "postalCode": "84372"
 },
 {
  "id": 7106060014,
  "districtId": 7106060,
  "districtName": "WORI",
  "name": "MANTEHAGE I",
  "postalCode": ""
 },
 {
  "id": 7106060015,
  "districtId": 7106060,
  "districtName": "WORI",
  "name": "MANTEHAGE III",
  "postalCode": ""
 },
 {
  "id": 7106060016,
  "districtId": 7106060,
  "districtName": "WORI",
  "name": "MANTEHAGE",
  "postalCode": ""
 },
 {
  "id": 7106060017,
  "districtId": 7106060,
  "districtName": "WORI",
  "name": "MANTEHAGE II",
  "postalCode": ""
 },
 {
  "id": 7106060018,
  "districtId": 7106060,
  "districtName": "WORI",
  "name": "NAIN",
  "postalCode": "95376"
 },
 {
  "id": 7106060019,
  "districtId": 7106060,
  "districtName": "WORI",
  "name": "TATAMPI",
  "postalCode": ""
 },
 {
  "id": 7106060020,
  "districtId": 7106060,
  "districtName": "WORI",
  "name": "NAIN SATU",
  "postalCode": "95376"
 }
]