[
 {
  "id": 7106030004,
  "districtId": 7106030,
  "districtName": "AIRMADIDI",
  "name": "TANGGARI",
  "postalCode": "95371"
 },
 {
  "id": 7106030006,
  "districtId": 7106030,
  "districtName": "AIRMADIDI",
  "name": "SAMPIRI",
  "postalCode": "95371"
 },
 {
  "id": 7106030007,
  "districtId": 7106030,
  "districtName": "AIRMADIDI",
  "name": "SAWANGAN",
  "postalCode": "41272"
 },
 {
  "id": 7106030008,
  "districtId": 7106030,
  "districtName": "AIRMADIDI",
  "name": "AIRMADIDI BAWAH",
  "postalCode": "95371"
 },
 {
  "id": 7106030009,
  "districtId": 7106030,
  "districtName": "AIRMADIDI",
  "name": "AIRMADIDI ATAS",
  "postalCode": "95371"
 },
 {
  "id": 7106030010,
  "districtId": 7106030,
  "districtName": "AIRMADIDI",
  "name": "SARONGSONG SATU",
  "postalCode": "95371"
 },
 {
  "id": 7106030011,
  "districtId": 7106030,
  "districtName": "AIRMADIDI",
  "name": "SARONGSONG DUA",
  "postalCode": "95371"
 },
 {
  "id": 7106030012,
  "districtId": 7106030,
  "districtName": "AIRMADIDI",
  "name": "RAP-RAP",
  "postalCode": "95371"
 }
]