[
 {
  "id": 7106070001,
  "districtId": 7106070,
  "districtName": "LIKUPANG BARAT",
  "name": "PALAES",
  "postalCode": "95377"
 },
 {
  "id": 7106070002,
  "districtId": 7106070,
  "districtName": "LIKUPANG BARAT",
  "name": "MALIAMBAO",
  "postalCode": "95377"
 },
 {
  "id": 7106070003,
  "districtId": 7106070,
  "districtName": "LIKUPANG BARAT",
  "name": "TERMAAL",
  "postalCode": ""
 },
 {
  "id": 7106070004,
  "districtId": 7106070,
  "districtName": "LIKUPANG BARAT",
  "name": "JAYAKARSA",
  "postalCode": "95377"
 },
 {
  "id": 7106070005,
  "districtId": 7106070,
  "districtName": "LIKUPANG BARAT",
  "name": "PAPUTUNGAN",
  "postalCode": "95377"
 },
 {
  "id": 7106070006,
  "districtId": 7106070,
  "districtName": "LIKUPANG BARAT",
  "name": "TANAH PUTIH",
  "postalCode": "84182"
 },
 {
  "id": 7106070007,
  "districtId": 7106070,
  "districtName": "LIKUPANG BARAT",
  "name": "SONSILO",
  "postalCode": ""
 },
 {
  "id": 7106070008,
  "districtId": 7106070,
  "districtName": "LIKUPANG BARAT",
  "name": "TARABITAN",
  "postalCode": "95377"
 },
 {
  "id": 7106070010,
  "districtId": 7106070,
  "districtName": "LIKUPANG BARAT",
  "name": "BAHOI",
  "postalCode": "95377"
 },
 {
  "id": 7106070013,
  "districtId": 7106070,
  "districtName": "LIKUPANG BARAT",
  "name": "GANGGA SATU",
  "postalCode": "95377"
 },
 {
  "id": 7106070014,
  "districtId": 7106070,
  "districtName": "LIKUPANG BARAT",
  "name": "GANGGA DUA",
  "postalCode": "95377"
 },
 {
  "id": 7106070015,
  "districtId": 7106070,
  "districtName": "LIKUPANG BARAT",
  "name": "AER BANUA",
  "postalCode": ""
 },
 {
  "id": 7106070016,
  "districtId": 7106070,
  "districtName": "LIKUPANG BARAT",
  "name": "TALISE",
  "postalCode": "95377"
 },
 {
  "id": 7106070017,
  "districtId": 7106070,
  "districtName": "LIKUPANG BARAT",
  "name": "KINABUHUTAN",
  "postalCode": "95377"
 },
 {
  "id": 7106070018,
  "districtId": 7106070,
  "districtName": "LIKUPANG BARAT",
  "name": "TAMBUN",
  "postalCode": "28384"
 },
 {
  "id": 7106070019,
  "districtId": 7106070,
  "districtName": "LIKUPANG BARAT",
  "name": "WAWUNIAN",
  "postalCode": "95377"
 },
 {
  "id": 7106070020,
  "districtId": 7106070,
  "districtName": "LIKUPANG BARAT",
  "name": "BULUTUI",
  "postalCode": "95377"
 }
]