[
 {
  "id": 7107040001,
  "districtId": 7107040,
  "districtName": "BOLANG ITANG BARAT",
  "name": "PAKU",
  "postalCode": "24165"
 },
 {
  "id": 7107040002,
  "districtId": 7107040,
  "districtName": "BOLANG ITANG BARAT",
  "name": "OLLOT II",
  "postalCode": "95764"
 },
 {
  "id": 7107040003,
  "districtId": 7107040,
  "districtName": "BOLANG ITANG BARAT",
  "name": "OLLOT",
  "postalCode": "95764"
 },
 {
  "id": 7107040004,
  "districtId": 7107040,
  "districtName": "BOLANG ITANG BARAT",
  "name": "OLLOT I",
  "postalCode": "95764"
 },
 {
  "id": 7107040005,
  "districtId": 7107040,
  "districtName": "BOLANG ITANG BARAT",
  "name": "SONUO",
  "postalCode": "95764"
 },
 {
  "id": 7107040006,
  "districtId": 7107040,
  "districtName": "BOLANG ITANG BARAT",
  "name": "WAKAT",
  "postalCode": "95764"
 },
 {
  "id": 7107040007,
  "districtId": 7107040,
  "districtName": "BOLANG ITANG BARAT",
  "name": "TOTE",
  "postalCode": "95764"
 },
 {
  "id": 7107040008,
  "districtId": 7107040,
  "districtName": "BOLANG ITANG BARAT",
  "name": "IYOK",
  "postalCode": "95764"
 },
 {
  "id": 7107040009,
  "districtId": 7107040,
  "districtName": "BOLANG ITANG BARAT",
  "name": "LANGI",
  "postalCode": "23893"
 },
 {
  "id": 7107040010,
  "districtId": 7107040,
  "districtName": "BOLANG ITANG BARAT",
  "name": "JAMBU SARANG",
  "postalCode": "95764"
 },
 {
  "id": 7107040011,
  "districtId": 7107040,
  "districtName": "BOLANG ITANG BARAT",
  "name": "TALAGA TUMOAGU",
  "postalCode": "95764"
 },
 {
  "id": 7107040012,
  "districtId": 7107040,
  "districtName": "BOLANG ITANG BARAT",
  "name": "BOLANG ITANG",
  "postalCode": ""
 },
 {
  "id": 7107040013,
  "districtId": 7107040,
  "districtName": "BOLANG ITANG BARAT",
  "name": "BOLANG ITANG I",
  "postalCode": ""
 },
 {
  "id": 7107040014,
  "districtId": 7107040,
  "districtName": "BOLANG ITANG BARAT",
  "name": "BOLANG ITANG II",
  "postalCode": ""
 },
 {
  "id": 7107040015,
  "districtId": 7107040,
  "districtName": "BOLANG ITANG BARAT",
  "name": "TALAGA",
  "postalCode": "43154"
 },
 {
  "id": 7107040016,
  "districtId": 7107040,
  "districtName": "BOLANG ITANG BARAT",
  "name": "PAKU SELATAN",
  "postalCode": "95764"
 },
 {
  "id": 7107040017,
  "districtId": 7107040,
  "districtName": "BOLANG ITANG BARAT",
  "name": "KEIMANGA",
  "postalCode": "95764"
 },
 {
  "id": 7107040018,
  "districtId": 7107040,
  "districtName": "BOLANG ITANG BARAT",
  "name": "TANJUNG BUAYA",
  "postalCode": "95764"
 }
]