[
 {
  "id": 7109040006,
  "districtId": 7109040,
  "districtName": "RATAHAN",
  "name": "RASI",
  "postalCode": "95995"
 },
 {
  "id": 7109040007,
  "districtId": 7109040,
  "districtName": "RATAHAN",
  "name": "TOSURAYA",
  "postalCode": "95995"
 },
 {
  "id": 7109040008,
  "districtId": 7109040,
  "districtName": "RATAHAN",
  "name": "LOWU SATU",
  "postalCode": "95995"
 },
 {
  "id": 7109040009,
  "districtId": 7109040,
  "districtName": "RATAHAN",
  "name": "LOWU DUA",
  "postalCode": "95995"
 },
 {
  "id": 7109040010,
  "districtId": 7109040,
  "districtName": "RATAHAN",
  "name": "WAWALI",
  "postalCode": "95995"
 },
 {
  "id": 7109040016,
  "districtId": 7109040,
  "districtName": "RATAHAN",
  "name": "RASI SATU",
  "postalCode": "95995"
 },
 {
  "id": 7109040017,
  "districtId": 7109040,
  "districtName": "RATAHAN",
  "name": "TOSURAYA BARAT",
  "postalCode": "95995"
 },
 {
  "id": 7109040018,
  "districtId": 7109040,
  "districtName": "RATAHAN",
  "name": "TOSURAYA SELATAN",
  "postalCode": "95995"
 },
 {
  "id": 7109040019,
  "districtId": 7109040,
  "districtName": "RATAHAN",
  "name": "LOWU UTARA",
  "postalCode": "95995"
 },
 {
  "id": 7109040020,
  "districtId": 7109040,
  "districtName": "RATAHAN",
  "name": "NATAAN",
  "postalCode": "95995"
 },
 {
  "id": 7109040021,
  "districtId": 7109040,
  "districtName": "RATAHAN",
  "name": "WAWALI PASAN",
  "postalCode": "95995"
 }
]