[
 {
  "id": 7109061001,
  "districtId": 7109061,
  "districtName": "TOULUAAN SELATAN",
  "name": "LOWANTAG",
  "postalCode": ""
 },
 {
  "id": 7109061002,
  "districtId": 7109061,
  "districtName": "TOULUAAN SELATAN",
  "name": "BANGA",
  "postalCode": "95998"
 },
 {
  "id": 7109061003,
  "districtId": 7109061,
  "districtName": "TOULUAAN SELATAN",
  "name": "SUHUYON",
  "postalCode": "95998"
 },
 {
  "id": 7109061004,
  "districtId": 7109061,
  "districtName": "TOULUAAN SELATAN",
  "name": "TAMBELANG",
  "postalCode": "45186"
 },
 {
  "id": 7109061005,
  "districtId": 7109061,
  "districtName": "TOULUAAN SELATAN",
  "name": "BUNAG",
  "postalCode": "95998"
 },
 {
  "id": 7109061006,
  "districtId": 7109061,
  "districtName": "TOULUAAN SELATAN",
  "name": "RANOAKO",
  "postalCode": "95998"
 },
 {
  "id": 7109061007,
  "districtId": 7109061,
  "districtName": "TOULUAAN SELATAN",
  "name": "KALAIT",
  "postalCode": "95998"
 },
 {
  "id": 7109061008,
  "districtId": 7109061,
  "districtName": "TOULUAAN SELATAN",
  "name": "KALAIT SATU",
  "postalCode": "95998"
 },
 {
  "id": 7109061009,
  "districtId": 7109061,
  "districtName": "TOULUAAN SELATAN",
  "name": "KALAIT DUA",
  "postalCode": "95998"
 },
 {
  "id": 7109061010,
  "districtId": 7109061,
  "districtName": "TOULUAAN SELATAN",
  "name": "KALAIT TIGA",
  "postalCode": "95998"
 }
]