[
 {
  "id": 7109050003,
  "districtId": 7109050,
  "districtName": "TOMBATU",
  "name": "TONSAWANG",
  "postalCode": "95996"
 },
 {
  "id": 7109050009,
  "districtId": 7109050,
  "districtName": "TOMBATU",
  "name": "TOMBATU SATU",
  "postalCode": "95996"
 },
 {
  "id": 7109050015,
  "districtId": 7109050,
  "districtName": "TOMBATU",
  "name": "KALI",
  "postalCode": "38611"
 },
 {
  "id": 7109050029,
  "districtId": 7109050,
  "districtName": "TOMBATU",
  "name": "TOMBATU",
  "postalCode": "95996"
 },
 {
  "id": 7109050030,
  "districtId": 7109050,
  "districtName": "TOMBATU",
  "name": "BETELEN SATU",
  "postalCode": ""
 },
 {
  "id": 7109050031,
  "districtId": 7109050,
  "districtName": "TOMBATU",
  "name": "KALI OKI",
  "postalCode": "95996"
 },
 {
  "id": 7109050032,
  "districtId": 7109050,
  "districtName": "TOMBATU",
  "name": "TONSAWANG SATU",
  "postalCode": "95996"
 },
 {
  "id": 7109050033,
  "districtId": 7109050,
  "districtName": "TOMBATU",
  "name": "TOMBATU TIGA TIMUR",
  "postalCode": "95996"
 },
 {
  "id": 7109050034,
  "districtId": 7109050,
  "districtName": "TOMBATU",
  "name": "TOMBATU TIGA SELATAN",
  "postalCode": "95996"
 },
 {
  "id": 7109050035,
  "districtId": 7109050,
  "districtName": "TOMBATU",
  "name": "PISA",
  "postalCode": "95996"
 }
]