[
 {
  "id": 7110021001,
  "districtId": 7110021,
  "districtName": "HELUMO",
  "name": "PANGIA",
  "postalCode": "95774"
 },
 {
  "id": 7110021002,
  "districtId": 7110021,
  "districtName": "HELUMO",
  "name": "SOPUTA",
  "postalCode": "95774"
 },
 {
  "id": 7110021003,
  "districtId": 7110021,
  "districtName": "HELUMO",
  "name": "SINANDAKA",
  "postalCode": "95774"
 },
 {
  "id": 7110021004,
  "districtId": 7110021,
  "districtName": "HELUMO",
  "name": "BAKIDA",
  "postalCode": "95774"
 },
 {
  "id": 7110021005,
  "districtId": 7110021,
  "districtName": "HELUMO",
  "name": "DUMINANGA",
  "postalCode": "95774"
 },
 {
  "id": 7110021006,
  "districtId": 7110021,
  "districtName": "HELUMO",
  "name": "BINIHA",
  "postalCode": "95774"
 },
 {
  "id": 7110021007,
  "districtId": 7110021,
  "districtName": "HELUMO",
  "name": "BINIHA TIMUR",
  "postalCode": "95774"
 },
 {
  "id": 7110021008,
  "districtId": 7110021,
  "districtName": "HELUMO",
  "name": "MOTOLOHU",
  "postalCode": "96469"
 },
 {
  "id": 7110021009,
  "districtId": 7110021,
  "districtName": "HELUMO",
  "name": "TRANS PATOA",
  "postalCode": ""
 },
 {
  "id": 7110021010,
  "districtId": 7110021,
  "districtName": "HELUMO",
  "name": "BINIHA SELATAN",
  "postalCode": ""
 },
 {
  "id": 7110021011,
  "districtId": 7110021,
  "districtName": "HELUMO",
  "name": "HALABOLU",
  "postalCode": ""
 }
]