[
 {
  "id": 7110030001,
  "districtId": 7110030,
  "districtName": "PINOLOSIAN",
  "name": "LINAWAN",
  "postalCode": "95775"
 },
 {
  "id": 7110030002,
  "districtId": 7110030,
  "districtName": "PINOLOSIAN",
  "name": "LINAWAN I",
  "postalCode": "95775"
 },
 {
  "id": 7110030004,
  "districtId": 7110030,
  "districtName": "PINOLOSIAN",
  "name": "ILOMATA",
  "postalCode": "95775"
 },
 {
  "id": 7110030005,
  "districtId": 7110030,
  "districtName": "PINOLOSIAN",
  "name": "PINOLOSIAN SELATAN",
  "postalCode": "95775"
 },
 {
  "id": 7110030006,
  "districtId": 7110030,
  "districtName": "PINOLOSIAN",
  "name": "PINOLOSIAN",
  "postalCode": "95775"
 },
 {
  "id": 7110030007,
  "districtId": 7110030,
  "districtName": "PINOLOSIAN",
  "name": "TOLOTOYON",
  "postalCode": "95775"
 },
 {
  "id": 7110030008,
  "districtId": 7110030,
  "districtName": "PINOLOSIAN",
  "name": "KOMBOT",
  "postalCode": "95775"
 },
 {
  "id": 7110030009,
  "districtId": 7110030,
  "districtName": "PINOLOSIAN",
  "name": "LUNGKAP",
  "postalCode": "95775"
 },
 {
  "id": 7110030010,
  "districtId": 7110030,
  "districtName": "PINOLOSIAN",
  "name": "KOMBOT TIMUR",
  "postalCode": ""
 }
]