[
 {
  "id": 7110010001,
  "districtId": 7110010,
  "districtName": "POSIGADAN",
  "name": "LION",
  "postalCode": "95774"
 },
 {
  "id": 7110010002,
  "districtId": 7110010,
  "districtName": "POSIGADAN",
  "name": "SAIBUAH",
  "postalCode": "95774"
 },
 {
  "id": 7110010003,
  "districtId": 7110010,
  "districtName": "POSIGADAN",
  "name": "MEYAMBANGA",
  "postalCode": "95774"
 },
 {
  "id": 7110010004,
  "districtId": 7110010,
  "districtName": "POSIGADAN",
  "name": "TONALA",
  "postalCode": "95774"
 },
 {
  "id": 7110010005,
  "districtId": 7110010,
  "districtName": "POSIGADAN",
  "name": "MANGGADAA",
  "postalCode": "95774"
 },
 {
  "id": 7110010006,
  "districtId": 7110010,
  "districtName": "POSIGADAN",
  "name": "MOMALIA II",
  "postalCode": "95774"
 },
 {
  "id": 7110010007,
  "districtId": 7110010,
  "districtName": "POSIGADAN",
  "name": "MOMALIA  I",
  "postalCode": ""
 },
 {
  "id": 7110010008,
  "districtId": 7110010,
  "districtName": "POSIGADAN",
  "name": "PILOLAHUNGA",
  "postalCode": "95774"
 },
 {
  "id": 7110010009,
  "districtId": 7110010,
  "districtName": "POSIGADAN",
  "name": "LUWOO",
  "postalCode": "95774"
 },
 {
  "id": 7110010010,
  "districtId": 7110010,
  "districtName": "POSIGADAN",
  "name": "SAKTI",
  "postalCode": "80771"
 },
 {
  "id": 7110010011,
  "districtId": 7110010,
  "districtName": "POSIGADAN",
  "name": "SINOMBAYUGA",
  "postalCode": "95774"
 },
 {
  "id": 7110010016,
  "districtId": 7110010,
  "districtName": "POSIGADAN",
  "name": "ILOHELUMA",
  "postalCode": "96525"
 },
 {
  "id": 7110010020,
  "districtId": 7110010,
  "districtName": "POSIGADAN",
  "name": "MOLOSIPAT",
  "postalCode": "96467"
 },
 {
  "id": 7110010021,
  "districtId": 7110010,
  "districtName": "POSIGADAN",
  "name": "MEYAMBANGA TIMUR",
  "postalCode": ""
 },
 {
  "id": 7110010022,
  "districtId": 7110010,
  "districtName": "POSIGADAN",
  "name": "MOMALIA TIGA",
  "postalCode": ""
 },
 {
  "id": 7110010023,
  "districtId": 7110010,
  "districtName": "POSIGADAN",
  "name": "INOSOTA",
  "postalCode": ""
 }
]