[
 {
  "id": 7111050001,
  "districtId": 7111050,
  "districtName": "MODAYAG BARAT",
  "name": "MOYONGKOTA BARU",
  "postalCode": "95781"
 },
 {
  "id": 7111050002,
  "districtId": 7111050,
  "districtName": "MODAYAG BARAT",
  "name": "MOYONGKOTA",
  "postalCode": "95781"
 },
 {
  "id": 7111050003,
  "districtId": 7111050,
  "districtName": "MODAYAG BARAT",
  "name": "BANGUNAN WUWUK",
  "postalCode": "95781"
 },
 {
  "id": 7111050004,
  "districtId": 7111050,
  "districtName": "MODAYAG BARAT",
  "name": "BONGKUDAI BARAT",
  "postalCode": "95781"
 },
 {
  "id": 7111050005,
  "districtId": 7111050,
  "districtName": "MODAYAG BARAT",
  "name": "BONGKUDAI",
  "postalCode": "95781"
 },
 {
  "id": 7111050006,
  "districtId": 7111050,
  "districtName": "MODAYAG BARAT",
  "name": "PINONOBATUAN",
  "postalCode": "95772"
 },
 {
  "id": 7111050007,
  "districtId": 7111050,
  "districtName": "MODAYAG BARAT",
  "name": "MOONOW",
  "postalCode": "95781"
 },
 {
  "id": 7111050008,
  "districtId": 7111050,
  "districtName": "MODAYAG BARAT",
  "name": "INATON",
  "postalCode": "95781"
 },
 {
  "id": 7111050009,
  "districtId": 7111050,
  "districtName": "MODAYAG BARAT",
  "name": "BANGUNAN WUWUK TIMUR",
  "postalCode": "95781"
 },
 {
  "id": 7111050010,
  "districtId": 7111050,
  "districtName": "MODAYAG BARAT",
  "name": "TANGATON",
  "postalCode": "95781"
 }
]