[
 {
  "id": 7111040001,
  "districtId": 7111040,
  "districtName": "MODAYAG",
  "name": "MODAYAG II",
  "postalCode": "95781"
 },
 {
  "id": 7111040002,
  "districtId": 7111040,
  "districtName": "MODAYAG",
  "name": "MODAYAG",
  "postalCode": "95781"
 },
 {
  "id": 7111040003,
  "districtId": 7111040,
  "districtName": "MODAYAG",
  "name": "MODAYAG III",
  "postalCode": "95781"
 },
 {
  "id": 7111040004,
  "districtId": 7111040,
  "districtName": "MODAYAG",
  "name": "TOBONGON",
  "postalCode": "95781"
 },
 {
  "id": 7111040005,
  "districtId": 7111040,
  "districtName": "MODAYAG",
  "name": "BADARO",
  "postalCode": "95781"
 },
 {
  "id": 7111040006,
  "districtId": 7111040,
  "districtName": "MODAYAG",
  "name": "LANUT",
  "postalCode": "95781"
 },
 {
  "id": 7111040007,
  "districtId": 7111040,
  "districtName": "MODAYAG",
  "name": "BUYANDI",
  "postalCode": "95781"
 },
 {
  "id": 7111040008,
  "districtId": 7111040,
  "districtName": "MODAYAG",
  "name": "PURWOREJO",
  "postalCode": "23661"
 },
 {
  "id": 7111040009,
  "districtId": 7111040,
  "districtName": "MODAYAG",
  "name": "PURWOREJO TENGAH",
  "postalCode": "95781"
 },
 {
  "id": 7111040010,
  "districtId": 7111040,
  "districtName": "MODAYAG",
  "name": "PURWOREJO TIMUR",
  "postalCode": "95781"
 },
 {
  "id": 7111040011,
  "districtId": 7111040,
  "districtName": "MODAYAG",
  "name": "LIBERIA TIMUR",
  "postalCode": "95781"
 },
 {
  "id": 7111040012,
  "districtId": 7111040,
  "districtName": "MODAYAG",
  "name": "LIBERIA",
  "postalCode": "20997"
 },
 {
  "id": 7111040018,
  "districtId": 7111040,
  "districtName": "MODAYAG",
  "name": "CANDI REJO",
  "postalCode": "20358"
 },
 {
  "id": 7111040023,
  "districtId": 7111040,
  "districtName": "MODAYAG",
  "name": "SUMBER REJO",
  "postalCode": "21255"
 }
]