[
 {
  "id": 7171052001,
  "districtId": 7171052,
  "districtName": "TUMINTING",
  "name": "SINDULANG SATU",
  "postalCode": "95239"
 },
 {
  "id": 7171052002,
  "districtId": 7171052,
  "districtName": "TUMINTING",
  "name": "KAMPUNG ISLAM",
  "postalCode": ""
 },
 {
  "id": 7171052003,
  "districtId": 7171052,
  "districtName": "TUMINTING",
  "name": "SINDULANG DUA",
  "postalCode": "95239"
 },
 {
  "id": 7171052004,
  "districtId": 7171052,
  "districtName": "TUMINTING",
  "name": "BITUNG KARANG RIA",
  "postalCode": ""
 },
 {
  "id": 7171052005,
  "districtId": 7171052,
  "districtName": "TUMINTING",
  "name": "MAASING",
  "postalCode": "95238"
 },
 {
  "id": 7171052006,
  "districtId": 7171052,
  "districtName": "TUMINTING",
  "name": "TUMINTING",
  "postalCode": "95239"
 },
 {
  "id": 7171052007,
  "districtId": 7171052,
  "districtName": "TUMINTING",
  "name": "MAHAWU",
  "postalCode": "95239"
 },
 {
  "id": 7171052008,
  "districtId": 7171052,
  "districtName": "TUMINTING",
  "name": "SUMOMPO",
  "postalCode": "95239"
 },
 {
  "id": 7171052009,
  "districtId": 7171052,
  "districtName": "TUMINTING",
  "name": "TUMUMPA SATU",
  "postalCode": "95239"
 },
 {
  "id": 7171052010,
  "districtId": 7171052,
  "districtName": "TUMINTING",
  "name": "TUMUMPA DUA",
  "postalCode": "95239"
 }
]