[
 {
  "id": 7171040002,
  "districtId": 7171040,
  "districtName": "MAPANGET",
  "name": "KAIRAGI SATU",
  "postalCode": "95253"
 },
 {
  "id": 7171040003,
  "districtId": 7171040,
  "districtName": "MAPANGET",
  "name": "KAIRAGI DUA",
  "postalCode": "95254"
 },
 {
  "id": 7171040004,
  "districtId": 7171040,
  "districtName": "MAPANGET",
  "name": "PANIKI BAWAH",
  "postalCode": "95256"
 },
 {
  "id": 7171040005,
  "districtId": 7171040,
  "districtName": "MAPANGET",
  "name": "PANIKI DUA",
  "postalCode": "95257"
 },
 {
  "id": 7171040006,
  "districtId": 7171040,
  "districtName": "MAPANGET",
  "name": "LAPANGAN",
  "postalCode": "95258"
 },
 {
  "id": 7171040007,
  "districtId": 7171040,
  "districtName": "MAPANGET",
  "name": "MAPANGET BARAT",
  "postalCode": "95258"
 },
 {
  "id": 7171040008,
  "districtId": 7171040,
  "districtName": "MAPANGET",
  "name": "KIMA ATAS",
  "postalCode": "95259"
 },
 {
  "id": 7171040009,
  "districtId": 7171040,
  "districtName": "MAPANGET",
  "name": "BENGKOL",
  "postalCode": "95251"
 },
 {
  "id": 7171040010,
  "districtId": 7171040,
  "districtName": "MAPANGET",
  "name": "BUHA",
  "postalCode": "95252"
 },
 {
  "id": 7171040012,
  "districtId": 7171040,
  "districtName": "MAPANGET",
  "name": "PANIKI SATU",
  "postalCode": "95259"
 }
]