[
 {
  "id": 7171051001,
  "districtId": 7171051,
  "districtName": "SINGKIL",
  "name": "KARAME",
  "postalCode": "95231"
 },
 {
  "id": 7171051002,
  "districtId": 7171051,
  "districtName": "SINGKIL",
  "name": "KETANG BARU",
  "postalCode": "95232"
 },
 {
  "id": 7171051003,
  "districtId": 7171051,
  "districtName": "SINGKIL",
  "name": "WAWONASA",
  "postalCode": "95231"
 },
 {
  "id": 7171051004,
  "districtId": 7171051,
  "districtName": "SINGKIL",
  "name": "TERNATE BARU",
  "postalCode": "95232"
 },
 {
  "id": 7171051005,
  "districtId": 7171051,
  "districtName": "SINGKIL",
  "name": "TERNATE TANJUNG",
  "postalCode": "95234"
 },
 {
  "id": 7171051006,
  "districtId": 7171051,
  "districtName": "SINGKIL",
  "name": "KOMBOS BARAT",
  "postalCode": "95234"
 },
 {
  "id": 7171051007,
  "districtId": 7171051,
  "districtName": "SINGKIL",
  "name": "KOMBOS TIMUR",
  "postalCode": "95234"
 },
 {
  "id": 7171051008,
  "districtId": 7171051,
  "districtName": "SINGKIL",
  "name": "SINGKIL SATU",
  "postalCode": "95234"
 },
 {
  "id": 7171051009,
  "districtId": 7171051,
  "districtName": "SINGKIL",
  "name": "SINGKIL DUA",
  "postalCode": "95234"
 }
]