[
 {
  "id": 7173030001,
  "districtId": 7173030,
  "districtName": "TOMOHON UTARA",
  "name": "KAYAWU",
  "postalCode": "95419"
 },
 {
  "id": 7173030002,
  "districtId": 7173030,
  "districtName": "TOMOHON UTARA",
  "name": "WAILAN",
  "postalCode": "95418"
 },
 {
  "id": 7173030003,
  "districtId": 7173030,
  "districtName": "TOMOHON UTARA",
  "name": "KAKASKASEN TIGA",
  "postalCode": "95417"
 },
 {
  "id": 7173030004,
  "districtId": 7173030,
  "districtName": "TOMOHON UTARA",
  "name": "KAKASKASEN DUA",
  "postalCode": "95416"
 },
 {
  "id": 7173030005,
  "districtId": 7173030,
  "districtName": "TOMOHON UTARA",
  "name": "KAKASKASEN SATU",
  "postalCode": "95415"
 },
 {
  "id": 7173030006,
  "districtId": 7173030,
  "districtName": "TOMOHON UTARA",
  "name": "KINILOW",
  "postalCode": "95414"
 },
 {
  "id": 7173030007,
  "districtId": 7173030,
  "districtName": "TOMOHON UTARA",
  "name": "TINOOR SATU",
  "postalCode": "95412"
 },
 {
  "id": 7173030008,
  "districtId": 7173030,
  "districtName": "TOMOHON UTARA",
  "name": "TINOOR DUA",
  "postalCode": "95411"
 },
 {
  "id": 7173030009,
  "districtId": 7173030,
  "districtName": "TOMOHON UTARA",
  "name": "KINILOW SATU",
  "postalCode": "95413"
 },
 {
  "id": 7173030010,
  "districtId": 7173030,
  "districtName": "TOMOHON UTARA",
  "name": "KAKASKASEN",
  "postalCode": "95418"
 }
]