[
 {
  "id": 7201061001,
  "districtId": 7201061,
  "districtName": "BULAGI SELATAN",
  "name": "BONE PUSO",
  "postalCode": ""
 },
 {
  "id": 7201061002,
  "districtId": 7201061,
  "districtName": "BULAGI SELATAN",
  "name": "PANDALUK",
  "postalCode": "94882"
 },
 {
  "id": 7201061003,
  "districtId": 7201061,
  "districtName": "BULAGI SELATAN",
  "name": "PALABATU DUA",
  "postalCode": "94882"
 },
 {
  "id": 7201061004,
  "districtId": 7201061,
  "districtName": "BULAGI SELATAN",
  "name": "TATARANDANG",
  "postalCode": "94882"
 },
 {
  "id": 7201061006,
  "districtId": 7201061,
  "districtName": "BULAGI SELATAN",
  "name": "OSAN",
  "postalCode": "94882"
 },
 {
  "id": 7201061007,
  "districtId": 7201061,
  "districtName": "BULAGI SELATAN",
  "name": "BALALON",
  "postalCode": "94882"
 },
 {
  "id": 7201061008,
  "districtId": 7201061,
  "districtName": "BULAGI SELATAN",
  "name": "SABELAK",
  "postalCode": "94882"
 },
 {
  "id": 7201061009,
  "districtId": 7201061,
  "districtName": "BULAGI SELATAN",
  "name": "SUIT",
  "postalCode": "94882"
 },
 {
  "id": 7201061010,
  "districtId": 7201061,
  "districtName": "BULAGI SELATAN",
  "name": "TOI-TOI",
  "postalCode": ""
 },
 {
  "id": 7201061011,
  "districtId": 7201061,
  "districtName": "BULAGI SELATAN",
  "name": "LOLANTANG",
  "postalCode": "94882"
 },
 {
  "id": 7201061012,
  "districtId": 7201061,
  "districtName": "BULAGI SELATAN",
  "name": "PALABATU SATU",
  "postalCode": "94882"
 },
 {
  "id": 7201061013,
  "districtId": 7201061,
  "districtName": "BULAGI SELATAN",
  "name": "MANGAIS",
  "postalCode": "94882"
 },
 {
  "id": 7201061015,
  "districtId": 7201061,
  "districtName": "BULAGI SELATAN",
  "name": "BABANG",
  "postalCode": "94882"
 },
 {
  "id": 7201061016,
  "districtId": 7201061,
  "districtName": "BULAGI SELATAN",
  "name": "MOMOTAN",
  "postalCode": "94882"
 },
 {
  "id": 7201061017,
  "districtId": 7201061,
  "districtName": "BULAGI SELATAN",
  "name": "LABOTAKANDI",
  "postalCode": "94882"
 },
 {
  "id": 7201061018,
  "districtId": 7201061,
  "districtName": "BULAGI SELATAN",
  "name": "ALASAN NGGOLOBUTON",
  "postalCode": "94882"
 },
 {
  "id": 7201061019,
  "districtId": 7201061,
  "districtName": "BULAGI SELATAN",
  "name": "BOLUNI",
  "postalCode": "94882"
 },
 {
  "id": 7201061020,
  "districtId": 7201061,
  "districtName": "BULAGI SELATAN",
  "name": "PIPILOGOT PAIPAISU",
  "postalCode": "94882"
 }
]