[
 {
  "id": 7201040009,
  "districtId": 7201040,
  "districtName": "TINANGKUNG",
  "name": "MANGGALAI",
  "postalCode": "94885"
 },
 {
  "id": 7201040010,
  "districtId": 7201040,
  "districtName": "TINANGKUNG",
  "name": "AMBELANG",
  "postalCode": "94885"
 },
 {
  "id": 7201040011,
  "districtId": 7201040,
  "districtName": "TINANGKUNG",
  "name": "SAIYONG",
  "postalCode": "94885"
 },
 {
  "id": 7201040012,
  "districtId": 7201040,
  "districtName": "TINANGKUNG",
  "name": "TOMPUDAU",
  "postalCode": "94885"
 },
 {
  "id": 7201040014,
  "districtId": 7201040,
  "districtName": "TINANGKUNG",
  "name": "BAKA",
  "postalCode": "94885"
 },
 {
  "id": 7201040015,
  "districtId": 7201040,
  "districtName": "TINANGKUNG",
  "name": "BONGGANAN",
  "postalCode": "94885"
 },
 {
  "id": 7201040016,
  "districtId": 7201040,
  "districtName": "TINANGKUNG",
  "name": "SALAKAN",
  "postalCode": "57372"
 },
 {
  "id": 7201040020,
  "districtId": 7201040,
  "districtName": "TINANGKUNG",
  "name": "KAUTU",
  "postalCode": "94885"
 },
 {
  "id": 7201040021,
  "districtId": 7201040,
  "districtName": "TINANGKUNG",
  "name": "BAKALAN",
  "postalCode": "59158"
 },
 {
  "id": 7201040022,
  "districtId": 7201040,
  "districtName": "TINANGKUNG",
  "name": "BULUNGKOBIT",
  "postalCode": "94885"
 },
 {
  "id": 7201040023,
  "districtId": 7201040,
  "districtName": "TINANGKUNG",
  "name": "BUNGIN",
  "postalCode": "39262"
 }
]