[
 {
  "id": 7201060001,
  "districtId": 7201060,
  "districtName": "BULAGI",
  "name": "TOLO",
  "postalCode": "94882"
 },
 {
  "id": 7201060002,
  "districtId": 7201060,
  "districtName": "BULAGI",
  "name": "LALANDAY",
  "postalCode": "94882"
 },
 {
  "id": 7201060003,
  "districtId": 7201060,
  "districtName": "BULAGI",
  "name": "MONTOMISAN",
  "postalCode": "94882"
 },
 {
  "id": 7201060004,
  "districtId": 7201060,
  "districtName": "BULAGI",
  "name": "SOSOM",
  "postalCode": "94882"
 },
 {
  "id": 7201060005,
  "districtId": 7201060,
  "districtName": "BULAGI",
  "name": "ALUL",
  "postalCode": "94882"
 },
 {
  "id": 7201060006,
  "districtId": 7201060,
  "districtName": "BULAGI",
  "name": "BULAGI SATU",
  "postalCode": "94882"
 },
 {
  "id": 7201060007,
  "districtId": 7201060,
  "districtName": "BULAGI",
  "name": "BULAGI DUA",
  "postalCode": "94882"
 },
 {
  "id": 7201060008,
  "districtId": 7201060,
  "districtName": "BULAGI",
  "name": "BOLOY",
  "postalCode": ""
 },
 {
  "id": 7201060010,
  "districtId": 7201060,
  "districtName": "BULAGI",
  "name": "OLUNO",
  "postalCode": "94882"
 },
 {
  "id": 7201060011,
  "districtId": 7201060,
  "districtName": "BULAGI",
  "name": "SUMONDUNG",
  "postalCode": "94882"
 },
 {
  "id": 7201060012,
  "districtId": 7201060,
  "districtName": "BULAGI",
  "name": "PELING SEASA",
  "postalCode": "94882"
 },
 {
  "id": 7201060013,
  "districtId": 7201060,
  "districtName": "BULAGI",
  "name": "KOMBA-KOMBA",
  "postalCode": "94882"
 },
 {
  "id": 7201060014,
  "districtId": 7201060,
  "districtName": "BULAGI",
  "name": "KAMBAL",
  "postalCode": "94882"
 },
 {
  "id": 7201060015,
  "districtId": 7201060,
  "districtName": "BULAGI",
  "name": "TOOLON",
  "postalCode": "94882"
 },
 {
  "id": 7201060016,
  "districtId": 7201060,
  "districtName": "BULAGI",
  "name": "KAYUBET",
  "postalCode": "94882"
 }
]