[
 {
  "id": 7202080012,
  "districtId": 7202080,
  "districtName": "BALANTAK",
  "name": "TALIMA A",
  "postalCode": "94773"
 },
 {
  "id": 7202080013,
  "districtId": 7202080,
  "districtName": "BALANTAK",
  "name": "TALIMA B",
  "postalCode": "94773"
 },
 {
  "id": 7202080014,
  "districtId": 7202080,
  "districtName": "BALANTAK",
  "name": "DOLOM",
  "postalCode": "94773"
 },
 {
  "id": 7202080015,
  "districtId": 7202080,
  "districtName": "BALANTAK",
  "name": "KILOMA",
  "postalCode": "94773"
 },
 {
  "id": 7202080016,
  "districtId": 7202080,
  "districtName": "BALANTAK",
  "name": "RAU",
  "postalCode": "59463"
 },
 {
  "id": 7202080017,
  "districtId": 7202080,
  "districtName": "BALANTAK",
  "name": "TANOTU",
  "postalCode": "94773"
 },
 {
  "id": 7202080018,
  "districtId": 7202080,
  "districtName": "BALANTAK",
  "name": "PADANG",
  "postalCode": "23762"
 },
 {
  "id": 7202080019,
  "districtId": 7202080,
  "districtName": "BALANTAK",
  "name": "MAMPING",
  "postalCode": "94773"
 },
 {
  "id": 7202080020,
  "districtId": 7202080,
  "districtName": "BALANTAK",
  "name": "BALANTAK",
  "postalCode": "94773"
 },
 {
  "id": 7202080021,
  "districtId": 7202080,
  "districtName": "BALANTAK",
  "name": "LUOK",
  "postalCode": "94773"
 },
 {
  "id": 7202080027,
  "districtId": 7202080,
  "districtName": "BALANTAK",
  "name": "BOLOAK",
  "postalCode": "94773"
 },
 {
  "id": 7202080030,
  "districtId": 7202080,
  "districtName": "BALANTAK",
  "name": "DALE- DALE",
  "postalCode": ""
 },
 {
  "id": 7202080031,
  "districtId": 7202080,
  "districtName": "BALANTAK",
  "name": "TALANG BATU",
  "postalCode": "31131"
 }
]