[
 {
  "id": 7202052001,
  "districtId": 7202052,
  "districtName": "LUWUK UTARA",
  "name": "KILONGAN",
  "postalCode": "94711"
 },
 {
  "id": 7202052002,
  "districtId": 7202052,
  "districtName": "LUWUK UTARA",
  "name": "BUMI BERINGIN",
  "postalCode": "95113"
 },
 {
  "id": 7202052003,
  "districtId": 7202052,
  "districtName": "LUWUK UTARA",
  "name": "BOYOU",
  "postalCode": "94711"
 },
 {
  "id": 7202052004,
  "districtId": 7202052,
  "districtName": "LUWUK UTARA",
  "name": "BIAK",
  "postalCode": "94711"
 },
 {
  "id": 7202052005,
  "districtId": 7202052,
  "districtName": "LUWUK UTARA",
  "name": "BUNGA",
  "postalCode": "23893"
 },
 {
  "id": 7202052006,
  "districtId": 7202052,
  "districtName": "LUWUK UTARA",
  "name": "KAMUMU",
  "postalCode": "94711"
 },
 {
  "id": 7202052007,
  "districtId": 7202052,
  "districtName": "LUWUK UTARA",
  "name": "SALODIK",
  "postalCode": "94711"
 },
 {
  "id": 7202052008,
  "districtId": 7202052,
  "districtName": "LUWUK UTARA",
  "name": "AWU",
  "postalCode": "94711"
 },
 {
  "id": 7202052009,
  "districtId": 7202052,
  "districtName": "LUWUK UTARA",
  "name": "KILONGAN PERMAI",
  "postalCode": "94711"
 },
 {
  "id": 7202052011,
  "districtId": 7202052,
  "districtName": "LUWUK UTARA",
  "name": "BUON MANDIRI",
  "postalCode": "94711"
 }
]