[
 {
  "id": 7202072001,
  "districtId": 7202072,
  "districtName": "MANTOH",
  "name": "LONAS",
  "postalCode": "94771"
 },
 {
  "id": 7202072002,
  "districtId": 7202072,
  "districtName": "MANTOH",
  "name": "BORAS",
  "postalCode": "94771"
 },
 {
  "id": 7202072003,
  "districtId": 7202072,
  "districtName": "MANTOH",
  "name": "SULUBOMBONG",
  "postalCode": "94771"
 },
 {
  "id": 7202072004,
  "districtId": 7202072,
  "districtName": "MANTOH",
  "name": "BOLLO",
  "postalCode": ""
 },
 {
  "id": 7202072005,
  "districtId": 7202072,
  "districtName": "MANTOH",
  "name": "BOMBANON",
  "postalCode": "95771"
 },
 {
  "id": 7202072006,
  "districtId": 7202072,
  "districtName": "MANTOH",
  "name": "BINOTIK",
  "postalCode": "94771"
 },
 {
  "id": 7202072007,
  "districtId": 7202072,
  "districtName": "MANTOH",
  "name": "SOBOL",
  "postalCode": "94771"
 },
 {
  "id": 7202072008,
  "districtId": 7202072,
  "districtName": "MANTOH",
  "name": "PONDAN",
  "postalCode": ""
 },
 {
  "id": 7202072009,
  "districtId": 7202072,
  "districtName": "MANTOH",
  "name": "GARUGA",
  "postalCode": "94771"
 },
 {
  "id": 7202072010,
  "districtId": 7202072,
  "districtName": "MANTOH",
  "name": "SOBOL BARU",
  "postalCode": "94771"
 }
]