[
 {
  "id": 7203031001,
  "districtId": 7203031,
  "districtName": "BUNGKU TIMUR",
  "name": "ONEPUTE JAYA",
  "postalCode": ""
 },
 {
  "id": 7203031002,
  "districtId": 7203031,
  "districtName": "BUNGKU TIMUR",
  "name": "BAHOMOTEFE",
  "postalCode": "94973"
 },
 {
  "id": 7203031003,
  "districtId": 7203031,
  "districtName": "BUNGKU TIMUR",
  "name": "BAHOMOAHI",
  "postalCode": "94973"
 },
 {
  "id": 7203031005,
  "districtId": 7203031,
  "districtName": "BUNGKU TIMUR",
  "name": "KOLONO",
  "postalCode": "94973"
 },
 {
  "id": 7203031006,
  "districtId": 7203031,
  "districtName": "BUNGKU TIMUR",
  "name": "GERESA",
  "postalCode": "94973"
 },
 {
  "id": 7203031007,
  "districtId": 7203031,
  "districtName": "BUNGKU TIMUR",
  "name": "LAROUE",
  "postalCode": "94973"
 },
 {
  "id": 7203031008,
  "districtId": 7203031,
  "districtName": "BUNGKU TIMUR",
  "name": "NAMBO",
  "postalCode": "16710"
 },
 {
  "id": 7203031009,
  "districtId": 7203031,
  "districtName": "BUNGKU TIMUR",
  "name": "UNSONGI",
  "postalCode": "94973"
 },
 {
  "id": 7203031010,
  "districtId": 7203031,
  "districtName": "BUNGKU TIMUR",
  "name": "LAHUAFU",
  "postalCode": "94973"
 }
]