[
 {
  "id": 7205051001,
  "districtId": 7205051,
  "districtName": "PINEMBANI",
  "name": "PALINTUMA",
  "postalCode": "94362"
 },
 {
  "id": 7205051002,
  "districtId": 7205051,
  "districtName": "PINEMBANI",
  "name": "GIMPUBIA",
  "postalCode": "94362"
 },
 {
  "id": 7205051003,
  "districtId": 7205051,
  "districtName": "PINEMBANI",
  "name": "BAMBAKANINI",
  "postalCode": "94362"
 },
 {
  "id": 7205051004,
  "districtId": 7205051,
  "districtName": "PINEMBANI",
  "name": "DANGARAA",
  "postalCode": "94362"
 },
 {
  "id": 7205051005,
  "districtId": 7205051,
  "districtName": "PINEMBANI",
  "name": "TAMODO",
  "postalCode": "94362"
 },
 {
  "id": 7205051006,
  "districtId": 7205051,
  "districtName": "PINEMBANI",
  "name": "BAMBAKAENU",
  "postalCode": "94362"
 },
 {
  "id": 7205051007,
  "districtId": 7205051,
  "districtName": "PINEMBANI",
  "name": "KAROVIA",
  "postalCode": ""
 },
 {
  "id": 7205051008,
  "districtId": 7205051,
  "districtName": "PINEMBANI",
  "name": "KANAGALONGGA",
  "postalCode": "94362"
 },
 {
  "id": 7205051009,
  "districtId": 7205051,
  "districtName": "PINEMBANI",
  "name": "TAVANGGELI",
  "postalCode": "94362"
 }
]