[
 {
  "id": 7205140001,
  "districtId": 7205140,
  "districtName": "DAMPELAS",
  "name": "KAMBAYANG",
  "postalCode": ""
 },
 {
  "id": 7205140002,
  "districtId": 7205140,
  "districtName": "DAMPELAS",
  "name": "BUDIMUKTI",
  "postalCode": "94356"
 },
 {
  "id": 7205140003,
  "districtId": 7205140,
  "districtName": "DAMPELAS",
  "name": "TALAGA",
  "postalCode": "43154"
 },
 {
  "id": 7205140004,
  "districtId": 7205140,
  "districtName": "DAMPELAS",
  "name": "SABANG",
  "postalCode": "94882"
 },
 {
  "id": 7205140005,
  "districtId": 7205140,
  "districtName": "DAMPELAS",
  "name": "SIOYONG",
  "postalCode": "94356"
 },
 {
  "id": 7205140006,
  "districtId": 7205140,
  "districtName": "DAMPELAS",
  "name": "KARYAMUKTI",
  "postalCode": "36655"
 },
 {
  "id": 7205140007,
  "districtId": 7205140,
  "districtName": "DAMPELAS",
  "name": "PANII",
  "postalCode": "94356"
 },
 {
  "id": 7205140008,
  "districtId": 7205140,
  "districtName": "DAMPELAS",
  "name": "PONGGERANG",
  "postalCode": "94356"
 },
 {
  "id": 7205140009,
  "districtId": 7205140,
  "districtName": "DAMPELAS",
  "name": "MALONAS",
  "postalCode": "94356"
 },
 {
  "id": 7205140010,
  "districtId": 7205140,
  "districtName": "DAMPELAS",
  "name": "RERANG",
  "postalCode": "94356"
 },
 {
  "id": 7205140011,
  "districtId": 7205140,
  "districtName": "DAMPELAS",
  "name": "LEMBA MUKTI",
  "postalCode": "94356"
 },
 {
  "id": 7205140012,
  "districtId": 7205140,
  "districtName": "DAMPELAS",
  "name": "PARISAN AGUNG",
  "postalCode": "94356"
 },
 {
  "id": 7205140014,
  "districtId": 7205140,
  "districtName": "DAMPELAS",
  "name": "LONG",
  "postalCode": ""
 }
]