[
 {
  "id": 7205100001,
  "districtId": 7205100,
  "districtName": "SINDUE",
  "name": "DALAKA",
  "postalCode": "94353"
 },
 {
  "id": 7205100002,
  "districtId": 7205100,
  "districtName": "SINDUE",
  "name": "LERO",
  "postalCode": "94353"
 },
 {
  "id": 7205100003,
  "districtId": 7205100,
  "districtName": "SINDUE",
  "name": "TOAYA",
  "postalCode": "94353"
 },
 {
  "id": 7205100004,
  "districtId": 7205100,
  "districtName": "SINDUE",
  "name": "SUMARI",
  "postalCode": "61162"
 },
 {
  "id": 7205100005,
  "districtId": 7205100,
  "districtName": "SINDUE",
  "name": "TARIPA",
  "postalCode": "94664"
 },
 {
  "id": 7205100006,
  "districtId": 7205100,
  "districtName": "SINDUE",
  "name": "MASAINGI",
  "postalCode": "94353"
 },
 {
  "id": 7205100007,
  "districtId": 7205100,
  "districtName": "SINDUE",
  "name": "MARANA",
  "postalCode": "94353"
 },
 {
  "id": 7205100016,
  "districtId": 7205100,
  "districtName": "SINDUE",
  "name": "LERO TATARI",
  "postalCode": "94353"
 },
 {
  "id": 7205100017,
  "districtId": 7205100,
  "districtName": "SINDUE",
  "name": "TOAYA VUNTA",
  "postalCode": ""
 },
 {
  "id": 7205100018,
  "districtId": 7205100,
  "districtName": "SINDUE",
  "name": "KUMBASA",
  "postalCode": "94353"
 },
 {
  "id": 7205100020,
  "districtId": 7205100,
  "districtName": "SINDUE",
  "name": "AMAL",
  "postalCode": "94353"
 },
 {
  "id": 7205100021,
  "districtId": 7205100,
  "districtName": "SINDUE",
  "name": "KAVAYA",
  "postalCode": "94353"
 }
]