[
 {
  "id": 7206030001,
  "districtId": 7206030,
  "districtName": "DONDO",
  "name": "LUOK MANIPI",
  "postalCode": "94552"
 },
 {
  "id": 7206030002,
  "districtId": 7206030,
  "districtName": "DONDO",
  "name": "SALUMBIA",
  "postalCode": "94552"
 },
 {
  "id": 7206030003,
  "districtId": 7206030,
  "districtName": "DONDO",
  "name": "BAMBAPUN",
  "postalCode": "94552"
 },
 {
  "id": 7206030004,
  "districtId": 7206030,
  "districtName": "DONDO",
  "name": "OGOWELE",
  "postalCode": "94552"
 },
 {
  "id": 7206030005,
  "districtId": 7206030,
  "districtName": "DONDO",
  "name": "LAIS",
  "postalCode": "30757"
 },
 {
  "id": 7206030006,
  "districtId": 7206030,
  "districtName": "DONDO",
  "name": "OGOGASANG",
  "postalCode": "94552"
 },
 {
  "id": 7206030007,
  "districtId": 7206030,
  "districtName": "DONDO",
  "name": "MALOMBA",
  "postalCode": "94552"
 },
 {
  "id": 7206030009,
  "districtId": 7206030,
  "districtName": "DONDO",
  "name": "OGOGILI",
  "postalCode": "94552"
 },
 {
  "id": 7206030010,
  "districtId": 7206030,
  "districtName": "DONDO",
  "name": "TINABOGAN",
  "postalCode": "94552"
 },
 {
  "id": 7206030011,
  "districtId": 7206030,
  "districtName": "DONDO",
  "name": "MALULU",
  "postalCode": "94552"
 },
 {
  "id": 7206030012,
  "districtId": 7206030,
  "districtName": "DONDO",
  "name": "MALALA",
  "postalCode": "94552"
 },
 {
  "id": 7206030013,
  "districtId": 7206030,
  "districtName": "DONDO",
  "name": "ANGGASAN",
  "postalCode": "94552"
 },
 {
  "id": 7206030014,
  "districtId": 7206030,
  "districtName": "DONDO",
  "name": "BETENGON",
  "postalCode": ""
 },
 {
  "id": 7206030015,
  "districtId": 7206030,
  "districtName": "DONDO",
  "name": "PANGKUNG",
  "postalCode": ""
 },
 {
  "id": 7206030016,
  "districtId": 7206030,
  "districtName": "DONDO",
  "name": "LABUO",
  "postalCode": ""
 },
 {
  "id": 7206030017,
  "districtId": 7206030,
  "districtName": "DONDO",
  "name": "OGOWELE BUGA",
  "postalCode": ""
 }
]