[
 {
  "id": 7206041001,
  "districtId": 7206041,
  "districtName": "LAMPASIO",
  "name": "JANJA",
  "postalCode": "94518"
 },
 {
  "id": 7206041002,
  "districtId": 7206041,
  "districtName": "LAMPASIO",
  "name": "MAIBUA",
  "postalCode": "94518"
 },
 {
  "id": 7206041003,
  "districtId": 7206041,
  "districtName": "LAMPASIO",
  "name": "SIBEA",
  "postalCode": "94518"
 },
 {
  "id": 7206041004,
  "districtId": 7206041,
  "districtName": "LAMPASIO",
  "name": "MULIASARI",
  "postalCode": ""
 },
 {
  "id": 7206041005,
  "districtId": 7206041,
  "districtName": "LAMPASIO",
  "name": "OYOM",
  "postalCode": "94518"
 },
 {
  "id": 7206041006,
  "districtId": 7206041,
  "districtName": "LAMPASIO",
  "name": "SALUGAN",
  "postalCode": "94518"
 },
 {
  "id": 7206041007,
  "districtId": 7206041,
  "districtName": "LAMPASIO",
  "name": "LAMPASIO",
  "postalCode": "94517"
 },
 {
  "id": 7206041008,
  "districtId": 7206041,
  "districtName": "LAMPASIO",
  "name": "TINADING",
  "postalCode": "94517"
 },
 {
  "id": 7206041009,
  "districtId": 7206041,
  "districtName": "LAMPASIO",
  "name": "OGOMATANANG",
  "postalCode": "94517"
 }
]