[
 {
  "id": 7206020001,
  "districtId": 7206020,
  "districtName": "DAMPAL UTARA",
  "name": "KABINUANG",
  "postalCode": "94553"
 },
 {
  "id": 7206020002,
  "districtId": 7206020,
  "districtName": "DAMPAL UTARA",
  "name": "OGOTUA",
  "postalCode": "94553"
 },
 {
  "id": 7206020003,
  "districtId": 7206020,
  "districtName": "DAMPAL UTARA",
  "name": "BAMBAPULA",
  "postalCode": "94553"
 },
 {
  "id": 7206020004,
  "districtId": 7206020,
  "districtName": "DAMPAL UTARA",
  "name": "MALAMBIGU",
  "postalCode": "94553"
 },
 {
  "id": 7206020005,
  "districtId": 7206020,
  "districtName": "DAMPAL UTARA",
  "name": "TOMPOH",
  "postalCode": "94553"
 },
 {
  "id": 7206020006,
  "districtId": 7206020,
  "districtName": "DAMPAL UTARA",
  "name": "BANAGAN",
  "postalCode": "94553"
 },
 {
  "id": 7206020007,
  "districtId": 7206020,
  "districtName": "DAMPAL UTARA",
  "name": "SIMATANG TANJUNG",
  "postalCode": "94553"
 },
 {
  "id": 7206020008,
  "districtId": 7206020,
  "districtName": "DAMPAL UTARA",
  "name": "SIMATANG UTARA",
  "postalCode": "94553"
 },
 {
  "id": 7206020010,
  "districtId": 7206020,
  "districtName": "DAMPAL UTARA",
  "name": "OGOLALI",
  "postalCode": ""
 },
 {
  "id": 7206020011,
  "districtId": 7206020,
  "districtName": "DAMPAL UTARA",
  "name": "BALAROA",
  "postalCode": "94226"
 },
 {
  "id": 7206020012,
  "districtId": 7206020,
  "districtName": "DAMPAL UTARA",
  "name": "STADONG",
  "postalCode": ""
 }
]