[
 {
  "id": 7206060005,
  "districtId": 7206060,
  "districtName": "TOLITOLI UTARA",
  "name": "SANTIGI",
  "postalCode": "94479"
 },
 {
  "id": 7206060006,
  "districtId": 7206060,
  "districtName": "TOLITOLI UTARA",
  "name": "LAULALANG",
  "postalCode": "94562"
 },
 {
  "id": 7206060007,
  "districtId": 7206060,
  "districtName": "TOLITOLI UTARA",
  "name": "SALUMPAGA",
  "postalCode": "94562"
 },
 {
  "id": 7206060008,
  "districtId": 7206060,
  "districtName": "TOLITOLI UTARA",
  "name": "DIULE",
  "postalCode": "94562"
 },
 {
  "id": 7206060009,
  "districtId": 7206060,
  "districtName": "TOLITOLI UTARA",
  "name": "PINJAN",
  "postalCode": "94562"
 },
 {
  "id": 7206060010,
  "districtId": 7206060,
  "districtName": "TOLITOLI UTARA",
  "name": "BINONTOAN",
  "postalCode": "94562"
 },
 {
  "id": 7206060011,
  "districtId": 7206060,
  "districtName": "TOLITOLI UTARA",
  "name": "LAKUAN TOLITOLI",
  "postalCode": ""
 },
 {
  "id": 7206060012,
  "districtId": 7206060,
  "districtName": "TOLITOLI UTARA",
  "name": "TELUK JAYA",
  "postalCode": "31171"
 },
 {
  "id": 7206060013,
  "districtId": 7206060,
  "districtName": "TOLITOLI UTARA",
  "name": "TIMBOLO",
  "postalCode": "94562"
 },
 {
  "id": 7206060014,
  "districtId": 7206060,
  "districtName": "TOLITOLI UTARA",
  "name": "GIO",
  "postalCode": "94479"
 }
]