[
 {
  "id": 7207021001,
  "districtId": 7207021,
  "districtName": "TILOAN",
  "name": "JATIMULYO",
  "postalCode": "35365"
 },
 {
  "id": 7207021002,
  "districtId": 7207021,
  "districtName": "TILOAN",
  "name": "PANILAN JAYA",
  "postalCode": "94565"
 },
 {
  "id": 7207021003,
  "districtId": 7207021,
  "districtName": "TILOAN",
  "name": "KOKOBUKA",
  "postalCode": "94565"
 },
 {
  "id": 7207021004,
  "districtId": 7207021,
  "districtName": "TILOAN",
  "name": "AIRTERANG",
  "postalCode": "94565"
 },
 {
  "id": 7207021005,
  "districtId": 7207021,
  "districtName": "TILOAN",
  "name": "BOILAN",
  "postalCode": "94565"
 },
 {
  "id": 7207021006,
  "districtId": 7207021,
  "districtName": "TILOAN",
  "name": "LOMULI",
  "postalCode": "94565"
 },
 {
  "id": 7207021007,
  "districtId": 7207021,
  "districtName": "TILOAN",
  "name": "BALAU",
  "postalCode": "70661"
 },
 {
  "id": 7207021008,
  "districtId": 7207021,
  "districtName": "TILOAN",
  "name": "MANIALA",
  "postalCode": "94565"
 },
 {
  "id": 7207021009,
  "districtId": 7207021,
  "districtName": "TILOAN",
  "name": "MONGGONIT",
  "postalCode": "94565"
 }
]