[
 {
  "id": 7207030006,
  "districtId": 7207030,
  "districtName": "BOKAT",
  "name": "POONGAN",
  "postalCode": "94566"
 },
 {
  "id": 7207030007,
  "districtId": 7207030,
  "districtName": "BOKAT",
  "name": "TAYADUN",
  "postalCode": "94566"
 },
 {
  "id": 7207030008,
  "districtId": 7207030,
  "districtName": "BOKAT",
  "name": "BONGO",
  "postalCode": "94566"
 },
 {
  "id": 7207030009,
  "districtId": 7207030,
  "districtName": "BOKAT",
  "name": "BOKAT IV",
  "postalCode": "94566"
 },
 {
  "id": 7207030010,
  "districtId": 7207030,
  "districtName": "BOKAT",
  "name": "DOULAN",
  "postalCode": "94566"
 },
 {
  "id": 7207030015,
  "districtId": 7207030,
  "districtName": "BOKAT",
  "name": "KODOLAGON",
  "postalCode": "94566"
 },
 {
  "id": 7207030016,
  "districtId": 7207030,
  "districtName": "BOKAT",
  "name": "BOKAT",
  "postalCode": "94566"
 },
 {
  "id": 7207030017,
  "districtId": 7207030,
  "districtName": "BOKAT",
  "name": "KANTANAN",
  "postalCode": "94564"
 },
 {
  "id": 7207030018,
  "districtId": 7207030,
  "districtName": "BOKAT",
  "name": "NEGERI LAMA",
  "postalCode": "21471"
 },
 {
  "id": 7207030019,
  "districtId": 7207030,
  "districtName": "BOKAT",
  "name": "TIKOPO",
  "postalCode": "94564"
 },
 {
  "id": 7207030020,
  "districtId": 7207030,
  "districtName": "BOKAT",
  "name": "DUWAMAYO",
  "postalCode": ""
 },
 {
  "id": 7207030021,
  "districtId": 7207030,
  "districtName": "BOKAT",
  "name": "BUTUKAN",
  "postalCode": "94564"
 },
 {
  "id": 7207030022,
  "districtId": 7207030,
  "districtName": "BOKAT",
  "name": "TANG",
  "postalCode": "94564"
 },
 {
  "id": 7207030023,
  "districtId": 7207030,
  "districtName": "BOKAT",
  "name": "BUKAMOG",
  "postalCode": "94564"
 },
 {
  "id": 7207030024,
  "districtId": 7207030,
  "districtName": "BOKAT",
  "name": "LANGUDON",
  "postalCode": "94564"
 }
]