[
 {
  "id": 7208012001,
  "districtId": 7208012,
  "districtName": "BALINGGI",
  "name": "SULI",
  "postalCode": "94473"
 },
 {
  "id": 7208012002,
  "districtId": 7208012,
  "districtName": "BALINGGI",
  "name": "MALAKOSA",
  "postalCode": "94473"
 },
 {
  "id": 7208012003,
  "districtId": 7208012,
  "districtName": "BALINGGI",
  "name": "BALINGGI",
  "postalCode": "94473"
 },
 {
  "id": 7208012004,
  "districtId": 7208012,
  "districtName": "BALINGGI",
  "name": "BALINGGI JATI",
  "postalCode": "94473"
 },
 {
  "id": 7208012005,
  "districtId": 7208012,
  "districtName": "BALINGGI",
  "name": "SULI INDAH",
  "postalCode": "94473"
 },
 {
  "id": 7208012006,
  "districtId": 7208012,
  "districtName": "BALINGGI",
  "name": "BERABAN",
  "postalCode": "82121"
 },
 {
  "id": 7208012007,
  "districtId": 7208012,
  "districtName": "BALINGGI",
  "name": "LEBAGU",
  "postalCode": "94473"
 },
 {
  "id": 7208012008,
  "districtId": 7208012,
  "districtName": "BALINGGI",
  "name": "TUMPAPA INDAH",
  "postalCode": "94473"
 },
 {
  "id": 7208012009,
  "districtId": 7208012,
  "districtName": "BALINGGI",
  "name": "CATUR KARYA",
  "postalCode": "29255"
 }
]