[
 {
  "id": 7208031001,
  "districtId": 7208031,
  "districtName": "KASIMBAR",
  "name": "DONGGULU",
  "postalCode": "94474"
 },
 {
  "id": 7208031002,
  "districtId": 7208031,
  "districtName": "KASIMBAR",
  "name": "LAEMANTA",
  "postalCode": "94474"
 },
 {
  "id": 7208031003,
  "districtId": 7208031,
  "districtName": "KASIMBAR",
  "name": "KASIMBAR",
  "postalCode": "94474"
 },
 {
  "id": 7208031004,
  "districtId": 7208031,
  "districtName": "KASIMBAR",
  "name": "POSONA",
  "postalCode": "94474"
 },
 {
  "id": 7208031005,
  "districtId": 7208031,
  "districtName": "KASIMBAR",
  "name": "KASIMBAR SELATAN",
  "postalCode": "94474"
 },
 {
  "id": 7208031006,
  "districtId": 7208031,
  "districtName": "KASIMBAR",
  "name": "KASIMBAR BARAT",
  "postalCode": "94474"
 },
 {
  "id": 7208031007,
  "districtId": 7208031,
  "districtName": "KASIMBAR",
  "name": "SILAMPAYANG",
  "postalCode": "94474"
 },
 {
  "id": 7208031008,
  "districtId": 7208031,
  "districtName": "KASIMBAR",
  "name": "TOVALO",
  "postalCode": ""
 },
 {
  "id": 7208031009,
  "districtId": 7208031,
  "districtName": "KASIMBAR",
  "name": "DONGGULU SELATAN",
  "postalCode": "94474"
 },
 {
  "id": 7208031010,
  "districtId": 7208031,
  "districtName": "KASIMBAR",
  "name": "LABUHAN DONGGULU",
  "postalCode": ""
 },
 {
  "id": 7208031011,
  "districtId": 7208031,
  "districtName": "KASIMBAR",
  "name": "KASIMBAR PALAPI",
  "postalCode": "94474"
 },
 {
  "id": 7208031012,
  "districtId": 7208031,
  "districtName": "KASIMBAR",
  "name": "PENINGKA",
  "postalCode": ""
 },
 {
  "id": 7208031013,
  "districtId": 7208031,
  "districtName": "KASIMBAR",
  "name": "LAEMANTA UTARA",
  "postalCode": ""
 },
 {
  "id": 7208031014,
  "districtId": 7208031,
  "districtName": "KASIMBAR",
  "name": "KASIMBAR UTARA",
  "postalCode": ""
 },
 {
  "id": 7208031015,
  "districtId": 7208031,
  "districtName": "KASIMBAR",
  "name": "POSONA ATAS",
  "postalCode": ""
 },
 {
  "id": 7208031016,
  "districtId": 7208031,
  "districtName": "KASIMBAR",
  "name": "OGODOPI KASIMBAR",
  "postalCode": ""
 },
 {
  "id": 7208031017,
  "districtId": 7208031,
  "districtName": "KASIMBAR",
  "name": "SENDANA",
  "postalCode": "91959"
 },
 {
  "id": 7208031018,
  "districtId": 7208031,
  "districtName": "KASIMBAR",
  "name": "SUMBER TANI",
  "postalCode": "21254"
 }
]