[
 {
  "id": 7208063001,
  "districtId": 7208063,
  "districtName": "BOLANO",
  "name": "WANAMUKTI",
  "postalCode": "94479"
 },
 {
  "id": 7208063002,
  "districtId": 7208063,
  "districtName": "BOLANO",
  "name": "SRITABAANG",
  "postalCode": "94479"
 },
 {
  "id": 7208063003,
  "districtId": 7208063,
  "districtName": "BOLANO",
  "name": "BERINGIN JAYA",
  "postalCode": "21464"
 },
 {
  "id": 7208063004,
  "districtId": 7208063,
  "districtName": "BOLANO",
  "name": "BAJO",
  "postalCode": "58381"
 },
 {
  "id": 7208063005,
  "districtId": 7208063,
  "districtName": "BOLANO",
  "name": "BOLANO",
  "postalCode": "94479"
 },
 {
  "id": 7208063006,
  "districtId": 7208063,
  "districtName": "BOLANO",
  "name": "LEMBAH BOMBAN",
  "postalCode": "94479"
 },
 {
  "id": 7208063007,
  "districtId": 7208063,
  "districtName": "BOLANO",
  "name": "BOLANO BARAT",
  "postalCode": "94479"
 },
 {
  "id": 7208063008,
  "districtId": 7208063,
  "districtName": "BOLANO",
  "name": "WANAMUKTI UTARA",
  "postalCode": "94479"
 },
 {
  "id": 7208063009,
  "districtId": 7208063,
  "districtName": "BOLANO",
  "name": "BOLANO TENGAH",
  "postalCode": "94479"
 },
 {
  "id": 7208063010,
  "districtId": 7208063,
  "districtName": "BOLANO",
  "name": "BOLANO UTARA",
  "postalCode": "94479"
 },
 {
  "id": 7208063011,
  "districtId": 7208063,
  "districtName": "BOLANO",
  "name": "SIDOMUKTI",
  "postalCode": "21217"
 },
 {
  "id": 7208063012,
  "districtId": 7208063,
  "districtName": "BOLANO",
  "name": "WANAMUKTI BARAT",
  "postalCode": "94479"
 },
 {
  "id": 7208063013,
  "districtId": 7208063,
  "districtName": "BOLANO",
  "name": "SAMA BAHARI",
  "postalCode": ""
 }
]