[
 {
  "id": 7208033001,
  "districtId": 7208033,
  "districtName": "SINIU",
  "name": "MARANTALE",
  "postalCode": "94474"
 },
 {
  "id": 7208033002,
  "districtId": 7208033,
  "districtName": "SINIU",
  "name": "TANDAIGI",
  "postalCode": "94474"
 },
 {
  "id": 7208033003,
  "districtId": 7208033,
  "districtName": "SINIU",
  "name": "SILANGA",
  "postalCode": "94474"
 },
 {
  "id": 7208033004,
  "districtId": 7208033,
  "districtName": "SINIU",
  "name": "SINIU",
  "postalCode": "94474"
 },
 {
  "id": 7208033005,
  "districtId": 7208033,
  "districtName": "SINIU",
  "name": "TOWERA",
  "postalCode": "94474"
 },
 {
  "id": 7208033006,
  "districtId": 7208033,
  "districtName": "SINIU",
  "name": "TORARANGA",
  "postalCode": "94474"
 },
 {
  "id": 7208033007,
  "districtId": 7208033,
  "districtName": "SINIU",
  "name": "UEVOLO",
  "postalCode": "94474"
 },
 {
  "id": 7208033008,
  "districtId": 7208033,
  "districtName": "SINIU",
  "name": "SINIU SAYOGINDANO",
  "postalCode": "94474"
 },
 {
  "id": 7208033009,
  "districtId": 7208033,
  "districtName": "SINIU",
  "name": "SILANGA BARAT",
  "postalCode": ""
 }
]