[
 {
  "id": 7208061001,
  "districtId": 7208061,
  "districtName": "BOLANO LAMBUNU",
  "name": "WANAGADING",
  "postalCode": "94479"
 },
 {
  "id": 7208061002,
  "districtId": 7208061,
  "districtName": "BOLANO LAMBUNU",
  "name": "LAMBUNU",
  "postalCode": "94479"
 },
 {
  "id": 7208061003,
  "districtId": 7208061,
  "districtName": "BOLANO LAMBUNU",
  "name": "KOTANAGAYA",
  "postalCode": "94479"
 },
 {
  "id": 7208061004,
  "districtId": 7208061,
  "districtName": "BOLANO LAMBUNU",
  "name": "MARGAPURA",
  "postalCode": "94479"
 },
 {
  "id": 7208061005,
  "districtId": 7208061,
  "districtName": "BOLANO LAMBUNU",
  "name": "PETUNA SUGI",
  "postalCode": ""
 },
 {
  "id": 7208061016,
  "districtId": 7208061,
  "districtName": "BOLANO LAMBUNU",
  "name": "GUNUNGSARI",
  "postalCode": "35368"
 },
 {
  "id": 7208061017,
  "districtId": 7208061,
  "districtName": "BOLANO LAMBUNU",
  "name": "SIENDENG",
  "postalCode": "94479"
 },
 {
  "id": 7208061018,
  "districtId": 7208061,
  "districtName": "BOLANO LAMBUNU",
  "name": "LAMBUNU UTARA",
  "postalCode": "94479"
 },
 {
  "id": 7208061031,
  "districtId": 7208061,
  "districtName": "BOLANO LAMBUNU",
  "name": "TIRTANAGAYA",
  "postalCode": "94479"
 },
 {
  "id": 7208061033,
  "districtId": 7208061,
  "districtName": "BOLANO LAMBUNU",
  "name": "ANUTAPURA",
  "postalCode": "94479"
 },
 {
  "id": 7208061035,
  "districtId": 7208061,
  "districtName": "BOLANO LAMBUNU",
  "name": "LAMBUNU TIMUR",
  "postalCode": "94479"
 },
 {
  "id": 7208061036,
  "districtId": 7208061,
  "districtName": "BOLANO LAMBUNU",
  "name": "BUKIT MAKMUR",
  "postalCode": "24457"
 },
 {
  "id": 7208061037,
  "districtId": 7208061,
  "districtName": "BOLANO LAMBUNU",
  "name": "GANONGOL SARI",
  "postalCode": "94479"
 },
 {
  "id": 7208061038,
  "districtId": 7208061,
  "districtName": "BOLANO LAMBUNU",
  "name": "OGORANDU",
  "postalCode": "94479"
 }
]