[
 {
  "id": 7208050007,
  "districtId": 7208050,
  "districtName": "TOMINI",
  "name": "TINGKULANG",
  "postalCode": "94476"
 },
 {
  "id": 7208050008,
  "districtId": 7208050,
  "districtName": "TOMINI",
  "name": "TOMINI",
  "postalCode": "94476"
 },
 {
  "id": 7208050009,
  "districtId": 7208050,
  "districtName": "TOMINI",
  "name": "OGOTUMUBU",
  "postalCode": ""
 },
 {
  "id": 7208050010,
  "districtId": 7208050,
  "districtName": "TOMINI",
  "name": "AMBESIA",
  "postalCode": "94476"
 },
 {
  "id": 7208050011,
  "districtId": 7208050,
  "districtName": "TOMINI",
  "name": "TILUNG",
  "postalCode": "94476"
 },
 {
  "id": 7208050013,
  "districtId": 7208050,
  "districtName": "TOMINI",
  "name": "BIGA",
  "postalCode": "95713"
 },
 {
  "id": 7208050014,
  "districtId": 7208050,
  "districtName": "TOMINI",
  "name": "TOMINI UTARA",
  "postalCode": "94476"
 },
 {
  "id": 7208050015,
  "districtId": 7208050,
  "districtName": "TOMINI",
  "name": "TOMINI BARAT",
  "postalCode": "94476"
 },
 {
  "id": 7208050016,
  "districtId": 7208050,
  "districtName": "TOMINI",
  "name": "AMBESIA SELATAN",
  "postalCode": "94476"
 },
 {
  "id": 7208050017,
  "districtId": 7208050,
  "districtName": "TOMINI",
  "name": "SUPILOPONG",
  "postalCode": "94476"
 },
 {
  "id": 7208050018,
  "districtId": 7208050,
  "districtName": "TOMINI",
  "name": "AMBESIA BARAT",
  "postalCode": "94476"
 },
 {
  "id": 7208050019,
  "districtId": 7208050,
  "districtName": "TOMINI",
  "name": "OGOTUMUBU BARAT",
  "postalCode": ""
 },
 {
  "id": 7208050020,
  "districtId": 7208050,
  "districtName": "TOMINI",
  "name": "SIPONTAN",
  "postalCode": ""
 },
 {
  "id": 7208050021,
  "districtId": 7208050,
  "districtName": "TOMINI",
  "name": "TAANIUGE",
  "postalCode": ""
 }
]