[
 {
  "id": 7208052001,
  "districtId": 7208052,
  "districtName": "PALASA",
  "name": "BOBALO",
  "postalCode": "94476"
 },
 {
  "id": 7208052002,
  "districtId": 7208052,
  "districtName": "PALASA",
  "name": "EEYA",
  "postalCode": "94476"
 },
 {
  "id": 7208052003,
  "districtId": 7208052,
  "districtName": "PALASA",
  "name": "ULATAN",
  "postalCode": "94476"
 },
 {
  "id": 7208052004,
  "districtId": 7208052,
  "districtName": "PALASA",
  "name": "PALASA TANGKI",
  "postalCode": "94476"
 },
 {
  "id": 7208052005,
  "districtId": 7208052,
  "districtName": "PALASA",
  "name": "PALASA",
  "postalCode": "69481"
 },
 {
  "id": 7208052006,
  "districtId": 7208052,
  "districtName": "PALASA",
  "name": "PALASA LAMBORI",
  "postalCode": "94476"
 },
 {
  "id": 7208052007,
  "districtId": 7208052,
  "districtName": "PALASA",
  "name": "DONGKALAN",
  "postalCode": "94975"
 },
 {
  "id": 7208052008,
  "districtId": 7208052,
  "districtName": "PALASA",
  "name": "PEBO UNANG",
  "postalCode": ""
 },
 {
  "id": 7208052009,
  "districtId": 7208052,
  "districtName": "PALASA",
  "name": "BAMBASIANG",
  "postalCode": "94476"
 },
 {
  "id": 7208052010,
  "districtId": 7208052,
  "districtName": "PALASA",
  "name": "BEAU",
  "postalCode": ""
 },
 {
  "id": 7208052011,
  "districtId": 7208052,
  "districtName": "PALASA",
  "name": "OGOANSAM",
  "postalCode": ""
 }
]