[
 {
  "id": 7209070001,
  "districtId": 7209070,
  "districtName": "TOGEAN",
  "name": "KOLOLIO",
  "postalCode": "94683"
 },
 {
  "id": 7209070002,
  "districtId": 7209070,
  "districtName": "TOGEAN",
  "name": "AWO",
  "postalCode": "94683"
 },
 {
  "id": 7209070004,
  "districtId": 7209070,
  "districtName": "TOGEAN",
  "name": "LEBITI",
  "postalCode": "94683"
 },
 {
  "id": 7209070005,
  "districtId": 7209070,
  "districtName": "TOGEAN",
  "name": "PULAU ENAM",
  "postalCode": "94683"
 },
 {
  "id": 7209070006,
  "districtId": 7209070,
  "districtName": "TOGEAN",
  "name": "BUNGAYO",
  "postalCode": "94683"
 },
 {
  "id": 7209070008,
  "districtId": 7209070,
  "districtName": "TOGEAN",
  "name": "BANGKAGI",
  "postalCode": "94683"
 },
 {
  "id": 7209070009,
  "districtId": 7209070,
  "districtName": "TOGEAN",
  "name": "TONGKABO",
  "postalCode": "94683"
 },
 {
  "id": 7209070010,
  "districtId": 7209070,
  "districtName": "TOGEAN",
  "name": "KATUPAT",
  "postalCode": "94683"
 },
 {
  "id": 7209070011,
  "districtId": 7209070,
  "districtName": "TOGEAN",
  "name": "LEMBANATO",
  "postalCode": "94683"
 },
 {
  "id": 7209070012,
  "districtId": 7209070,
  "districtName": "TOGEAN",
  "name": "TOBIL",
  "postalCode": "94683"
 },
 {
  "id": 7209070013,
  "districtId": 7209070,
  "districtName": "TOGEAN",
  "name": "BAULU",
  "postalCode": "94683"
 },
 {
  "id": 7209070014,
  "districtId": 7209070,
  "districtName": "TOGEAN",
  "name": "MATOBIYAI",
  "postalCode": ""
 },
 {
  "id": 7209070015,
  "districtId": 7209070,
  "districtName": "TOGEAN",
  "name": "SAMPOBAE",
  "postalCode": "94683"
 },
 {
  "id": 7209070016,
  "districtId": 7209070,
  "districtName": "TOGEAN",
  "name": "TITIRIÃ­ POPOLION",
  "postalCode": ""
 }
]