[
 {
  "id": 7209030001,
  "districtId": 7209030,
  "districtName": "ULUBONGKA",
  "name": "MIRE",
  "postalCode": "94682"
 },
 {
  "id": 7209030002,
  "districtId": 7209030,
  "districtName": "ULUBONGKA",
  "name": "UEMATOPA",
  "postalCode": "94682"
 },
 {
  "id": 7209030003,
  "districtId": 7209030,
  "districtName": "ULUBONGKA",
  "name": "PARANONGE",
  "postalCode": "94682"
 },
 {
  "id": 7209030004,
  "districtId": 7209030,
  "districtName": "ULUBONGKA",
  "name": "TAKIBANGKE",
  "postalCode": "94682"
 },
 {
  "id": 7209030005,
  "districtId": 7209030,
  "districtName": "ULUBONGKA",
  "name": "BONEBAE I",
  "postalCode": "94682"
 },
 {
  "id": 7209030006,
  "districtId": 7209030,
  "districtName": "ULUBONGKA",
  "name": "WATUSONGU",
  "postalCode": "94682"
 },
 {
  "id": 7209030007,
  "districtId": 7209030,
  "districtName": "ULUBONGKA",
  "name": "UEKAMBUNO",
  "postalCode": "94682"
 },
 {
  "id": 7209030008,
  "districtId": 7209030,
  "districtName": "ULUBONGKA",
  "name": "BORNEANG",
  "postalCode": "94682"
 },
 {
  "id": 7209030009,
  "districtId": 7209030,
  "districtName": "ULUBONGKA",
  "name": "BONGKA MAKMUR",
  "postalCode": "94682"
 },
 {
  "id": 7209030010,
  "districtId": 7209030,
  "districtName": "ULUBONGKA",
  "name": "ROMPI",
  "postalCode": "94682"
 },
 {
  "id": 7209030011,
  "districtId": 7209030,
  "districtName": "ULUBONGKA",
  "name": "TOBAMAWU",
  "postalCode": "94682"
 },
 {
  "id": 7209030012,
  "districtId": 7209030,
  "districtName": "ULUBONGKA",
  "name": "BONEBAE II",
  "postalCode": "94682"
 },
 {
  "id": 7209030013,
  "districtId": 7209030,
  "districtName": "ULUBONGKA",
  "name": "TAMPANOMBO",
  "postalCode": "94682"
 },
 {
  "id": 7209030014,
  "districtId": 7209030,
  "districtName": "ULUBONGKA",
  "name": "MAROWO",
  "postalCode": "94682"
 },
 {
  "id": 7209030015,
  "districtId": 7209030,
  "districtName": "ULUBONGKA",
  "name": "BONGKAKOI",
  "postalCode": ""
 },
 {
  "id": 7209030016,
  "districtId": 7209030,
  "districtName": "ULUBONGKA",
  "name": "CEMPA",
  "postalCode": "24655"
 },
 {
  "id": 7209030017,
  "districtId": 7209030,
  "districtName": "ULUBONGKA",
  "name": "BONEVOTO",
  "postalCode": ""
 },
 {
  "id": 7209030018,
  "districtId": 7209030,
  "districtName": "ULUBONGKA",
  "name": "KASIALA",
  "postalCode": "94682"
 }
]