[
 {
  "id": 7209050001,
  "districtId": 7209050,
  "districtName": "AMPANA KOTA",
  "name": "SANSARINO",
  "postalCode": "94683"
 },
 {
  "id": 7209050002,
  "districtId": 7209050,
  "districtName": "AMPANA KOTA",
  "name": "MALOTONG",
  "postalCode": "94683"
 },
 {
  "id": 7209050003,
  "districtId": 7209050,
  "districtName": "AMPANA KOTA",
  "name": "BAILO",
  "postalCode": "94683"
 },
 {
  "id": 7209050004,
  "districtId": 7209050,
  "districtName": "AMPANA KOTA",
  "name": "AMPANA",
  "postalCode": "94683"
 },
 {
  "id": 7209050010,
  "districtId": 7209050,
  "districtName": "AMPANA KOTA",
  "name": "PADANG TUMBUO",
  "postalCode": "94683"
 },
 {
  "id": 7209050012,
  "districtId": 7209050,
  "districtName": "AMPANA KOTA",
  "name": "BUNTONGI",
  "postalCode": "94683"
 },
 {
  "id": 7209050013,
  "districtId": 7209050,
  "districtName": "AMPANA KOTA",
  "name": "BONERATO",
  "postalCode": ""
 },
 {
  "id": 7209050014,
  "districtId": 7209050,
  "districtName": "AMPANA KOTA",
  "name": "BAILO BARU",
  "postalCode": "94683"
 },
 {
  "id": 7209050015,
  "districtId": 7209050,
  "districtName": "AMPANA KOTA",
  "name": "LABIABAE",
  "postalCode": "94683"
 },
 {
  "id": 7209050017,
  "districtId": 7209050,
  "districtName": "AMPANA KOTA",
  "name": "SALUABA",
  "postalCode": "94683"
 }
]