[
 {
  "id": 7209051005,
  "districtId": 7209051,
  "districtName": "RATOLINDO",
  "name": "UENTANAGA ATAS",
  "postalCode": "94683"
 },
 {
  "id": 7209051006,
  "districtId": 7209051,
  "districtName": "RATOLINDO",
  "name": "SUMOLI",
  "postalCode": "94683"
 },
 {
  "id": 7209051007,
  "districtId": 7209051,
  "districtName": "RATOLINDO",
  "name": "UENTANAGA BAWAH",
  "postalCode": "94683"
 },
 {
  "id": 7209051008,
  "districtId": 7209051,
  "districtName": "RATOLINDO",
  "name": "DONDO",
  "postalCode": "94683"
 },
 {
  "id": 7209051009,
  "districtId": 7209051,
  "districtName": "RATOLINDO",
  "name": "LABUAN",
  "postalCode": "34874"
 },
 {
  "id": 7209051011,
  "districtId": 7209051,
  "districtName": "RATOLINDO",
  "name": "SABULIRA TOBA",
  "postalCode": "94683"
 },
 {
  "id": 7209051016,
  "districtId": 7209051,
  "districtName": "RATOLINDO",
  "name": "UEMALINGKU",
  "postalCode": ""
 },
 {
  "id": 7209051018,
  "districtId": 7209051,
  "districtName": "RATOLINDO",
  "name": "PATINGKO",
  "postalCode": "94683"
 },
 {
  "id": 7209051019,
  "districtId": 7209051,
  "districtName": "RATOLINDO",
  "name": "MUARA TOBA",
  "postalCode": "94683"
 },
 {
  "id": 7209051020,
  "districtId": 7209051,
  "districtName": "RATOLINDO",
  "name": "DONDO BARAT",
  "postalCode": "94683"
 }
]