[
 {
  "id": 7210130001,
  "districtId": 7210130,
  "districtName": "MARAWOLA",
  "name": "LEBANU",
  "postalCode": "94362"
 },
 {
  "id": 7210130002,
  "districtId": 7210130,
  "districtName": "MARAWOLA",
  "name": "BOMBA",
  "postalCode": "94654"
 },
 {
  "id": 7210130003,
  "districtId": 7210130,
  "districtName": "MARAWOLA",
  "name": "BEKA",
  "postalCode": "94362"
 },
 {
  "id": 7210130004,
  "districtId": 7210130,
  "districtName": "MARAWOLA",
  "name": "SIBEDI",
  "postalCode": "94362"
 },
 {
  "id": 7210130005,
  "districtId": 7210130,
  "districtName": "MARAWOLA",
  "name": "PADENDE",
  "postalCode": "94362"
 },
 {
  "id": 7210130006,
  "districtId": 7210130,
  "districtName": "MARAWOLA",
  "name": "BINANGGA",
  "postalCode": "94362"
 },
 {
  "id": 7210130008,
  "districtId": 7210130,
  "districtName": "MARAWOLA",
  "name": "TINGGEDE",
  "postalCode": "94362"
 },
 {
  "id": 7210130009,
  "districtId": 7210130,
  "districtName": "MARAWOLA",
  "name": "BALIASE",
  "postalCode": "94362"
 },
 {
  "id": 7210130010,
  "districtId": 7210130,
  "districtName": "MARAWOLA",
  "name": "BOYABALIASE",
  "postalCode": "94362"
 },
 {
  "id": 7210130011,
  "districtId": 7210130,
  "districtName": "MARAWOLA",
  "name": "TINGGEDE SELATAN",
  "postalCode": "94362"
 }
]