[
 {
  "id": 7210110001,
  "districtId": 7210110,
  "districtName": "DOLO",
  "name": "WATURALELE",
  "postalCode": "94361"
 },
 {
  "id": 7210110002,
  "districtId": 7210110,
  "districtName": "DOLO",
  "name": "WATUBULA",
  "postalCode": "94361"
 },
 {
  "id": 7210110003,
  "districtId": 7210110,
  "districtName": "DOLO",
  "name": "TULO",
  "postalCode": "94361"
 },
 {
  "id": 7210110004,
  "districtId": 7210110,
  "districtName": "DOLO",
  "name": "SOULOWE",
  "postalCode": "94361"
 },
 {
  "id": 7210110005,
  "districtId": 7210110,
  "districtName": "DOLO",
  "name": "KARAWANA",
  "postalCode": "94361"
 },
 {
  "id": 7210110006,
  "districtId": 7210110,
  "districtName": "DOLO",
  "name": "KOTA PULU",
  "postalCode": "94361"
 },
 {
  "id": 7210110007,
  "districtId": 7210110,
  "districtName": "DOLO",
  "name": "LANGALESO",
  "postalCode": ""
 },
 {
  "id": 7210110008,
  "districtId": 7210110,
  "districtName": "DOLO",
  "name": "KOTARINDAU",
  "postalCode": "94361"
 },
 {
  "id": 7210110009,
  "districtId": 7210110,
  "districtName": "DOLO",
  "name": "MAKU",
  "postalCode": "94361"
 },
 {
  "id": 7210110010,
  "districtId": 7210110,
  "districtName": "DOLO",
  "name": "POTOYA",
  "postalCode": "94361"
 },
 {
  "id": 7210110011,
  "districtId": 7210110,
  "districtName": "DOLO",
  "name": "KABOBONA",
  "postalCode": "94361"
 }
]