[
 {
  "id": 7211040001,
  "districtId": 7211040,
  "districtName": "BANGGAI",
  "name": "TINAKIN LAUT",
  "postalCode": "94891"
 },
 {
  "id": 7211040002,
  "districtId": 7211040,
  "districtName": "BANGGAI",
  "name": "LAMPA",
  "postalCode": "94891"
 },
 {
  "id": 7211040003,
  "districtId": 7211040,
  "districtName": "BANGGAI",
  "name": "LOMPIO",
  "postalCode": "94891"
 },
 {
  "id": 7211040004,
  "districtId": 7211040,
  "districtName": "BANGGAI",
  "name": "TANO BONUNUNGAN",
  "postalCode": "94891"
 },
 {
  "id": 7211040005,
  "districtId": 7211040,
  "districtName": "BANGGAI",
  "name": "DODUNG",
  "postalCode": "94891"
 },
 {
  "id": 7211040006,
  "districtId": 7211040,
  "districtName": "BANGGAI",
  "name": "POTIL POLOLOBA",
  "postalCode": "94891"
 },
 {
  "id": 7211040007,
  "districtId": 7211040,
  "districtName": "BANGGAI",
  "name": "KOKINI",
  "postalCode": "94891"
 },
 {
  "id": 7211040008,
  "districtId": 7211040,
  "districtName": "BANGGAI",
  "name": "DANGKALAN",
  "postalCode": "94891"
 },
 {
  "id": 7211040009,
  "districtId": 7211040,
  "districtName": "BANGGAI",
  "name": "LAMBAKO",
  "postalCode": "94891"
 },
 {
  "id": 7211040010,
  "districtId": 7211040,
  "districtName": "BANGGAI",
  "name": "PASIR PUTIH",
  "postalCode": "24453"
 }
]