[
 {
  "id": 7211070001,
  "districtId": 7211070,
  "districtName": "BOKAN KEPULAUAN",
  "name": "NGGASUANG",
  "postalCode": "94892"
 },
 {
  "id": 7211070002,
  "districtId": 7211070,
  "districtName": "BOKAN KEPULAUAN",
  "name": "TOROPOT",
  "postalCode": "94892"
 },
 {
  "id": 7211070003,
  "districtId": 7211070,
  "districtName": "BOKAN KEPULAUAN",
  "name": "KOKUDANG",
  "postalCode": "94892"
 },
 {
  "id": 7211070004,
  "districtId": 7211070,
  "districtName": "BOKAN KEPULAUAN",
  "name": "MINANGA",
  "postalCode": "95763"
 },
 {
  "id": 7211070005,
  "districtId": 7211070,
  "districtName": "BOKAN KEPULAUAN",
  "name": "PAISUBEBE",
  "postalCode": "94892"
 },
 {
  "id": 7211070006,
  "districtId": 7211070,
  "districtName": "BOKAN KEPULAUAN",
  "name": "KAUKES",
  "postalCode": "94892"
 },
 {
  "id": 7211070007,
  "districtId": 7211070,
  "districtName": "BOKAN KEPULAUAN",
  "name": "KEAK",
  "postalCode": "94892"
 },
 {
  "id": 7211070008,
  "districtId": 7211070,
  "districtName": "BOKAN KEPULAUAN",
  "name": "BUNGIN",
  "postalCode": "39262"
 },
 {
  "id": 7211070009,
  "districtId": 7211070,
  "districtName": "BOKAN KEPULAUAN",
  "name": "NDINDIBUNG",
  "postalCode": "94892"
 },
 {
  "id": 7211070010,
  "districtId": 7211070,
  "districtName": "BOKAN KEPULAUAN",
  "name": "BOLOKUT",
  "postalCode": "94892"
 },
 {
  "id": 7211070011,
  "districtId": 7211070,
  "districtName": "BOKAN KEPULAUAN",
  "name": "MANDEL",
  "postalCode": "94892"
 },
 {
  "id": 7211070012,
  "districtId": 7211070,
  "districtName": "BOKAN KEPULAUAN",
  "name": "PANAPAT",
  "postalCode": "94892"
 },
 {
  "id": 7211070013,
  "districtId": 7211070,
  "districtName": "BOKAN KEPULAUAN",
  "name": "MBUANG-MBUANG",
  "postalCode": ""
 },
 {
  "id": 7211070014,
  "districtId": 7211070,
  "districtName": "BOKAN KEPULAUAN",
  "name": "TIMPAUS",
  "postalCode": "94892"
 },
 {
  "id": 7211070015,
  "districtId": 7211070,
  "districtName": "BOKAN KEPULAUAN",
  "name": "KASUARI",
  "postalCode": "94892"
 },
 {
  "id": 7211070016,
  "districtId": 7211070,
  "districtName": "BOKAN KEPULAUAN",
  "name": "SONIT",
  "postalCode": "94892"
 }
]