[
 {
  "id": 7212100001,
  "districtId": 7212100,
  "districtName": "MAMOSALATO",
  "name": "KOLO ATAS",
  "postalCode": "94972"
 },
 {
  "id": 7212100002,
  "districtId": 7212100,
  "districtName": "MAMOSALATO",
  "name": "KOLO BAWAH",
  "postalCode": "94972"
 },
 {
  "id": 7212100003,
  "districtId": 7212100,
  "districtName": "MAMOSALATO",
  "name": "MOMO",
  "postalCode": "94972"
 },
 {
  "id": 7212100004,
  "districtId": 7212100,
  "districtName": "MAMOSALATO",
  "name": "GIRI MULYA",
  "postalCode": "38655"
 },
 {
  "id": 7212100005,
  "districtId": 7212100,
  "districtName": "MAMOSALATO",
  "name": "TANANAGAYA",
  "postalCode": "94972"
 },
 {
  "id": 7212100006,
  "districtId": 7212100,
  "districtName": "MAMOSALATO",
  "name": "TANA SUMPU",
  "postalCode": "94972"
 },
 {
  "id": 7212100007,
  "districtId": 7212100,
  "districtName": "MAMOSALATO",
  "name": "PANDAUKE",
  "postalCode": "94972"
 },
 {
  "id": 7212100008,
  "districtId": 7212100,
  "districtName": "MAMOSALATO",
  "name": "TAMBALE",
  "postalCode": "94972"
 },
 {
  "id": 7212100009,
  "districtId": 7212100,
  "districtName": "MAMOSALATO",
  "name": "WINANGABINO",
  "postalCode": ""
 },
 {
  "id": 7212100010,
  "districtId": 7212100,
  "districtName": "MAMOSALATO",
  "name": "SEA",
  "postalCode": "95661"
 },
 {
  "id": 7212100011,
  "districtId": 7212100,
  "districtName": "MAMOSALATO",
  "name": "UEPAKATU",
  "postalCode": "94972"
 },
 {
  "id": 7212100012,
  "districtId": 7212100,
  "districtName": "MAMOSALATO",
  "name": "PARANGISI",
  "postalCode": "94972"
 },
 {
  "id": 7212100013,
  "districtId": 7212100,
  "districtName": "MAMOSALATO",
  "name": "LIJO",
  "postalCode": "94972"
 },
 {
  "id": 7212100014,
  "districtId": 7212100,
  "districtName": "MAMOSALATO",
  "name": "MENYO'E",
  "postalCode": ""
 }
]