[
 {
  "id": 7301021001,
  "districtId": 7301021,
  "districtName": "TAKABONERATE",
  "name": "TAMBUNA",
  "postalCode": "92861"
 },
 {
  "id": 7301021002,
  "districtId": 7301021,
  "districtName": "TAKABONERATE",
  "name": "KAYUADI",
  "postalCode": "92861"
 },
 {
  "id": 7301021003,
  "districtId": 7301021,
  "districtName": "TAKABONERATE",
  "name": "BATANG",
  "postalCode": "92572"
 },
 {
  "id": 7301021004,
  "districtId": 7301021,
  "districtName": "TAKABONERATE",
  "name": "NYIUR INDAH",
  "postalCode": "92861"
 },
 {
  "id": 7301021005,
  "districtId": 7301021,
  "districtName": "TAKABONERATE",
  "name": "JINATO",
  "postalCode": "92861"
 },
 {
  "id": 7301021006,
  "districtId": 7301021,
  "districtName": "TAKABONERATE",
  "name": "RAJUNI",
  "postalCode": "92861"
 },
 {
  "id": 7301021007,
  "districtId": 7301021,
  "districtName": "TAKABONERATE",
  "name": "LATONDU",
  "postalCode": "92861"
 },
 {
  "id": 7301021008,
  "districtId": 7301021,
  "districtName": "TAKABONERATE",
  "name": "TARUPA",
  "postalCode": "92861"
 },
 {
  "id": 7301021009,
  "districtId": 7301021,
  "districtName": "TAKABONERATE",
  "name": "KHUSUS PASITALLU",
  "postalCode": "92861"
 }
]