[
 {
  "id": 7301010001,
  "districtId": 7301010,
  "districtName": "PASIMARANNU",
  "name": "KOMBA-KOMBA",
  "postalCode": "94882"
 },
 {
  "id": 7301010002,
  "districtId": 7301010,
  "districtName": "PASIMARANNU",
  "name": "LAMBEGO",
  "postalCode": "92862"
 },
 {
  "id": 7301010003,
  "districtId": 7301010,
  "districtName": "PASIMARANNU",
  "name": "BONERATE",
  "postalCode": "92862"
 },
 {
  "id": 7301010004,
  "districtId": 7301010,
  "districtName": "PASIMARANNU",
  "name": "MAJAPAHIT",
  "postalCode": "31628"
 },
 {
  "id": 7301010005,
  "districtId": 7301010,
  "districtName": "PASIMARANNU",
  "name": "BATU BINGKUNG",
  "postalCode": "92862"
 },
 {
  "id": 7301010006,
  "districtId": 7301010,
  "districtName": "PASIMARANNU",
  "name": "BONEA",
  "postalCode": "92862"
 },
 {
  "id": 7301010007,
  "districtId": 7301010,
  "districtName": "PASIMARANNU",
  "name": "SAMBALI",
  "postalCode": "92862"
 },
 {
  "id": 7301010008,
  "districtId": 7301010,
  "districtName": "PASIMARANNU",
  "name": "LAMANTU",
  "postalCode": "92862"
 }
]