[
 {
  "id": 7302021001,
  "districtId": 7302021,
  "districtName": "UJUNG LOE",
  "name": "SALEMBA",
  "postalCode": "92661"
 },
 {
  "id": 7302021002,
  "districtId": 7302021,
  "districtName": "UJUNG LOE",
  "name": "DANNUANG",
  "postalCode": "92661"
 },
 {
  "id": 7302021003,
  "districtId": 7302021,
  "districtName": "UJUNG LOE",
  "name": "MANJALLING",
  "postalCode": "92152"
 },
 {
  "id": 7302021004,
  "districtId": 7302021,
  "districtName": "UJUNG LOE",
  "name": "PADANG LOANG",
  "postalCode": "92772"
 },
 {
  "id": 7302021005,
  "districtId": 7302021,
  "districtName": "UJUNG LOE",
  "name": "SEPPANG",
  "postalCode": "92661"
 },
 {
  "id": 7302021006,
  "districtId": 7302021,
  "districtName": "UJUNG LOE",
  "name": "BIJAWANG",
  "postalCode": "92661"
 },
 {
  "id": 7302021007,
  "districtId": 7302021,
  "districtName": "UJUNG LOE",
  "name": "LONRONG",
  "postalCode": "92415"
 },
 {
  "id": 7302021008,
  "districtId": 7302021,
  "districtName": "UJUNG LOE",
  "name": "BALONG",
  "postalCode": "45573"
 },
 {
  "id": 7302021009,
  "districtId": 7302021,
  "districtName": "UJUNG LOE",
  "name": "GARANTA",
  "postalCode": "92661"
 },
 {
  "id": 7302021010,
  "districtId": 7302021,
  "districtName": "UJUNG LOE",
  "name": "MANYAMPA",
  "postalCode": "92661"
 },
 {
  "id": 7302021011,
  "districtId": 7302021,
  "districtName": "UJUNG LOE",
  "name": "BALLEANGIN",
  "postalCode": "90661"
 },
 {
  "id": 7302021012,
  "districtId": 7302021,
  "districtName": "UJUNG LOE",
  "name": "TAMATTO",
  "postalCode": "92661"
 },
 {
  "id": 7302021013,
  "districtId": 7302021,
  "districtName": "UJUNG LOE",
  "name": "PACCARAMMENGANG",
  "postalCode": ""
 }
]