[
 {
  "id": 7302090001,
  "districtId": 7302090,
  "districtName": "KINDANG",
  "name": "BALIBO",
  "postalCode": "92517"
 },
 {
  "id": 7302090002,
  "districtId": 7302090,
  "districtName": "KINDANG",
  "name": "MATTIROWALIE",
  "postalCode": "92517"
 },
 {
  "id": 7302090003,
  "districtId": 7302090,
  "districtName": "KINDANG",
  "name": "BENTENG PALIOI",
  "postalCode": "92517"
 },
 {
  "id": 7302090004,
  "districtId": 7302090,
  "districtName": "KINDANG",
  "name": "GARUNTUNGAN",
  "postalCode": "92517"
 },
 {
  "id": 7302090005,
  "districtId": 7302090,
  "districtName": "KINDANG",
  "name": "ANRIHUA",
  "postalCode": "92517"
 },
 {
  "id": 7302090006,
  "districtId": 7302090,
  "districtName": "KINDANG",
  "name": "BORONG RAPPOA",
  "postalCode": "92517"
 },
 {
  "id": 7302090007,
  "districtId": 7302090,
  "districtName": "KINDANG",
  "name": "TAMAONA",
  "postalCode": "92517"
 },
 {
  "id": 7302090008,
  "districtId": 7302090,
  "districtName": "KINDANG",
  "name": "KINDANG",
  "postalCode": "92517"
 },
 {
  "id": 7302090009,
  "districtId": 7302090,
  "districtName": "KINDANG",
  "name": "ORO GADING",
  "postalCode": "92517"
 },
 {
  "id": 7302090010,
  "districtId": 7302090,
  "districtName": "KINDANG",
  "name": "SOPA",
  "postalCode": "92517"
 },
 {
  "id": 7302090011,
  "districtId": 7302090,
  "districtName": "KINDANG",
  "name": "SOMBA PALIOI",
  "postalCode": ""
 },
 {
  "id": 7302090012,
  "districtId": 7302090,
  "districtName": "KINDANG",
  "name": "SIPAENRE",
  "postalCode": "92517"
 },
 {
  "id": 7302090013,
  "districtId": 7302090,
  "districtName": "KINDANG",
  "name": "KAHAYA",
  "postalCode": ""
 }
]