[
 {
  "id": 7303030016,
  "districtId": 7303030,
  "districtName": "TOMPOBULU",
  "name": "LEMBANG GANTARANGKEKE",
  "postalCode": "92461"
 },
 {
  "id": 7303030017,
  "districtId": 7303030,
  "districtName": "TOMPOBULU",
  "name": "PATTALLASSANG",
  "postalCode": "92211"
 },
 {
  "id": 7303030018,
  "districtId": 7303030,
  "districtName": "TOMPOBULU",
  "name": "BONTO-BONTOA",
  "postalCode": "92461"
 },
 {
  "id": 7303030019,
  "districtId": 7303030,
  "districtName": "TOMPOBULU",
  "name": "BANYORANG",
  "postalCode": "92461"
 },
 {
  "id": 7303030020,
  "districtId": 7303030,
  "districtName": "TOMPOBULU",
  "name": "CAMPAGA",
  "postalCode": "45463"
 },
 {
  "id": 7303030021,
  "districtId": 7303030,
  "districtName": "TOMPOBULU",
  "name": "BONTO TAPPALANG",
  "postalCode": "92461"
 },
 {
  "id": 7303030022,
  "districtId": 7303030,
  "districtName": "TOMPOBULU",
  "name": "BALUMBUNG",
  "postalCode": "92461"
 },
 {
  "id": 7303030024,
  "districtId": 7303030,
  "districtName": "TOMPOBULU",
  "name": "LABBO",
  "postalCode": "92461"
 },
 {
  "id": 7303030025,
  "districtId": 7303030,
  "districtName": "TOMPOBULU",
  "name": "PATTANETEANG",
  "postalCode": "92461"
 }
]