[
 {
  "id": 7303031001,
  "districtId": 7303031,
  "districtName": "PA'JUKUKANG",
  "name": "RAPPOA",
  "postalCode": "92461"
 },
 {
  "id": 7303031002,
  "districtId": 7303031,
  "districtName": "PA'JUKUKANG",
  "name": "BIANGLOE",
  "postalCode": "92461"
 },
 {
  "id": 7303031003,
  "districtId": 7303031,
  "districtName": "PA'JUKUKANG",
  "name": "LUMPANGAN",
  "postalCode": "92461"
 },
 {
  "id": 7303031004,
  "districtId": 7303031,
  "districtName": "PA'JUKUKANG",
  "name": "BIANGKEKE",
  "postalCode": "92461"
 },
 {
  "id": 7303031005,
  "districtId": 7303031,
  "districtName": "PA'JUKUKANG",
  "name": "NIPA-NIPA",
  "postalCode": "92461"
 },
 {
  "id": 7303031006,
  "districtId": 7303031,
  "districtName": "PA'JUKUKANG",
  "name": "PA'JUKUKANG",
  "postalCode": ""
 },
 {
  "id": 7303031007,
  "districtId": 7303031,
  "districtName": "PA'JUKUKANG",
  "name": "BORONGLOE",
  "postalCode": "92171"
 },
 {
  "id": 7303031008,
  "districtId": 7303031,
  "districtName": "PA'JUKUKANG",
  "name": "PAPANLOE",
  "postalCode": "92461"
 },
 {
  "id": 7303031009,
  "districtId": 7303031,
  "districtName": "PA'JUKUKANG",
  "name": "BARUGA",
  "postalCode": "94563"
 },
 {
  "id": 7303031021,
  "districtId": 7303031,
  "districtName": "PA'JUKUKANG",
  "name": "BATUKARAENG",
  "postalCode": ""
 }
]