[
 {
  "id": 7303020001,
  "districtId": 7303020,
  "districtName": "BANTAENG",
  "name": "TAPPANJENG",
  "postalCode": "92411"
 },
 {
  "id": 7303020002,
  "districtId": 7303020,
  "districtName": "BANTAENG",
  "name": "PALLANTIKANG",
  "postalCode": "92352"
 },
 {
  "id": 7303020003,
  "districtId": 7303020,
  "districtName": "BANTAENG",
  "name": "LETTA",
  "postalCode": "92415"
 },
 {
  "id": 7303020004,
  "districtId": 7303020,
  "districtName": "BANTAENG",
  "name": "MALLILINGI",
  "postalCode": "92411"
 },
 {
  "id": 7303020005,
  "districtId": 7303020,
  "districtName": "BANTAENG",
  "name": "LEMBANG",
  "postalCode": "44152"
 },
 {
  "id": 7303020006,
  "districtId": 7303020,
  "districtName": "BANTAENG",
  "name": "LAMALAKA",
  "postalCode": "92412"
 },
 {
  "id": 7303020009,
  "districtId": 7303020,
  "districtName": "BANTAENG",
  "name": "KARATUANG",
  "postalCode": "92411"
 },
 {
  "id": 7303020010,
  "districtId": 7303020,
  "districtName": "BANTAENG",
  "name": "ONTO",
  "postalCode": "92413"
 },
 {
  "id": 7303020018,
  "districtId": 7303020,
  "districtName": "BANTAENG",
  "name": "KAYU LOE",
  "postalCode": "92411"
 }
]