[
 {
  "id": 7304031001,
  "districtId": 7304031,
  "districtName": "TURATEA",
  "name": "JOMBE",
  "postalCode": "92313"
 },
 {
  "id": 7304031002,
  "districtId": 7304031,
  "districtName": "TURATEA",
  "name": "KAYULOE BARAT",
  "postalCode": "92312"
 },
 {
  "id": 7304031003,
  "districtId": 7304031,
  "districtName": "TURATEA",
  "name": "KAYULOE TIMUR",
  "postalCode": "92313"
 },
 {
  "id": 7304031004,
  "districtId": 7304031,
  "districtName": "TURATEA",
  "name": "BUNGUNGLOE",
  "postalCode": "92313"
 },
 {
  "id": 7304031005,
  "districtId": 7304031,
  "districtName": "TURATEA",
  "name": "BONTOMATENE",
  "postalCode": "92313"
 },
 {
  "id": 7304031006,
  "districtId": 7304031,
  "districtName": "TURATEA",
  "name": "TANJONGA",
  "postalCode": "92313"
 },
 {
  "id": 7304031007,
  "districtId": 7304031,
  "districtName": "TURATEA",
  "name": "BULULOE",
  "postalCode": "92313"
 },
 {
  "id": 7304031008,
  "districtId": 7304031,
  "districtName": "TURATEA",
  "name": "MANGEPONG",
  "postalCode": "92313"
 },
 {
  "id": 7304031009,
  "districtId": 7304031,
  "districtName": "TURATEA",
  "name": "LANGKURA",
  "postalCode": "92313"
 },
 {
  "id": 7304031010,
  "districtId": 7304031,
  "districtName": "TURATEA",
  "name": "PAITANA",
  "postalCode": "92313"
 },
 {
  "id": 7304031011,
  "districtId": 7304031,
  "districtName": "TURATEA",
  "name": "PA RASANGANG BARU",
  "postalCode": ""
 }
]