[
 {
  "id": 7304051001,
  "districtId": 7304051,
  "districtName": "RUMBIA",
  "name": "BONTOMANAI",
  "postalCode": "92152"
 },
 {
  "id": 7304051002,
  "districtId": 7304051,
  "districtName": "RUMBIA",
  "name": "RUMBIA",
  "postalCode": "95694"
 },
 {
  "id": 7304051003,
  "districtId": 7304051,
  "districtName": "RUMBIA",
  "name": "LEBANG MANAI",
  "postalCode": "92371"
 },
 {
  "id": 7304051004,
  "districtId": 7304051,
  "districtName": "RUMBIA",
  "name": "LEBANG MANAI UTARA",
  "postalCode": "92371"
 },
 {
  "id": 7304051005,
  "districtId": 7304051,
  "districtName": "RUMBIA",
  "name": "PALLANTIKANG",
  "postalCode": "92352"
 },
 {
  "id": 7304051006,
  "districtId": 7304051,
  "districtName": "RUMBIA",
  "name": "BONTO CINI",
  "postalCode": "92371"
 },
 {
  "id": 7304051007,
  "districtId": 7304051,
  "districtName": "RUMBIA",
  "name": "BONTOTIRO",
  "postalCode": "92572"
 },
 {
  "id": 7304051008,
  "districtId": 7304051,
  "districtName": "RUMBIA",
  "name": "KASSI",
  "postalCode": "90661"
 },
 {
  "id": 7304051009,
  "districtId": 7304051,
  "districtName": "RUMBIA",
  "name": "LOKA",
  "postalCode": "92516"
 },
 {
  "id": 7304051010,
  "districtId": 7304051,
  "districtName": "RUMBIA",
  "name": "TOMPOBULU",
  "postalCode": "92654"
 },
 {
  "id": 7304051012,
  "districtId": 7304051,
  "districtName": "RUMBIA",
  "name": "JENETALLASA",
  "postalCode": "92352"
 }
]