[
 {
  "id": 7306081007,
  "districtId": 7306081,
  "districtName": "BONTOLEMPANGAN",
  "name": "PALADINGANG",
  "postalCode": "92176"
 },
 {
  "id": 7306081008,
  "districtId": 7306081,
  "districtName": "BONTOLEMPANGAN",
  "name": "BONTOLOE",
  "postalCode": "92176"
 },
 {
  "id": 7306081009,
  "districtId": 7306081,
  "districtName": "BONTOLEMPANGAN",
  "name": "LASSA LASSA",
  "postalCode": "92176"
 },
 {
  "id": 7306081010,
  "districtId": 7306081,
  "districtName": "BONTOLEMPANGAN",
  "name": "BONTOLEMPANGAN",
  "postalCode": "92176"
 },
 {
  "id": 7306081011,
  "districtId": 7306081,
  "districtName": "BONTOLEMPANGAN",
  "name": "JULUMATENE",
  "postalCode": "92176"
 },
 {
  "id": 7306081012,
  "districtId": 7306081,
  "districtName": "BONTOLEMPANGAN",
  "name": "PARANG LAMPOA",
  "postalCode": "92176"
 },
 {
  "id": 7306081013,
  "districtId": 7306081,
  "districtName": "BONTOLEMPANGAN",
  "name": "BONTOTANGNGA",
  "postalCode": "92811"
 },
 {
  "id": 7306081014,
  "districtId": 7306081,
  "districtName": "BONTOLEMPANGAN",
  "name": "ULUJANGAN",
  "postalCode": "92176"
 }
]