[
 {
  "id": 7306050001,
  "districtId": 7306050,
  "districtName": "BONTOMARANNU",
  "name": "BORONGLOE",
  "postalCode": "92171"
 },
 {
  "id": 7306050002,
  "districtId": 7306050,
  "districtName": "BONTOMARANNU",
  "name": "BONTOMANAI",
  "postalCode": "92152"
 },
 {
  "id": 7306050003,
  "districtId": 7306050,
  "districtName": "BONTOMARANNU",
  "name": "SOKKOLIA",
  "postalCode": "92171"
 },
 {
  "id": 7306050004,
  "districtId": 7306050,
  "districtName": "BONTOMARANNU",
  "name": "PAKATTO",
  "postalCode": "92171"
 },
 {
  "id": 7306050005,
  "districtId": 7306050,
  "districtName": "BONTOMARANNU",
  "name": "NIRANNUANG",
  "postalCode": "92171"
 },
 {
  "id": 7306050006,
  "districtId": 7306050,
  "districtName": "BONTOMARANNU",
  "name": "ROMANGLOE",
  "postalCode": "92171"
 },
 {
  "id": 7306050012,
  "districtId": 7306050,
  "districtName": "BONTOMARANNU",
  "name": "MATA ALLO",
  "postalCode": "91754"
 },
 {
  "id": 7306050016,
  "districtId": 7306050,
  "districtName": "BONTOMARANNU",
  "name": "ROMANGLOMPOA",
  "postalCode": ""
 },
 {
  "id": 7306050017,
  "districtId": 7306050,
  "districtName": "BONTOMARANNU",
  "name": "BILI-BILI",
  "postalCode": "92171"
 }
]