[
 {
  "id": 7306071001,
  "districtId": 7306071,
  "districtName": "TOMBOLO PAO",
  "name": "KANREAPIA",
  "postalCode": "92171"
 },
 {
  "id": 7306071002,
  "districtId": 7306071,
  "districtName": "TOMBOLO PAO",
  "name": "BALASSUKA",
  "postalCode": "92171"
 },
 {
  "id": 7306071003,
  "districtId": 7306071,
  "districtName": "TOMBOLO PAO",
  "name": "TABBINJAI",
  "postalCode": "92171"
 },
 {
  "id": 7306071004,
  "districtId": 7306071,
  "districtName": "TOMBOLO PAO",
  "name": "MAMAMPANG",
  "postalCode": "92415"
 },
 {
  "id": 7306071005,
  "districtId": 7306071,
  "districtName": "TOMBOLO PAO",
  "name": "TONASA",
  "postalCode": "90661"
 },
 {
  "id": 7306071006,
  "districtId": 7306071,
  "districtName": "TOMBOLO PAO",
  "name": "TAMAONA",
  "postalCode": "92517"
 },
 {
  "id": 7306071007,
  "districtId": 7306071,
  "districtName": "TOMBOLO PAO",
  "name": "PAO",
  "postalCode": "92957"
 },
 {
  "id": 7306071008,
  "districtId": 7306071,
  "districtName": "TOMBOLO PAO",
  "name": "ERELEMBANG",
  "postalCode": "92171"
 },
 {
  "id": 7306071009,
  "districtId": 7306071,
  "districtName": "TOMBOLO PAO",
  "name": "BOLAROMANG",
  "postalCode": "92171"
 }
]