[
 {
  "id": 7306090005,
  "districtId": 7306090,
  "districtName": "TOMPOBULU",
  "name": "GARING",
  "postalCode": "92175"
 },
 {
  "id": 7306090006,
  "districtId": 7306090,
  "districtName": "TOMPOBULU",
  "name": "BONTOBUDDUNG",
  "postalCode": "92175"
 },
 {
  "id": 7306090007,
  "districtId": 7306090,
  "districtName": "TOMPOBULU",
  "name": "TANETE",
  "postalCode": "91752"
 },
 {
  "id": 7306090008,
  "districtId": 7306090,
  "districtName": "TOMPOBULU",
  "name": "CIKORO",
  "postalCode": "92175"
 },
 {
  "id": 7306090009,
  "districtId": 7306090,
  "districtName": "TOMPOBULU",
  "name": "RAPPOLEMBA",
  "postalCode": "92175"
 },
 {
  "id": 7306090010,
  "districtId": 7306090,
  "districtName": "TOMPOBULU",
  "name": "RAPPOALA",
  "postalCode": "92175"
 },
 {
  "id": 7306090011,
  "districtId": 7306090,
  "districtName": "TOMPOBULU",
  "name": "MALAKAJI",
  "postalCode": "92175"
 },
 {
  "id": 7306090012,
  "districtId": 7306090,
  "districtName": "TOMPOBULU",
  "name": "DATARA",
  "postalCode": "92351"
 }
]