[
 {
  "id": 7307040001,
  "districtId": 7307040,
  "districtName": "TELLU LIMPOE",
  "name": "KALOBBA",
  "postalCode": "91671"
 },
 {
  "id": 7307040002,
  "districtId": 7307040,
  "districtName": "TELLU LIMPOE",
  "name": "MANNANTI",
  "postalCode": "91671"
 },
 {
  "id": 7307040003,
  "districtId": 7307040,
  "districtName": "TELLU LIMPOE",
  "name": "TELLU LIMPOE",
  "postalCode": "90991"
 },
 {
  "id": 7307040004,
  "districtId": 7307040,
  "districtName": "TELLU LIMPOE",
  "name": "ERABARU",
  "postalCode": "91671"
 },
 {
  "id": 7307040005,
  "districtId": 7307040,
  "districtName": "TELLU LIMPOE",
  "name": "PATTONGKO",
  "postalCode": "92652"
 },
 {
  "id": 7307040006,
  "districtId": 7307040,
  "districtName": "TELLU LIMPOE",
  "name": "BUA",
  "postalCode": "91671"
 },
 {
  "id": 7307040007,
  "districtId": 7307040,
  "districtName": "TELLU LIMPOE",
  "name": "SUKAMAJU",
  "postalCode": "22465"
 },
 {
  "id": 7307040008,
  "districtId": 7307040,
  "districtName": "TELLU LIMPOE",
  "name": "LEMBANG LOHE",
  "postalCode": "91671"
 },
 {
  "id": 7307040009,
  "districtId": 7307040,
  "districtName": "TELLU LIMPOE",
  "name": "SAOTENGAH",
  "postalCode": "91671"
 },
 {
  "id": 7307040010,
  "districtId": 7307040,
  "districtName": "TELLU LIMPOE",
  "name": "MASSAILE",
  "postalCode": "91671"
 },
 {
  "id": 7307040011,
  "districtId": 7307040,
  "districtName": "TELLU LIMPOE",
  "name": "SAMATURUE",
  "postalCode": "91671"
 }
]