[
 {
  "id": 7308051001,
  "districtId": 7308051,
  "districtName": "TOMPU BULU",
  "name": "BENTENG GAJAH",
  "postalCode": "90561"
 },
 {
  "id": 7308051002,
  "districtId": 7308051,
  "districtName": "TOMPU BULU",
  "name": "PUCAK",
  "postalCode": "90561"
 },
 {
  "id": 7308051003,
  "districtId": 7308051,
  "districtName": "TOMPU BULU",
  "name": "TOMPO BULU",
  "postalCode": "90661"
 },
 {
  "id": 7308051004,
  "districtId": 7308051,
  "districtName": "TOMPU BULU",
  "name": "TODDOLIMAE",
  "postalCode": "90561"
 },
 {
  "id": 7308051005,
  "districtId": 7308051,
  "districtName": "TOMPU BULU",
  "name": "BONTO MANAI",
  "postalCode": "92451"
 },
 {
  "id": 7308051006,
  "districtId": 7308051,
  "districtName": "TOMPU BULU",
  "name": "BONTOMATINGGI",
  "postalCode": "90561"
 },
 {
  "id": 7308051007,
  "districtId": 7308051,
  "districtName": "TOMPU BULU",
  "name": "BONTO MANURUNG",
  "postalCode": "90561"
 },
 {
  "id": 7308051008,
  "districtId": 7308051,
  "districtName": "TOMPU BULU",
  "name": "BONTO SOMBA",
  "postalCode": "90561"
 }
]