[
 {
  "id": 7308030003,
  "districtId": 7308030,
  "districtName": "BONTOA",
  "name": "BONTO BAHARI",
  "postalCode": "90554"
 },
 {
  "id": 7308030004,
  "districtId": 7308030,
  "districtName": "BONTOA",
  "name": "PAJUKUKANG",
  "postalCode": "90554"
 },
 {
  "id": 7308030005,
  "districtId": 7308030,
  "districtName": "BONTOA",
  "name": "TUNIKAMASEANG",
  "postalCode": "90554"
 },
 {
  "id": 7308030006,
  "districtId": 7308030,
  "districtName": "BONTOA",
  "name": "BONTOA",
  "postalCode": "92316"
 },
 {
  "id": 7308030007,
  "districtId": 7308030,
  "districtName": "BONTOA",
  "name": "SALENRANG",
  "postalCode": "90554"
 },
 {
  "id": 7308030008,
  "districtId": 7308030,
  "districtName": "BONTOA",
  "name": "BONTO LEMPANGAN",
  "postalCode": "90554"
 },
 {
  "id": 7308030009,
  "districtId": 7308030,
  "districtName": "BONTOA",
  "name": "MINASA UPA",
  "postalCode": "90554"
 },
 {
  "id": 7308030010,
  "districtId": 7308030,
  "districtName": "BONTOA",
  "name": "TUPABIRING",
  "postalCode": "90554"
 },
 {
  "id": 7308030011,
  "districtId": 7308030,
  "districtName": "BONTOA",
  "name": "AMPEKALE",
  "postalCode": "90554"
 }
]