[
 {
  "id": 7309070001,
  "districtId": 7309070,
  "districtName": "LABAKKANG",
  "name": "BORIMASUNGGU",
  "postalCode": "90244"
 },
 {
  "id": 7309070002,
  "districtId": 7309070,
  "districtName": "LABAKKANG",
  "name": "MANGALLEKANA",
  "postalCode": "90653"
 },
 {
  "id": 7309070003,
  "districtId": 7309070,
  "districtName": "LABAKKANG",
  "name": "BATARA",
  "postalCode": "90653"
 },
 {
  "id": 7309070004,
  "districtId": 7309070,
  "districtName": "LABAKKANG",
  "name": "TARAWEANG",
  "postalCode": "90653"
 },
 {
  "id": 7309070005,
  "districtId": 7309070,
  "districtName": "LABAKKANG",
  "name": "BARA BATU",
  "postalCode": "22755"
 },
 {
  "id": 7309070006,
  "districtId": 7309070,
  "districtName": "LABAKKANG",
  "name": "KASSI LOE",
  "postalCode": "90653"
 },
 {
  "id": 7309070007,
  "districtId": 7309070,
  "districtName": "LABAKKANG",
  "name": "PATALLASSANG",
  "postalCode": "90653"
 },
 {
  "id": 7309070008,
  "districtId": 7309070,
  "districtName": "LABAKKANG",
  "name": "LABAKKANG",
  "postalCode": "90653"
 },
 {
  "id": 7309070009,
  "districtId": 7309070,
  "districtName": "LABAKKANG",
  "name": "PUNDATA BAJI",
  "postalCode": "90653"
 },
 {
  "id": 7309070010,
  "districtId": 7309070,
  "districtName": "LABAKKANG",
  "name": "BONTO MANAI",
  "postalCode": "92451"
 },
 {
  "id": 7309070011,
  "districtId": 7309070,
  "districtName": "LABAKKANG",
  "name": "MANAKKU",
  "postalCode": "90653"
 },
 {
  "id": 7309070013,
  "districtId": 7309070,
  "districtName": "LABAKKANG",
  "name": "KANAUNGAN",
  "postalCode": "90653"
 }
]