[
 {
  "id": 7309080001,
  "districtId": 7309080,
  "districtName": "MA'RANG",
  "name": "TALAKA",
  "postalCode": "90654"
 },
 {
  "id": 7309080002,
  "districtId": 7309080,
  "districtName": "MA'RANG",
  "name": "ATTANG SALO",
  "postalCode": "90654"
 },
 {
  "id": 7309080003,
  "districtId": 7309080,
  "districtName": "MA'RANG",
  "name": "PADANG LAMPE",
  "postalCode": "90654"
 },
 {
  "id": 7309080004,
  "districtId": 7309080,
  "districtName": "MA'RANG",
  "name": "ALESIPITTO",
  "postalCode": "90654"
 },
 {
  "id": 7309080005,
  "districtId": 7309080,
  "districtName": "MA'RANG",
  "name": "MA`RANG",
  "postalCode": ""
 },
 {
  "id": 7309080006,
  "districtId": 7309080,
  "districtName": "MA'RANG",
  "name": "BONTO-BONTO",
  "postalCode": "90654"
 },
 {
  "id": 7309080007,
  "districtId": 7309080,
  "districtName": "MA'RANG",
  "name": "PITUE",
  "postalCode": "90654"
 },
 {
  "id": 7309080008,
  "districtId": 7309080,
  "districtName": "MA'RANG",
  "name": "PITU SUNGGU",
  "postalCode": "90654"
 },
 {
  "id": 7309080009,
  "districtId": 7309080,
  "districtName": "MA'RANG",
  "name": "TAMANGAPA",
  "postalCode": "90235"
 },
 {
  "id": 7309080010,
  "districtId": 7309080,
  "districtName": "MA'RANG",
  "name": "PUNRANGA",
  "postalCode": "90654"
 }
]