[
 {
  "id": 7310030001,
  "districtId": 7310030,
  "districtName": "BARRU",
  "name": "SUMPANG BINANGAE",
  "postalCode": "90712"
 },
 {
  "id": 7310030002,
  "districtId": 7310030,
  "districtName": "BARRU",
  "name": "COPPO",
  "postalCode": "90711"
 },
 {
  "id": 7310030004,
  "districtId": 7310030,
  "districtName": "BARRU",
  "name": "ANABANUA",
  "postalCode": "90712"
 },
 {
  "id": 7310030005,
  "districtId": 7310030,
  "districtName": "BARRU",
  "name": "PALAKKA",
  "postalCode": "90711"
 },
 {
  "id": 7310030006,
  "districtId": 7310030,
  "districtName": "BARRU",
  "name": "GALUNG",
  "postalCode": "90711"
 },
 {
  "id": 7310030007,
  "districtId": 7310030,
  "districtName": "BARRU",
  "name": "TOMPO",
  "postalCode": "94479"
 },
 {
  "id": 7310030009,
  "districtId": 7310030,
  "districtName": "BARRU",
  "name": "MANGEMPANG",
  "postalCode": "90712"
 },
 {
  "id": 7310030010,
  "districtId": 7310030,
  "districtName": "BARRU",
  "name": "SIAWUNG",
  "postalCode": "90712"
 }
]