[
 {
  "id": 7311160001,
  "districtId": 7311160,
  "districtName": "ULAWENG",
  "name": "LILINA AJANGALE",
  "postalCode": "92762"
 },
 {
  "id": 7311160002,
  "districtId": 7311160,
  "districtName": "ULAWENG",
  "name": "TADANG PALIE",
  "postalCode": "91262"
 },
 {
  "id": 7311160003,
  "districtId": 7311160,
  "districtName": "ULAWENG",
  "name": "CANI SIRENRENG",
  "postalCode": "92762"
 },
 {
  "id": 7311160004,
  "districtId": 7311160,
  "districtName": "ULAWENG",
  "name": "SAPPE WALIE",
  "postalCode": "92762"
 },
 {
  "id": 7311160005,
  "districtId": 7311160,
  "districtName": "ULAWENG",
  "name": "MANURUNGE",
  "postalCode": "92762"
 },
 {
  "id": 7311160006,
  "districtId": 7311160,
  "districtName": "ULAWENG",
  "name": "CINNONG",
  "postalCode": "92771"
 },
 {
  "id": 7311160007,
  "districtId": 7311160,
  "districtName": "ULAWENG",
  "name": "ULAWENG CINNONG",
  "postalCode": "92762"
 },
 {
  "id": 7311160008,
  "districtId": 7311160,
  "districtName": "ULAWENG",
  "name": "PALLAWA RUKKA",
  "postalCode": "92762"
 },
 {
  "id": 7311160009,
  "districtId": 7311160,
  "districtName": "ULAWENG",
  "name": "JOMPIE",
  "postalCode": "92762"
 },
 {
  "id": 7311160010,
  "districtId": 7311160,
  "districtName": "ULAWENG",
  "name": "LAMAKKARASENG",
  "postalCode": "92762"
 },
 {
  "id": 7311160011,
  "districtId": 7311160,
  "districtName": "ULAWENG",
  "name": "MULA MENREE",
  "postalCode": "92762"
 },
 {
  "id": 7311160012,
  "districtId": 7311160,
  "districtName": "ULAWENG",
  "name": "GALUNG",
  "postalCode": "90711"
 },
 {
  "id": 7311160013,
  "districtId": 7311160,
  "districtName": "ULAWENG",
  "name": "TEA MALALA",
  "postalCode": "92762"
 },
 {
  "id": 7311160014,
  "districtId": 7311160,
  "districtName": "ULAWENG",
  "name": "TIMUSU",
  "postalCode": "90861"
 },
 {
  "id": 7311160015,
  "districtId": 7311160,
  "districtName": "ULAWENG",
  "name": "TEAMUSU",
  "postalCode": "92762"
 }
]