[
 {
  "id": 7311140012,
  "districtId": 7311140,
  "districtName": "LAMURU",
  "name": "TURUCINNAE",
  "postalCode": "92764"
 },
 {
  "id": 7311140013,
  "districtId": 7311140,
  "districtName": "LAMURU",
  "name": "MAMMINASAE",
  "postalCode": "92764"
 },
 {
  "id": 7311140014,
  "districtId": 7311140,
  "districtName": "LAMURU",
  "name": "MATTAMPA BULU",
  "postalCode": "92764"
 },
 {
  "id": 7311140015,
  "districtId": 7311140,
  "districtName": "LAMURU",
  "name": "BARAKKAE",
  "postalCode": "92764"
 },
 {
  "id": 7311140016,
  "districtId": 7311140,
  "districtName": "LAMURU",
  "name": "MASSENRENPULU",
  "postalCode": "92764"
 },
 {
  "id": 7311140017,
  "districtId": 7311140,
  "districtName": "LAMURU",
  "name": "MATTAMPA WALIE",
  "postalCode": "92764"
 },
 {
  "id": 7311140018,
  "districtId": 7311140,
  "districtName": "LAMURU",
  "name": "POLEONRO",
  "postalCode": "90954"
 },
 {
  "id": 7311140019,
  "districtId": 7311140,
  "districtName": "LAMURU",
  "name": "LALEBATA",
  "postalCode": "92764"
 },
 {
  "id": 7311140020,
  "districtId": 7311140,
  "districtName": "LAMURU",
  "name": "SENGENG PALIE",
  "postalCode": "92764"
 },
 {
  "id": 7311140021,
  "districtId": 7311140,
  "districtName": "LAMURU",
  "name": "PADAELO",
  "postalCode": "92776"
 },
 {
  "id": 7311140022,
  "districtId": 7311140,
  "districtName": "LAMURU",
  "name": "SEBERANG",
  "postalCode": "37152"
 },
 {
  "id": 7311140023,
  "districtId": 7311140,
  "districtName": "LAMURU",
  "name": "BARUGAE",
  "postalCode": "92552"
 }
]