[
 {
  "id": 7311220001,
  "districtId": 7311220,
  "districtName": "DUA BOCCOE",
  "name": "PRAJA MAJU",
  "postalCode": "92753"
 },
 {
  "id": 7311220002,
  "districtId": 7311220,
  "districtName": "DUA BOCCOE",
  "name": "MARIO",
  "postalCode": "92965"
 },
 {
  "id": 7311220003,
  "districtId": 7311220,
  "districtName": "DUA BOCCOE",
  "name": "PANYILI",
  "postalCode": "92753"
 },
 {
  "id": 7311220004,
  "districtId": 7311220,
  "districtName": "DUA BOCCOE",
  "name": "LACCORI",
  "postalCode": "92753"
 },
 {
  "id": 7311220005,
  "districtId": 7311220,
  "districtName": "DUA BOCCOE",
  "name": "PATTIRO",
  "postalCode": "92352"
 },
 {
  "id": 7311220006,
  "districtId": 7311220,
  "districtName": "DUA BOCCOE",
  "name": "TOCINA",
  "postalCode": "92753"
 },
 {
  "id": 7311220007,
  "districtId": 7311220,
  "districtName": "DUA BOCCOE",
  "name": "KAMPOTI",
  "postalCode": "92753"
 },
 {
  "id": 7311220008,
  "districtId": 7311220,
  "districtName": "DUA BOCCOE",
  "name": "PAKKASALO",
  "postalCode": "92753"
 },
 {
  "id": 7311220009,
  "districtId": 7311220,
  "districtName": "DUA BOCCOE",
  "name": "CABBENG",
  "postalCode": "92753"
 },
 {
  "id": 7311220012,
  "districtId": 7311220,
  "districtName": "DUA BOCCOE",
  "name": "LALLATANG",
  "postalCode": "92753"
 },
 {
  "id": 7311220013,
  "districtId": 7311220,
  "districtName": "DUA BOCCOE",
  "name": "SANRANGENG",
  "postalCode": "92753"
 },
 {
  "id": 7311220014,
  "districtId": 7311220,
  "districtName": "DUA BOCCOE",
  "name": "SAILONG",
  "postalCode": "92753"
 },
 {
  "id": 7311220015,
  "districtId": 7311220,
  "districtName": "DUA BOCCOE",
  "name": "WATANG PADACENGA",
  "postalCode": ""
 },
 {
  "id": 7311220017,
  "districtId": 7311220,
  "districtName": "DUA BOCCOE",
  "name": "UNNYI",
  "postalCode": "92753"
 },
 {
  "id": 7311220018,
  "districtId": 7311220,
  "districtName": "DUA BOCCOE",
  "name": "ULOE",
  "postalCode": "92753"
 },
 {
  "id": 7311220019,
  "districtId": 7311220,
  "districtName": "DUA BOCCOE",
  "name": "TAWAROE",
  "postalCode": "92753"
 },
 {
  "id": 7311220020,
  "districtId": 7311220,
  "districtName": "DUA BOCCOE",
  "name": "MATAJANG",
  "postalCode": "92753"
 },
 {
  "id": 7311220021,
  "districtId": 7311220,
  "districtName": "DUA BOCCOE",
  "name": "PADACENGA",
  "postalCode": ""
 },
 {
  "id": 7311220022,
  "districtId": 7311220,
  "districtName": "DUA BOCCOE",
  "name": "SOLO",
  "postalCode": "86462"
 }
]