[
 {
  "id": 7311130001,
  "districtId": 7311130,
  "districtName": "LAPPARIAJA",
  "name": "MATTAMPA WALIE",
  "postalCode": "92764"
 },
 {
  "id": 7311130002,
  "districtId": 7311130,
  "districtName": "LAPPARIAJA",
  "name": "LILI RIATTANG",
  "postalCode": "92755"
 },
 {
  "id": 7311130003,
  "districtId": 7311130,
  "districtName": "LAPPARIAJA",
  "name": "WAEKECCEE",
  "postalCode": "92763"
 },
 {
  "id": 7311130004,
  "districtId": 7311130,
  "districtName": "LAPPARIAJA",
  "name": "SENGENG PALIE",
  "postalCode": "92764"
 },
 {
  "id": 7311130005,
  "districtId": 7311130,
  "districtName": "LAPPARIAJA",
  "name": "TONRONGE",
  "postalCode": "91652"
 },
 {
  "id": 7311130006,
  "districtId": 7311130,
  "districtName": "LAPPARIAJA",
  "name": "TENRI PAKKUA",
  "postalCode": "92763"
 },
 {
  "id": 7311130007,
  "districtId": 7311130,
  "districtName": "LAPPARIAJA",
  "name": "PATTUKU LIMPOE",
  "postalCode": "92763"
 },
 {
  "id": 7311130008,
  "districtId": 7311130,
  "districtName": "LAPPARIAJA",
  "name": "UJUNG LAMURU",
  "postalCode": "92763"
 },
 {
  "id": 7311130009,
  "districtId": 7311130,
  "districtName": "LAPPARIAJA",
  "name": "PATANGKAI",
  "postalCode": "92763"
 }
]