[
 {
  "id": 7311200001,
  "districtId": 7311200,
  "districtName": "AMALI",
  "name": "AMALI RIATTANG",
  "postalCode": "92755"
 },
 {
  "id": 7311200002,
  "districtId": 7311200,
  "districtName": "AMALI",
  "name": "LILI RIATTANG",
  "postalCode": "92755"
 },
 {
  "id": 7311200003,
  "districtId": 7311200,
  "districtName": "AMALI",
  "name": "MATTARO PURAE",
  "postalCode": "92755"
 },
 {
  "id": 7311200004,
  "districtId": 7311200,
  "districtName": "AMALI",
  "name": "TOCINNONG",
  "postalCode": "92755"
 },
 {
  "id": 7311200005,
  "districtId": 7311200,
  "districtName": "AMALI",
  "name": "WAEMPUBBUE",
  "postalCode": "92755"
 },
 {
  "id": 7311200006,
  "districtId": 7311200,
  "districtName": "AMALI",
  "name": "WAEMPUTTANGE",
  "postalCode": "92755"
 },
 {
  "id": 7311200007,
  "districtId": 7311200,
  "districtName": "AMALI",
  "name": "BILA",
  "postalCode": "81172"
 },
 {
  "id": 7311200008,
  "districtId": 7311200,
  "districtName": "AMALI",
  "name": "ULAWENG RIAJA",
  "postalCode": "92755"
 },
 {
  "id": 7311200009,
  "districtId": 7311200,
  "districtName": "AMALI",
  "name": "MAMPOTU",
  "postalCode": "92755"
 },
 {
  "id": 7311200010,
  "districtId": 7311200,
  "districtName": "AMALI",
  "name": "TA'CIPONG",
  "postalCode": ""
 },
 {
  "id": 7311200011,
  "districtId": 7311200,
  "districtName": "AMALI",
  "name": "WELLULANG",
  "postalCode": "92755"
 },
 {
  "id": 7311200012,
  "districtId": 7311200,
  "districtName": "AMALI",
  "name": "AJANG LALENG",
  "postalCode": "92755"
 },
 {
  "id": 7311200013,
  "districtId": 7311200,
  "districtName": "AMALI",
  "name": "TASSIPI",
  "postalCode": "92755"
 },
 {
  "id": 7311200015,
  "districtId": 7311200,
  "districtName": "AMALI",
  "name": "LAPONRONG",
  "postalCode": "92755"
 }
]