[
 {
  "id": 7311010001,
  "districtId": 7311010,
  "districtName": "BONTOCANI",
  "name": "WATANGCANI",
  "postalCode": "92768"
 },
 {
  "id": 7311010002,
  "districtId": 7311010,
  "districtName": "BONTOCANI",
  "name": "PATTUKU",
  "postalCode": "92768"
 },
 {
  "id": 7311010003,
  "districtId": 7311010,
  "districtName": "BONTOCANI",
  "name": "BONTOJAI",
  "postalCode": "92768"
 },
 {
  "id": 7311010004,
  "districtId": 7311010,
  "districtName": "BONTOCANI",
  "name": "BULUSIRUA",
  "postalCode": "92768"
 },
 {
  "id": 7311010005,
  "districtId": 7311010,
  "districtName": "BONTOCANI",
  "name": "BANA",
  "postalCode": "85881"
 },
 {
  "id": 7311010006,
  "districtId": 7311010,
  "districtName": "BONTOCANI",
  "name": "PAMMUSURENG",
  "postalCode": "92768"
 },
 {
  "id": 7311010007,
  "districtId": 7311010,
  "districtName": "BONTOCANI",
  "name": "KAHU",
  "postalCode": "92767"
 },
 {
  "id": 7311010008,
  "districtId": 7311010,
  "districtName": "BONTOCANI",
  "name": "LANGI",
  "postalCode": "23893"
 },
 {
  "id": 7311010009,
  "districtId": 7311010,
  "districtName": "BONTOCANI",
  "name": "ERE CINNONG",
  "postalCode": "92768"
 },
 {
  "id": 7311010010,
  "districtId": 7311010,
  "districtName": "BONTOCANI",
  "name": "LAMONCONG",
  "postalCode": "92768"
 },
 {
  "id": 7311010011,
  "districtId": 7311010,
  "districtName": "BONTOCANI",
  "name": "MATTIRO WALIE",
  "postalCode": "92763"
 }
]