[
 {
  "id": 7311150001,
  "districtId": 7311150,
  "districtName": "BENGO",
  "name": "SAMAENRE",
  "postalCode": "92763"
 },
 {
  "id": 7311150002,
  "districtId": 7311150,
  "districtName": "BENGO",
  "name": "WALIMPONG",
  "postalCode": "92763"
 },
 {
  "id": 7311150004,
  "districtId": 7311150,
  "districtName": "BENGO",
  "name": "SELLI",
  "postalCode": "92763"
 },
 {
  "id": 7311150005,
  "districtId": 7311150,
  "districtName": "BENGO",
  "name": "BULU ALLAPPORENGE",
  "postalCode": "92763"
 },
 {
  "id": 7311150006,
  "districtId": 7311150,
  "districtName": "BENGO",
  "name": "BENGO",
  "postalCode": "92763"
 },
 {
  "id": 7311150007,
  "districtId": 7311150,
  "districtName": "BENGO",
  "name": "MATTARO PULI",
  "postalCode": "92763"
 },
 {
  "id": 7311150008,
  "districtId": 7311150,
  "districtName": "BENGO",
  "name": "MATTIRO WALIE",
  "postalCode": "92763"
 },
 {
  "id": 7311150009,
  "districtId": 7311150,
  "districtName": "BENGO",
  "name": "LILIRIAWANG",
  "postalCode": "92763"
 }
]