[
 {
  "id": 7311230001,
  "districtId": 7311230,
  "districtName": "CENRANA",
  "name": "WATANG TA",
  "postalCode": "92754"
 },
 {
  "id": 7311230002,
  "districtId": 7311230,
  "districtName": "CENRANA",
  "name": "PACUBBE",
  "postalCode": "92754"
 },
 {
  "id": 7311230003,
  "districtId": 7311230,
  "districtName": "CENRANA",
  "name": "PANYIWI",
  "postalCode": "92754"
 },
 {
  "id": 7311230004,
  "districtId": 7311230,
  "districtName": "CENRANA",
  "name": "PALLAE",
  "postalCode": "92754"
 },
 {
  "id": 7311230005,
  "districtId": 7311230,
  "districtName": "CENRANA",
  "name": "WATU",
  "postalCode": "86511"
 },
 {
  "id": 7311230006,
  "districtId": 7311230,
  "districtName": "CENRANA",
  "name": "NAGA ULENG",
  "postalCode": "92754"
 },
 {
  "id": 7311230007,
  "districtId": 7311230,
  "districtName": "CENRANA",
  "name": "LATONRO",
  "postalCode": "92754"
 },
 {
  "id": 7311230008,
  "districtId": 7311230,
  "districtName": "CENRANA",
  "name": "LAONI",
  "postalCode": "92754"
 },
 {
  "id": 7311230010,
  "districtId": 7311230,
  "districtName": "CENRANA",
  "name": "PALLIME",
  "postalCode": "92754"
 },
 {
  "id": 7311230011,
  "districtId": 7311230,
  "districtName": "CENRANA",
  "name": "AJALLASSE",
  "postalCode": "92754"
 },
 {
  "id": 7311230012,
  "districtId": 7311230,
  "districtName": "CENRANA",
  "name": "CENRANA",
  "postalCode": "90562"
 },
 {
  "id": 7311230013,
  "districtId": 7311230,
  "districtName": "CENRANA",
  "name": "AWANG CENRANA",
  "postalCode": ""
 },
 {
  "id": 7311230014,
  "districtId": 7311230,
  "districtName": "CENRANA",
  "name": "LEBONGNGE",
  "postalCode": ""
 },
 {
  "id": 7311230015,
  "districtId": 7311230,
  "districtName": "CENRANA",
  "name": "CAKKEWARE",
  "postalCode": ""
 },
 {
  "id": 7311230016,
  "districtId": 7311230,
  "districtName": "CENRANA",
  "name": "LABOTTO",
  "postalCode": "92754"
 }
]