[
 {
  "id": 7311720001,
  "districtId": 7311720,
  "districtName": "TANETE RIATTANG",
  "name": "BIRU",
  "postalCode": "22758"
 },
 {
  "id": 7311720002,
  "districtId": 7311720,
  "districtName": "TANETE RIATTANG",
  "name": "MASUMPU",
  "postalCode": "92711"
 },
 {
  "id": 7311720003,
  "districtId": 7311720,
  "districtName": "TANETE RIATTANG",
  "name": "TA",
  "postalCode": "92712"
 },
 {
  "id": 7311720004,
  "districtId": 7311720,
  "districtName": "TANETE RIATTANG",
  "name": "MANURUNGNGE",
  "postalCode": "92711"
 },
 {
  "id": 7311720005,
  "districtId": 7311720,
  "districtName": "TANETE RIATTANG",
  "name": "WATAMPONE",
  "postalCode": "92713"
 },
 {
  "id": 7311720006,
  "districtId": 7311720,
  "districtName": "TANETE RIATTANG",
  "name": "BUKAKA",
  "postalCode": "95782"
 },
 {
  "id": 7311720007,
  "districtId": 7311720,
  "districtName": "TANETE RIATTANG",
  "name": "WALENNAE",
  "postalCode": "92711"
 },
 {
  "id": 7311720008,
  "districtId": 7311720,
  "districtName": "TANETE RIATTANG",
  "name": "PAPPOLO",
  "postalCode": "92721"
 }
]