[
 {
  "id": 7312020002,
  "districtId": 7312020,
  "districtName": "LALABATA",
  "name": "LALABATA RILAU",
  "postalCode": "90812"
 },
 {
  "id": 7312020003,
  "districtId": 7312020,
  "districtName": "LALABATA",
  "name": "BOTTO",
  "postalCode": "90811"
 },
 {
  "id": 7312020004,
  "districtId": 7312020,
  "districtName": "LALABATA",
  "name": "LEMBA",
  "postalCode": "90811"
 },
 {
  "id": 7312020005,
  "districtId": 7312020,
  "districtName": "LALABATA",
  "name": "BILA",
  "postalCode": "81172"
 },
 {
  "id": 7312020006,
  "districtId": 7312020,
  "districtName": "LALABATA",
  "name": "MATTABULU",
  "postalCode": "90811"
 },
 {
  "id": 7312020007,
  "districtId": 7312020,
  "districtName": "LALABATA",
  "name": "OMPO",
  "postalCode": "90813"
 },
 {
  "id": 7312020008,
  "districtId": 7312020,
  "districtName": "LALABATA",
  "name": "LAPAJUNG",
  "postalCode": "90811"
 },
 {
  "id": 7312020009,
  "districtId": 7312020,
  "districtName": "LALABATA",
  "name": "MACCILE",
  "postalCode": "90814"
 },
 {
  "id": 7312020010,
  "districtId": 7312020,
  "districtName": "LALABATA",
  "name": "SALO KARAJA",
  "postalCode": "90814"
 }
]