[
 {
  "id": 7313120001,
  "districtId": 7313120,
  "districtName": "PITUMPANUA",
  "name": "SIMPELLU",
  "postalCode": "90992"
 },
 {
  "id": 7313120002,
  "districtId": 7313120,
  "districtName": "PITUMPANUA",
  "name": "LOMPOLOANG",
  "postalCode": "90992"
 },
 {
  "id": 7313120003,
  "districtId": 7313120,
  "districtName": "PITUMPANUA",
  "name": "LAUWA",
  "postalCode": "91994"
 },
 {
  "id": 7313120004,
  "districtId": 7313120,
  "districtName": "PITUMPANUA",
  "name": "ALESILURUNGE",
  "postalCode": "90992"
 },
 {
  "id": 7313120006,
  "districtId": 7313120,
  "districtName": "PITUMPANUA",
  "name": "TOBARAKKA",
  "postalCode": "90992"
 },
 {
  "id": 7313120007,
  "districtId": 7313120,
  "districtName": "PITUMPANUA",
  "name": "ABBANDERANGNGE",
  "postalCode": "90992"
 },
 {
  "id": 7313120008,
  "districtId": 7313120,
  "districtName": "PITUMPANUA",
  "name": "TANGKORO",
  "postalCode": "90992"
 },
 {
  "id": 7313120009,
  "districtId": 7313120,
  "districtName": "PITUMPANUA",
  "name": "TANRONGI",
  "postalCode": "90992"
 },
 {
  "id": 7313120011,
  "districtId": 7313120,
  "districtName": "PITUMPANUA",
  "name": "SIWA",
  "postalCode": "90992"
 },
 {
  "id": 7313120012,
  "districtId": 7313120,
  "districtName": "PITUMPANUA",
  "name": "BATU",
  "postalCode": "59561"
 },
 {
  "id": 7313120013,
  "districtId": 7313120,
  "districtName": "PITUMPANUA",
  "name": "TELLESANG",
  "postalCode": "90992"
 },
 {
  "id": 7313120014,
  "districtId": 7313120,
  "districtName": "PITUMPANUA",
  "name": "MARANNU",
  "postalCode": "92965"
 },
 {
  "id": 7313120015,
  "districtId": 7313120,
  "districtName": "PITUMPANUA",
  "name": "JAUH PANDANG",
  "postalCode": ""
 },
 {
  "id": 7313120016,
  "districtId": 7313120,
  "districtName": "PITUMPANUA",
  "name": "LACINDE",
  "postalCode": ""
 },
 {
  "id": 7313120017,
  "districtId": 7313120,
  "districtName": "PITUMPANUA",
  "name": "BURIKO",
  "postalCode": ""
 },
 {
  "id": 7313120018,
  "districtId": 7313120,
  "districtName": "PITUMPANUA",
  "name": "BAU - BAU",
  "postalCode": ""
 },
 {
  "id": 7313120019,
  "districtId": 7313120,
  "districtName": "PITUMPANUA",
  "name": "ALE LEBBAE",
  "postalCode": ""
 },
 {
  "id": 7313120020,
  "districtId": 7313120,
  "districtName": "PITUMPANUA",
  "name": "BULU SIWA",
  "postalCode": ""
 },
 {
  "id": 7313120021,
  "districtId": 7313120,
  "districtName": "PITUMPANUA",
  "name": "BOTTO TENGNGA",
  "postalCode": ""
 },
 {
  "id": 7313120022,
  "districtId": 7313120,
  "districtName": "PITUMPANUA",
  "name": "KALUKU",
  "postalCode": "92361"
 },
 {
  "id": 7313120023,
  "districtId": 7313120,
  "districtName": "PITUMPANUA",
  "name": "MATTIROWALIE",
  "postalCode": "92517"
 },
 {
  "id": 7313120024,
  "districtId": 7313120,
  "districtName": "PITUMPANUA",
  "name": "MACOLLI LOLOE",
  "postalCode": ""
 },
 {
  "id": 7313120025,
  "districtId": 7313120,
  "districtName": "PITUMPANUA",
  "name": "LOMPO BULO",
  "postalCode": ""
 },
 {
  "id": 7313120026,
  "districtId": 7313120,
  "districtName": "PITUMPANUA",
  "name": "PADANG LOANG",
  "postalCode": "92772"
 },
 {
  "id": 7313120027,
  "districtId": 7313120,
  "districtName": "PITUMPANUA",
  "name": "KOMPONG",
  "postalCode": ""
 }
]