[
 {
  "id": 7313080001,
  "districtId": 7313080,
  "districtName": "TANA SITOLO",
  "name": "ASSORAJANG",
  "postalCode": "90951"
 },
 {
  "id": 7313080002,
  "districtId": 7313080,
  "districtName": "TANA SITOLO",
  "name": "PAKKANNA",
  "postalCode": "90951"
 },
 {
  "id": 7313080003,
  "districtId": 7313080,
  "districtName": "TANA SITOLO",
  "name": "WAJORIAJA",
  "postalCode": "90951"
 },
 {
  "id": 7313080004,
  "districtId": 7313080,
  "districtName": "TANA SITOLO",
  "name": "UJUNG BARU",
  "postalCode": "24653"
 },
 {
  "id": 7313080005,
  "districtId": 7313080,
  "districtName": "TANA SITOLO",
  "name": "NEPO",
  "postalCode": "90753"
 },
 {
  "id": 7313080006,
  "districtId": 7313080,
  "districtName": "TANA SITOLO",
  "name": "PAJALELE",
  "postalCode": "90951"
 },
 {
  "id": 7313080008,
  "districtId": 7313080,
  "districtName": "TANA SITOLO",
  "name": "MARIO",
  "postalCode": "92965"
 },
 {
  "id": 7313080009,
  "districtId": 7313080,
  "districtName": "TANA SITOLO",
  "name": "WAETUWO",
  "postalCode": "90951"
 },
 {
  "id": 7313080010,
  "districtId": 7313080,
  "districtName": "TANA SITOLO",
  "name": "WEWANGREWU",
  "postalCode": "90951"
 },
 {
  "id": 7313080011,
  "districtId": 7313080,
  "districtName": "TANA SITOLO",
  "name": "PALIPPU",
  "postalCode": "90951"
 },
 {
  "id": 7313080012,
  "districtId": 7313080,
  "districtName": "TANA SITOLO",
  "name": "TANCUNG",
  "postalCode": "90951"
 },
 {
  "id": 7313080013,
  "districtId": 7313080,
  "districtName": "TANA SITOLO",
  "name": "BARU TANCUNG",
  "postalCode": "90951"
 },
 {
  "id": 7313080014,
  "districtId": 7313080,
  "districtName": "TANA SITOLO",
  "name": "PINCENGPUTE",
  "postalCode": "90951"
 },
 {
  "id": 7313080015,
  "districtId": 7313080,
  "districtName": "TANA SITOLO",
  "name": "MAPPADAELO",
  "postalCode": "90951"
 },
 {
  "id": 7313080016,
  "districtId": 7313080,
  "districtName": "TANA SITOLO",
  "name": "LOWA",
  "postalCode": "52363"
 },
 {
  "id": 7313080017,
  "districtId": 7313080,
  "districtName": "TANA SITOLO",
  "name": "MANNAGAE",
  "postalCode": "90951"
 },
 {
  "id": 7313080018,
  "districtId": 7313080,
  "districtName": "TANA SITOLO",
  "name": "INALIPUE",
  "postalCode": "90951"
 },
 {
  "id": 7313080019,
  "districtId": 7313080,
  "districtName": "TANA SITOLO",
  "name": "TONRALIPUE",
  "postalCode": "90951"
 }
]