[
 {
  "id": 7313060009,
  "districtId": 7313060,
  "districtName": "SAJOANGING",
  "name": "ASSORAJANG",
  "postalCode": "90951"
 },
 {
  "id": 7313060010,
  "districtId": 7313060,
  "districtName": "SAJOANGING",
  "name": "AKKAJENG",
  "postalCode": "90982"
 },
 {
  "id": 7313060011,
  "districtId": 7313060,
  "districtName": "SAJOANGING",
  "name": "MINANGAE",
  "postalCode": "90982"
 },
 {
  "id": 7313060014,
  "districtId": 7313060,
  "districtName": "SAJOANGING",
  "name": "SALOBULO",
  "postalCode": "90982"
 },
 {
  "id": 7313060015,
  "districtId": 7313060,
  "districtName": "SAJOANGING",
  "name": "AKKOTENGENG",
  "postalCode": "90982"
 },
 {
  "id": 7313060016,
  "districtId": 7313060,
  "districtName": "SAJOANGING",
  "name": "ALEWADENG",
  "postalCode": "90982"
 },
 {
  "id": 7313060017,
  "districtId": 7313060,
  "districtName": "SAJOANGING",
  "name": "BARANGMAMASE",
  "postalCode": "90982"
 },
 {
  "id": 7313060018,
  "districtId": 7313060,
  "districtName": "SAJOANGING",
  "name": "SAKKOLI",
  "postalCode": "90982"
 },
 {
  "id": 7313060019,
  "districtId": 7313060,
  "districtName": "SAJOANGING",
  "name": "TOWALIDA",
  "postalCode": "90982"
 }
]