[
 {
  "id": 7313100001,
  "districtId": 7313100,
  "districtName": "MANIANG PAJO",
  "name": "TANGKOLI",
  "postalCode": "90952"
 },
 {
  "id": 7313100002,
  "districtId": 7313100,
  "districtName": "MANIANG PAJO",
  "name": "DUA LIMPOE",
  "postalCode": "90952"
 },
 {
  "id": 7313100003,
  "districtId": 7313100,
  "districtName": "MANIANG PAJO",
  "name": "ANABANUA",
  "postalCode": "90712"
 },
 {
  "id": 7313100012,
  "districtId": 7313100,
  "districtName": "MANIANG PAJO",
  "name": "ABBANUANGE",
  "postalCode": "90871"
 },
 {
  "id": 7313100013,
  "districtId": 7313100,
  "districtName": "MANIANG PAJO",
  "name": "MATTIROWALIE",
  "postalCode": "92517"
 },
 {
  "id": 7313100014,
  "districtId": 7313100,
  "districtName": "MANIANG PAJO",
  "name": "KALOLA",
  "postalCode": "90952"
 },
 {
  "id": 7313100015,
  "districtId": 7313100,
  "districtName": "MANIANG PAJO",
  "name": "SOGI",
  "postalCode": "90952"
 },
 {
  "id": 7313100016,
  "districtId": 7313100,
  "districtName": "MANIANG PAJO",
  "name": "MINANGA TELLUE",
  "postalCode": "90952"
 }
]