[
 {
  "id": 7314050001,
  "districtId": 7314050,
  "districtName": "PANCA RIJANG",
  "name": "KADIDI",
  "postalCode": "91651"
 },
 {
  "id": 7314050002,
  "districtId": 7314050,
  "districtName": "PANCA RIJANG",
  "name": "MACORAWALIE",
  "postalCode": "91651"
 },
 {
  "id": 7314050003,
  "districtId": 7314050,
  "districtName": "PANCA RIJANG",
  "name": "TIMORENG PANUA",
  "postalCode": "91651"
 },
 {
  "id": 7314050004,
  "districtId": 7314050,
  "districtName": "PANCA RIJANG",
  "name": "CIPOTAKARI",
  "postalCode": "91651"
 },
 {
  "id": 7314050005,
  "districtId": 7314050,
  "districtName": "PANCA RIJANG",
  "name": "BULO",
  "postalCode": "95858"
 },
 {
  "id": 7314050006,
  "districtId": 7314050,
  "districtName": "PANCA RIJANG",
  "name": "BULO WATTANG",
  "postalCode": "91651"
 },
 {
  "id": 7314050007,
  "districtId": 7314050,
  "districtName": "PANCA RIJANG",
  "name": "LALEBATA",
  "postalCode": "92764"
 },
 {
  "id": 7314050008,
  "districtId": 7314050,
  "districtName": "PANCA RIJANG",
  "name": "RAPPANG",
  "postalCode": "91651"
 }
]