[
 {
  "id": 7316051003,
  "districtId": 7316051,
  "districtName": "CURIO",
  "name": "MEKKALAK",
  "postalCode": ""
 },
 {
  "id": 7316051004,
  "districtId": 7316051,
  "districtName": "CURIO",
  "name": "BUNTU PEMA",
  "postalCode": "91754"
 },
 {
  "id": 7316051005,
  "districtId": 7316051,
  "districtName": "CURIO",
  "name": "TALLUNGURA",
  "postalCode": "91754"
 },
 {
  "id": 7316051006,
  "districtId": 7316051,
  "districtName": "CURIO",
  "name": "SANGLEPONGAN",
  "postalCode": "91754"
 },
 {
  "id": 7316051007,
  "districtId": 7316051,
  "districtName": "CURIO",
  "name": "PAROMBEAN",
  "postalCode": "91754"
 },
 {
  "id": 7316051008,
  "districtId": 7316051,
  "districtName": "CURIO",
  "name": "CURIO",
  "postalCode": "91754"
 },
 {
  "id": 7316051009,
  "districtId": 7316051,
  "districtName": "CURIO",
  "name": "PABALORAN",
  "postalCode": "91754"
 },
 {
  "id": 7316051010,
  "districtId": 7316051,
  "districtName": "CURIO",
  "name": "BUNTU BARANA",
  "postalCode": "91754"
 },
 {
  "id": 7316051011,
  "districtId": 7316051,
  "districtName": "CURIO",
  "name": "SALASSA",
  "postalCode": "92965"
 },
 {
  "id": 7316051012,
  "districtId": 7316051,
  "districtName": "CURIO",
  "name": "SUMBANG",
  "postalCode": "53183"
 },
 {
  "id": 7316051013,
  "districtId": 7316051,
  "districtName": "CURIO",
  "name": "MANDALAN",
  "postalCode": "91754"
 }
]