[
 {
  "id": 7317052001,
  "districtId": 7317052,
  "districtName": "BASSESANGTEMPE UTARA",
  "name": "TASANGTONGKONAN",
  "postalCode": "91992"
 },
 {
  "id": 7317052002,
  "districtId": 7317052,
  "districtName": "BASSESANGTEMPE UTARA",
  "name": "BUNTU TALLANG",
  "postalCode": "91992"
 },
 {
  "id": 7317052003,
  "districtId": 7317052,
  "districtName": "BASSESANGTEMPE UTARA",
  "name": "DAMPAN",
  "postalCode": "91992"
 },
 {
  "id": 7317052005,
  "districtId": 7317052,
  "districtName": "BASSESANGTEMPE UTARA",
  "name": "PANTILANG",
  "postalCode": "91992"
 },
 {
  "id": 7317052006,
  "districtId": 7317052,
  "districtName": "BASSESANGTEMPE UTARA",
  "name": "MAINDO",
  "postalCode": "91992"
 },
 {
  "id": 7317052007,
  "districtId": 7317052,
  "districtName": "BASSESANGTEMPE UTARA",
  "name": "SALU BUA",
  "postalCode": ""
 },
 {
  "id": 7317052008,
  "districtId": 7317052,
  "districtName": "BASSESANGTEMPE UTARA",
  "name": "URASO",
  "postalCode": "92917"
 },
 {
  "id": 7317052009,
  "districtId": 7317052,
  "districtName": "BASSESANGTEMPE UTARA",
  "name": "KARATUAN",
  "postalCode": "91992"
 },
 {
  "id": 7317052010,
  "districtId": 7317052,
  "districtName": "BASSESANGTEMPE UTARA",
  "name": "BONGLO",
  "postalCode": "91992"
 },
 {
  "id": 7317052011,
  "districtId": 7317052,
  "districtName": "BASSESANGTEMPE UTARA",
  "name": "BARANA",
  "postalCode": "92352"
 },
 {
  "id": 7317052012,
  "districtId": 7317052,
  "districtName": "BASSESANGTEMPE UTARA",
  "name": "TA'BA",
  "postalCode": ""
 }
]