[
 {
  "id": 7317021001,
  "districtId": 7317021,
  "districtName": "SULI BARAT",
  "name": "PORINGAN",
  "postalCode": "91996"
 },
 {
  "id": 7317021002,
  "districtId": 7317021,
  "districtName": "SULI BARAT",
  "name": "KAILI",
  "postalCode": "91996"
 },
 {
  "id": 7317021003,
  "districtId": 7317021,
  "districtName": "SULI BARAT",
  "name": "SALUBUA",
  "postalCode": "91992"
 },
 {
  "id": 7317021004,
  "districtId": 7317021,
  "districtName": "SULI BARAT",
  "name": "LINDAJANG",
  "postalCode": "91996"
 },
 {
  "id": 7317021005,
  "districtId": 7317021,
  "districtName": "SULI BARAT",
  "name": "BUNTU BARANA",
  "postalCode": "91754"
 },
 {
  "id": 7317021006,
  "districtId": 7317021,
  "districtName": "SULI BARAT",
  "name": "KALADI DARUSSALAM",
  "postalCode": "91996"
 },
 {
  "id": 7317021007,
  "districtId": 7317021,
  "districtName": "SULI BARAT",
  "name": "MUHAJIRIN",
  "postalCode": "24651"
 },
 {
  "id": 7317021008,
  "districtId": 7317021,
  "districtName": "SULI BARAT",
  "name": "TALLANG",
  "postalCode": "91996"
 }
]