[
 {
  "id": 7317032001,
  "districtId": 7317032,
  "districtName": "BELOPA UTARA",
  "name": "LEBANI",
  "postalCode": "91994"
 },
 {
  "id": 7317032002,
  "districtId": 7317032,
  "districtName": "BELOPA UTARA",
  "name": "PAMMANU",
  "postalCode": "91994"
 },
 {
  "id": 7317032003,
  "districtId": 7317032,
  "districtName": "BELOPA UTARA",
  "name": "LAMUNRE",
  "postalCode": "91994"
 },
 {
  "id": 7317032004,
  "districtId": 7317032,
  "districtName": "BELOPA UTARA",
  "name": "LAUWA",
  "postalCode": "91994"
 },
 {
  "id": 7317032005,
  "districtId": 7317032,
  "districtName": "BELOPA UTARA",
  "name": "PACONNE",
  "postalCode": "91994"
 },
 {
  "id": 7317032006,
  "districtId": 7317032,
  "districtName": "BELOPA UTARA",
  "name": "SEPPONG",
  "postalCode": "91994"
 },
 {
  "id": 7317032007,
  "districtId": 7317032,
  "districtName": "BELOPA UTARA",
  "name": "SABE",
  "postalCode": "91994"
 },
 {
  "id": 7317032008,
  "districtId": 7317032,
  "districtName": "BELOPA UTARA",
  "name": "LAMUNRE TENGAH",
  "postalCode": "91994"
 }
]