[
 {
  "id": 7317062001,
  "districtId": 7317062,
  "districtName": "PONRANG SELATAN",
  "name": "PACCERAKANG",
  "postalCode": "90241"
 },
 {
  "id": 7317062002,
  "districtId": 7317062,
  "districtName": "PONRANG SELATAN",
  "name": "PATTEDONG",
  "postalCode": "91999"
 },
 {
  "id": 7317062003,
  "districtId": 7317062,
  "districtName": "PONRANG SELATAN",
  "name": "TO'BALO",
  "postalCode": ""
 },
 {
  "id": 7317062004,
  "districtId": 7317062,
  "districtName": "PONRANG SELATAN",
  "name": "JENNE MAEJA",
  "postalCode": ""
 },
 {
  "id": 7317062005,
  "districtId": 7317062,
  "districtName": "PONRANG SELATAN",
  "name": "LAMPUARA",
  "postalCode": "91999"
 },
 {
  "id": 7317062006,
  "districtId": 7317062,
  "districtName": "PONRANG SELATAN",
  "name": "BAKTI",
  "postalCode": "71371"
 },
 {
  "id": 7317062007,
  "districtId": 7317062,
  "districtName": "PONRANG SELATAN",
  "name": "OLANG",
  "postalCode": "91999"
 },
 {
  "id": 7317062008,
  "districtId": 7317062,
  "districtName": "PONRANG SELATAN",
  "name": "BUNTU KARYA",
  "postalCode": "91999"
 },
 {
  "id": 7317062012,
  "districtId": 7317062,
  "districtName": "PONRANG SELATAN",
  "name": "BASSIANG",
  "postalCode": "91999"
 },
 {
  "id": 7317062013,
  "districtId": 7317062,
  "districtName": "PONRANG SELATAN",
  "name": "TARRAMATEKKENG",
  "postalCode": "91999"
 },
 {
  "id": 7317062014,
  "districtId": 7317062,
  "districtName": "PONRANG SELATAN",
  "name": "PATTEDONG SELATAN",
  "postalCode": "91999"
 },
 {
  "id": 7317062015,
  "districtId": 7317062,
  "districtName": "PONRANG SELATAN",
  "name": "TO'BIA",
  "postalCode": ""
 },
 {
  "id": 7317062016,
  "districtId": 7317062,
  "districtName": "PONRANG SELATAN",
  "name": "BASSIANG TIMUR",
  "postalCode": "91999"
 }
]