[
 {
  "id": 7322120013,
  "districtId": 7322120,
  "districtName": "MASAMBA",
  "name": "ROMPU",
  "postalCode": "92961"
 },
 {
  "id": 7322120014,
  "districtId": 7322120,
  "districtName": "MASAMBA",
  "name": "TORADA",
  "postalCode": ""
 },
 {
  "id": 7322120015,
  "districtId": 7322120,
  "districtName": "MASAMBA",
  "name": "PONGO",
  "postalCode": "92961"
 },
 {
  "id": 7322120016,
  "districtId": 7322120,
  "districtName": "MASAMBA",
  "name": "POMBAKKA",
  "postalCode": "92957"
 },
 {
  "id": 7322120017,
  "districtId": 7322120,
  "districtName": "MASAMBA",
  "name": "LAPAPA",
  "postalCode": "92961"
 },
 {
  "id": 7322120018,
  "districtId": 7322120,
  "districtName": "MASAMBA",
  "name": "LABA",
  "postalCode": "92961"
 },
 {
  "id": 7322120019,
  "districtId": 7322120,
  "districtName": "MASAMBA",
  "name": "KAPPUNA",
  "postalCode": "92913"
 },
 {
  "id": 7322120020,
  "districtId": 7322120,
  "districtName": "MASAMBA",
  "name": "BONE",
  "postalCode": "85571"
 },
 {
  "id": 7322120021,
  "districtId": 7322120,
  "districtName": "MASAMBA",
  "name": "BALOLI",
  "postalCode": ""
 },
 {
  "id": 7322120022,
  "districtId": 7322120,
  "districtName": "MASAMBA",
  "name": "KAMIRI",
  "postalCode": "90762"
 },
 {
  "id": 7322120023,
  "districtId": 7322120,
  "districtName": "MASAMBA",
  "name": "KASIMBONG",
  "postalCode": "92915"
 },
 {
  "id": 7322120024,
  "districtId": 7322120,
  "districtName": "MASAMBA",
  "name": "PANDAK",
  "postalCode": "24357"
 },
 {
  "id": 7322120025,
  "districtId": 7322120,
  "districtName": "MASAMBA",
  "name": "BALIASE",
  "postalCode": "94362"
 },
 {
  "id": 7322120026,
  "districtId": 7322120,
  "districtName": "MASAMBA",
  "name": "MASAMBA",
  "postalCode": "94652"
 },
 {
  "id": 7322120030,
  "districtId": 7322120,
  "districtName": "MASAMBA",
  "name": "SEPAKAT",
  "postalCode": "24562"
 },
 {
  "id": 7322120031,
  "districtId": 7322120,
  "districtName": "MASAMBA",
  "name": "PINCARA",
  "postalCode": "92961"
 },
 {
  "id": 7322120032,
  "districtId": 7322120,
  "districtName": "MASAMBA",
  "name": "LANTANG TALLANG",
  "postalCode": "92961"
 },
 {
  "id": 7322120033,
  "districtId": 7322120,
  "districtName": "MASAMBA",
  "name": "SUMILLIN",
  "postalCode": "92961"
 },
 {
  "id": 7322120034,
  "districtId": 7322120,
  "districtName": "MASAMBA",
  "name": "L E R O",
  "postalCode": ""
 },
 {
  "id": 7322120035,
  "districtId": 7322120,
  "districtName": "MASAMBA",
  "name": "UPT MAIPI",
  "postalCode": ""
 },
 {
  "id": 7322120036,
  "districtId": 7322120,
  "districtName": "MASAMBA",
  "name": "UPT. SEPAKAT",
  "postalCode": ""
 },
 {
  "id": 7322120037,
  "districtId": 7322120,
  "districtName": "MASAMBA",
  "name": "UPT LANTANG TALLANG",
  "postalCode": ""
 }
]