[
 {
  "id": 7325020001,
  "districtId": 7325020,
  "districtName": "WOTU",
  "name": "LERA",
  "postalCode": "92971"
 },
 {
  "id": 7325020002,
  "districtId": 7325020,
  "districtName": "WOTU",
  "name": "BAWALIPU",
  "postalCode": "92971"
 },
 {
  "id": 7325020003,
  "districtId": 7325020,
  "districtName": "WOTU",
  "name": "LAMPENAI",
  "postalCode": "92971"
 },
 {
  "id": 7325020004,
  "districtId": 7325020,
  "districtName": "WOTU",
  "name": "BAHARI",
  "postalCode": "94681"
 },
 {
  "id": 7325020005,
  "districtId": 7325020,
  "districtName": "WOTU",
  "name": "KALAENA",
  "postalCode": "92971"
 },
 {
  "id": 7325020006,
  "districtId": 7325020,
  "districtName": "WOTU",
  "name": "KOROMBUA",
  "postalCode": "92971"
 },
 {
  "id": 7325020007,
  "districtId": 7325020,
  "districtName": "WOTU",
  "name": "KANAWATU",
  "postalCode": "92971"
 },
 {
  "id": 7325020008,
  "districtId": 7325020,
  "districtName": "WOTU",
  "name": "MARAMBA",
  "postalCode": "92971"
 },
 {
  "id": 7325020009,
  "districtId": 7325020,
  "districtName": "WOTU",
  "name": "TARENGGE",
  "postalCode": "92971"
 },
 {
  "id": 7325020010,
  "districtId": 7325020,
  "districtName": "WOTU",
  "name": "CENDANA HIJAU",
  "postalCode": "92971"
 },
 {
  "id": 7325020011,
  "districtId": 7325020,
  "districtName": "WOTU",
  "name": "BALO BALO",
  "postalCode": ""
 },
 {
  "id": 7325020012,
  "districtId": 7325020,
  "districtName": "WOTU",
  "name": "PEPURO BARAT",
  "postalCode": "92971"
 },
 {
  "id": 7325020013,
  "districtId": 7325020,
  "districtName": "WOTU",
  "name": "RINJANI",
  "postalCode": "92971"
 },
 {
  "id": 7325020014,
  "districtId": 7325020,
  "districtName": "WOTU",
  "name": "MADANI",
  "postalCode": "29273"
 },
 {
  "id": 7325020015,
  "districtId": 7325020,
  "districtName": "WOTU",
  "name": "TARENGGE TIMUR",
  "postalCode": "92971"
 },
 {
  "id": 7325020016,
  "districtId": 7325020,
  "districtName": "WOTU",
  "name": "TABAROGE",
  "postalCode": "92971"
 }
]