[
 {
  "id": 7325080001,
  "districtId": 7325080,
  "districtName": "MANGKUTANA",
  "name": "BALAI KEMBANG",
  "postalCode": "92973"
 },
 {
  "id": 7325080002,
  "districtId": 7325080,
  "districtName": "MANGKUTANA",
  "name": "MANGGALA",
  "postalCode": "79672"
 },
 {
  "id": 7325080006,
  "districtId": 7325080,
  "districtName": "MANGKUTANA",
  "name": "WONOREJO",
  "postalCode": "21186"
 },
 {
  "id": 7325080007,
  "districtId": 7325080,
  "districtName": "MANGKUTANA",
  "name": "MALEKU",
  "postalCode": "92973"
 },
 {
  "id": 7325080008,
  "districtId": 7325080,
  "districtName": "MANGKUTANA",
  "name": "PANCA KARSA",
  "postalCode": "92973"
 },
 {
  "id": 7325080009,
  "districtId": 7325080,
  "districtName": "MANGKUTANA",
  "name": "MARGOLEMBO",
  "postalCode": "92973"
 },
 {
  "id": 7325080010,
  "districtId": 7325080,
  "districtName": "MANGKUTANA",
  "name": "KASINTUWU",
  "postalCode": "94611"
 },
 {
  "id": 7325080011,
  "districtId": 7325080,
  "districtName": "MANGKUTANA",
  "name": "TEROMU",
  "postalCode": "92973"
 },
 {
  "id": 7325080012,
  "districtId": 7325080,
  "districtName": "MANGKUTANA",
  "name": "WONOREJO TIMUR",
  "postalCode": "92973"
 },
 {
  "id": 7325080013,
  "districtId": 7325080,
  "districtName": "MANGKUTANA",
  "name": "SINDU AGUNG",
  "postalCode": "92973"
 },
 {
  "id": 7325080014,
  "districtId": 7325080,
  "districtName": "MANGKUTANA",
  "name": "KORONCIA",
  "postalCode": "92973"
 }
]