[
 {
  "id": 7371100007,
  "districtId": 7371100,
  "districtName": "PANAKKUKANG",
  "name": "PAROPO",
  "postalCode": "22281"
 },
 {
  "id": 7371100008,
  "districtId": 7371100,
  "districtName": "PANAKKUKANG",
  "name": "KARAMPUANG",
  "postalCode": "90231"
 },
 {
  "id": 7371100009,
  "districtId": 7371100,
  "districtName": "PANAKKUKANG",
  "name": "PANDANG",
  "postalCode": "90231"
 },
 {
  "id": 7371100010,
  "districtId": 7371100,
  "districtName": "PANAKKUKANG",
  "name": "MASALE",
  "postalCode": "90231"
 },
 {
  "id": 7371100011,
  "districtId": 7371100,
  "districtName": "PANAKKUKANG",
  "name": "TAMAMAUNG",
  "postalCode": "90231"
 },
 {
  "id": 7371100012,
  "districtId": 7371100,
  "districtName": "PANAKKUKANG",
  "name": "KARUWISI",
  "postalCode": "90232"
 },
 {
  "id": 7371100013,
  "districtId": 7371100,
  "districtName": "PANAKKUKANG",
  "name": "SINRI JALA",
  "postalCode": "90231"
 },
 {
  "id": 7371100014,
  "districtId": 7371100,
  "districtName": "PANAKKUKANG",
  "name": "KARUWISI UTARA",
  "postalCode": "90232"
 },
 {
  "id": 7371100015,
  "districtId": 7371100,
  "districtName": "PANAKKUKANG",
  "name": "PAMPANG",
  "postalCode": "55871"
 },
 {
  "id": 7371100016,
  "districtId": 7371100,
  "districtName": "PANAKKUKANG",
  "name": "PANAIKANG",
  "postalCode": "92311"
 },
 {
  "id": 7371100017,
  "districtId": 7371100,
  "districtName": "PANAKKUKANG",
  "name": "TELLO BARU",
  "postalCode": "90233"
 }
]