[
 {
  "id": 7371110004,
  "districtId": 7371110,
  "districtName": "BIRING KANAYA",
  "name": "PACCERAKANG",
  "postalCode": "90241"
 },
 {
  "id": 7371110005,
  "districtId": 7371110,
  "districtName": "BIRING KANAYA",
  "name": "DAYA",
  "postalCode": "90241"
 },
 {
  "id": 7371110009,
  "districtId": 7371110,
  "districtName": "BIRING KANAYA",
  "name": "P A I",
  "postalCode": ""
 },
 {
  "id": 7371110010,
  "districtId": 7371110,
  "districtName": "BIRING KANAYA",
  "name": "SUDIANG RAYA",
  "postalCode": "90242"
 },
 {
  "id": 7371110011,
  "districtId": 7371110,
  "districtName": "BIRING KANAYA",
  "name": "SUDIANG",
  "postalCode": "90242"
 },
 {
  "id": 7371110012,
  "districtId": 7371110,
  "districtName": "BIRING KANAYA",
  "name": "BULUROKENG",
  "postalCode": ""
 },
 {
  "id": 7371110013,
  "districtId": 7371110,
  "districtName": "BIRING KANAYA",
  "name": "UNTIA",
  "postalCode": "90241"
 },
 {
  "id": 7371110014,
  "districtId": 7371110,
  "districtName": "BIRING KANAYA",
  "name": "BERUA",
  "postalCode": "22816"
 },
 {
  "id": 7371110015,
  "districtId": 7371110,
  "districtName": "BIRING KANAYA",
  "name": "KATIMBANG",
  "postalCode": "91352"
 },
 {
  "id": 7371110016,
  "districtId": 7371110,
  "districtName": "BIRING KANAYA",
  "name": "BAKUNG",
  "postalCode": "36382"
 },
 {
  "id": 7371110017,
  "districtId": 7371110,
  "districtName": "BIRING KANAYA",
  "name": "LAIKANG",
  "postalCode": "92574"
 }
]