[
 {
  "id": 7371050001,
  "districtId": 7371050,
  "districtName": "UJUNG PANDANG",
  "name": "LAE - LAE",
  "postalCode": "90111"
 },
 {
  "id": 7371050002,
  "districtId": 7371050,
  "districtName": "UJUNG PANDANG",
  "name": "LOSARI",
  "postalCode": "52364"
 },
 {
  "id": 7371050003,
  "districtId": 7371050,
  "districtName": "UJUNG PANDANG",
  "name": "MANGKURA",
  "postalCode": "90113"
 },
 {
  "id": 7371050004,
  "districtId": 7371050,
  "districtName": "UJUNG PANDANG",
  "name": "PISANG SELATAN",
  "postalCode": "90114"
 },
 {
  "id": 7371050005,
  "districtId": 7371050,
  "districtName": "UJUNG PANDANG",
  "name": "LAJANGIRU",
  "postalCode": "90114"
 },
 {
  "id": 7371050006,
  "districtId": 7371050,
  "districtName": "UJUNG PANDANG",
  "name": "SAWERIGADING",
  "postalCode": "90113"
 },
 {
  "id": 7371050007,
  "districtId": 7371050,
  "districtName": "UJUNG PANDANG",
  "name": "MALOKU",
  "postalCode": "90112"
 },
 {
  "id": 7371050008,
  "districtId": 7371050,
  "districtName": "UJUNG PANDANG",
  "name": "BULOGADING",
  "postalCode": "92153"
 },
 {
  "id": 7371050009,
  "districtId": 7371050,
  "districtName": "UJUNG PANDANG",
  "name": "BARU",
  "postalCode": "23764"
 },
 {
  "id": 7371050010,
  "districtId": 7371050,
  "districtName": "UJUNG PANDANG",
  "name": "PISANG UTARA",
  "postalCode": "90115"
 }
]