[
 {
  "id": 7371031001,
  "districtId": 7371031,
  "districtName": "RAPPOCINI",
  "name": "GUNUNG SARI",
  "postalCode": "28471"
 },
 {
  "id": 7371031002,
  "districtId": 7371031,
  "districtName": "RAPPOCINI",
  "name": "KARUNRUNG",
  "postalCode": "90222"
 },
 {
  "id": 7371031003,
  "districtId": 7371031,
  "districtName": "RAPPOCINI",
  "name": "MAPPALA",
  "postalCode": "90222"
 },
 {
  "id": 7371031004,
  "districtId": 7371031,
  "districtName": "RAPPOCINI",
  "name": "KASSI-KASSI",
  "postalCode": "90222"
 },
 {
  "id": 7371031005,
  "districtId": 7371031,
  "districtName": "RAPPOCINI",
  "name": "BONTO MAKKIO",
  "postalCode": "90222"
 },
 {
  "id": 7371031006,
  "districtId": 7371031,
  "districtName": "RAPPOCINI",
  "name": "TIDUNG",
  "postalCode": "90222"
 },
 {
  "id": 7371031007,
  "districtId": 7371031,
  "districtName": "RAPPOCINI",
  "name": "BANTA-BANTAENG",
  "postalCode": "90222"
 },
 {
  "id": 7371031008,
  "districtId": 7371031,
  "districtName": "RAPPOCINI",
  "name": "BUAKANA",
  "postalCode": "90222"
 },
 {
  "id": 7371031009,
  "districtId": 7371031,
  "districtName": "RAPPOCINI",
  "name": "RAPPOCINI",
  "postalCode": "90222"
 },
 {
  "id": 7371031010,
  "districtId": 7371031,
  "districtName": "RAPPOCINI",
  "name": "BALLAPARANG",
  "postalCode": "90222"
 },
 {
  "id": 7371031011,
  "districtId": 7371031,
  "districtName": "RAPPOCINI",
  "name": "MINASA UPA",
  "postalCode": "90554"
 }
]