[
 {
  "id": 7371080004,
  "districtId": 7371080,
  "districtName": "UJUNG TANAH",
  "name": "UJUNG TANAH",
  "postalCode": "23762"
 },
 {
  "id": 7371080005,
  "districtId": 7371080,
  "districtName": "UJUNG TANAH",
  "name": "TAMALABBA",
  "postalCode": "90164"
 },
 {
  "id": 7371080006,
  "districtId": 7371080,
  "districtName": "UJUNG TANAH",
  "name": "TABARINGAN",
  "postalCode": "90165"
 },
 {
  "id": 7371080007,
  "districtId": 7371080,
  "districtName": "UJUNG TANAH",
  "name": "TOTAKA",
  "postalCode": "90165"
 },
 {
  "id": 7371080008,
  "districtId": 7371080,
  "districtName": "UJUNG TANAH",
  "name": "PATTINGALLOANG",
  "postalCode": "90161"
 },
 {
  "id": 7371080010,
  "districtId": 7371080,
  "districtName": "UJUNG TANAH",
  "name": "PATTINGALLOANG BARU",
  "postalCode": "90161"
 },
 {
  "id": 7371080011,
  "districtId": 7371080,
  "districtName": "UJUNG TANAH",
  "name": "CAMBA BERUA",
  "postalCode": "90162"
 },
 {
  "id": 7371080012,
  "districtId": 7371080,
  "districtName": "UJUNG TANAH",
  "name": "CAMBAYA",
  "postalCode": "90162"
 }
]