[
 {
  "id": 7402081001,
  "districtId": 7402081,
  "districtName": "LASALEPA",
  "name": "BANGUN SARI",
  "postalCode": "24782"
 },
 {
  "id": 7402081002,
  "districtId": 7402081,
  "districtName": "LASALEPA",
  "name": "LASALEPA",
  "postalCode": "93654"
 },
 {
  "id": 7402081003,
  "districtId": 7402081,
  "districtName": "LASALEPA",
  "name": "PARIDA",
  "postalCode": "93654"
 },
 {
  "id": 7402081004,
  "districtId": 7402081,
  "districtName": "LASALEPA",
  "name": "LABUNTI",
  "postalCode": "93654"
 },
 {
  "id": 7402081005,
  "districtId": 7402081,
  "districtName": "LASALEPA",
  "name": "BONEA",
  "postalCode": "92862"
 },
 {
  "id": 7402081006,
  "districtId": 7402081,
  "districtName": "LASALEPA",
  "name": "LABONE",
  "postalCode": "93654"
 },
 {
  "id": 7402081007,
  "districtId": 7402081,
  "districtName": "LASALEPA",
  "name": "KOMBUNGO",
  "postalCode": "93654"
 },
 {
  "id": 7402081008,
  "districtId": 7402081,
  "districtName": "LASALEPA",
  "name": "RODA",
  "postalCode": "93395"
 }
]