[
 {
  "id": 7402020010,
  "districtId": 7402020,
  "districtName": "PARIGI",
  "name": "WARAMBE",
  "postalCode": "93663"
 },
 {
  "id": 7402020011,
  "districtId": 7402020,
  "districtName": "PARIGI",
  "name": "WALAMBENO WITE",
  "postalCode": "93663"
 },
 {
  "id": 7402020012,
  "districtId": 7402020,
  "districtName": "PARIGI",
  "name": "WAKUMORO",
  "postalCode": "93663"
 },
 {
  "id": 7402020013,
  "districtId": 7402020,
  "districtName": "PARIGI",
  "name": "KOSUNDANO",
  "postalCode": ""
 },
 {
  "id": 7402020014,
  "districtId": 7402020,
  "districtName": "PARIGI",
  "name": "KOLASA",
  "postalCode": "93663"
 },
 {
  "id": 7402020015,
  "districtId": 7402020,
  "districtName": "PARIGI",
  "name": "PARIGI",
  "postalCode": "22756"
 },
 {
  "id": 7402020016,
  "districtId": 7402020,
  "districtName": "PARIGI",
  "name": "WASOLANGKA",
  "postalCode": "93663"
 },
 {
  "id": 7402020017,
  "districtId": 7402020,
  "districtName": "PARIGI",
  "name": "WAPUALE",
  "postalCode": "93663"
 },
 {
  "id": 7402020018,
  "districtId": 7402020,
  "districtName": "PARIGI",
  "name": "LABULU-BULU",
  "postalCode": "93663"
 },
 {
  "id": 7402020019,
  "districtId": 7402020,
  "districtName": "PARIGI",
  "name": "LATAMPU",
  "postalCode": ""
 },
 {
  "id": 7402020020,
  "districtId": 7402020,
  "districtName": "PARIGI",
  "name": "LAIBA",
  "postalCode": "93663"
 },
 {
  "id": 7402020021,
  "districtId": 7402020,
  "districtName": "PARIGI",
  "name": "KATAPI",
  "postalCode": ""
 },
 {
  "id": 7402020022,
  "districtId": 7402020,
  "districtName": "PARIGI",
  "name": "LATONGKU",
  "postalCode": ""
 },
 {
  "id": 7402020023,
  "districtId": 7402020,
  "districtName": "PARIGI",
  "name": "LABALIA",
  "postalCode": ""
 },
 {
  "id": 7402020024,
  "districtId": 7402020,
  "districtName": "PARIGI",
  "name": "LATANDI WUNA",
  "postalCode": ""
 }
]