[
 {
  "id": 7403132001,
  "districtId": 7403132,
  "districtName": "PURIALA",
  "name": "PURIALA",
  "postalCode": "93464"
 },
 {
  "id": 7403132002,
  "districtId": 7403132,
  "districtName": "PURIALA",
  "name": "POANAHA",
  "postalCode": ""
 },
 {
  "id": 7403132003,
  "districtId": 7403132,
  "districtName": "PURIALA",
  "name": "AHUAWALI",
  "postalCode": "93464"
 },
 {
  "id": 7403132004,
  "districtId": 7403132,
  "districtName": "PURIALA",
  "name": "WATANDEHOA",
  "postalCode": ""
 },
 {
  "id": 7403132005,
  "districtId": 7403132,
  "districtName": "PURIALA",
  "name": "SONAI",
  "postalCode": "93464"
 },
 {
  "id": 7403132006,
  "districtId": 7403132,
  "districtName": "PURIALA",
  "name": "WATUSA",
  "postalCode": "93464"
 },
 {
  "id": 7403132007,
  "districtId": 7403132,
  "districtName": "PURIALA",
  "name": "WONUA MOROME",
  "postalCode": ""
 },
 {
  "id": 7403132008,
  "districtId": 7403132,
  "districtName": "PURIALA",
  "name": "PUUSANGI",
  "postalCode": "93464"
 },
 {
  "id": 7403132009,
  "districtId": 7403132,
  "districtName": "PURIALA",
  "name": "LALONGGATU",
  "postalCode": "93464"
 },
 {
  "id": 7403132010,
  "districtId": 7403132,
  "districtName": "PURIALA",
  "name": "TETEWATU",
  "postalCode": "90871"
 },
 {
  "id": 7403132011,
  "districtId": 7403132,
  "districtName": "PURIALA",
  "name": "MOKALELEO",
  "postalCode": "93464"
 },
 {
  "id": 7403132012,
  "districtId": 7403132,
  "districtName": "PURIALA",
  "name": "UNGGULINO",
  "postalCode": "93875"
 },
 {
  "id": 7403132013,
  "districtId": 7403132,
  "districtName": "PURIALA",
  "name": "TETEHAKA",
  "postalCode": "93875"
 },
 {
  "id": 7403132014,
  "districtId": 7403132,
  "districtName": "PURIALA",
  "name": "PUUHOPA",
  "postalCode": "93464"
 },
 {
  "id": 7403132015,
  "districtId": 7403132,
  "districtName": "PURIALA",
  "name": "LALO ONAHA",
  "postalCode": ""
 },
 {
  "id": 7403132016,
  "districtId": 7403132,
  "districtName": "PURIALA",
  "name": "WAWO SANGGULA",
  "postalCode": ""
 }
]