[
 {
  "id": 7403170001,
  "districtId": 7403170,
  "districtName": "UNAAHA",
  "name": "PUUNAAHA",
  "postalCode": "93411"
 },
 {
  "id": 7403170002,
  "districtId": 7403170,
  "districtName": "UNAAHA",
  "name": "TUMPAS",
  "postalCode": "93411"
 },
 {
  "id": 7403170003,
  "districtId": 7403170,
  "districtName": "UNAAHA",
  "name": "AROMBU",
  "postalCode": "93412"
 },
 {
  "id": 7403170004,
  "districtId": 7403170,
  "districtName": "UNAAHA",
  "name": "LATOMA",
  "postalCode": "93414"
 },
 {
  "id": 7403170005,
  "districtId": 7403170,
  "districtName": "UNAAHA",
  "name": "AMBEKAIRI",
  "postalCode": "93413"
 },
 {
  "id": 7403170006,
  "districtId": 7403170,
  "districtName": "UNAAHA",
  "name": "TUOY",
  "postalCode": "93415"
 },
 {
  "id": 7403170007,
  "districtId": 7403170,
  "districtName": "UNAAHA",
  "name": "ASINUA",
  "postalCode": "93416"
 },
 {
  "id": 7403170012,
  "districtId": 7403170,
  "districtName": "UNAAHA",
  "name": "UNAAHA",
  "postalCode": "93418"
 },
 {
  "id": 7403170013,
  "districtId": 7403170,
  "districtName": "UNAAHA",
  "name": "WAWONGGOLE",
  "postalCode": "93416"
 },
 {
  "id": 7403170014,
  "districtId": 7403170,
  "districtName": "UNAAHA",
  "name": "INOLOBUNGGADUE",
  "postalCode": "93416"
 },
 {
  "id": 7403170015,
  "districtId": 7403170,
  "districtName": "UNAAHA",
  "name": "TOBEU",
  "postalCode": "93416"
 },
 {
  "id": 7403170016,
  "districtId": 7403170,
  "districtName": "UNAAHA",
  "name": "ASAMBU",
  "postalCode": "93416"
 }
]