[
 {
  "id": 7403141001,
  "districtId": 7403141,
  "districtName": "WONGGEDUKU",
  "name": "DAWI-DAWI",
  "postalCode": "93562"
 },
 {
  "id": 7403141002,
  "districtId": 7403141,
  "districtName": "WONGGEDUKU",
  "name": "ANGGORO",
  "postalCode": ""
 },
 {
  "id": 7403141003,
  "districtId": 7403141,
  "districtName": "WONGGEDUKU",
  "name": "BENDEWUTA",
  "postalCode": "93353"
 },
 {
  "id": 7403141004,
  "districtId": 7403141,
  "districtName": "WONGGEDUKU",
  "name": "WAWOSOLO",
  "postalCode": "93463"
 },
 {
  "id": 7403141005,
  "districtId": 7403141,
  "districtName": "WONGGEDUKU",
  "name": "PUUDURIA",
  "postalCode": "93463"
 },
 {
  "id": 7403141006,
  "districtId": 7403141,
  "districtName": "WONGGEDUKU",
  "name": "DURIA ASI",
  "postalCode": ""
 },
 {
  "id": 7403141015,
  "districtId": 7403141,
  "districtName": "WONGGEDUKU",
  "name": "WAWONGGOLE",
  "postalCode": "93416"
 },
 {
  "id": 7403141016,
  "districtId": 7403141,
  "districtName": "WONGGEDUKU",
  "name": "LALOHAO",
  "postalCode": "93463"
 },
 {
  "id": 7403141017,
  "districtId": 7403141,
  "districtName": "WONGGEDUKU",
  "name": "WAWOONE",
  "postalCode": "93393"
 },
 {
  "id": 7403141018,
  "districtId": 7403141,
  "districtName": "WONGGEDUKU",
  "name": "WUKUSAO",
  "postalCode": ""
 },
 {
  "id": 7403141021,
  "districtId": 7403141,
  "districtName": "WONGGEDUKU",
  "name": "LALOUSU",
  "postalCode": "93463"
 },
 {
  "id": 7403141022,
  "districtId": 7403141,
  "districtName": "WONGGEDUKU",
  "name": "TETEMOTAHA",
  "postalCode": "93463"
 },
 {
  "id": 7403141025,
  "districtId": 7403141,
  "districtName": "WONGGEDUKU",
  "name": "POLANDANGI",
  "postalCode": ""
 },
 {
  "id": 7403141026,
  "districtId": 7403141,
  "districtName": "WONGGEDUKU",
  "name": "TAWAROLONDO",
  "postalCode": "93463"
 },
 {
  "id": 7403141029,
  "districtId": 7403141,
  "districtName": "WONGGEDUKU",
  "name": "LANGGONAWE",
  "postalCode": "93463"
 }
]