[
 {
  "id": 7403142001,
  "districtId": 7403142,
  "districtName": "AMONGGEDO",
  "name": "MATA BURA",
  "postalCode": "93463"
 },
 {
  "id": 7403142002,
  "districtId": 7403142,
  "districtName": "AMONGGEDO",
  "name": "WAWOHINE",
  "postalCode": "93463"
 },
 {
  "id": 7403142003,
  "districtId": 7403142,
  "districtName": "AMONGGEDO",
  "name": "DUNGGUA",
  "postalCode": "93463"
 },
 {
  "id": 7403142004,
  "districtId": 7403142,
  "districtName": "AMONGGEDO",
  "name": "BENUA",
  "postalCode": "93463"
 },
 {
  "id": 7403142005,
  "districtId": 7403142,
  "districtName": "AMONGGEDO",
  "name": "MENDIKONU",
  "postalCode": "93463"
 },
 {
  "id": 7403142006,
  "districtId": 7403142,
  "districtName": "AMONGGEDO",
  "name": "AMENDETE",
  "postalCode": ""
 },
 {
  "id": 7403142007,
  "districtId": 7403142,
  "districtName": "AMONGGEDO",
  "name": "LALONONA",
  "postalCode": "93463"
 },
 {
  "id": 7403142008,
  "districtId": 7403142,
  "districtName": "AMONGGEDO",
  "name": "AMONGGEDO BARU",
  "postalCode": "93463"
 },
 {
  "id": 7403142009,
  "districtId": 7403142,
  "districtName": "AMONGGEDO",
  "name": "WATULAWU",
  "postalCode": "93463"
 },
 {
  "id": 7403142010,
  "districtId": 7403142,
  "districtName": "AMONGGEDO",
  "name": "ANAHINUNU",
  "postalCode": "93463"
 },
 {
  "id": 7403142011,
  "districtId": 7403142,
  "districtName": "AMONGGEDO",
  "name": "PUASANA",
  "postalCode": "93463"
 },
 {
  "id": 7403142012,
  "districtId": 7403142,
  "districtName": "AMONGGEDO",
  "name": "ULU BENUA",
  "postalCode": "93463"
 },
 {
  "id": 7403142013,
  "districtId": 7403142,
  "districtName": "AMONGGEDO",
  "name": "AMONGGEDO",
  "postalCode": "93463"
 },
 {
  "id": 7403142014,
  "districtId": 7403142,
  "districtName": "AMONGGEDO",
  "name": "MATAIWOI",
  "postalCode": "93819"
 },
 {
  "id": 7403142015,
  "districtId": 7403142,
  "districtName": "AMONGGEDO",
  "name": "LALOMBONDA",
  "postalCode": "93351"
 }
]