[
 {
  "id": 7404070010,
  "districtId": 7404070,
  "districtName": "WOLO",
  "name": "DONGGALA",
  "postalCode": "93552"
 },
 {
  "id": 7404070011,
  "districtId": 7404070,
  "districtName": "WOLO",
  "name": "ULU LAPAO-PAO",
  "postalCode": "93552"
 },
 {
  "id": 7404070012,
  "districtId": 7404070,
  "districtName": "WOLO",
  "name": "LAPAO-PAO",
  "postalCode": "93552"
 },
 {
  "id": 7404070013,
  "districtId": 7404070,
  "districtName": "WOLO",
  "name": "TOLOWE PONRE WARU",
  "postalCode": ""
 },
 {
  "id": 7404070014,
  "districtId": 7404070,
  "districtName": "WOLO",
  "name": "LANGGOMALI",
  "postalCode": "93552"
 },
 {
  "id": 7404070015,
  "districtId": 7404070,
  "districtName": "WOLO",
  "name": "ULU WOLO",
  "postalCode": "93552"
 },
 {
  "id": 7404070016,
  "districtId": 7404070,
  "districtName": "WOLO",
  "name": "WOLO",
  "postalCode": "58161"
 },
 {
  "id": 7404070017,
  "districtId": 7404070,
  "districtName": "WOLO",
  "name": "LALONAHA",
  "postalCode": "93552"
 },
 {
  "id": 7404070018,
  "districtId": 7404070,
  "districtName": "WOLO",
  "name": "L A N A",
  "postalCode": ""
 },
 {
  "id": 7404070024,
  "districtId": 7404070,
  "districtName": "WOLO",
  "name": "MUARA LAPAO PAO",
  "postalCode": "93552"
 },
 {
  "id": 7404070025,
  "districtId": 7404070,
  "districtName": "WOLO",
  "name": "LALONGGOPI",
  "postalCode": "93552"
 },
 {
  "id": 7404070027,
  "districtId": 7404070,
  "districtName": "WOLO",
  "name": "SAMAENRE",
  "postalCode": "92763"
 },
 {
  "id": 7404070028,
  "districtId": 7404070,
  "districtName": "WOLO",
  "name": "IWOIMAPURO",
  "postalCode": ""
 },
 {
  "id": 7404070029,
  "districtId": 7404070,
  "districtName": "WOLO",
  "name": "ULU RINA",
  "postalCode": ""
 }
]