[
 {
  "id": 7404031001,
  "districtId": 7404031,
  "districtName": "BAULA",
  "name": "LONGORI",
  "postalCode": ""
 },
 {
  "id": 7404031002,
  "districtId": 7404031,
  "districtName": "BAULA",
  "name": "PUUNDOHO",
  "postalCode": "93819"
 },
 {
  "id": 7404031003,
  "districtId": 7404031,
  "districtName": "BAULA",
  "name": "PUULEMO",
  "postalCode": "93561"
 },
 {
  "id": 7404031004,
  "districtId": 7404031,
  "districtName": "BAULA",
  "name": "BAULA",
  "postalCode": "91662"
 },
 {
  "id": 7404031005,
  "districtId": 7404031,
  "districtName": "BAULA",
  "name": "PUUBENUA",
  "postalCode": "93561"
 },
 {
  "id": 7404031006,
  "districtId": 7404031,
  "districtName": "BAULA",
  "name": "PUUBUNGA",
  "postalCode": "93561"
 },
 {
  "id": 7404031007,
  "districtId": 7404031,
  "districtName": "BAULA",
  "name": "PUURODA",
  "postalCode": "93561"
 },
 {
  "id": 7404031008,
  "districtId": 7404031,
  "districtName": "BAULA",
  "name": "PEWUTAA",
  "postalCode": "93875"
 },
 {
  "id": 7404031009,
  "districtId": 7404031,
  "districtName": "BAULA",
  "name": "WATALARA",
  "postalCode": "93561"
 },
 {
  "id": 7404031010,
  "districtId": 7404031,
  "districtName": "BAULA",
  "name": "ULU BAULA",
  "postalCode": ""
 }
]