[
 {
  "id": 7404030007,
  "districtId": 7404030,
  "districtName": "WUNDULAKO",
  "name": "TOWUA I",
  "postalCode": "93561"
 },
 {
  "id": 7404030011,
  "districtId": 7404030,
  "districtName": "WUNDULAKO",
  "name": "NGAPA",
  "postalCode": "93958"
 },
 {
  "id": 7404030013,
  "districtId": 7404030,
  "districtName": "WUNDULAKO",
  "name": "SABIANO",
  "postalCode": "93561"
 },
 {
  "id": 7404030014,
  "districtId": 7404030,
  "districtName": "WUNDULAKO",
  "name": "UNA MENDAA",
  "postalCode": "93561"
 },
 {
  "id": 7404030015,
  "districtId": 7404030,
  "districtName": "WUNDULAKO",
  "name": "LAMEKONGGA",
  "postalCode": "93561"
 },
 {
  "id": 7404030016,
  "districtId": 7404030,
  "districtName": "WUNDULAKO",
  "name": "SILEA",
  "postalCode": "93354"
 },
 {
  "id": 7404030017,
  "districtId": 7404030,
  "districtName": "WUNDULAKO",
  "name": "KOWIOHA",
  "postalCode": "93561"
 },
 {
  "id": 7404030018,
  "districtId": 7404030,
  "districtName": "WUNDULAKO",
  "name": "TIKONU",
  "postalCode": "93561"
 },
 {
  "id": 7404030019,
  "districtId": 7404030,
  "districtName": "WUNDULAKO",
  "name": "WUNDULAKO",
  "postalCode": "93561"
 },
 {
  "id": 7404030020,
  "districtId": 7404030,
  "districtName": "WUNDULAKO",
  "name": "19 NOPEMBER",
  "postalCode": "93561"
 }
]