[
 {
  "id": 7404020001,
  "districtId": 7404020,
  "districtName": "POMALAA",
  "name": "OKO OKO",
  "postalCode": "93562"
 },
 {
  "id": 7404020002,
  "districtId": 7404020,
  "districtName": "POMALAA",
  "name": "SOPURA",
  "postalCode": "93562"
 },
 {
  "id": 7404020003,
  "districtId": 7404020,
  "districtName": "POMALAA",
  "name": "HAKATUTOBU",
  "postalCode": "93562"
 },
 {
  "id": 7404020004,
  "districtId": 7404020,
  "districtName": "POMALAA",
  "name": "TAMBEA",
  "postalCode": "93562"
 },
 {
  "id": 7404020005,
  "districtId": 7404020,
  "districtName": "POMALAA",
  "name": "POMALAA",
  "postalCode": "93562"
 },
 {
  "id": 7404020006,
  "districtId": 7404020,
  "districtName": "POMALAA",
  "name": "KUMORO",
  "postalCode": "93562"
 },
 {
  "id": 7404020007,
  "districtId": 7404020,
  "districtName": "POMALAA",
  "name": "DAWI-DAWI",
  "postalCode": "93562"
 },
 {
  "id": 7404020008,
  "districtId": 7404020,
  "districtName": "POMALAA",
  "name": "TONGGONI",
  "postalCode": "93562"
 },
 {
  "id": 7404020009,
  "districtId": 7404020,
  "districtName": "POMALAA",
  "name": "TOTOBO",
  "postalCode": "93562"
 },
 {
  "id": 7404020010,
  "districtId": 7404020,
  "districtName": "POMALAA",
  "name": "PELAMBUA",
  "postalCode": "93562"
 },
 {
  "id": 7404020011,
  "districtId": 7404020,
  "districtName": "POMALAA",
  "name": "PESOUHA",
  "postalCode": "93562"
 },
 {
  "id": 7404020012,
  "districtId": 7404020,
  "districtName": "POMALAA",
  "name": "HUKO HUKO",
  "postalCode": "93562"
 }
]