[
 {
  "id": 7405111001,
  "districtId": 7405111,
  "districtName": "BENUA",
  "name": "PUUNGGAWU KAWU",
  "postalCode": ""
 },
 {
  "id": 7405111002,
  "districtId": 7405111,
  "districtName": "BENUA",
  "name": "PALOWEWU",
  "postalCode": ""
 },
 {
  "id": 7405111003,
  "districtId": 7405111,
  "districtName": "BENUA",
  "name": "BENUA",
  "postalCode": "93463"
 },
 {
  "id": 7405111004,
  "districtId": 7405111,
  "districtName": "BENUA",
  "name": "HORODOPI",
  "postalCode": "93875"
 },
 {
  "id": 7405111005,
  "districtId": 7405111,
  "districtName": "BENUA",
  "name": "BENUA UTAMA",
  "postalCode": "93875"
 },
 {
  "id": 7405111006,
  "districtId": 7405111,
  "districtName": "BENUA",
  "name": "PUOSU",
  "postalCode": "93571"
 },
 {
  "id": 7405111007,
  "districtId": 7405111,
  "districtName": "BENUA",
  "name": "LAMARA",
  "postalCode": "93875"
 },
 {
  "id": 7405111008,
  "districtId": 7405111,
  "districtName": "BENUA",
  "name": "UELAWA",
  "postalCode": "93875"
 },
 {
  "id": 7405111010,
  "districtId": 7405111,
  "districtName": "BENUA",
  "name": "WAWORAHA",
  "postalCode": "93464"
 },
 {
  "id": 7405111011,
  "districtId": 7405111,
  "districtName": "BENUA",
  "name": "PUUWEHUKO",
  "postalCode": "93875"
 },
 {
  "id": 7405111012,
  "districtId": 7405111,
  "districtName": "BENUA",
  "name": "TETEHAKA",
  "postalCode": "93875"
 },
 {
  "id": 7405111014,
  "districtId": 7405111,
  "districtName": "BENUA",
  "name": "AWALO JAYA",
  "postalCode": ""
 },
 {
  "id": 7405111015,
  "districtId": 7405111,
  "districtName": "BENUA",
  "name": "KOSAMBI",
  "postalCode": "41257"
 }
]