[
 {
  "id": 7405020001,
  "districtId": 7405020,
  "districtName": "ANDOOLO",
  "name": "LALOBAO",
  "postalCode": "93819"
 },
 {
  "id": 7405020002,
  "districtId": 7405020,
  "districtName": "ANDOOLO",
  "name": "WUNDUWATU",
  "postalCode": "93819"
 },
 {
  "id": 7405020003,
  "districtId": 7405020,
  "districtName": "ANDOOLO",
  "name": "BUMI RAYA",
  "postalCode": "35228"
 },
 {
  "id": 7405020012,
  "districtId": 7405020,
  "districtName": "ANDOOLO",
  "name": "LALONGGOMBU",
  "postalCode": "93813"
 },
 {
  "id": 7405020013,
  "districtId": 7405020,
  "districtName": "ANDOOLO",
  "name": "ANDOOLO",
  "postalCode": ""
 },
 {
  "id": 7405020014,
  "districtId": 7405020,
  "districtName": "ANDOOLO",
  "name": "ALANGGA",
  "postalCode": "93811"
 },
 {
  "id": 7405020015,
  "districtId": 7405020,
  "districtName": "ANDOOLO",
  "name": "POTORO",
  "postalCode": "93811"
 },
 {
  "id": 7405020016,
  "districtId": 7405020,
  "districtName": "ANDOOLO",
  "name": "ALENGGE AGUNG",
  "postalCode": "93811"
 },
 {
  "id": 7405020031,
  "districtId": 7405020,
  "districtName": "ANDOOLO",
  "name": "PUUNGGAPU INDAH",
  "postalCode": ""
 },
 {
  "id": 7405020033,
  "districtId": 7405020,
  "districtName": "ANDOOLO",
  "name": "ATAKU",
  "postalCode": "93819"
 }
]