[
 {
  "id": 7406043001,
  "districtId": 7406043,
  "districtName": "LANTARI JAYA",
  "name": "LANTARI",
  "postalCode": "93774"
 },
 {
  "id": 7406043002,
  "districtId": 7406043,
  "districtName": "LANTARI JAYA",
  "name": "PASSARE APUA",
  "postalCode": ""
 },
 {
  "id": 7406043003,
  "districtId": 7406043,
  "districtName": "LANTARI JAYA",
  "name": "ANUGERAH",
  "postalCode": "93774"
 },
 {
  "id": 7406043004,
  "districtId": 7406043,
  "districtName": "LANTARI JAYA",
  "name": "LOMBA KASIH",
  "postalCode": "93774"
 },
 {
  "id": 7406043005,
  "districtId": 7406043,
  "districtName": "LANTARI JAYA",
  "name": "LANGKOWALA",
  "postalCode": "93774"
 },
 {
  "id": 7406043006,
  "districtId": 7406043,
  "districtName": "LANTARI JAYA",
  "name": "RARONGKEU",
  "postalCode": "93774"
 },
 {
  "id": 7406043007,
  "districtId": 7406043,
  "districtName": "LANTARI JAYA",
  "name": "KALAERO",
  "postalCode": "93774"
 },
 {
  "id": 7406043008,
  "districtId": 7406043,
  "districtName": "LANTARI JAYA",
  "name": "WATU-WATU",
  "postalCode": "93121"
 },
 {
  "id": 7406043009,
  "districtId": 7406043,
  "districtName": "LANTARI JAYA",
  "name": "TINABITE",
  "postalCode": "93774"
 }
]