[
 {
  "id": 7406040001,
  "districtId": 7406040,
  "districtName": "RAROWATU",
  "name": "RAU-RAU",
  "postalCode": "93774"
 },
 {
  "id": 7406040002,
  "districtId": 7406040,
  "districtName": "RAROWATU",
  "name": "PANGKURI",
  "postalCode": "93774"
 },
 {
  "id": 7406040003,
  "districtId": 7406040,
  "districtName": "RAROWATU",
  "name": "LAKOMEA",
  "postalCode": "93873"
 },
 {
  "id": 7406040004,
  "districtId": 7406040,
  "districtName": "RAROWATU",
  "name": "TAUBONTO",
  "postalCode": "93774"
 },
 {
  "id": 7406040005,
  "districtId": 7406040,
  "districtName": "RAROWATU",
  "name": "RAROWATU",
  "postalCode": "93774"
 },
 {
  "id": 7406040006,
  "districtId": 7406040,
  "districtName": "RAROWATU",
  "name": "LADUMPI",
  "postalCode": "93774"
 },
 {
  "id": 7406040007,
  "districtId": 7406040,
  "districtName": "RAROWATU",
  "name": "LAMPEANTANI",
  "postalCode": "93774"
 },
 {
  "id": 7406040008,
  "districtId": 7406040,
  "districtName": "RAROWATU",
  "name": "WATU KALANGKARI",
  "postalCode": "93774"
 },
 {
  "id": 7406040009,
  "districtId": 7406040,
  "districtName": "RAROWATU",
  "name": "TAHI ITE",
  "postalCode": ""
 }
]