[
 {
  "id": 7406060001,
  "districtId": 7406060,
  "districtName": "POLEANG",
  "name": "BOEARA",
  "postalCode": "93772"
 },
 {
  "id": 7406060002,
  "districtId": 7406060,
  "districtName": "POLEANG",
  "name": "PUKURUMBA",
  "postalCode": ""
 },
 {
  "id": 7406060003,
  "districtId": 7406060,
  "districtName": "POLEANG",
  "name": "KASTARIB",
  "postalCode": "93772"
 },
 {
  "id": 7406060004,
  "districtId": 7406060,
  "districtName": "POLEANG",
  "name": "BARANGGA",
  "postalCode": "93772"
 },
 {
  "id": 7406060005,
  "districtId": 7406060,
  "districtName": "POLEANG",
  "name": "BOEPINANG",
  "postalCode": "93772"
 },
 {
  "id": 7406060006,
  "districtId": 7406060,
  "districtName": "POLEANG",
  "name": "PALLIMAE",
  "postalCode": "90961"
 },
 {
  "id": 7406060007,
  "districtId": 7406060,
  "districtName": "POLEANG",
  "name": "SALOSA",
  "postalCode": "93772"
 },
 {
  "id": 7406060008,
  "districtId": 7406060,
  "districtName": "POLEANG",
  "name": "BOEPINANG BARAT",
  "postalCode": "93772"
 },
 {
  "id": 7406060009,
  "districtId": 7406060,
  "districtName": "POLEANG",
  "name": "KASABOLO",
  "postalCode": "93772"
 },
 {
  "id": 7406060010,
  "districtId": 7406060,
  "districtName": "POLEANG",
  "name": "MATTIROWALIE",
  "postalCode": "92517"
 }
]