[
 {
  "id": 7407020001,
  "districtId": 7407020,
  "districtName": "TOMIA",
  "name": "WAITII BARAT",
  "postalCode": "93793"
 },
 {
  "id": 7407020002,
  "districtId": 7407020,
  "districtName": "TOMIA",
  "name": "WAITII",
  "postalCode": "93793"
 },
 {
  "id": 7407020003,
  "districtId": 7407020,
  "districtName": "TOMIA",
  "name": "LAMANGGAU",
  "postalCode": "93793"
 },
 {
  "id": 7407020013,
  "districtId": 7407020,
  "districtName": "TOMIA",
  "name": "PATUA",
  "postalCode": "93793"
 },
 {
  "id": 7407020014,
  "districtId": 7407020,
  "districtName": "TOMIA",
  "name": "ONEMAY",
  "postalCode": "93793"
 },
 {
  "id": 7407020015,
  "districtId": 7407020,
  "districtName": "TOMIA",
  "name": "WAHA",
  "postalCode": "93793"
 },
 {
  "id": 7407020016,
  "districtId": 7407020,
  "districtName": "TOMIA",
  "name": "RUNDUMA",
  "postalCode": "93793"
 },
 {
  "id": 7407020017,
  "districtId": 7407020,
  "districtName": "TOMIA",
  "name": "TEEMOANE",
  "postalCode": "93793"
 },
 {
  "id": 7407020018,
  "districtId": 7407020,
  "districtName": "TOMIA",
  "name": "KOLLO SOHA",
  "postalCode": "93793"
 },
 {
  "id": 7407020019,
  "districtId": 7407020,
  "districtName": "TOMIA",
  "name": "PATUA II",
  "postalCode": ""
 }
]