[
 {
  "id": 7407030001,
  "districtId": 7407030,
  "districtName": "KALEDUPA",
  "name": "HORUO",
  "postalCode": ""
 },
 {
  "id": 7407030002,
  "districtId": 7407030,
  "districtName": "KALEDUPA",
  "name": "SOMBANO",
  "postalCode": "93792"
 },
 {
  "id": 7407030003,
  "districtId": 7407030,
  "districtName": "KALEDUPA",
  "name": "LAU-LUA",
  "postalCode": ""
 },
 {
  "id": 7407030004,
  "districtId": 7407030,
  "districtName": "KALEDUPA",
  "name": "SAMABAHARI",
  "postalCode": "93792"
 },
 {
  "id": 7407030005,
  "districtId": 7407030,
  "districtName": "KALEDUPA",
  "name": "AMBEUA",
  "postalCode": "93792"
 },
 {
  "id": 7407030006,
  "districtId": 7407030,
  "districtName": "KALEDUPA",
  "name": "LAGIWAE",
  "postalCode": "93792"
 },
 {
  "id": 7407030007,
  "districtId": 7407030,
  "districtName": "KALEDUPA",
  "name": "OLLO",
  "postalCode": "93792"
 },
 {
  "id": 7407030008,
  "districtId": 7407030,
  "districtName": "KALEDUPA",
  "name": "BURANGA",
  "postalCode": "94474"
 },
 {
  "id": 7407030009,
  "districtId": 7407030,
  "districtName": "KALEDUPA",
  "name": "BALASUNA",
  "postalCode": "93792"
 },
 {
  "id": 7407030010,
  "districtId": 7407030,
  "districtName": "KALEDUPA",
  "name": "MANTIGOLA MAKMUR",
  "postalCode": ""
 },
 {
  "id": 7407030011,
  "districtId": 7407030,
  "districtName": "KALEDUPA",
  "name": "BALASUNA SELATAN",
  "postalCode": "93792"
 },
 {
  "id": 7407030012,
  "districtId": 7407030,
  "districtName": "KALEDUPA",
  "name": "OLLO SELATAN",
  "postalCode": "93792"
 },
 {
  "id": 7407030013,
  "districtId": 7407030,
  "districtName": "KALEDUPA",
  "name": "WADURI",
  "postalCode": "93792"
 },
 {
  "id": 7407030014,
  "districtId": 7407030,
  "districtName": "KALEDUPA",
  "name": "LEFUTO",
  "postalCode": ""
 },
 {
  "id": 7407030015,
  "districtId": 7407030,
  "districtName": "KALEDUPA",
  "name": "AMBEUA RAYA",
  "postalCode": "93792"
 },
 {
  "id": 7407030016,
  "districtId": 7407030,
  "districtName": "KALEDUPA",
  "name": "KALIMAS",
  "postalCode": "52353"
 }
]