[
 {
  "id": 7407031010,
  "districtId": 7407031,
  "districtName": "KALEDUPA SELATAN",
  "name": "TAMPARA",
  "postalCode": "93792"
 },
 {
  "id": 7407031011,
  "districtId": 7407031,
  "districtName": "KALEDUPA SELATAN",
  "name": "KASWARI",
  "postalCode": ""
 },
 {
  "id": 7407031012,
  "districtId": 7407031,
  "districtName": "KALEDUPA SELATAN",
  "name": "PAJAM",
  "postalCode": "93792"
 },
 {
  "id": 7407031013,
  "districtId": 7407031,
  "districtName": "KALEDUPA SELATAN",
  "name": "SANDI",
  "postalCode": "93792"
 },
 {
  "id": 7407031014,
  "districtId": 7407031,
  "districtName": "KALEDUPA SELATAN",
  "name": "LANGGE",
  "postalCode": "93792"
 },
 {
  "id": 7407031015,
  "districtId": 7407031,
  "districtName": "KALEDUPA SELATAN",
  "name": "TANOMEHA",
  "postalCode": "93792"
 },
 {
  "id": 7407031016,
  "districtId": 7407031,
  "districtName": "KALEDUPA SELATAN",
  "name": "LENTEA",
  "postalCode": "93792"
 },
 {
  "id": 7407031017,
  "districtId": 7407031,
  "districtName": "KALEDUPA SELATAN",
  "name": "DARAWA",
  "postalCode": "93792"
 },
 {
  "id": 7407031018,
  "districtId": 7407031,
  "districtName": "KALEDUPA SELATAN",
  "name": "PEROPA",
  "postalCode": "93792"
 },
 {
  "id": 7407031019,
  "districtId": 7407031,
  "districtName": "KALEDUPA SELATAN",
  "name": "TANJUNG",
  "postalCode": "24562"
 }
]