[
 {
  "id": 7408020012,
  "districtId": 7408020,
  "districtName": "LASUSUA",
  "name": "SULAHO",
  "postalCode": "93916"
 },
 {
  "id": 7408020013,
  "districtId": 7408020,
  "districtName": "LASUSUA",
  "name": "TOTALLANG",
  "postalCode": "93916"
 },
 {
  "id": 7408020014,
  "districtId": 7408020,
  "districtName": "LASUSUA",
  "name": "PITULUA",
  "postalCode": "93915"
 },
 {
  "id": 7408020015,
  "districtId": 7408020,
  "districtName": "LASUSUA",
  "name": "RANTE LIMBONG",
  "postalCode": "91862"
 },
 {
  "id": 7408020016,
  "districtId": 7408020,
  "districtName": "LASUSUA",
  "name": "TOJABI",
  "postalCode": "93916"
 },
 {
  "id": 7408020017,
  "districtId": 7408020,
  "districtName": "LASUSUA",
  "name": "LASUSUA",
  "postalCode": "93911"
 },
 {
  "id": 7408020018,
  "districtId": 7408020,
  "districtName": "LASUSUA",
  "name": "WATULIU",
  "postalCode": ""
 },
 {
  "id": 7408020019,
  "districtId": 7408020,
  "districtName": "LASUSUA",
  "name": "PONGGIHA",
  "postalCode": "93912"
 },
 {
  "id": 7408020026,
  "districtId": 7408020,
  "districtName": "LASUSUA",
  "name": "PATOWONUA",
  "postalCode": "93916"
 },
 {
  "id": 7408020027,
  "districtId": 7408020,
  "districtName": "LASUSUA",
  "name": "BABUSSALAM",
  "postalCode": "24392"
 },
 {
  "id": 7408020028,
  "districtId": 7408020,
  "districtName": "LASUSUA",
  "name": "BATUGANDA PERMAI",
  "postalCode": ""
 },
 {
  "id": 7408020029,
  "districtId": 7408020,
  "districtName": "LASUSUA",
  "name": "PUNCAK MONAPA",
  "postalCode": ""
 }
]