[
 {
  "id": 7408040003,
  "districtId": 7408040,
  "districtName": "NGAPA",
  "name": "NGAPA",
  "postalCode": "93958"
 },
 {
  "id": 7408040004,
  "districtId": 7408040,
  "districtName": "NGAPA",
  "name": "TADOUMERA",
  "postalCode": ""
 },
 {
  "id": 7408040005,
  "districtId": 7408040,
  "districtName": "NGAPA",
  "name": "LAPAI",
  "postalCode": "93958"
 },
 {
  "id": 7408040006,
  "districtId": 7408040,
  "districtName": "NGAPA",
  "name": "KOREIHA",
  "postalCode": "93958"
 },
 {
  "id": 7408040007,
  "districtId": 7408040,
  "districtName": "NGAPA",
  "name": "LAWOLATU",
  "postalCode": "93958"
 },
 {
  "id": 7408040011,
  "districtId": 7408040,
  "districtName": "NGAPA",
  "name": "PUURAU",
  "postalCode": "93958"
 },
 {
  "id": 7408040014,
  "districtId": 7408040,
  "districtName": "NGAPA",
  "name": "PARUTELLANG",
  "postalCode": ""
 },
 {
  "id": 7408040015,
  "districtId": 7408040,
  "districtName": "NGAPA",
  "name": "WATU MUTAHA",
  "postalCode": ""
 },
 {
  "id": 7408040016,
  "districtId": 7408040,
  "districtName": "NGAPA",
  "name": "BERINGIN",
  "postalCode": "20552"
 },
 {
  "id": 7408040017,
  "districtId": 7408040,
  "districtName": "NGAPA",
  "name": "PADAELO",
  "postalCode": "92776"
 },
 {
  "id": 7408040018,
  "districtId": 7408040,
  "districtName": "NGAPA",
  "name": "NIMBUNEHA",
  "postalCode": "93955"
 },
 {
  "id": 7408040019,
  "districtId": 7408040,
  "districtName": "NGAPA",
  "name": "MATAIWOI",
  "postalCode": "93819"
 }
]