[
 {
  "id": 7410070003,
  "districtId": 7410070,
  "districtName": "WIWIRANO",
  "name": "WAWOHEO",
  "postalCode": "93353"
 },
 {
  "id": 7410070005,
  "districtId": 7410070,
  "districtName": "WIWIRANO",
  "name": "LAMONAE",
  "postalCode": "93353"
 },
 {
  "id": 7410070006,
  "districtId": 7410070,
  "districtName": "WIWIRANO",
  "name": "PADALERE",
  "postalCode": "93353"
 },
 {
  "id": 7410070007,
  "districtId": 7410070,
  "districtName": "WIWIRANO",
  "name": "CULAMBATU (UPT.LAMONAE III)",
  "postalCode": ""
 },
 {
  "id": 7410070008,
  "districtId": 7410070,
  "districtName": "WIWIRANO",
  "name": "LAMPARINGA (UPT PADALERE)",
  "postalCode": ""
 },
 {
  "id": 7410070009,
  "districtId": 7410070,
  "districtName": "WIWIRANO",
  "name": "TETEWATU",
  "postalCode": "90871"
 },
 {
  "id": 7410070018,
  "districtId": 7410070,
  "districtName": "WIWIRANO",
  "name": "WACU MALEWE",
  "postalCode": ""
 },
 {
  "id": 7410070019,
  "districtId": 7410070,
  "districtName": "WIWIRANO",
  "name": "LAMONAE UTAMA",
  "postalCode": "93353"
 },
 {
  "id": 7410070020,
  "districtId": 7410070,
  "districtName": "WIWIRANO",
  "name": "MATA OSOLE",
  "postalCode": ""
 },
 {
  "id": 7410070021,
  "districtId": 7410070,
  "districtName": "WIWIRANO",
  "name": "LALOMERUI",
  "postalCode": ""
 },
 {
  "id": 7410070022,
  "districtId": 7410070,
  "districtName": "WIWIRANO",
  "name": "PONDOA",
  "postalCode": "93353"
 },
 {
  "id": 7410070023,
  "districtId": 7410070,
  "districtName": "WIWIRANO",
  "name": "WAWONTOAHO",
  "postalCode": ""
 },
 {
  "id": 7410070025,
  "districtId": 7410070,
  "districtName": "WIWIRANO",
  "name": "PADALERE UTAMA",
  "postalCode": "93353"
 },
 {
  "id": 7410070029,
  "districtId": 7410070,
  "districtName": "WIWIRANO",
  "name": "LAROMPANA",
  "postalCode": "93353"
 },
 {
  "id": 7410070030,
  "districtId": 7410070,
  "districtName": "WIWIRANO",
  "name": "WACU PINODO",
  "postalCode": "93353"
 },
 {
  "id": 7410070031,
  "districtId": 7410070,
  "districtName": "WIWIRANO",
  "name": "UPT PADALERE UTAMA",
  "postalCode": ""
 },
 {
  "id": 7410070032,
  "districtId": 7410070,
  "districtName": "WIWIRANO",
  "name": "HIALU",
  "postalCode": ""
 }
]