[
 {
  "id": 7410011001,
  "districtId": 7410011,
  "districtName": "MOTUI",
  "name": "TONDOWATU",
  "postalCode": "93354"
 },
 {
  "id": 7410011002,
  "districtId": 7410011,
  "districtName": "MOTUI",
  "name": "KAPOLANO",
  "postalCode": "93352"
 },
 {
  "id": 7410011003,
  "districtId": 7410011,
  "districtName": "MOTUI",
  "name": "TOBIMEITA",
  "postalCode": "93237"
 },
 {
  "id": 7410011004,
  "districtId": 7410011,
  "districtName": "MOTUI",
  "name": "PONI-PONIKI",
  "postalCode": ""
 },
 {
  "id": 7410011005,
  "districtId": 7410011,
  "districtName": "MOTUI",
  "name": "MATANDAHI",
  "postalCode": "93395"
 },
 {
  "id": 7410011006,
  "districtId": 7410011,
  "districtName": "MOTUI",
  "name": "BANGGINA",
  "postalCode": ""
 },
 {
  "id": 7410011007,
  "districtId": 7410011,
  "districtName": "MOTUI",
  "name": "LAMBULUO",
  "postalCode": "93352"
 },
 {
  "id": 7410011008,
  "districtId": 7410011,
  "districtName": "MOTUI",
  "name": "MOTUI",
  "postalCode": "93352"
 },
 {
  "id": 7410011009,
  "districtId": 7410011,
  "districtName": "MOTUI",
  "name": "PUUWONGGIA",
  "postalCode": "93352"
 },
 {
  "id": 7410011010,
  "districtId": 7410011,
  "districtName": "MOTUI",
  "name": "WAWOLURI",
  "postalCode": "93352"
 },
 {
  "id": 7410011011,
  "districtId": 7410011,
  "districtName": "MOTUI",
  "name": "UPT. TONDOWATU",
  "postalCode": ""
 },
 {
  "id": 7410011013,
  "districtId": 7410011,
  "districtName": "MOTUI",
  "name": "SAMA SUBUR",
  "postalCode": ""
 },
 {
  "id": 7410011014,
  "districtId": 7410011,
  "districtName": "MOTUI",
  "name": "RANOMBUPULU",
  "postalCode": ""
 },
 {
  "id": 7410011015,
  "districtId": 7410011,
  "districtName": "MOTUI",
  "name": "SAMBASULE",
  "postalCode": ""
 }
]