[
 {
  "id": 7410051001,
  "districtId": 7410051,
  "districtName": "ANDOWIA",
  "name": "BANGGAREMA",
  "postalCode": "93353"
 },
 {
  "id": 7410051002,
  "districtId": 7410051,
  "districtName": "ANDOWIA",
  "name": "LAHIMBUA",
  "postalCode": "93353"
 },
 {
  "id": 7410051003,
  "districtId": 7410051,
  "districtName": "ANDOWIA",
  "name": "LAMONDOWO",
  "postalCode": "93353"
 },
 {
  "id": 7410051004,
  "districtId": 7410051,
  "districtName": "ANDOWIA",
  "name": "ANDOWIA",
  "postalCode": "93353"
 },
 {
  "id": 7410051005,
  "districtId": 7410051,
  "districtName": "ANDOWIA",
  "name": "PUUSULI",
  "postalCode": "93353"
 },
 {
  "id": 7410051006,
  "districtId": 7410051,
  "districtName": "ANDOWIA",
  "name": "LARONANGA",
  "postalCode": ""
 },
 {
  "id": 7410051007,
  "districtId": 7410051,
  "districtName": "ANDOWIA",
  "name": "LABUNGGA",
  "postalCode": "93353"
 },
 {
  "id": 7410051008,
  "districtId": 7410051,
  "districtName": "ANDOWIA",
  "name": "PUUWONUA",
  "postalCode": "93353"
 },
 {
  "id": 7410051009,
  "districtId": 7410051,
  "districtName": "ANDOWIA",
  "name": "ANGGOLOHIPO",
  "postalCode": "93353"
 },
 {
  "id": 7410051010,
  "districtId": 7410051,
  "districtName": "ANDOWIA",
  "name": "LAROBENDE",
  "postalCode": "93353"
 },
 {
  "id": 7410051012,
  "districtId": 7410051,
  "districtName": "ANDOWIA",
  "name": "LAMBUDONI",
  "postalCode": "93353"
 },
 {
  "id": 7410051013,
  "districtId": 7410051,
  "districtName": "ANDOWIA",
  "name": "MATA IWOI",
  "postalCode": "93463"
 },
 {
  "id": 7410051021,
  "districtId": 7410051,
  "districtName": "ANDOWIA",
  "name": "AMOLAME",
  "postalCode": "93353"
 },
 {
  "id": 7410051022,
  "districtId": 7410051,
  "districtName": "ANDOWIA",
  "name": "WAWORATE",
  "postalCode": ""
 },
 {
  "id": 7410051023,
  "districtId": 7410051,
  "districtName": "ANDOWIA",
  "name": "AMBAKE",
  "postalCode": ""
 }
]