[
 {
  "id": 7410020001,
  "districtId": 7410020,
  "districtName": "LEMBO",
  "name": "TONGALINO",
  "postalCode": ""
 },
 {
  "id": 7410020002,
  "districtId": 7410020,
  "districtName": "LEMBO",
  "name": "TAIPA",
  "postalCode": "94147"
 },
 {
  "id": 7410020003,
  "districtId": 7410020,
  "districtName": "LEMBO",
  "name": "PUUSIAMBU",
  "postalCode": "93352"
 },
 {
  "id": 7410020004,
  "districtId": 7410020,
  "districtName": "LEMBO",
  "name": "BUNGGUOSU",
  "postalCode": "93461"
 },
 {
  "id": 7410020005,
  "districtId": 7410020,
  "districtName": "LEMBO",
  "name": "LEMBO",
  "postalCode": "90213"
 },
 {
  "id": 7410020006,
  "districtId": 7410020,
  "districtName": "LEMBO",
  "name": "PASIR PUTIH",
  "postalCode": "24453"
 },
 {
  "id": 7410020007,
  "districtId": 7410020,
  "districtName": "LEMBO",
  "name": "PADALEU",
  "postalCode": "93231"
 },
 {
  "id": 7410020008,
  "districtId": 7410020,
  "districtName": "LEMBO",
  "name": "PUULEMO",
  "postalCode": "93561"
 },
 {
  "id": 7410020009,
  "districtId": 7410020,
  "districtName": "LEMBO",
  "name": "ALO-ALO",
  "postalCode": "93352"
 },
 {
  "id": 7410020010,
  "districtId": 7410020,
  "districtName": "LEMBO",
  "name": "LAPULU",
  "postalCode": "93234"
 },
 {
  "id": 7410020011,
  "districtId": 7410020,
  "districtName": "LEMBO",
  "name": "LARAMO",
  "postalCode": "93352"
 },
 {
  "id": 7410020012,
  "districtId": 7410020,
  "districtName": "LEMBO",
  "name": "WATU WULAA",
  "postalCode": ""
 }
]