[
 {
  "id": 7412040001,
  "districtId": 7412040,
  "districtName": "WAWONII UTARA",
  "name": "MATA IWOI",
  "postalCode": "93463"
 },
 {
  "id": 7412040002,
  "districtId": 7412040,
  "districtName": "WAWONII UTARA",
  "name": "WAWOROPE",
  "postalCode": "93393"
 },
 {
  "id": 7412040003,
  "districtId": 7412040,
  "districtName": "WAWONII UTARA",
  "name": "DONGKALAEA",
  "postalCode": "93393"
 },
 {
  "id": 7412040004,
  "districtId": 7412040,
  "districtName": "WAWONII UTARA",
  "name": "LABEAU",
  "postalCode": "93393"
 },
 {
  "id": 7412040005,
  "districtId": 7412040,
  "districtName": "WAWONII UTARA",
  "name": "WAWOBEAU",
  "postalCode": "93393"
 },
 {
  "id": 7412040006,
  "districtId": 7412040,
  "districtName": "WAWONII UTARA",
  "name": "TOMBAONE",
  "postalCode": ""
 },
 {
  "id": 7412040007,
  "districtId": 7412040,
  "districtName": "WAWONII UTARA",
  "name": "LABISA",
  "postalCode": "93393"
 },
 {
  "id": 7412040008,
  "districtId": 7412040,
  "districtName": "WAWONII UTARA",
  "name": "LANSILOWO",
  "postalCode": "93393"
 },
 {
  "id": 7412040009,
  "districtId": 7412040,
  "districtName": "WAWONII UTARA",
  "name": "TOMBAONE UTAMA",
  "postalCode": ""
 },
 {
  "id": 7412040010,
  "districtId": 7412040,
  "districtName": "WAWONII UTARA",
  "name": "PALINGI BARAT",
  "postalCode": "93393"
 },
 {
  "id": 7412040011,
  "districtId": 7412040,
  "districtName": "WAWONII UTARA",
  "name": "PALINGI",
  "postalCode": "93393"
 },
 {
  "id": 7412040012,
  "districtId": 7412040,
  "districtName": "WAWONII UTARA",
  "name": "MATA BUBU",
  "postalCode": ""
 },
 {
  "id": 7412040013,
  "districtId": 7412040,
  "districtName": "WAWONII UTARA",
  "name": "MAWA",
  "postalCode": "91925"
 },
 {
  "id": 7412040014,
  "districtId": 7412040,
  "districtName": "WAWONII UTARA",
  "name": "MATABURANGA",
  "postalCode": ""
 },
 {
  "id": 7412040016,
  "districtId": 7412040,
  "districtName": "WAWONII UTARA",
  "name": "TAPUMBATU",
  "postalCode": ""
 },
 {
  "id": 7412040017,
  "districtId": 7412040,
  "districtName": "WAWONII UTARA",
  "name": "PALINGI TIMUR",
  "postalCode": ""
 },
 {
  "id": 7412040018,
  "districtId": 7412040,
  "districtName": "WAWONII UTARA",
  "name": "TONGALERE",
  "postalCode": ""
 },
 {
  "id": 7412040019,
  "districtId": 7412040,
  "districtName": "WAWONII UTARA",
  "name": "TOMBURANO",
  "postalCode": ""
 },
 {
  "id": 7412040020,
  "districtId": 7412040,
  "districtName": "WAWONII UTARA",
  "name": "SAWAH INDAH",
  "postalCode": ""
 },
 {
  "id": 7412040021,
  "districtId": 7412040,
  "districtName": "WAWONII UTARA",
  "name": "TEPOLAWA",
  "postalCode": ""
 }
]