[
 {
  "id": 7412050001,
  "districtId": 7412050,
  "districtName": "WAWONII SELATAN",
  "name": "LAWEY",
  "postalCode": "93393"
 },
 {
  "id": 7412050002,
  "districtId": 7412050,
  "districtName": "WAWONII SELATAN",
  "name": "PUUWATU",
  "postalCode": "93393"
 },
 {
  "id": 7412050003,
  "districtId": 7412050,
  "districtName": "WAWONII SELATAN",
  "name": "WAWOUSO",
  "postalCode": ""
 },
 {
  "id": 7412050004,
  "districtId": 7412050,
  "districtName": "WAWONII SELATAN",
  "name": "WAWOUSO BARU",
  "postalCode": "93393"
 },
 {
  "id": 7412050005,
  "districtId": 7412050,
  "districtName": "WAWONII SELATAN",
  "name": "BAKU-BAKU",
  "postalCode": "92957"
 },
 {
  "id": 7412050006,
  "districtId": 7412050,
  "districtName": "WAWONII SELATAN",
  "name": "BOBOLIO",
  "postalCode": "93393"
 },
 {
  "id": 7412050007,
  "districtId": 7412050,
  "districtName": "WAWONII SELATAN",
  "name": "SAWAEA",
  "postalCode": "93393"
 },
 {
  "id": 7412050008,
  "districtId": 7412050,
  "districtName": "WAWONII SELATAN",
  "name": "SAWAPATANI",
  "postalCode": "93393"
 },
 {
  "id": 7412050009,
  "districtId": 7412050,
  "districtName": "WAWONII SELATAN",
  "name": "WUNGKOLO",
  "postalCode": "93393"
 },
 {
  "id": 7412050010,
  "districtId": 7412050,
  "districtName": "WAWONII SELATAN",
  "name": "LANGARA JAYA",
  "postalCode": ""
 },
 {
  "id": 7412050011,
  "districtId": 7412050,
  "districtName": "WAWONII SELATAN",
  "name": "WAWOONE",
  "postalCode": "93393"
 }
]