[
 {
  "id": 7413100014,
  "districtId": 7413100,
  "districtName": "KUSAMBI",
  "name": "KUSAMBI",
  "postalCode": "72214"
 },
 {
  "id": 7413100015,
  "districtId": 7413100,
  "districtName": "KUSAMBI",
  "name": "KONAWE",
  "postalCode": "93461"
 },
 {
  "id": 7413100016,
  "districtId": 7413100,
  "districtName": "KUSAMBI",
  "name": "GUALI",
  "postalCode": "93655"
 },
 {
  "id": 7413100017,
  "districtId": 7413100,
  "districtName": "KUSAMBI",
  "name": "LAPOKAINSE",
  "postalCode": "93655"
 },
 {
  "id": 7413100018,
  "districtId": 7413100,
  "districtName": "KUSAMBI",
  "name": "LEMOAMBO",
  "postalCode": "93655"
 },
 {
  "id": 7413100019,
  "districtId": 7413100,
  "districtName": "KUSAMBI",
  "name": "KASAKAMU",
  "postalCode": "93655"
 },
 {
  "id": 7413100020,
  "districtId": 7413100,
  "districtName": "KUSAMBI",
  "name": "LAKAWOGHE",
  "postalCode": "93655"
 },
 {
  "id": 7413100021,
  "districtId": 7413100,
  "districtName": "KUSAMBI",
  "name": "BAKERAMBA",
  "postalCode": "93655"
 },
 {
  "id": 7413100022,
  "districtId": 7413100,
  "districtName": "KUSAMBI",
  "name": "TANJUNG PINANG",
  "postalCode": "36146"
 },
 {
  "id": 7413100023,
  "districtId": 7413100,
  "districtName": "KUSAMBI",
  "name": "SIDA MANGURA",
  "postalCode": ""
 }
]