[
 {
  "id": 7413010016,
  "districtId": 7413010,
  "districtName": "TIWORO KEPULAUAN",
  "name": "SIDO MAKMUR",
  "postalCode": "20772"
 },
 {
  "id": 7413010017,
  "districtId": 7413010,
  "districtName": "TIWORO KEPULAUAN",
  "name": "WULANGA JAYA",
  "postalCode": "93653"
 },
 {
  "id": 7413010018,
  "districtId": 7413010,
  "districtName": "TIWORO KEPULAUAN",
  "name": "WANDOKE",
  "postalCode": "93653"
 },
 {
  "id": 7413010019,
  "districtId": 7413010,
  "districtName": "TIWORO KEPULAUAN",
  "name": "TIWORO",
  "postalCode": "93653"
 },
 {
  "id": 7413010020,
  "districtId": 7413010,
  "districtName": "TIWORO KEPULAUAN",
  "name": "LAWORO",
  "postalCode": "93653"
 },
 {
  "id": 7413010021,
  "districtId": 7413010,
  "districtName": "TIWORO KEPULAUAN",
  "name": "WATUREMPE",
  "postalCode": "93653"
 },
 {
  "id": 7413010022,
  "districtId": 7413010,
  "districtName": "TIWORO KEPULAUAN",
  "name": "WAUMERE",
  "postalCode": "93653"
 },
 {
  "id": 7413010026,
  "districtId": 7413010,
  "districtName": "TIWORO KEPULAUAN",
  "name": "LASAMA",
  "postalCode": "93653"
 },
 {
  "id": 7413010027,
  "districtId": 7413010,
  "districtName": "TIWORO KEPULAUAN",
  "name": "KATELA",
  "postalCode": "93653"
 }
]