[
 {
  "id": 7415070001,
  "districtId": 7415070,
  "districtName": "KADATUA",
  "name": "WAONU",
  "postalCode": "93752"
 },
 {
  "id": 7415070002,
  "districtId": 7415070,
  "districtName": "KADATUA",
  "name": "KAPOA",
  "postalCode": "93752"
 },
 {
  "id": 7415070003,
  "districtId": 7415070,
  "districtName": "KADATUA",
  "name": "KAOFE",
  "postalCode": "93752"
 },
 {
  "id": 7415070004,
  "districtId": 7415070,
  "districtName": "KADATUA",
  "name": "UWEMAASI",
  "postalCode": "93752"
 },
 {
  "id": 7415070005,
  "districtId": 7415070,
  "districtName": "KADATUA",
  "name": "LIPU",
  "postalCode": "93721"
 },
 {
  "id": 7415070006,
  "districtId": 7415070,
  "districtName": "KADATUA",
  "name": "BANABUNGI",
  "postalCode": "93752"
 },
 {
  "id": 7415070007,
  "districtId": 7415070,
  "districtName": "KADATUA",
  "name": "KAPOA BARAT",
  "postalCode": "93752"
 },
 {
  "id": 7415070008,
  "districtId": 7415070,
  "districtName": "KADATUA",
  "name": "MAWAMBUNGA",
  "postalCode": "93752"
 },
 {
  "id": 7415070009,
  "districtId": 7415070,
  "districtName": "KADATUA",
  "name": "MARAWALI",
  "postalCode": "93752"
 },
 {
  "id": 7415070010,
  "districtId": 7415070,
  "districtName": "KADATUA",
  "name": "BANABUNGI SELATAN",
  "postalCode": "93752"
 }
]