[
 {
  "id": 7501042001,
  "districtId": 7501042,
  "districtName": "BOTUMOITO",
  "name": "BOLIHUTUO",
  "postalCode": "96264"
 },
 {
  "id": 7501042002,
  "districtId": 7501042,
  "districtName": "BOTUMOITO",
  "name": "TAPADAA",
  "postalCode": "96264"
 },
 {
  "id": 7501042003,
  "districtId": 7501042,
  "districtName": "BOTUMOITO",
  "name": "RUMBIA",
  "postalCode": "95694"
 },
 {
  "id": 7501042004,
  "districtId": 7501042,
  "districtName": "BOTUMOITO",
  "name": "HUTAMONU",
  "postalCode": "96264"
 },
 {
  "id": 7501042005,
  "districtId": 7501042,
  "districtName": "BOTUMOITO",
  "name": "BOTUMOITO",
  "postalCode": "96264"
 },
 {
  "id": 7501042006,
  "districtId": 7501042,
  "districtName": "BOTUMOITO",
  "name": "TUTULO",
  "postalCode": "96264"
 },
 {
  "id": 7501042007,
  "districtId": 7501042,
  "districtName": "BOTUMOITO",
  "name": "PATOAMEME",
  "postalCode": "96264"
 },
 {
  "id": 7501042008,
  "districtId": 7501042,
  "districtName": "BOTUMOITO",
  "name": "POTANGA",
  "postalCode": "96264"
 },
 {
  "id": 7501042009,
  "districtId": 7501042,
  "districtName": "BOTUMOITO",
  "name": "DULANGEYA",
  "postalCode": ""
 }
]