[
 {
  "id": 7501050004,
  "districtId": 7501050,
  "districtName": "PAGUYAMAN",
  "name": "TANGKOBU",
  "postalCode": "96261"
 },
 {
  "id": 7501050005,
  "districtId": 7501050,
  "districtName": "PAGUYAMAN",
  "name": "MOLOMBULAHE",
  "postalCode": "96261"
 },
 {
  "id": 7501050006,
  "districtId": 7501050,
  "districtName": "PAGUYAMAN",
  "name": "WONGGAHU",
  "postalCode": "96261"
 },
 {
  "id": 7501050007,
  "districtId": 7501050,
  "districtName": "PAGUYAMAN",
  "name": "SARIPI",
  "postalCode": "96261"
 },
 {
  "id": 7501050008,
  "districtId": 7501050,
  "districtName": "PAGUYAMAN",
  "name": "BONGO NOL",
  "postalCode": "96261"
 },
 {
  "id": 7501050009,
  "districtId": 7501050,
  "districtName": "PAGUYAMAN",
  "name": "SUMBER JAYA",
  "postalCode": "24553"
 },
 {
  "id": 7501050011,
  "districtId": 7501050,
  "districtName": "PAGUYAMAN",
  "name": "MUTIARA",
  "postalCode": "24582"
 },
 {
  "id": 7501050017,
  "districtId": 7501050,
  "districtName": "PAGUYAMAN",
  "name": "KARYA MURNI",
  "postalCode": "96261"
 },
 {
  "id": 7501050018,
  "districtId": 7501050,
  "districtName": "PAGUYAMAN",
  "name": "GIRISA",
  "postalCode": "96261"
 },
 {
  "id": 7501050021,
  "districtId": 7501050,
  "districtName": "PAGUYAMAN",
  "name": "KUALA LUMPUR",
  "postalCode": ""
 },
 {
  "id": 7501050022,
  "districtId": 7501050,
  "districtName": "PAGUYAMAN",
  "name": "TENILO",
  "postalCode": "96133"
 },
 {
  "id": 7501050023,
  "districtId": 7501050,
  "districtName": "PAGUYAMAN",
  "name": "MUSTIKA",
  "postalCode": "72272"
 },
 {
  "id": 7501050024,
  "districtId": 7501050,
  "districtName": "PAGUYAMAN",
  "name": "HUWONGO",
  "postalCode": "96272"
 },
 {
  "id": 7501050025,
  "districtId": 7501050,
  "districtName": "PAGUYAMAN",
  "name": "BONGO TUA",
  "postalCode": "96261"
 },
 {
  "id": 7501050026,
  "districtId": 7501050,
  "districtName": "PAGUYAMAN",
  "name": "REJONEGORO",
  "postalCode": "96261"
 },
 {
  "id": 7501050027,
  "districtId": 7501050,
  "districtName": "PAGUYAMAN",
  "name": "BALATE JAYA",
  "postalCode": "96261"
 },
 {
  "id": 7501050028,
  "districtId": 7501050,
  "districtName": "PAGUYAMAN",
  "name": "HULAWA",
  "postalCode": "96266"
 },
 {
  "id": 7501050029,
  "districtId": 7501050,
  "districtName": "PAGUYAMAN",
  "name": "DILOATO",
  "postalCode": "96261"
 },
 {
  "id": 7501050030,
  "districtId": 7501050,
  "districtName": "PAGUYAMAN",
  "name": "PERMATA",
  "postalCode": "78392"
 },
 {
  "id": 7501050031,
  "districtId": 7501050,
  "districtName": "PAGUYAMAN",
  "name": "BATU KRAMAT",
  "postalCode": ""
 },
 {
  "id": 7501050032,
  "districtId": 7501050,
  "districtName": "PAGUYAMAN",
  "name": "SOSIAL",
  "postalCode": "24582"
 },
 {
  "id": 7501050033,
  "districtId": 7501050,
  "districtName": "PAGUYAMAN",
  "name": "BUALO",
  "postalCode": "96524"
 }
]