[
 {
  "id": 7502023001,
  "districtId": 7502023,
  "districtName": "DUNGALIYO",
  "name": "MOMALA",
  "postalCode": "96271"
 },
 {
  "id": 7502023002,
  "districtId": 7502023,
  "districtName": "DUNGALIYO",
  "name": "AMBARA",
  "postalCode": "96271"
 },
 {
  "id": 7502023003,
  "districtId": 7502023,
  "districtName": "DUNGALIYO",
  "name": "AYUHULA",
  "postalCode": "96271"
 },
 {
  "id": 7502023004,
  "districtId": 7502023,
  "districtName": "DUNGALIYO",
  "name": "BOTUBULOWE",
  "postalCode": ""
 },
 {
  "id": 7502023005,
  "districtId": 7502023,
  "districtName": "DUNGALIYO",
  "name": "DUNGALIYO",
  "postalCode": "96271"
 },
 {
  "id": 7502023006,
  "districtId": 7502023,
  "districtName": "DUNGALIYO",
  "name": "PILOLALENGA",
  "postalCode": "96271"
 },
 {
  "id": 7502023007,
  "districtId": 7502023,
  "districtName": "DUNGALIYO",
  "name": "KALIYOSO",
  "postalCode": "51353"
 },
 {
  "id": 7502023008,
  "districtId": 7502023,
  "districtName": "DUNGALIYO",
  "name": "PANGADAA",
  "postalCode": "96271"
 },
 {
  "id": 7502023009,
  "districtId": 7502023,
  "districtName": "DUNGALIYO",
  "name": "BONGOMEME",
  "postalCode": "96271"
 },
 {
  "id": 7502023010,
  "districtId": 7502023,
  "districtName": "DUNGALIYO",
  "name": "DUWANGA",
  "postalCode": "96271"
 }
]