[
 {
  "id": 7502071001,
  "districtId": 7502071,
  "districtName": "LIMBOTO BARAT",
  "name": "PADENGO",
  "postalCode": "96265"
 },
 {
  "id": 7502071002,
  "districtId": 7502071,
  "districtName": "LIMBOTO BARAT",
  "name": "HUTABOHU",
  "postalCode": "96216"
 },
 {
  "id": 7502071003,
  "districtId": 7502071,
  "districtName": "LIMBOTO BARAT",
  "name": "YOOSONEGORO",
  "postalCode": ""
 },
 {
  "id": 7502071004,
  "districtId": 7502071,
  "districtName": "LIMBOTO BARAT",
  "name": "TUNGGULO",
  "postalCode": "96217"
 },
 {
  "id": 7502071005,
  "districtId": 7502071,
  "districtName": "LIMBOTO BARAT",
  "name": "PONE",
  "postalCode": "96215"
 },
 {
  "id": 7502071006,
  "districtId": 7502071,
  "districtName": "LIMBOTO BARAT",
  "name": "HUIDU",
  "postalCode": "96215"
 },
 {
  "id": 7502071007,
  "districtId": 7502071,
  "districtName": "LIMBOTO BARAT",
  "name": "OMBULO",
  "postalCode": "96215"
 },
 {
  "id": 7502071008,
  "districtId": 7502071,
  "districtName": "LIMBOTO BARAT",
  "name": "DAENAA",
  "postalCode": "96215"
 },
 {
  "id": 7502071009,
  "districtId": 7502071,
  "districtName": "LIMBOTO BARAT",
  "name": "HUIDU UTARA",
  "postalCode": "96216"
 },
 {
  "id": 7502071010,
  "districtId": 7502071,
  "districtName": "LIMBOTO BARAT",
  "name": "HAYA-HAYA",
  "postalCode": ""
 }
]