[
 {
  "id": 7502010006,
  "districtId": 7502010,
  "districtName": "BATUDAA PANTAI",
  "name": "LAMU",
  "postalCode": "96272"
 },
 {
  "id": 7502010007,
  "districtId": 7502010,
  "districtName": "BATUDAA PANTAI",
  "name": "TONTAYUO",
  "postalCode": "96272"
 },
 {
  "id": 7502010008,
  "districtId": 7502010,
  "districtName": "BATUDAA PANTAI",
  "name": "BILUHU TIMUR",
  "postalCode": "96272"
 },
 {
  "id": 7502010009,
  "districtId": 7502010,
  "districtName": "BATUDAA PANTAI",
  "name": "KAYUBULAN",
  "postalCode": "96272"
 },
 {
  "id": 7502010010,
  "districtId": 7502010,
  "districtName": "BATUDAA PANTAI",
  "name": "LOPO",
  "postalCode": "96272"
 },
 {
  "id": 7502010011,
  "districtId": 7502010,
  "districtName": "BATUDAA PANTAI",
  "name": "BONGO",
  "postalCode": "94566"
 },
 {
  "id": 7502010013,
  "districtId": 7502010,
  "districtName": "BATUDAA PANTAI",
  "name": "OLIMOO'O",
  "postalCode": ""
 },
 {
  "id": 7502010014,
  "districtId": 7502010,
  "districtName": "BATUDAA PANTAI",
  "name": "LANGGULA",
  "postalCode": "96272"
 },
 {
  "id": 7502010015,
  "districtId": 7502010,
  "districtName": "BATUDAA PANTAI",
  "name": "BUHUDAA",
  "postalCode": "96272"
 }
]