[
 {
  "id": 7503040001,
  "districtId": 7503040,
  "districtName": "RANDANGAN",
  "name": "SIDORUKUN",
  "postalCode": "21462"
 },
 {
  "id": 7503040002,
  "districtId": 7503040,
  "districtName": "RANDANGAN",
  "name": "MOTOLOHU",
  "postalCode": "96469"
 },
 {
  "id": 7503040003,
  "districtId": 7503040,
  "districtName": "RANDANGAN",
  "name": "HUYULA",
  "postalCode": "96127"
 },
 {
  "id": 7503040004,
  "districtId": 7503040,
  "districtName": "RANDANGAN",
  "name": "IMBODU",
  "postalCode": "96469"
 },
 {
  "id": 7503040005,
  "districtId": 7503040,
  "districtName": "RANDANGAN",
  "name": "MANUNGGAL KARYA",
  "postalCode": "96469"
 },
 {
  "id": 7503040006,
  "districtId": 7503040,
  "districtName": "RANDANGAN",
  "name": "SARI MURNI",
  "postalCode": "96469"
 },
 {
  "id": 7503040013,
  "districtId": 7503040,
  "districtName": "RANDANGAN",
  "name": "PATUHU",
  "postalCode": "96469"
 },
 {
  "id": 7503040014,
  "districtId": 7503040,
  "districtName": "RANDANGAN",
  "name": "AYULA",
  "postalCode": "96469"
 },
 {
  "id": 7503040015,
  "districtId": 7503040,
  "districtName": "RANDANGAN",
  "name": "OMAYUWA",
  "postalCode": "96469"
 },
 {
  "id": 7503040016,
  "districtId": 7503040,
  "districtName": "RANDANGAN",
  "name": "BANUROJA",
  "postalCode": "96469"
 },
 {
  "id": 7503040017,
  "districtId": 7503040,
  "districtName": "RANDANGAN",
  "name": "PELAMBANE",
  "postalCode": ""
 },
 {
  "id": 7503040018,
  "districtId": 7503040,
  "districtName": "RANDANGAN",
  "name": "MOTOLOHU SELATAN",
  "postalCode": "96469"
 },
 {
  "id": 7503040019,
  "districtId": 7503040,
  "districtName": "RANDANGAN",
  "name": "SIDUWONGE",
  "postalCode": "96469"
 }
]