[
 {
  "id": 7504011005,
  "districtId": 7504011,
  "districtName": "BULANGO UTARA",
  "name": "BANDUNGAN",
  "postalCode": "50614"
 },
 {
  "id": 7504011011,
  "districtId": 7504011,
  "districtName": "BULANGO UTARA",
  "name": "BOIDU",
  "postalCode": "96582"
 },
 {
  "id": 7504011012,
  "districtId": 7504011,
  "districtName": "BULANGO UTARA",
  "name": "TUPA",
  "postalCode": "96582"
 },
 {
  "id": 7504011013,
  "districtId": 7504011,
  "districtName": "BULANGO UTARA",
  "name": "LONGALO",
  "postalCode": "96582"
 },
 {
  "id": 7504011016,
  "districtId": 7504011,
  "districtName": "BULANGO UTARA",
  "name": "TULOA",
  "postalCode": "96582"
 },
 {
  "id": 7504011019,
  "districtId": 7504011,
  "districtName": "BULANGO UTARA",
  "name": "LOMAYA",
  "postalCode": "96582"
 },
 {
  "id": 7504011020,
  "districtId": 7504011,
  "districtName": "BULANGO UTARA",
  "name": "KOPI",
  "postalCode": "95763"
 },
 {
  "id": 7504011021,
  "districtId": 7504011,
  "districtName": "BULANGO UTARA",
  "name": "BUNUO",
  "postalCode": "96582"
 },
 {
  "id": 7504011022,
  "districtId": 7504011,
  "districtName": "BULANGO UTARA",
  "name": "SUKA DAMAI",
  "postalCode": "24472"
 }
]