[
 {
  "id": 7504043012,
  "districtId": 7504043,
  "districtName": "BONE",
  "name": "MONANO",
  "postalCode": "94563"
 },
 {
  "id": 7504043013,
  "districtId": 7504043,
  "districtName": "BONE",
  "name": "SOGITIA",
  "postalCode": "96585"
 },
 {
  "id": 7504043014,
  "districtId": 7504043,
  "districtName": "BONE",
  "name": "TALUDAA",
  "postalCode": "96585"
 },
 {
  "id": 7504043015,
  "districtId": 7504043,
  "districtName": "BONE",
  "name": "BILOLANTUNGA",
  "postalCode": ""
 },
 {
  "id": 7504043016,
  "districtId": 7504043,
  "districtName": "BONE",
  "name": "MOODULIO",
  "postalCode": "96585"
 },
 {
  "id": 7504043017,
  "districtId": 7504043,
  "districtName": "BONE",
  "name": "INOGALUMA",
  "postalCode": "96585"
 },
 {
  "id": 7504043018,
  "districtId": 7504043,
  "districtName": "BONE",
  "name": "TUMBUH MEKAR",
  "postalCode": "96585"
 },
 {
  "id": 7504043019,
  "districtId": 7504043,
  "districtName": "BONE",
  "name": "MOLAMAHU",
  "postalCode": "96585"
 },
 {
  "id": 7504043020,
  "districtId": 7504043,
  "districtName": "BONE",
  "name": "ILOHUUWA",
  "postalCode": "96585"
 },
 {
  "id": 7504043021,
  "districtId": 7504043,
  "districtName": "BONE",
  "name": "MASIAGA",
  "postalCode": "96585"
 },
 {
  "id": 7504043022,
  "districtId": 7504043,
  "districtName": "BONE",
  "name": "MUARA BONE",
  "postalCode": "96585"
 },
 {
  "id": 7504043023,
  "districtId": 7504043,
  "districtName": "BONE",
  "name": "WALUHU",
  "postalCode": "96585"
 },
 {
  "id": 7504043024,
  "districtId": 7504043,
  "districtName": "BONE",
  "name": "CENDANA PUTIH",
  "postalCode": "92917"
 },
 {
  "id": 7504043025,
  "districtId": 7504043,
  "districtName": "BONE",
  "name": "PERMATA",
  "postalCode": "78392"
 }
]