[
 {
  "id": 7504012001,
  "districtId": 7504012,
  "districtName": "BULANGO SELATAN",
  "name": "AYULA SELATAN",
  "postalCode": "96582"
 },
 {
  "id": 7504012002,
  "districtId": 7504012,
  "districtName": "BULANGO SELATAN",
  "name": "HUNTU SELATAN",
  "postalCode": "96582"
 },
 {
  "id": 7504012003,
  "districtId": 7504012,
  "districtName": "BULANGO SELATAN",
  "name": "HUNTU UTARA",
  "postalCode": "96582"
 },
 {
  "id": 7504012004,
  "districtId": 7504012,
  "districtName": "BULANGO SELATAN",
  "name": "AYULA UTARA",
  "postalCode": "96582"
 },
 {
  "id": 7504012005,
  "districtId": 7504012,
  "districtName": "BULANGO SELATAN",
  "name": "AYULA TILANGO",
  "postalCode": "96582"
 },
 {
  "id": 7504012006,
  "districtId": 7504012,
  "districtName": "BULANGO SELATAN",
  "name": "LAMAHU",
  "postalCode": "96264"
 },
 {
  "id": 7504012007,
  "districtId": 7504012,
  "districtName": "BULANGO SELATAN",
  "name": "HUNTU BARAT",
  "postalCode": ""
 },
 {
  "id": 7504012008,
  "districtId": 7504012,
  "districtName": "BULANGO SELATAN",
  "name": "AYULA TIMUR",
  "postalCode": "96582"
 },
 {
  "id": 7504012009,
  "districtId": 7504012,
  "districtName": "BULANGO SELATAN",
  "name": "SEJAHTERA",
  "postalCode": "24673"
 },
 {
  "id": 7504012010,
  "districtId": 7504012,
  "districtName": "BULANGO SELATAN",
  "name": "TINELO AYULA",
  "postalCode": "96582"
 }
]