[
 {
  "id": 7505030004,
  "districtId": 7505030,
  "districtName": "ANGGREK",
  "name": "TOLANGO",
  "postalCode": "96525"
 },
 {
  "id": 7505030005,
  "districtId": 7505030,
  "districtName": "ANGGREK",
  "name": "ILANGATA",
  "postalCode": "96525"
 },
 {
  "id": 7505030006,
  "districtId": 7505030,
  "districtName": "ANGGREK",
  "name": "POPALO",
  "postalCode": "96525"
 },
 {
  "id": 7505030007,
  "districtId": 7505030,
  "districtName": "ANGGREK",
  "name": "TOLONGIO",
  "postalCode": "96525"
 },
 {
  "id": 7505030008,
  "districtId": 7505030,
  "districtName": "ANGGREK",
  "name": "DUDEPO",
  "postalCode": "95774"
 },
 {
  "id": 7505030010,
  "districtId": 7505030,
  "districtName": "ANGGREK",
  "name": "MOTILANGO",
  "postalCode": "96251"
 },
 {
  "id": 7505030016,
  "districtId": 7505030,
  "districtName": "ANGGREK",
  "name": "ILOHELUMA",
  "postalCode": "96525"
 },
 {
  "id": 7505030017,
  "districtId": 7505030,
  "districtName": "ANGGREK",
  "name": "IBARAT",
  "postalCode": "96525"
 },
 {
  "id": 7505030018,
  "districtId": 7505030,
  "districtName": "ANGGREK",
  "name": "DATAHU",
  "postalCode": "96525"
 },
 {
  "id": 7505030019,
  "districtId": 7505030,
  "districtName": "ANGGREK",
  "name": "PUTIANA",
  "postalCode": "96525"
 },
 {
  "id": 7505030020,
  "districtId": 7505030,
  "districtName": "ANGGREK",
  "name": "HIYALOOILE",
  "postalCode": "96525"
 },
 {
  "id": 7505030021,
  "districtId": 7505030,
  "districtName": "ANGGREK",
  "name": "ILODULUNGA",
  "postalCode": "96525"
 },
 {
  "id": 7505030022,
  "districtId": 7505030,
  "districtName": "ANGGREK",
  "name": "LANGGE",
  "postalCode": "93792"
 },
 {
  "id": 7505030023,
  "districtId": 7505030,
  "districtName": "ANGGREK",
  "name": "TUTUWOTO",
  "postalCode": "96525"
 },
 {
  "id": 7505030025,
  "districtId": 7505030,
  "districtName": "ANGGREK",
  "name": "HELUMO",
  "postalCode": "96525"
 }
]