[
 {
  "id": 7505050001,
  "districtId": 7505050,
  "districtName": "TOLINGGULA",
  "name": "LIMBATO",
  "postalCode": "96263"
 },
 {
  "id": 7505050002,
  "districtId": 7505050,
  "districtName": "TOLINGGULA",
  "name": "PAPUALANGI",
  "postalCode": ""
 },
 {
  "id": 7505050003,
  "districtId": 7505050,
  "districtName": "TOLINGGULA",
  "name": "TOLINGGULA ULU",
  "postalCode": "96524"
 },
 {
  "id": 7505050004,
  "districtId": 7505050,
  "districtName": "TOLINGGULA",
  "name": "TOLINGGULA TENGAH",
  "postalCode": "96524"
 },
 {
  "id": 7505050005,
  "districtId": 7505050,
  "districtName": "TOLINGGULA",
  "name": "TOLINGGULA PANTAI",
  "postalCode": "96524"
 },
 {
  "id": 7505050008,
  "districtId": 7505050,
  "districtName": "TOLINGGULA",
  "name": "CEMPAKA PUTIH",
  "postalCode": "36134"
 },
 {
  "id": 7505050009,
  "districtId": 7505050,
  "districtName": "TOLINGGULA",
  "name": "MOLANGGA",
  "postalCode": "96524"
 },
 {
  "id": 7505050012,
  "districtId": 7505050,
  "districtName": "TOLINGGULA",
  "name": "ILOTUNGGULA",
  "postalCode": ""
 },
 {
  "id": 7505050013,
  "districtId": 7505050,
  "districtName": "TOLINGGULA",
  "name": "TOLITE JAYA",
  "postalCode": "96524"
 },
 {
  "id": 7505050017,
  "districtId": 7505050,
  "districtName": "TOLINGGULA",
  "name": "ILOMANGGA",
  "postalCode": "96271"
 }
]