[
 {
  "id": 7505051001,
  "districtId": 7505051,
  "districtName": "BIAU",
  "name": "BIAU",
  "postalCode": "85765"
 },
 {
  "id": 7505051002,
  "districtId": 7505051,
  "districtName": "BIAU",
  "name": "POTANGA",
  "postalCode": "96264"
 },
 {
  "id": 7505051003,
  "districtId": 7505051,
  "districtName": "BIAU",
  "name": "WINDU",
  "postalCode": "62293"
 },
 {
  "id": 7505051004,
  "districtId": 7505051,
  "districtName": "BIAU",
  "name": "DIDINGGA",
  "postalCode": "96524"
 },
 {
  "id": 7505051005,
  "districtId": 7505051,
  "districtName": "BIAU",
  "name": "OMUTO",
  "postalCode": "96524"
 },
 {
  "id": 7505051006,
  "districtId": 7505051,
  "districtName": "BIAU",
  "name": "LUHUTO",
  "postalCode": "96524"
 },
 {
  "id": 7505051007,
  "districtId": 7505051,
  "districtName": "BIAU",
  "name": "BOHULO",
  "postalCode": "96524"
 },
 {
  "id": 7505051008,
  "districtId": 7505051,
  "districtName": "BIAU",
  "name": "TOPI",
  "postalCode": "96524"
 },
 {
  "id": 7505051009,
  "districtId": 7505051,
  "districtName": "BIAU",
  "name": "BUALO",
  "postalCode": "96524"
 },
 {
  "id": 7505051010,
  "districtId": 7505051,
  "districtName": "BIAU",
  "name": "SEMBIHINGAN",
  "postalCode": "96524"
 }
]