[
 {
  "id": 7601041001,
  "districtId": 7601041,
  "districtName": "ULUMANDA",
  "name": "ULUMANDA",
  "postalCode": "91453"
 },
 {
  "id": 7601041002,
  "districtId": 7601041,
  "districtName": "ULUMANDA",
  "name": "SAMBABO",
  "postalCode": "91453"
 },
 {
  "id": 7601041003,
  "districtId": 7601041,
  "districtName": "ULUMANDA",
  "name": "TANDEALLO",
  "postalCode": "91453"
 },
 {
  "id": 7601041005,
  "districtId": 7601041,
  "districtName": "ULUMANDA",
  "name": "KABIRAAN",
  "postalCode": "91453"
 },
 {
  "id": 7601041006,
  "districtId": 7601041,
  "districtName": "ULUMANDA",
  "name": "POPENGA",
  "postalCode": "91453"
 },
 {
  "id": 7601041007,
  "districtId": 7601041,
  "districtName": "ULUMANDA",
  "name": "SALUTAMBUNG",
  "postalCode": "91453"
 },
 {
  "id": 7601041008,
  "districtId": 7601041,
  "districtName": "ULUMANDA",
  "name": "PANGGALO",
  "postalCode": "91453"
 },
 {
  "id": 7601041009,
  "districtId": 7601041,
  "districtName": "ULUMANDA",
  "name": "SULAI",
  "postalCode": "91453"
 }
]