[
 {
  "id": 7602041002,
  "districtId": 7602041,
  "districtName": "MAPILLI",
  "name": "RUMPA",
  "postalCode": "91353"
 },
 {
  "id": 7602041003,
  "districtId": 7602041,
  "districtName": "MAPILLI",
  "name": "UGI BARU",
  "postalCode": "91353"
 },
 {
  "id": 7602041004,
  "districtId": 7602041,
  "districtName": "MAPILLI",
  "name": "BONNE-BONNE",
  "postalCode": "91353"
 },
 {
  "id": 7602041005,
  "districtId": 7602041,
  "districtName": "MAPILLI",
  "name": "MAPILLI",
  "postalCode": "91353"
 },
 {
  "id": 7602041006,
  "districtId": 7602041,
  "districtName": "MAPILLI",
  "name": "KURMA",
  "postalCode": "91353"
 },
 {
  "id": 7602041007,
  "districtId": 7602041,
  "districtName": "MAPILLI",
  "name": "RAPPANG BARAT",
  "postalCode": "91353"
 },
 {
  "id": 7602041008,
  "districtId": 7602041,
  "districtName": "MAPILLI",
  "name": "BEROANGIN",
  "postalCode": "91353"
 },
 {
  "id": 7602041009,
  "districtId": 7602041,
  "districtName": "MAPILLI",
  "name": "SEGERANG",
  "postalCode": "91353"
 },
 {
  "id": 7602041010,
  "districtId": 7602041,
  "districtName": "MAPILLI",
  "name": "BONRA",
  "postalCode": "91353"
 },
 {
  "id": 7602041011,
  "districtId": 7602041,
  "districtName": "MAPILLI",
  "name": "SATTOKO",
  "postalCode": "91353"
 },
 {
  "id": 7602041012,
  "districtId": 7602041,
  "districtName": "MAPILLI",
  "name": "LANDI KANUSUANG",
  "postalCode": "91353"
 }
]