[
 {
  "id": 7602010001,
  "districtId": 7602010,
  "districtName": "TINAMBUNG",
  "name": "TANDUNG",
  "postalCode": "92953"
 },
 {
  "id": 7602010002,
  "districtId": 7602010,
  "districtName": "TINAMBUNG",
  "name": "SEPA BATU",
  "postalCode": "91354"
 },
 {
  "id": 7602010003,
  "districtId": 7602010,
  "districtName": "TINAMBUNG",
  "name": "TANGNGA-TANGNGA",
  "postalCode": "91412"
 },
 {
  "id": 7602010004,
  "districtId": 7602010,
  "districtName": "TINAMBUNG",
  "name": "KARAMA",
  "postalCode": "92552"
 },
 {
  "id": 7602010014,
  "districtId": 7602010,
  "districtName": "TINAMBUNG",
  "name": "BATULAYA",
  "postalCode": "91354"
 },
 {
  "id": 7602010018,
  "districtId": 7602010,
  "districtName": "TINAMBUNG",
  "name": "TINAMBUNG",
  "postalCode": "91451"
 },
 {
  "id": 7602010019,
  "districtId": 7602010,
  "districtName": "TINAMBUNG",
  "name": "LEKOPADIS",
  "postalCode": "91354"
 },
 {
  "id": 7602010021,
  "districtId": 7602010,
  "districtName": "TINAMBUNG",
  "name": "GALUNG LOMBOK",
  "postalCode": "91354"
 }
]