[
 {
  "id": 7602030001,
  "districtId": 7602030,
  "districtName": "CAMPALAGIAN",
  "name": "LALIKO",
  "postalCode": "91353"
 },
 {
  "id": 7602030002,
  "districtId": 7602030,
  "districtName": "CAMPALAGIAN",
  "name": "LAPEO",
  "postalCode": "91353"
 },
 {
  "id": 7602030004,
  "districtId": 7602030,
  "districtName": "CAMPALAGIAN",
  "name": "SURUANG",
  "postalCode": "91353"
 },
 {
  "id": 7602030005,
  "districtId": 7602030,
  "districtName": "CAMPALAGIAN",
  "name": "PAPPANG",
  "postalCode": "91353"
 },
 {
  "id": 7602030006,
  "districtId": 7602030,
  "districtName": "CAMPALAGIAN",
  "name": "BONDE",
  "postalCode": "91353"
 },
 {
  "id": 7602030007,
  "districtId": 7602030,
  "districtName": "CAMPALAGIAN",
  "name": "PARAPPE",
  "postalCode": "91353"
 },
 {
  "id": 7602030008,
  "districtId": 7602030,
  "districtName": "CAMPALAGIAN",
  "name": "PANYAMPA",
  "postalCode": "91353"
 },
 {
  "id": 7602030009,
  "districtId": 7602030,
  "districtName": "CAMPALAGIAN",
  "name": "LEMO",
  "postalCode": "15510"
 },
 {
  "id": 7602030010,
  "districtId": 7602030,
  "districtName": "CAMPALAGIAN",
  "name": "KATUMBANGAN",
  "postalCode": "91353"
 },
 {
  "id": 7602030011,
  "districtId": 7602030,
  "districtName": "CAMPALAGIAN",
  "name": "LAMPOKO",
  "postalCode": "90762"
 },
 {
  "id": 7602030012,
  "districtId": 7602030,
  "districtName": "CAMPALAGIAN",
  "name": "ONGKO",
  "postalCode": "84384"
 },
 {
  "id": 7602030013,
  "districtId": 7602030,
  "districtName": "CAMPALAGIAN",
  "name": "SUMARANG",
  "postalCode": ""
 },
 {
  "id": 7602030016,
  "districtId": 7602030,
  "districtName": "CAMPALAGIAN",
  "name": "B O T T O",
  "postalCode": ""
 },
 {
  "id": 7602030017,
  "districtId": 7602030,
  "districtName": "CAMPALAGIAN",
  "name": "LAGI AGI",
  "postalCode": ""
 },
 {
  "id": 7602030018,
  "districtId": 7602030,
  "districtName": "CAMPALAGIAN",
  "name": "PADANG",
  "postalCode": "23762"
 },
 {
  "id": 7602030019,
  "districtId": 7602030,
  "districtName": "CAMPALAGIAN",
  "name": "GATTUNGAN",
  "postalCode": "91353"
 },
 {
  "id": 7602030020,
  "districtId": 7602030,
  "districtName": "CAMPALAGIAN",
  "name": "PADANG TIMUR",
  "postalCode": "91353"
 }
]