[
 {
  "id": 7606050001,
  "districtId": 7606050,
  "districtName": "KAROSSA",
  "name": "KAMBUNONG",
  "postalCode": "91512"
 },
 {
  "id": 7606050002,
  "districtId": 7606050,
  "districtName": "KAROSSA",
  "name": "TASOKKO",
  "postalCode": "91512"
 },
 {
  "id": 7606050003,
  "districtId": 7606050,
  "districtName": "KAROSSA",
  "name": "SALUBIRU",
  "postalCode": ""
 },
 {
  "id": 7606050004,
  "districtId": 7606050,
  "districtName": "KAROSSA",
  "name": "L A R A",
  "postalCode": ""
 },
 {
  "id": 7606050005,
  "districtId": 7606050,
  "districtName": "KAROSSA",
  "name": "SUKAMAJU",
  "postalCode": "22465"
 },
 {
  "id": 7606050006,
  "districtId": 7606050,
  "districtName": "KAROSSA",
  "name": "LEMBAH HOPO",
  "postalCode": "91512"
 },
 {
  "id": 7606050007,
  "districtId": 7606050,
  "districtName": "KAROSSA",
  "name": "UPT LARA III",
  "postalCode": ""
 },
 {
  "id": 7606050008,
  "districtId": 7606050,
  "districtName": "KAROSSA",
  "name": "KAROSSA",
  "postalCode": "91512"
 },
 {
  "id": 7606050009,
  "districtId": 7606050,
  "districtName": "KAROSSA",
  "name": "KAYUCALLA",
  "postalCode": "91512"
 },
 {
  "id": 7606050010,
  "districtId": 7606050,
  "districtName": "KAROSSA",
  "name": "KADAILA",
  "postalCode": "91512"
 },
 {
  "id": 7606050011,
  "districtId": 7606050,
  "districtName": "KAROSSA",
  "name": "BENGGAULU",
  "postalCode": "91512"
 },
 {
  "id": 7606050012,
  "districtId": 7606050,
  "districtName": "KAROSSA",
  "name": "MORA IV",
  "postalCode": "91512"
 },
 {
  "id": 7606050013,
  "districtId": 7606050,
  "districtName": "KAROSSA",
  "name": "SANJANGO",
  "postalCode": ""
 }
]