[
 {
  "id": 8102015001,
  "districtId": 8102015,
  "districtName": "MANYEUW",
  "name": "RUMADIAN",
  "postalCode": "97611"
 },
 {
  "id": 8102015003,
  "districtId": 8102015,
  "districtName": "MANYEUW",
  "name": "NAMAR",
  "postalCode": "97611"
 },
 {
  "id": 8102015004,
  "districtId": 8102015,
  "districtName": "MANYEUW",
  "name": "LAIRNGANGAS",
  "postalCode": "97611"
 },
 {
  "id": 8102015005,
  "districtId": 8102015,
  "districtName": "MANYEUW",
  "name": "SELAYAR",
  "postalCode": "29872"
 },
 {
  "id": 8102015006,
  "districtId": 8102015,
  "districtName": "MANYEUW",
  "name": "NGAYUB",
  "postalCode": "97611"
 },
 {
  "id": 8102015007,
  "districtId": 8102015,
  "districtName": "MANYEUW",
  "name": "OHOILUK",
  "postalCode": "97611"
 },
 {
  "id": 8102015008,
  "districtId": 8102015,
  "districtName": "MANYEUW",
  "name": "NGILNGOF",
  "postalCode": "97611"
 },
 {
  "id": 8102015009,
  "districtId": 8102015,
  "districtName": "MANYEUW",
  "name": "OHOILILIR",
  "postalCode": "97611"
 }
]