[
 {
  "id": 8102013007,
  "districtId": 8102013,
  "districtName": "KEI KECIL TIMUR",
  "name": "MASTUR",
  "postalCode": "97615"
 },
 {
  "id": 8102013008,
  "districtId": 8102013,
  "districtName": "KEI KECIL TIMUR",
  "name": "OHOINOL",
  "postalCode": "97615"
 },
 {
  "id": 8102013009,
  "districtId": 8102013,
  "districtName": "KEI KECIL TIMUR",
  "name": "WAIN",
  "postalCode": "97615"
 },
 {
  "id": 8102013010,
  "districtId": 8102013,
  "districtName": "KEI KECIL TIMUR",
  "name": "ABEAN",
  "postalCode": "97615"
 },
 {
  "id": 8102013011,
  "districtId": 8102013,
  "districtName": "KEI KECIL TIMUR",
  "name": "RAAT",
  "postalCode": "97615"
 },
 {
  "id": 8102013012,
  "districtId": 8102013,
  "districtName": "KEI KECIL TIMUR",
  "name": "RUMAT",
  "postalCode": "97615"
 },
 {
  "id": 8102013013,
  "districtId": 8102013,
  "districtName": "KEI KECIL TIMUR",
  "name": "REWAV",
  "postalCode": ""
 },
 {
  "id": 8102013014,
  "districtId": 8102013,
  "districtName": "KEI KECIL TIMUR",
  "name": "MASTUR BARU",
  "postalCode": ""
 },
 {
  "id": 8102013015,
  "districtId": 8102013,
  "districtName": "KEI KECIL TIMUR",
  "name": "OHOILUS",
  "postalCode": "97615"
 },
 {
  "id": 8102013018,
  "districtId": 8102013,
  "districtName": "KEI KECIL TIMUR",
  "name": "SEMAWI",
  "postalCode": "97615"
 },
 {
  "id": 8102013019,
  "districtId": 8102013,
  "districtName": "KEI KECIL TIMUR",
  "name": "ISO",
  "postalCode": "97615"
 },
 {
  "id": 8102013020,
  "districtId": 8102013,
  "districtName": "KEI KECIL TIMUR",
  "name": "WAIN BARU",
  "postalCode": "97615"
 },
 {
  "id": 8102013021,
  "districtId": 8102013,
  "districtName": "KEI KECIL TIMUR",
  "name": "DISUK",
  "postalCode": "97615"
 },
 {
  "id": 8102013022,
  "districtId": 8102013,
  "districtName": "KEI KECIL TIMUR",
  "name": "MARFUN",
  "postalCode": "97615"
 },
 {
  "id": 8102013023,
  "districtId": 8102013,
  "districtName": "KEI KECIL TIMUR",
  "name": "YAFAWUN",
  "postalCode": ""
 },
 {
  "id": 8102013024,
  "districtId": 8102013,
  "districtName": "KEI KECIL TIMUR",
  "name": "WATNGON",
  "postalCode": "97615"
 }
]