[
 {
  "id": 8102022004,
  "districtId": 8102022,
  "districtName": "KEI BESAR SELATAN",
  "name": "KILWAT",
  "postalCode": "97661"
 },
 {
  "id": 8102022007,
  "districtId": 8102022,
  "districtName": "KEI BESAR SELATAN",
  "name": "TAMANGIL NUHUYANAT",
  "postalCode": "97661"
 },
 {
  "id": 8102022008,
  "districtId": 8102022,
  "districtName": "KEI BESAR SELATAN",
  "name": "SATHER",
  "postalCode": ""
 },
 {
  "id": 8102022009,
  "districtId": 8102022,
  "districtName": "KEI BESAR SELATAN",
  "name": "TUTREAN",
  "postalCode": "97661"
 },
 {
  "id": 8102022010,
  "districtId": 8102022,
  "districtName": "KEI BESAR SELATAN",
  "name": "WEDUAR",
  "postalCode": "97661"
 },
 {
  "id": 8102022011,
  "districtId": 8102022,
  "districtName": "KEI BESAR SELATAN",
  "name": "TAMANGIL NUHUTEN",
  "postalCode": "97661"
 },
 {
  "id": 8102022012,
  "districtId": 8102022,
  "districtName": "KEI BESAR SELATAN",
  "name": "LARAT",
  "postalCode": "97661"
 },
 {
  "id": 8102022013,
  "districtId": 8102022,
  "districtName": "KEI BESAR SELATAN",
  "name": "NERONG",
  "postalCode": "97661"
 },
 {
  "id": 8102022014,
  "districtId": 8102022,
  "districtName": "KEI BESAR SELATAN",
  "name": "OHOIRENAN",
  "postalCode": "97661"
 },
 {
  "id": 8102022015,
  "districtId": 8102022,
  "districtName": "KEI BESAR SELATAN",
  "name": "SOINDAT",
  "postalCode": "97661"
 }
]