[
 {
  "id": 8103050009,
  "districtId": 8103050,
  "districtName": "AMAHAI",
  "name": "BANDA BARU",
  "postalCode": "97516"
 },
 {
  "id": 8103050010,
  "districtId": 8103050,
  "districtName": "AMAHAI",
  "name": "YAFILA",
  "postalCode": "97516"
 },
 {
  "id": 8103050011,
  "districtId": 8103050,
  "districtName": "AMAHAI",
  "name": "HOLLO",
  "postalCode": "97516"
 },
 {
  "id": 8103050012,
  "districtId": 8103050,
  "districtName": "AMAHAI",
  "name": "MAKARIKI",
  "postalCode": "97516"
 },
 {
  "id": 8103050013,
  "districtId": 8103050,
  "districtName": "AMAHAI",
  "name": "SEHATI",
  "postalCode": "97516"
 },
 {
  "id": 8103050014,
  "districtId": 8103050,
  "districtName": "AMAHAI",
  "name": "HARURU",
  "postalCode": "97516"
 },
 {
  "id": 8103050020,
  "districtId": 8103050,
  "districtName": "AMAHAI",
  "name": "AMAHAI",
  "postalCode": ""
 },
 {
  "id": 8103050021,
  "districtId": 8103050,
  "districtName": "AMAHAI",
  "name": "SOAHUKU",
  "postalCode": "97516"
 },
 {
  "id": 8103050022,
  "districtId": 8103050,
  "districtName": "AMAHAI",
  "name": "RUTAH",
  "postalCode": "97516"
 },
 {
  "id": 8103050023,
  "districtId": 8103050,
  "districtName": "AMAHAI",
  "name": "SEPA",
  "postalCode": "97516"
 },
 {
  "id": 8103050024,
  "districtId": 8103050,
  "districtName": "AMAHAI",
  "name": "TAMILOUW",
  "postalCode": "97516"
 },
 {
  "id": 8103050025,
  "districtId": 8103050,
  "districtName": "AMAHAI",
  "name": "NUA NEA",
  "postalCode": ""
 },
 {
  "id": 8103050026,
  "districtId": 8103050,
  "districtName": "AMAHAI",
  "name": "YAINUELO",
  "postalCode": "97516"
 },
 {
  "id": 8103050028,
  "districtId": 8103050,
  "districtName": "AMAHAI",
  "name": "HATUHENU",
  "postalCode": ""
 }
]