[
 {
  "id": 8103041001,
  "districtId": 8103041,
  "districtName": "TELUTIH",
  "name": "WOLU",
  "postalCode": "97553"
 },
 {
  "id": 8103041002,
  "districtId": 8103041,
  "districtName": "TELUTIH",
  "name": "LAFA",
  "postalCode": "97553"
 },
 {
  "id": 8103041003,
  "districtId": 8103041,
  "districtName": "TELUTIH",
  "name": "TEHUA",
  "postalCode": "97553"
 },
 {
  "id": 8103041004,
  "districtId": 8103041,
  "districtName": "TELUTIH",
  "name": "MANEORATU",
  "postalCode": ""
 },
 {
  "id": 8103041005,
  "districtId": 8103041,
  "districtName": "TELUTIH",
  "name": "LAIMU",
  "postalCode": "97553"
 },
 {
  "id": 8103041006,
  "districtId": 8103041,
  "districtName": "TELUTIH",
  "name": "HUNISI",
  "postalCode": "97553"
 },
 {
  "id": 8103041007,
  "districtId": 8103041,
  "districtName": "TELUTIH",
  "name": "YAMALATU",
  "postalCode": "97553"
 },
 {
  "id": 8103041008,
  "districtId": 8103041,
  "districtName": "TELUTIH",
  "name": "LAHA",
  "postalCode": "97236"
 },
 {
  "id": 8103041009,
  "districtId": 8103041,
  "districtName": "TELUTIH",
  "name": "LAHA KABA",
  "postalCode": ""
 },
 {
  "id": 8103041010,
  "districtId": 8103041,
  "districtName": "TELUTIH",
  "name": "ULAHAHAN",
  "postalCode": "97553"
 }
]