[
 {
  "id": 8104030001,
  "districtId": 8104030,
  "districtName": "AIR BUAYA",
  "name": "BARA",
  "postalCode": "22741"
 },
 {
  "id": 8104030002,
  "districtId": 8104030,
  "districtName": "AIR BUAYA",
  "name": "TANJUNG KARANG",
  "postalCode": "24476"
 },
 {
  "id": 8104030003,
  "districtId": 8104030,
  "districtName": "AIR BUAYA",
  "name": "AIR BUAYA",
  "postalCode": "97572"
 },
 {
  "id": 8104030004,
  "districtId": 8104030,
  "districtName": "AIR BUAYA",
  "name": "WAIMANGIT",
  "postalCode": ""
 },
 {
  "id": 8104030005,
  "districtId": 8104030,
  "districtName": "AIR BUAYA",
  "name": "WAIPURE",
  "postalCode": ""
 },
 {
  "id": 8104030009,
  "districtId": 8104030,
  "districtName": "AIR BUAYA",
  "name": "SELWADU",
  "postalCode": "97572"
 },
 {
  "id": 8104030019,
  "districtId": 8104030,
  "districtName": "AIR BUAYA",
  "name": "KAMPUNG BARU",
  "postalCode": "24652"
 },
 {
  "id": 8104030020,
  "districtId": 8104030,
  "districtName": "AIR BUAYA",
  "name": "WASBAKA",
  "postalCode": "97572"
 },
 {
  "id": 8104030021,
  "districtId": 8104030,
  "districtName": "AIR BUAYA",
  "name": "BATLALE",
  "postalCode": "97572"
 },
 {
  "id": 8104030022,
  "districtId": 8104030,
  "districtName": "AIR BUAYA",
  "name": "AWILINAN",
  "postalCode": "97572"
 }
]