[
 {
  "id": 8104026001,
  "districtId": 8104026,
  "districtName": "LOLONG GUBA",
  "name": "NAFRUA",
  "postalCode": "97574"
 },
 {
  "id": 8104026002,
  "districtId": 8104026,
  "districtName": "LOLONG GUBA",
  "name": "WAPSALIT",
  "postalCode": "97574"
 },
 {
  "id": 8104026004,
  "districtId": 8104026,
  "districtName": "LOLONG GUBA",
  "name": "GRANDENG",
  "postalCode": "97574"
 },
 {
  "id": 8104026005,
  "districtId": 8104026,
  "districtName": "LOLONG GUBA",
  "name": "WAEGEREN",
  "postalCode": "97574"
 },
 {
  "id": 8104026006,
  "districtId": 8104026,
  "districtName": "LOLONG GUBA",
  "name": "TIFU",
  "postalCode": "97573"
 },
 {
  "id": 8104026007,
  "districtId": 8104026,
  "districtName": "LOLONG GUBA",
  "name": "WANAKARTA",
  "postalCode": "42454"
 },
 {
  "id": 8104026008,
  "districtId": 8104026,
  "districtName": "LOLONG GUBA",
  "name": "WABLOY",
  "postalCode": "97574"
 },
 {
  "id": 8104026009,
  "districtId": 8104026,
  "districtName": "LOLONG GUBA",
  "name": "KUBALAHIN",
  "postalCode": "97574"
 },
 {
  "id": 8104026010,
  "districtId": 8104026,
  "districtName": "LOLONG GUBA",
  "name": "OHILAHIN",
  "postalCode": "97574"
 }
]