[
 {
  "id": 8105033001,
  "districtId": 8105033,
  "districtName": "SIR-SIR",
  "name": "WAIFUAL",
  "postalCode": ""
 },
 {
  "id": 8105033002,
  "districtId": 8105033,
  "districtName": "SIR-SIR",
  "name": "WAFAN",
  "postalCode": "97664"
 },
 {
  "id": 8105033003,
  "districtId": 8105033,
  "districtName": "SIR-SIR",
  "name": "LANGHALAU",
  "postalCode": "97664"
 },
 {
  "id": 8105033004,
  "districtId": 8105033,
  "districtName": "SIR-SIR",
  "name": "GOMSEY",
  "postalCode": "97664"
 },
 {
  "id": 8105033005,
  "districtId": 8105033,
  "districtName": "SIR-SIR",
  "name": "LEITING",
  "postalCode": "97664"
 },
 {
  "id": 8105033006,
  "districtId": 8105033,
  "districtName": "SIR-SIR",
  "name": "BERDEFAN",
  "postalCode": "97664"
 },
 {
  "id": 8105033007,
  "districtId": 8105033,
  "districtName": "SIR-SIR",
  "name": "MOHONGSEL",
  "postalCode": "97664"
 },
 {
  "id": 8105033008,
  "districtId": 8105033,
  "districtName": "SIR-SIR",
  "name": "KOLAHA",
  "postalCode": "97664"
 },
 {
  "id": 8105033009,
  "districtId": 8105033,
  "districtName": "SIR-SIR",
  "name": "GODA GODA",
  "postalCode": "97664"
 }
]