[
 {
  "id": 8105011001,
  "districtId": 8105011,
  "districtName": "ARU SELATAN TIMUR",
  "name": "BATUGOYANG",
  "postalCode": "97666"
 },
 {
  "id": 8105011002,
  "districtId": 8105011,
  "districtName": "ARU SELATAN TIMUR",
  "name": "SALAREM",
  "postalCode": "97666"
 },
 {
  "id": 8105011003,
  "districtId": 8105011,
  "districtName": "ARU SELATAN TIMUR",
  "name": "MEROR",
  "postalCode": "97666"
 },
 {
  "id": 8105011004,
  "districtId": 8105011,
  "districtName": "ARU SELATAN TIMUR",
  "name": "SIYA",
  "postalCode": "97666"
 },
 {
  "id": 8105011006,
  "districtId": 8105011,
  "districtName": "ARU SELATAN TIMUR",
  "name": "DOSIMAR",
  "postalCode": "97666"
 },
 {
  "id": 8105011007,
  "districtId": 8105011,
  "districtName": "ARU SELATAN TIMUR",
  "name": "KAREY",
  "postalCode": "97666"
 },
 {
  "id": 8105011008,
  "districtId": 8105011,
  "districtName": "ARU SELATAN TIMUR",
  "name": "JORANG",
  "postalCode": "97666"
 },
 {
  "id": 8105011009,
  "districtId": 8105011,
  "districtName": "ARU SELATAN TIMUR",
  "name": "GOMARMETI",
  "postalCode": "97666"
 },
 {
  "id": 8105011012,
  "districtId": 8105011,
  "districtName": "ARU SELATAN TIMUR",
  "name": "GOMARSUNGAI",
  "postalCode": "97666"
 }
]