[
 {
  "id": 8106041001,
  "districtId": 8106041,
  "districtName": "TANIWEL TIMUR",
  "name": "SOUHUWE",
  "postalCode": ""
 },
 {
  "id": 8106041002,
  "districtId": 8106041,
  "districtName": "TANIWEL TIMUR",
  "name": "MALOANG",
  "postalCode": "97561"
 },
 {
  "id": 8106041003,
  "districtId": 8106041,
  "districtName": "TANIWEL TIMUR",
  "name": "LUMAHLATAL",
  "postalCode": ""
 },
 {
  "id": 8106041004,
  "districtId": 8106041,
  "districtName": "TANIWEL TIMUR",
  "name": "HATUNURU",
  "postalCode": "97561"
 },
 {
  "id": 8106041005,
  "districtId": 8106041,
  "districtName": "TANIWEL TIMUR",
  "name": "MATAPA",
  "postalCode": "97561"
 },
 {
  "id": 8106041006,
  "districtId": 8106041,
  "districtName": "TANIWEL TIMUR",
  "name": "SEAKASALE",
  "postalCode": ""
 },
 {
  "id": 8106041007,
  "districtId": 8106041,
  "districtName": "TANIWEL TIMUR",
  "name": "MAKUBUBUY",
  "postalCode": ""
 },
 {
  "id": 8106041008,
  "districtId": 8106041,
  "districtName": "TANIWEL TIMUR",
  "name": "SUKARAJA",
  "postalCode": "21256"
 },
 {
  "id": 8106041009,
  "districtId": 8106041,
  "districtName": "TANIWEL TIMUR",
  "name": "LUMAPELU",
  "postalCode": ""
 },
 {
  "id": 8106041010,
  "districtId": 8106041,
  "districtName": "TANIWEL TIMUR",
  "name": "UWEN PANTAI",
  "postalCode": "97561"
 },
 {
  "id": 8106041011,
  "districtId": 8106041,
  "districtName": "TANIWEL TIMUR",
  "name": "TOUNUSSA",
  "postalCode": ""
 },
 {
  "id": 8106041012,
  "districtId": 8106041,
  "districtName": "TANIWEL TIMUR",
  "name": "MUSIHUWEY",
  "postalCode": ""
 },
 {
  "id": 8106041013,
  "districtId": 8106041,
  "districtName": "TANIWEL TIMUR",
  "name": "SOLEA",
  "postalCode": "97561"
 },
 {
  "id": 8106041014,
  "districtId": 8106041,
  "districtName": "TANIWEL TIMUR",
  "name": "WARALOIN",
  "postalCode": "97561"
 },
 {
  "id": 8106041015,
  "districtId": 8106041,
  "districtName": "TANIWEL TIMUR",
  "name": "WALAKONE",
  "postalCode": "97561"
 }
]