[
 {
  "id": 8107010010,
  "districtId": 8107010,
  "districtName": "PULAU GOROM",
  "name": "AMARSEKARU",
  "postalCode": "97595"
 },
 {
  "id": 8107010013,
  "districtId": 8107010,
  "districtName": "PULAU GOROM",
  "name": "MIDA",
  "postalCode": "97595"
 },
 {
  "id": 8107010015,
  "districtId": 8107010,
  "districtName": "PULAU GOROM",
  "name": "DAI",
  "postalCode": ""
 },
 {
  "id": 8107010018,
  "districtId": 8107010,
  "districtName": "PULAU GOROM",
  "name": "ONDOR",
  "postalCode": "97595"
 },
 {
  "id": 8107010019,
  "districtId": 8107010,
  "districtName": "PULAU GOROM",
  "name": "KATALOKA",
  "postalCode": "97595"
 },
 {
  "id": 8107010024,
  "districtId": 8107010,
  "districtName": "PULAU GOROM",
  "name": "LOKO",
  "postalCode": "97595"
 },
 {
  "id": 8107010025,
  "districtId": 8107010,
  "districtName": "PULAU GOROM",
  "name": "SERA",
  "postalCode": "97595"
 },
 {
  "id": 8107010032,
  "districtId": 8107010,
  "districtName": "PULAU GOROM",
  "name": "ILILI",
  "postalCode": "97595"
 },
 {
  "id": 8107010033,
  "districtId": 8107010,
  "districtName": "PULAU GOROM",
  "name": "KELIBINGAN",
  "postalCode": "97595"
 },
 {
  "id": 8107010034,
  "districtId": 8107010,
  "districtName": "PULAU GOROM",
  "name": "RUMEON",
  "postalCode": "97595"
 },
 {
  "id": 8107010035,
  "districtId": 8107010,
  "districtName": "PULAU GOROM",
  "name": "KULUGOWA",
  "postalCode": "97595"
 },
 {
  "id": 8107010037,
  "districtId": 8107010,
  "districtName": "PULAU GOROM",
  "name": "NAMALEAN",
  "postalCode": "97595"
 },
 {
  "id": 8107010038,
  "districtId": 8107010,
  "districtName": "PULAU GOROM",
  "name": "AREWAN",
  "postalCode": ""
 },
 {
  "id": 8107010039,
  "districtId": 8107010,
  "districtName": "PULAU GOROM",
  "name": "KAFORING",
  "postalCode": ""
 },
 {
  "id": 8107010040,
  "districtId": 8107010,
  "districtName": "PULAU GOROM",
  "name": "KILALIR KILWOUW",
  "postalCode": ""
 },
 {
  "id": 8107010041,
  "districtId": 8107010,
  "districtName": "PULAU GOROM",
  "name": "KILOTAK",
  "postalCode": ""
 },
 {
  "id": 8107010042,
  "districtId": 8107010,
  "districtName": "PULAU GOROM",
  "name": "KILEAN",
  "postalCode": ""
 },
 {
  "id": 8107010043,
  "districtId": 8107010,
  "districtName": "PULAU GOROM",
  "name": "DULAK",
  "postalCode": ""
 },
 {
  "id": 8107010044,
  "districtId": 8107010,
  "districtName": "PULAU GOROM",
  "name": "DADA KATALOKA",
  "postalCode": ""
 },
 {
  "id": 8107010045,
  "districtId": 8107010,
  "districtName": "PULAU GOROM",
  "name": "AROA KATALOKA",
  "postalCode": ""
 },
 {
  "id": 8107010046,
  "districtId": 8107010,
  "districtName": "PULAU GOROM",
  "name": "SIKARU KATALOKA",
  "postalCode": ""
 },
 {
  "id": 8107010047,
  "districtId": 8107010,
  "districtName": "PULAU GOROM",
  "name": "USUN KATALOKA",
  "postalCode": ""
 },
 {
  "id": 8107010048,
  "districtId": 8107010,
  "districtName": "PULAU GOROM",
  "name": "BUAN KATALOKA",
  "postalCode": ""
 },
 {
  "id": 8107010049,
  "districtId": 8107010,
  "districtName": "PULAU GOROM",
  "name": "RUMANAMA KOTAWOUW KATALOKA",
  "postalCode": ""
 }
]