[
 {
  "id": 8107040005,
  "districtId": 8107040,
  "districtName": "BULA",
  "name": "SALAS",
  "postalCode": "97554"
 },
 {
  "id": 8107040006,
  "districtId": 8107040,
  "districtName": "BULA",
  "name": "BULA",
  "postalCode": "97555"
 },
 {
  "id": 8107040017,
  "districtId": 8107040,
  "districtName": "BULA",
  "name": "BULA AIR FATTOLO",
  "postalCode": ""
 },
 {
  "id": 8107040018,
  "districtId": 8107040,
  "districtName": "BULA",
  "name": "SESAR",
  "postalCode": "97554"
 },
 {
  "id": 8107040019,
  "districtId": 8107040,
  "districtName": "BULA",
  "name": "ENGLAS",
  "postalCode": "97554"
 },
 {
  "id": 8107040024,
  "districtId": 8107040,
  "districtName": "BULA",
  "name": "LEMUMIR",
  "postalCode": ""
 },
 {
  "id": 8107040025,
  "districtId": 8107040,
  "districtName": "BULA",
  "name": "FATTOLO",
  "postalCode": "97554"
 },
 {
  "id": 8107040026,
  "districtId": 8107040,
  "districtName": "BULA",
  "name": "TANSI AMBON",
  "postalCode": "97554"
 },
 {
  "id": 8107040027,
  "districtId": 8107040,
  "districtName": "BULA",
  "name": "KAMPUNG WAILOLA",
  "postalCode": "97554"
 },
 {
  "id": 8107040028,
  "districtId": 8107040,
  "districtName": "BULA",
  "name": "KAMPUNG GOROM",
  "postalCode": "97554"
 }
]