[
 {
  "id": 8107042001,
  "districtId": 8107042,
  "districtName": "TELUK WARU",
  "name": "TUBIR MASIWANG",
  "postalCode": ""
 },
 {
  "id": 8107042002,
  "districtId": 8107042,
  "districtName": "TELUK WARU",
  "name": "WARU",
  "postalCode": "45252"
 },
 {
  "id": 8107042003,
  "districtId": 8107042,
  "districtName": "TELUK WARU",
  "name": "KARAY",
  "postalCode": "97554"
 },
 {
  "id": 8107042004,
  "districtId": 8107042,
  "districtName": "TELUK WARU",
  "name": "NAMA LENA",
  "postalCode": "97554"
 },
 {
  "id": 8107042005,
  "districtId": 8107042,
  "districtName": "TELUK WARU",
  "name": "NAMA ANDAN",
  "postalCode": "97554"
 },
 {
  "id": 8107042006,
  "districtId": 8107042,
  "districtName": "TELUK WARU",
  "name": "BELIS",
  "postalCode": ""
 },
 {
  "id": 8107042007,
  "districtId": 8107042,
  "districtName": "TELUK WARU",
  "name": "SOLANG",
  "postalCode": "97554"
 },
 {
  "id": 8107042008,
  "districtId": 8107042,
  "districtName": "TELUK WARU",
  "name": "KAMPUNG BARU",
  "postalCode": "24652"
 },
 {
  "id": 8107042009,
  "districtId": 8107042,
  "districtName": "TELUK WARU",
  "name": "DAWANG",
  "postalCode": "97554"
 },
 {
  "id": 8107042010,
  "districtId": 8107042,
  "districtName": "TELUK WARU",
  "name": "MADAK",
  "postalCode": "79417"
 },
 {
  "id": 8107042011,
  "districtId": 8107042,
  "districtName": "TELUK WARU",
  "name": "BOINFIA",
  "postalCode": ""
 }
]