[
 {
  "id": 8108080001,
  "districtId": 8108080,
  "districtName": "BABAR TIMUR",
  "name": "EMPALWAS",
  "postalCode": ""
 },
 {
  "id": 8108080002,
  "districtId": 8108080,
  "districtName": "BABAR TIMUR",
  "name": "TUTUWAWANG",
  "postalCode": "97652"
 },
 {
  "id": 8108080003,
  "districtId": 8108080,
  "districtName": "BABAR TIMUR",
  "name": "MANUARI",
  "postalCode": ""
 },
 {
  "id": 8108080004,
  "districtId": 8108080,
  "districtName": "BABAR TIMUR",
  "name": "ANALUTUR",
  "postalCode": "97652"
 },
 {
  "id": 8108080005,
  "districtId": 8108080,
  "districtName": "BABAR TIMUR",
  "name": "AHANARI",
  "postalCode": "97652"
 },
 {
  "id": 8108080006,
  "districtId": 8108080,
  "districtName": "BABAR TIMUR",
  "name": "WAKPAPAPI",
  "postalCode": "97652"
 },
 {
  "id": 8108080007,
  "districtId": 8108080,
  "districtName": "BABAR TIMUR",
  "name": "KOKWARI",
  "postalCode": "97652"
 },
 {
  "id": 8108080009,
  "districtId": 8108080,
  "districtName": "BABAR TIMUR",
  "name": "KROING",
  "postalCode": "97652"
 },
 {
  "id": 8108080010,
  "districtId": 8108080,
  "districtName": "BABAR TIMUR",
  "name": "YATOKE",
  "postalCode": "97652"
 },
 {
  "id": 8108080011,
  "districtId": 8108080,
  "districtName": "BABAR TIMUR",
  "name": "NAKARHAMTO",
  "postalCode": "97652"
 }
]