[
 {
  "id": 8109020001,
  "districtId": 8109020,
  "districtName": "LEKSULA",
  "name": "WAEMULANG",
  "postalCode": "97573"
 },
 {
  "id": 8109020002,
  "districtId": 8109020,
  "districtName": "LEKSULA",
  "name": "WAETUREN",
  "postalCode": "97573"
 },
 {
  "id": 8109020003,
  "districtId": 8109020,
  "districtName": "LEKSULA",
  "name": "WAEHAKA",
  "postalCode": "97573"
 },
 {
  "id": 8109020004,
  "districtId": 8109020,
  "districtName": "LEKSULA",
  "name": "WAEMALA",
  "postalCode": "97573"
 },
 {
  "id": 8109020005,
  "districtId": 8109020,
  "districtName": "LEKSULA",
  "name": "EWIRI",
  "postalCode": ""
 },
 {
  "id": 8109020006,
  "districtId": 8109020,
  "districtName": "LEKSULA",
  "name": "TIFU",
  "postalCode": "97573"
 },
 {
  "id": 8109020007,
  "districtId": 8109020,
  "districtName": "LEKSULA",
  "name": "MEPA",
  "postalCode": "97573"
 },
 {
  "id": 8109020008,
  "districtId": 8109020,
  "districtName": "LEKSULA",
  "name": "LEKSULA",
  "postalCode": "97573"
 },
 {
  "id": 8109020009,
  "districtId": 8109020,
  "districtName": "LEKSULA",
  "name": "NALBESSY",
  "postalCode": "97573"
 },
 {
  "id": 8109020010,
  "districtId": 8109020,
  "districtName": "LEKSULA",
  "name": "KASE",
  "postalCode": "97573"
 },
 {
  "id": 8109020015,
  "districtId": 8109020,
  "districtName": "LEKSULA",
  "name": "SLEALALE",
  "postalCode": "97573"
 },
 {
  "id": 8109020017,
  "districtId": 8109020,
  "districtName": "LEKSULA",
  "name": "NEATH",
  "postalCode": "97573"
 },
 {
  "id": 8109020018,
  "districtId": 8109020,
  "districtName": "LEKSULA",
  "name": "LIANG",
  "postalCode": "77457"
 },
 {
  "id": 8109020021,
  "districtId": 8109020,
  "districtName": "LEKSULA",
  "name": "WALUN HELAT",
  "postalCode": ""
 },
 {
  "id": 8109020022,
  "districtId": 8109020,
  "districtName": "LEKSULA",
  "name": "GRAHWAEN",
  "postalCode": "97573"
 },
 {
  "id": 8109020024,
  "districtId": 8109020,
  "districtName": "LEKSULA",
  "name": "WAEWALI",
  "postalCode": ""
 },
 {
  "id": 8109020025,
  "districtId": 8109020,
  "districtName": "LEKSULA",
  "name": "WAHA OLON",
  "postalCode": ""
 },
 {
  "id": 8109020029,
  "districtId": 8109020,
  "districtName": "LEKSULA",
  "name": "WAENAMA OLON",
  "postalCode": ""
 }
]