[
 {
  "id": 8201140001,
  "districtId": 8201140,
  "districtName": "LOLODA",
  "name": "TOTALA",
  "postalCode": "97755"
 },
 {
  "id": 8201140002,
  "districtId": 8201140,
  "districtName": "LOLODA",
  "name": "TOLOFUO",
  "postalCode": "97755"
 },
 {
  "id": 8201140003,
  "districtId": 8201140,
  "districtName": "LOLODA",
  "name": "TUGUIS",
  "postalCode": "97754"
 },
 {
  "id": 8201140004,
  "districtId": 8201140,
  "districtName": "LOLODA",
  "name": "SOA-SIO",
  "postalCode": "97755"
 },
 {
  "id": 8201140005,
  "districtId": 8201140,
  "districtName": "LOLODA",
  "name": "KEDI",
  "postalCode": "97755"
 },
 {
  "id": 8201140006,
  "districtId": 8201140,
  "districtName": "LOLODA",
  "name": "TASYE",
  "postalCode": "97755"
 },
 {
  "id": 8201140007,
  "districtId": 8201140,
  "districtName": "LOLODA",
  "name": "LABA BESAR",
  "postalCode": "97755"
 },
 {
  "id": 8201140008,
  "districtId": 8201140,
  "districtName": "LOLODA",
  "name": "LABA KECIL",
  "postalCode": "97755"
 },
 {
  "id": 8201140009,
  "districtId": 8201140,
  "districtName": "LOLODA",
  "name": "JANO",
  "postalCode": "97755"
 },
 {
  "id": 8201140010,
  "districtId": 8201140,
  "districtName": "LOLODA",
  "name": "BAKUN",
  "postalCode": "97755"
 },
 {
  "id": 8201140011,
  "districtId": 8201140,
  "districtName": "LOLODA",
  "name": "BUO",
  "postalCode": "27292"
 },
 {
  "id": 8201140012,
  "districtId": 8201140,
  "districtName": "LOLODA",
  "name": "BAKUN PANTAI",
  "postalCode": "97755"
 },
 {
  "id": 8201140013,
  "districtId": 8201140,
  "districtName": "LOLODA",
  "name": "BARATAKU",
  "postalCode": "97761"
 },
 {
  "id": 8201140014,
  "districtId": 8201140,
  "districtName": "LOLODA",
  "name": "GAMKAHE",
  "postalCode": "97755"
 },
 {
  "id": 8201140015,
  "districtId": 8201140,
  "districtName": "LOLODA",
  "name": "PUMADADA",
  "postalCode": "97755"
 },
 {
  "id": 8201140016,
  "districtId": 8201140,
  "districtName": "LOLODA",
  "name": "BAJA",
  "postalCode": "97755"
 },
 {
  "id": 8201140017,
  "districtId": 8201140,
  "districtName": "LOLODA",
  "name": "BOSALA",
  "postalCode": "97755"
 },
 {
  "id": 8201140019,
  "districtId": 8201140,
  "districtName": "LOLODA",
  "name": "JANGAILULU",
  "postalCode": "97755"
 },
 {
  "id": 8201140020,
  "districtId": 8201140,
  "districtName": "LOLODA",
  "name": "TOSOMOLO",
  "postalCode": "97755"
 },
 {
  "id": 8201140021,
  "districtId": 8201140,
  "districtName": "LOLODA",
  "name": "SALU",
  "postalCode": "91861"
 },
 {
  "id": 8201140022,
  "districtId": 8201140,
  "districtName": "LOLODA",
  "name": "KAHATOLA",
  "postalCode": "97755"
 },
 {
  "id": 8201140023,
  "districtId": 8201140,
  "districtName": "LOLODA",
  "name": "UPT. TRANS JANO",
  "postalCode": ""
 },
 {
  "id": 8201140024,
  "districtId": 8201140,
  "districtName": "LOLODA",
  "name": "TOTALA JAYA",
  "postalCode": "97755"
 },
 {
  "id": 8201140025,
  "districtId": 8201140,
  "districtName": "LOLODA",
  "name": "TOMODO",
  "postalCode": "97755"
 },
 {
  "id": 8201140026,
  "districtId": 8201140,
  "districtName": "LOLODA",
  "name": "LINGGUA",
  "postalCode": "97755"
 },
 {
  "id": 8201140027,
  "districtId": 8201140,
  "districtName": "LOLODA",
  "name": "BANTOLI",
  "postalCode": ""
 },
 {
  "id": 8201140028,
  "districtId": 8201140,
  "districtName": "LOLODA",
  "name": "ARUKU",
  "postalCode": "97755"
 },
 {
  "id": 8201140029,
  "districtId": 8201140,
  "districtName": "LOLODA",
  "name": "BILOTE",
  "postalCode": "97755"
 }
]