[
 {
  "id": 8201130012,
  "districtId": 8201130,
  "districtName": "IBU",
  "name": "TOGOLA WAYOLI",
  "postalCode": ""
 },
 {
  "id": 8201130013,
  "districtId": 8201130,
  "districtName": "IBU",
  "name": "TOGOLA SANGIR",
  "postalCode": ""
 },
 {
  "id": 8201130014,
  "districtId": 8201130,
  "districtName": "IBU",
  "name": "TAHAFO",
  "postalCode": "97754"
 },
 {
  "id": 8201130015,
  "districtId": 8201130,
  "districtName": "IBU",
  "name": "KIE ICI",
  "postalCode": ""
 },
 {
  "id": 8201130016,
  "districtId": 8201130,
  "districtName": "IBU",
  "name": "MARITANGO",
  "postalCode": "97754"
 },
 {
  "id": 8201130017,
  "districtId": 8201130,
  "districtName": "IBU",
  "name": "TONGUTE GOIN",
  "postalCode": "97754"
 },
 {
  "id": 8201130018,
  "districtId": 8201130,
  "districtName": "IBU",
  "name": "AKESIBU",
  "postalCode": "97754"
 },
 {
  "id": 8201130019,
  "districtId": 8201130,
  "districtName": "IBU",
  "name": "TONGUTE SUNGI",
  "postalCode": "97754"
 },
 {
  "id": 8201130020,
  "districtId": 8201130,
  "districtName": "IBU",
  "name": "TONGUTE TERNATE",
  "postalCode": "97754"
 },
 {
  "id": 8201130021,
  "districtId": 8201130,
  "districtName": "IBU",
  "name": "TOBAOL",
  "postalCode": "97754"
 },
 {
  "id": 8201130022,
  "districtId": 8201130,
  "districtName": "IBU",
  "name": "GAM ICI",
  "postalCode": "97754"
 },
 {
  "id": 8201130023,
  "districtId": 8201130,
  "districtName": "IBU",
  "name": "GAM LAMO",
  "postalCode": "97754"
 },
 {
  "id": 8201130037,
  "districtId": 8201130,
  "districtName": "IBU",
  "name": "NAGA",
  "postalCode": "22163"
 },
 {
  "id": 8201130038,
  "districtId": 8201130,
  "districtName": "IBU",
  "name": "TONGUTE TERNATE ASAL",
  "postalCode": ""
 },
 {
  "id": 8201130039,
  "districtId": 8201130,
  "districtName": "IBU",
  "name": "KAMPUNG BARU",
  "postalCode": "24652"
 },
 {
  "id": 8201130040,
  "districtId": 8201130,
  "districtName": "IBU",
  "name": "SOANA MASUNGI",
  "postalCode": "97754"
 },
 {
  "id": 8201130041,
  "districtId": 8201130,
  "districtName": "IBU",
  "name": "AKEBOSO",
  "postalCode": ""
 }
]