[
 {
  "id": 8201131001,
  "districtId": 8201131,
  "districtName": "IBU SELATAN",
  "name": "TABOBOL",
  "postalCode": ""
 },
 {
  "id": 8201131002,
  "districtId": 8201131,
  "districtName": "IBU SELATAN",
  "name": "TOSOA",
  "postalCode": "97754"
 },
 {
  "id": 8201131003,
  "districtId": 8201131,
  "districtName": "IBU SELATAN",
  "name": "BARU",
  "postalCode": "23764"
 },
 {
  "id": 8201131004,
  "districtId": 8201131,
  "districtName": "IBU SELATAN",
  "name": "ADU",
  "postalCode": "84271"
 },
 {
  "id": 8201131005,
  "districtId": 8201131,
  "districtName": "IBU SELATAN",
  "name": "NANAS",
  "postalCode": "97754"
 },
 {
  "id": 8201131006,
  "districtId": 8201131,
  "districtName": "IBU SELATAN",
  "name": "NGAWET",
  "postalCode": "97754"
 },
 {
  "id": 8201131008,
  "districtId": 8201131,
  "districtName": "IBU SELATAN",
  "name": "GAMSUNGI",
  "postalCode": "97754"
 },
 {
  "id": 8201131009,
  "districtId": 8201131,
  "districtName": "IBU SELATAN",
  "name": "BATAKA",
  "postalCode": "97754"
 },
 {
  "id": 8201131010,
  "districtId": 8201131,
  "districtName": "IBU SELATAN",
  "name": "TALAGA",
  "postalCode": "43154"
 },
 {
  "id": 8201131011,
  "districtId": 8201131,
  "districtName": "IBU SELATAN",
  "name": "TOBELOS",
  "postalCode": "97754"
 },
 {
  "id": 8201131012,
  "districtId": 8201131,
  "districtName": "IBU SELATAN",
  "name": "GAMKONORA",
  "postalCode": "97754"
 },
 {
  "id": 8201131013,
  "districtId": 8201131,
  "districtName": "IBU SELATAN",
  "name": "SARAU",
  "postalCode": "97754"
 },
 {
  "id": 8201131014,
  "districtId": 8201131,
  "districtName": "IBU SELATAN",
  "name": "TUGUAER",
  "postalCode": "97754"
 },
 {
  "id": 8201131015,
  "districtId": 8201131,
  "districtName": "IBU SELATAN",
  "name": "NGALO NGALO",
  "postalCode": "97754"
 },
 {
  "id": 8201131016,
  "districtId": 8201131,
  "districtName": "IBU SELATAN",
  "name": "GAMSIDA",
  "postalCode": "97754"
 }
]