[
 {
  "id": 8201091001,
  "districtId": 8201091,
  "districtName": "JAILOLO SELATAN",
  "name": "RIORIBATI",
  "postalCode": "97752"
 },
 {
  "id": 8201091002,
  "districtId": 8201091,
  "districtName": "JAILOLO SELATAN",
  "name": "TONIKU",
  "postalCode": "97752"
 },
 {
  "id": 8201091004,
  "districtId": 8201091,
  "districtName": "JAILOLO SELATAN",
  "name": "DODINGA",
  "postalCode": "97752"
 },
 {
  "id": 8201091005,
  "districtId": 8201091,
  "districtName": "JAILOLO SELATAN",
  "name": "AKELAHA",
  "postalCode": "97752"
 },
 {
  "id": 8201091006,
  "districtId": 8201091,
  "districtName": "JAILOLO SELATAN",
  "name": "AKEARA",
  "postalCode": "97752"
 },
 {
  "id": 8201091007,
  "districtId": 8201091,
  "districtName": "JAILOLO SELATAN",
  "name": "TUGURACI",
  "postalCode": "97752"
 },
 {
  "id": 8201091008,
  "districtId": 8201091,
  "districtName": "JAILOLO SELATAN",
  "name": "BIAMAAHI",
  "postalCode": "97752"
 },
 {
  "id": 8201091009,
  "districtId": 8201091,
  "districtName": "JAILOLO SELATAN",
  "name": "AKE JAILOLO",
  "postalCode": "97752"
 },
 {
  "id": 8201091010,
  "districtId": 8201091,
  "districtName": "JAILOLO SELATAN",
  "name": "SIDANGOLI DEHE",
  "postalCode": "97752"
 },
 {
  "id": 8201091011,
  "districtId": 8201091,
  "districtName": "JAILOLO SELATAN",
  "name": "SIDANGOLI GAM",
  "postalCode": "97752"
 },
 {
  "id": 8201091012,
  "districtId": 8201091,
  "districtName": "JAILOLO SELATAN",
  "name": "DOMATO",
  "postalCode": "97752"
 },
 {
  "id": 8201091013,
  "districtId": 8201091,
  "districtName": "JAILOLO SELATAN",
  "name": "GAMLENGE",
  "postalCode": "97752"
 },
 {
  "id": 8201091014,
  "districtId": 8201091,
  "districtName": "JAILOLO SELATAN",
  "name": "TATALEKA",
  "postalCode": "97752"
 },
 {
  "id": 8201091015,
  "districtId": 8201091,
  "districtName": "JAILOLO SELATAN",
  "name": "TABADAMAI",
  "postalCode": ""
 },
 {
  "id": 8201091016,
  "districtId": 8201091,
  "districtName": "JAILOLO SELATAN",
  "name": "BRAHA",
  "postalCode": "97752"
 },
 {
  "id": 8201091017,
  "districtId": 8201091,
  "districtName": "JAILOLO SELATAN",
  "name": "BANGKIT RAHMAT",
  "postalCode": "97752"
 },
 {
  "id": 8201091018,
  "districtId": 8201091,
  "districtName": "JAILOLO SELATAN",
  "name": "MOISO",
  "postalCode": "97752"
 },
 {
  "id": 8201091019,
  "districtId": 8201091,
  "districtName": "JAILOLO SELATAN",
  "name": "SUKA DAMAI",
  "postalCode": "24472"
 },
 {
  "id": 8201091020,
  "districtId": 8201091,
  "districtName": "JAILOLO SELATAN",
  "name": "HIJRAH",
  "postalCode": "84382"
 },
 {
  "id": 8201091021,
  "districtId": 8201091,
  "districtName": "JAILOLO SELATAN",
  "name": "BOBANE DANO",
  "postalCode": "97752"
 },
 {
  "id": 8201091022,
  "districtId": 8201091,
  "districtName": "JAILOLO SELATAN",
  "name": "RATEM",
  "postalCode": "97752"
 }
]