[
 {
  "id": 8204051001,
  "districtId": 8204051,
  "districtName": "KASIRUTA BARAT",
  "name": "KAKUPANG",
  "postalCode": ""
 },
 {
  "id": 8204051002,
  "districtId": 8204051,
  "districtName": "KASIRUTA BARAT",
  "name": "MARIKAPAL",
  "postalCode": "97791"
 },
 {
  "id": 8204051003,
  "districtId": 8204051,
  "districtName": "KASIRUTA BARAT",
  "name": "BISORI",
  "postalCode": "97791"
 },
 {
  "id": 8204051004,
  "districtId": 8204051,
  "districtName": "KASIRUTA BARAT",
  "name": "DOKO",
  "postalCode": "66186"
 },
 {
  "id": 8204051005,
  "districtId": 8204051,
  "districtName": "KASIRUTA BARAT",
  "name": "PALAMEA",
  "postalCode": "97791"
 },
 {
  "id": 8204051006,
  "districtId": 8204051,
  "districtName": "KASIRUTA BARAT",
  "name": "ARUMAMANG",
  "postalCode": "97791"
 },
 {
  "id": 8204051007,
  "districtId": 8204051,
  "districtName": "KASIRUTA BARAT",
  "name": "LATA LATA",
  "postalCode": "97791"
 },
 {
  "id": 8204051008,
  "districtId": 8204051,
  "districtName": "KASIRUTA BARAT",
  "name": "SIDANGA",
  "postalCode": "97791"
 },
 {
  "id": 8204051009,
  "districtId": 8204051,
  "districtName": "KASIRUTA BARAT",
  "name": "SENGGA BARU",
  "postalCode": "97791"
 },
 {
  "id": 8204051010,
  "districtId": 8204051,
  "districtName": "KASIRUTA BARAT",
  "name": "IMBU IMBU",
  "postalCode": "97791"
 }
]