[
 {
  "id": 8204020008,
  "districtId": 8204020,
  "districtName": "OBI",
  "name": "ANGGAI",
  "postalCode": "97792"
 },
 {
  "id": 8204020009,
  "districtId": 8204020,
  "districtName": "OBI",
  "name": "SAMBIKI",
  "postalCode": "97771"
 },
 {
  "id": 8204020011,
  "districtId": 8204020,
  "districtName": "OBI",
  "name": "JIKOTAMO",
  "postalCode": "97792"
 },
 {
  "id": 8204020013,
  "districtId": 8204020,
  "districtName": "OBI",
  "name": "LAIWUI",
  "postalCode": "97792"
 },
 {
  "id": 8204020014,
  "districtId": 8204020,
  "districtName": "OBI",
  "name": "BUTON",
  "postalCode": "94974"
 },
 {
  "id": 8204020015,
  "districtId": 8204020,
  "districtName": "OBI",
  "name": "BARU",
  "postalCode": "23764"
 },
 {
  "id": 8204020016,
  "districtId": 8204020,
  "districtName": "OBI",
  "name": "AKEGULA",
  "postalCode": "97792"
 },
 {
  "id": 8204020021,
  "districtId": 8204020,
  "districtName": "OBI",
  "name": "KAWASI",
  "postalCode": "97792"
 },
 {
  "id": 8204020022,
  "districtId": 8204020,
  "districtName": "OBI",
  "name": "AIR MANGGA",
  "postalCode": ""
 }
]