[
 {
  "id": 8204030034,
  "districtId": 8204030,
  "districtName": "BACAN",
  "name": "TOMORI",
  "postalCode": "97791"
 },
 {
  "id": 8204030035,
  "districtId": 8204030,
  "districtName": "BACAN",
  "name": "LABUHA",
  "postalCode": "97791"
 },
 {
  "id": 8204030036,
  "districtId": 8204030,
  "districtName": "BACAN",
  "name": "AMASING KOTA",
  "postalCode": "97791"
 },
 {
  "id": 8204030037,
  "districtId": 8204030,
  "districtName": "BACAN",
  "name": "AMASING KALI",
  "postalCode": "97791"
 },
 {
  "id": 8204030038,
  "districtId": 8204030,
  "districtName": "BACAN",
  "name": "INDOMUT",
  "postalCode": "97791"
 },
 {
  "id": 8204030039,
  "districtId": 8204030,
  "districtName": "BACAN",
  "name": "BELANG BELANG",
  "postalCode": "97791"
 },
 {
  "id": 8204030040,
  "districtId": 8204030,
  "districtName": "BACAN",
  "name": "SUMAE",
  "postalCode": "97791"
 },
 {
  "id": 8204030041,
  "districtId": 8204030,
  "districtName": "BACAN",
  "name": "KAPUTUSAN",
  "postalCode": ""
 },
 {
  "id": 8204030042,
  "districtId": 8204030,
  "districtName": "BACAN",
  "name": "HIDAYAT",
  "postalCode": "97791"
 },
 {
  "id": 8204030043,
  "districtId": 8204030,
  "districtName": "BACAN",
  "name": "MARABOSE",
  "postalCode": "97791"
 },
 {
  "id": 8204030044,
  "districtId": 8204030,
  "districtName": "BACAN",
  "name": "AMASING KOTA BARAT",
  "postalCode": "97791"
 },
 {
  "id": 8204030045,
  "districtId": 8204030,
  "districtName": "BACAN",
  "name": "AMASING KOTA UTARA",
  "postalCode": "97791"
 },
 {
  "id": 8204030046,
  "districtId": 8204030,
  "districtName": "BACAN",
  "name": "AWANGGOA",
  "postalCode": "97791"
 },
 {
  "id": 8204030047,
  "districtId": 8204030,
  "districtName": "BACAN",
  "name": "SUMA TINGGI",
  "postalCode": "97791"
 }
]