[
 {
  "id": 8204091001,
  "districtId": 8204091,
  "districtName": "GANE TIMUR TENGAH",
  "name": "TABAHIDAYAH",
  "postalCode": "97783"
 },
 {
  "id": 8204091002,
  "districtId": 8204091,
  "districtName": "GANE TIMUR TENGAH",
  "name": "LUIM",
  "postalCode": "97783"
 },
 {
  "id": 8204091003,
  "districtId": 8204091,
  "districtName": "GANE TIMUR TENGAH",
  "name": "BISUI",
  "postalCode": "97783"
 },
 {
  "id": 8204091004,
  "districtId": 8204091,
  "districtName": "GANE TIMUR TENGAH",
  "name": "LELEWI",
  "postalCode": "97783"
 },
 {
  "id": 8204091005,
  "districtId": 8204091,
  "districtName": "GANE TIMUR TENGAH",
  "name": "TAGEA",
  "postalCode": "97783"
 },
 {
  "id": 8204091006,
  "districtId": 8204091,
  "districtName": "GANE TIMUR TENGAH",
  "name": "MATUTING",
  "postalCode": "97783"
 },
 {
  "id": 8204091007,
  "districtId": 8204091,
  "districtName": "GANE TIMUR TENGAH",
  "name": "MATUTING TANJUNG",
  "postalCode": "97783"
 },
 {
  "id": 8204091008,
  "districtId": 8204091,
  "districtName": "GANE TIMUR TENGAH",
  "name": "TABAHIJRAH",
  "postalCode": "97783"
 }
]