[
 {
  "id": 8205040018,
  "districtId": 8205040,
  "districtName": "TOBELO",
  "name": "GAMSUNGI",
  "postalCode": "97754"
 },
 {
  "id": 8205040019,
  "districtId": 8205040,
  "districtName": "TOBELO",
  "name": "KUMO",
  "postalCode": "97762"
 },
 {
  "id": 8205040020,
  "districtId": 8205040,
  "districtName": "TOBELO",
  "name": "GURA",
  "postalCode": "97762"
 },
 {
  "id": 8205040021,
  "districtId": 8205040,
  "districtName": "TOBELO",
  "name": "KAKARA A",
  "postalCode": "97762"
 },
 {
  "id": 8205040022,
  "districtId": 8205040,
  "districtName": "TOBELO",
  "name": "WARI",
  "postalCode": "97762"
 },
 {
  "id": 8205040024,
  "districtId": 8205040,
  "districtName": "TOBELO",
  "name": "RAWAJAYA",
  "postalCode": "30653"
 },
 {
  "id": 8205040025,
  "districtId": 8205040,
  "districtName": "TOBELO",
  "name": "GOSOMA",
  "postalCode": "97762"
 },
 {
  "id": 8205040026,
  "districtId": 8205040,
  "districtName": "TOBELO",
  "name": "WARI INO",
  "postalCode": "97762"
 },
 {
  "id": 8205040032,
  "districtId": 8205040,
  "districtName": "TOBELO",
  "name": "TAGALAYA",
  "postalCode": "97852"
 }
]