[
 {
  "id": 8205022001,
  "districtId": 8205022,
  "districtName": "KAO UTARA",
  "name": "GAMLAHA",
  "postalCode": "97764"
 },
 {
  "id": 8205022002,
  "districtId": 8205022,
  "districtName": "KAO UTARA",
  "name": "DORO",
  "postalCode": "51191"
 },
 {
  "id": 8205022003,
  "districtId": 8205022,
  "districtName": "KAO UTARA",
  "name": "BOULAMO",
  "postalCode": "97764"
 },
 {
  "id": 8205022004,
  "districtId": 8205022,
  "districtName": "KAO UTARA",
  "name": "DARU",
  "postalCode": "15720"
 },
 {
  "id": 8205022005,
  "districtId": 8205022,
  "districtName": "KAO UTARA",
  "name": "BOBALE",
  "postalCode": "97764"
 },
 {
  "id": 8205022006,
  "districtId": 8205022,
  "districtName": "KAO UTARA",
  "name": "BORI",
  "postalCode": "91853"
 },
 {
  "id": 8205022007,
  "districtId": 8205022,
  "districtName": "KAO UTARA",
  "name": "PEDIWANG",
  "postalCode": ""
 },
 {
  "id": 8205022008,
  "districtId": 8205022,
  "districtName": "KAO UTARA",
  "name": "WATETO",
  "postalCode": "97764"
 },
 {
  "id": 8205022009,
  "districtId": 8205022,
  "districtName": "KAO UTARA",
  "name": "TUNUO",
  "postalCode": "97764"
 },
 {
  "id": 8205022010,
  "districtId": 8205022,
  "districtName": "KAO UTARA",
  "name": "GULO",
  "postalCode": "24653"
 },
 {
  "id": 8205022011,
  "districtId": 8205022,
  "districtName": "KAO UTARA",
  "name": "WARUDU",
  "postalCode": "97764"
 },
 {
  "id": 8205022012,
  "districtId": 8205022,
  "districtName": "KAO UTARA",
  "name": "DOWONGI MAITI",
  "postalCode": ""
 }
]