[
 {
  "id": 8205020004,
  "districtId": 8205020,
  "districtName": "KAO",
  "name": "KAO",
  "postalCode": "97764"
 },
 {
  "id": 8205020005,
  "districtId": 8205020,
  "districtName": "KAO",
  "name": "WARINGIN LELEWI",
  "postalCode": "97764"
 },
 {
  "id": 8205020006,
  "districtId": 8205020,
  "districtName": "KAO",
  "name": "JATI",
  "postalCode": "20152"
 },
 {
  "id": 8205020007,
  "districtId": 8205020,
  "districtName": "KAO",
  "name": "SOASANGAJI DIM DIM",
  "postalCode": "97764"
 },
 {
  "id": 8205020008,
  "districtId": 8205020,
  "districtName": "KAO",
  "name": "SASUR",
  "postalCode": "97764"
 },
 {
  "id": 8205020010,
  "districtId": 8205020,
  "districtName": "KAO",
  "name": "POPON",
  "postalCode": "97764"
 },
 {
  "id": 8205020021,
  "districtId": 8205020,
  "districtName": "KAO",
  "name": "PATANG",
  "postalCode": "97764"
 },
 {
  "id": 8205020022,
  "districtId": 8205020,
  "districtName": "KAO",
  "name": "BIANG",
  "postalCode": "97764"
 },
 {
  "id": 8205020025,
  "districtId": 8205020,
  "districtName": "KAO",
  "name": "WARINGIN LAMO",
  "postalCode": "97764"
 },
 {
  "id": 8205020026,
  "districtId": 8205020,
  "districtName": "KAO",
  "name": "GORUANG",
  "postalCode": "97764"
 },
 {
  "id": 8205020027,
  "districtId": 8205020,
  "districtName": "KAO",
  "name": "KUSU LOVRA",
  "postalCode": ""
 },
 {
  "id": 8205020028,
  "districtId": 8205020,
  "districtName": "KAO",
  "name": "SUMBER AGUNG",
  "postalCode": "37353"
 }
]