[
 {
  "id": 8206040010,
  "districtId": 8206040,
  "districtName": "MABA",
  "name": "BULI ASAL",
  "postalCode": "97862"
 },
 {
  "id": 8206040011,
  "districtId": 8206040,
  "districtName": "MABA",
  "name": "BULI KARYA",
  "postalCode": "97862"
 },
 {
  "id": 8206040012,
  "districtId": 8206040,
  "districtName": "MABA",
  "name": "BULI",
  "postalCode": "97781"
 },
 {
  "id": 8206040013,
  "districtId": 8206040,
  "districtName": "MABA",
  "name": "WAYAFLI",
  "postalCode": ""
 },
 {
  "id": 8206040014,
  "districtId": 8206040,
  "districtName": "MABA",
  "name": "SAILAL",
  "postalCode": "97862"
 },
 {
  "id": 8206040015,
  "districtId": 8206040,
  "districtName": "MABA",
  "name": "GELTOLI",
  "postalCode": "97862"
 },
 {
  "id": 8206040016,
  "districtId": 8206040,
  "districtName": "MABA",
  "name": "PEKAULANG",
  "postalCode": ""
 },
 {
  "id": 8206040017,
  "districtId": 8206040,
  "districtName": "MABA",
  "name": "TELUK BULI",
  "postalCode": "97862"
 },
 {
  "id": 8206040018,
  "districtId": 8206040,
  "districtName": "MABA",
  "name": "GAMESAN",
  "postalCode": "97862"
 },
 {
  "id": 8206040019,
  "districtId": 8206040,
  "districtName": "MABA",
  "name": "BABURINO",
  "postalCode": "97862"
 }
]