[
 {
  "id": 8207010001,
  "districtId": 8207010,
  "districtName": "MOROTAI SELATAN",
  "name": "JUANGA",
  "postalCode": "97771"
 },
 {
  "id": 8207010002,
  "districtId": 8207010,
  "districtName": "MOROTAI SELATAN",
  "name": "PANDANGA",
  "postalCode": ""
 },
 {
  "id": 8207010003,
  "districtId": 8207010,
  "districtName": "MOROTAI SELATAN",
  "name": "DARUBA",
  "postalCode": "97771"
 },
 {
  "id": 8207010004,
  "districtId": 8207010,
  "districtName": "MOROTAI SELATAN",
  "name": "YAYASAN",
  "postalCode": "97771"
 },
 {
  "id": 8207010005,
  "districtId": 8207010,
  "districtName": "MOROTAI SELATAN",
  "name": "KOLORAI",
  "postalCode": ""
 },
 {
  "id": 8207010006,
  "districtId": 8207010,
  "districtName": "MOROTAI SELATAN",
  "name": "GALO GALO",
  "postalCode": "97771"
 },
 {
  "id": 8207010007,
  "districtId": 8207010,
  "districtName": "MOROTAI SELATAN",
  "name": "PILOWO",
  "postalCode": "97771"
 },
 {
  "id": 8207010008,
  "districtId": 8207010,
  "districtName": "MOROTAI SELATAN",
  "name": "DARAME",
  "postalCode": "97771"
 },
 {
  "id": 8207010009,
  "districtId": 8207010,
  "districtName": "MOROTAI SELATAN",
  "name": "GOTALAMO",
  "postalCode": "97761"
 },
 {
  "id": 8207010010,
  "districtId": 8207010,
  "districtName": "MOROTAI SELATAN",
  "name": "MUHAJIRIN",
  "postalCode": "24651"
 },
 {
  "id": 8207010011,
  "districtId": 8207010,
  "districtName": "MOROTAI SELATAN",
  "name": "WAWAMA",
  "postalCode": "97771"
 },
 {
  "id": 8207010012,
  "districtId": 8207010,
  "districtName": "MOROTAI SELATAN",
  "name": "TOTODOKU",
  "postalCode": "97771"
 },
 {
  "id": 8207010013,
  "districtId": 8207010,
  "districtName": "MOROTAI SELATAN",
  "name": "JOUBELA",
  "postalCode": "97771"
 },
 {
  "id": 8207010014,
  "districtId": 8207010,
  "districtName": "MOROTAI SELATAN",
  "name": "MANDIRI",
  "postalCode": "92972"
 },
 {
  "id": 8207010015,
  "districtId": 8207010,
  "districtName": "MOROTAI SELATAN",
  "name": "DEHEGILA",
  "postalCode": "97771"
 },
 {
  "id": 8207010016,
  "districtId": 8207010,
  "districtName": "MOROTAI SELATAN",
  "name": "AHA",
  "postalCode": "97771"
 },
 {
  "id": 8207010017,
  "districtId": 8207010,
  "districtName": "MOROTAI SELATAN",
  "name": "MOMOJIU",
  "postalCode": "97755"
 },
 {
  "id": 8207010018,
  "districtId": 8207010,
  "districtName": "MOROTAI SELATAN",
  "name": "SABATAI BARU",
  "postalCode": "97771"
 },
 {
  "id": 8207010019,
  "districtId": 8207010,
  "districtName": "MOROTAI SELATAN",
  "name": "SABATAI TUA",
  "postalCode": "97771"
 },
 {
  "id": 8207010020,
  "districtId": 8207010,
  "districtName": "MOROTAI SELATAN",
  "name": "DAEO",
  "postalCode": "97771"
 },
 {
  "id": 8207010021,
  "districtId": 8207010,
  "districtName": "MOROTAI SELATAN",
  "name": "FALILA",
  "postalCode": "97771"
 },
 {
  "id": 8207010022,
  "districtId": 8207010,
  "districtName": "MOROTAI SELATAN",
  "name": "MORODADI",
  "postalCode": "97771"
 },
 {
  "id": 8207010023,
  "districtId": 8207010,
  "districtName": "MOROTAI SELATAN",
  "name": "NAKAMURA",
  "postalCode": "97771"
 },
 {
  "id": 8207010024,
  "districtId": 8207010,
  "districtName": "MOROTAI SELATAN",
  "name": "SABALA",
  "postalCode": "97771"
 },
 {
  "id": 8207010025,
  "districtId": 8207010,
  "districtName": "MOROTAI SELATAN",
  "name": "DAEO MAJIKO",
  "postalCode": "97771"
 }
]