[
 {
  "id": 8272020001,
  "districtId": 8272020,
  "districtName": "TIDORE UTARA",
  "name": "BOBO",
  "postalCode": "94361"
 },
 {
  "id": 8272020002,
  "districtId": 8272020,
  "districtName": "TIDORE UTARA",
  "name": "AFA AFA",
  "postalCode": "97813"
 },
 {
  "id": 8272020003,
  "districtId": 8272020,
  "districtName": "TIDORE UTARA",
  "name": "MAREKU",
  "postalCode": "97813"
 },
 {
  "id": 8272020004,
  "districtId": 8272020,
  "districtName": "TIDORE UTARA",
  "name": "OME",
  "postalCode": "97813"
 },
 {
  "id": 8272020005,
  "districtId": 8272020,
  "districtName": "TIDORE UTARA",
  "name": "JAYA",
  "postalCode": "29511"
 },
 {
  "id": 8272020006,
  "districtId": 8272020,
  "districtName": "TIDORE UTARA",
  "name": "FOBAHARU",
  "postalCode": "97813"
 },
 {
  "id": 8272020008,
  "districtId": 8272020,
  "districtName": "TIDORE UTARA",
  "name": "MAITARA",
  "postalCode": "97813"
 },
 {
  "id": 8272020009,
  "districtId": 8272020,
  "districtName": "TIDORE UTARA",
  "name": "GUBU KUSUMA",
  "postalCode": "97813"
 },
 {
  "id": 8272020010,
  "districtId": 8272020,
  "districtName": "TIDORE UTARA",
  "name": "SIRONGO FOLARAHA",
  "postalCode": "97813"
 },
 {
  "id": 8272020011,
  "districtId": 8272020,
  "districtName": "TIDORE UTARA",
  "name": "RUM BALIBUNGA",
  "postalCode": "97813"
 },
 {
  "id": 8272020012,
  "districtId": 8272020,
  "districtName": "TIDORE UTARA",
  "name": "MAITARA SELATAN",
  "postalCode": "97813"
 },
 {
  "id": 8272020013,
  "districtId": 8272020,
  "districtName": "TIDORE UTARA",
  "name": "MAITARA TENGAH",
  "postalCode": ""
 },
 {
  "id": 8272020014,
  "districtId": 8272020,
  "districtName": "TIDORE UTARA",
  "name": "MAITARA UTARA",
  "postalCode": ""
 }
]