[
 {
  "id": 8272050003,
  "districtId": 8272050,
  "districtName": "OBA UTARA",
  "name": "SOMAHODE",
  "postalCode": "97852"
 },
 {
  "id": 8272050004,
  "districtId": 8272050,
  "districtName": "OBA UTARA",
  "name": "AKEKOLANO",
  "postalCode": "97852"
 },
 {
  "id": 8272050005,
  "districtId": 8272050,
  "districtName": "OBA UTARA",
  "name": "OBA",
  "postalCode": "97852"
 },
 {
  "id": 8272050006,
  "districtId": 8272050,
  "districtName": "OBA UTARA",
  "name": "SOFIFI",
  "postalCode": "97852"
 },
 {
  "id": 8272050007,
  "districtId": 8272050,
  "districtName": "OBA UTARA",
  "name": "GURAPING",
  "postalCode": "97852"
 },
 {
  "id": 8272050008,
  "districtId": 8272050,
  "districtName": "OBA UTARA",
  "name": "KAIYASA",
  "postalCode": "97852"
 },
 {
  "id": 8272050009,
  "districtId": 8272050,
  "districtName": "OBA UTARA",
  "name": "GAROJOU",
  "postalCode": ""
 },
 {
  "id": 8272050011,
  "districtId": 8272050,
  "districtName": "OBA UTARA",
  "name": "AMPERA",
  "postalCode": "24671"
 },
 {
  "id": 8272050012,
  "districtId": 8272050,
  "districtName": "OBA UTARA",
  "name": "BUKIT DURIAN",
  "postalCode": "97852"
 },
 {
  "id": 8272050013,
  "districtId": 8272050,
  "districtName": "OBA UTARA",
  "name": "GALALA",
  "postalCode": "97128"
 },
 {
  "id": 8272050014,
  "districtId": 8272050,
  "districtName": "OBA UTARA",
  "name": "BALBAR",
  "postalCode": "97852"
 },
 {
  "id": 8272050015,
  "districtId": 8272050,
  "districtName": "OBA UTARA",
  "name": "GOSALE",
  "postalCode": ""
 }
]