[
 {
  "id": 9101061001,
  "districtId": 9101061,
  "districtName": "FAKFAK TENGAH",
  "name": "DANA WERIA",
  "postalCode": "98611"
 },
 {
  "id": 9101061002,
  "districtId": 9101061,
  "districtName": "FAKFAK TENGAH",
  "name": "KAYU MERAH",
  "postalCode": "97751"
 },
 {
  "id": 9101061003,
  "districtId": 9101061,
  "districtName": "FAKFAK TENGAH",
  "name": "KATEMBA",
  "postalCode": "98611"
 },
 {
  "id": 9101061004,
  "districtId": 9101061,
  "districtName": "FAKFAK TENGAH",
  "name": "NEMEWIKARYA",
  "postalCode": ""
 },
 {
  "id": 9101061005,
  "districtId": 9101061,
  "districtName": "FAKFAK TENGAH",
  "name": "RADURIA",
  "postalCode": ""
 },
 {
  "id": 9101061006,
  "districtId": 9101061,
  "districtName": "FAKFAK TENGAH",
  "name": "BRONGKENDIK",
  "postalCode": "98611"
 },
 {
  "id": 9101061007,
  "districtId": 9101061,
  "districtName": "FAKFAK TENGAH",
  "name": "AIR BESAR",
  "postalCode": "97557"
 },
 {
  "id": 9101061008,
  "districtId": 9101061,
  "districtName": "FAKFAK TENGAH",
  "name": "KANANTARE",
  "postalCode": "98611"
 },
 {
  "id": 9101061009,
  "districtId": 9101061,
  "districtName": "FAKFAK TENGAH",
  "name": "MANDOPMA",
  "postalCode": "98611"
 },
 {
  "id": 9101061010,
  "districtId": 9101061,
  "districtName": "FAKFAK TENGAH",
  "name": "PASIR PUTIH",
  "postalCode": "24453"
 },
 {
  "id": 9101061011,
  "districtId": 9101061,
  "districtName": "FAKFAK TENGAH",
  "name": "PIRMA",
  "postalCode": "98611"
 },
 {
  "id": 9101061012,
  "districtId": 9101061,
  "districtName": "FAKFAK TENGAH",
  "name": "SAKARTEMIN",
  "postalCode": "98611"
 },
 {
  "id": 9101061013,
  "districtId": 9101061,
  "districtName": "FAKFAK TENGAH",
  "name": "UNI POKPOK",
  "postalCode": ""
 },
 {
  "id": 9101061014,
  "districtId": 9101061,
  "districtName": "FAKFAK TENGAH",
  "name": "HAMBRANGKENDIK",
  "postalCode": ""
 },
 {
  "id": 9101061015,
  "districtId": 9101061,
  "districtName": "FAKFAK TENGAH",
  "name": "KRABELANG",
  "postalCode": ""
 }
]