[
 {
  "id": 9102030001,
  "districtId": 9102030,
  "districtName": "KAIMANA",
  "name": "LUMIRA",
  "postalCode": "98654"
 },
 {
  "id": 9102030002,
  "districtId": 9102030,
  "districtName": "KAIMANA",
  "name": "SARIA",
  "postalCode": "97752"
 },
 {
  "id": 9102030003,
  "districtId": 9102030,
  "districtName": "KAIMANA",
  "name": "LOBO",
  "postalCode": "98654"
 },
 {
  "id": 9102030004,
  "districtId": 9102030,
  "districtName": "KAIMANA",
  "name": "NAMATOTA",
  "postalCode": "98654"
 },
 {
  "id": 9102030005,
  "districtId": 9102030,
  "districtName": "KAIMANA",
  "name": "MAI MAI",
  "postalCode": "98654"
 },
 {
  "id": 9102030006,
  "districtId": 9102030,
  "districtName": "KAIMANA",
  "name": "FOROMA JAYA",
  "postalCode": "98654"
 },
 {
  "id": 9102030007,
  "districtId": 9102030,
  "districtName": "KAIMANA",
  "name": "MURANO",
  "postalCode": "98654"
 },
 {
  "id": 9102030008,
  "districtId": 9102030,
  "districtName": "KAIMANA",
  "name": "SISIR",
  "postalCode": "65314"
 },
 {
  "id": 9102030009,
  "districtId": 9102030,
  "districtName": "KAIMANA",
  "name": "MARSI",
  "postalCode": "98654"
 },
 {
  "id": 9102030010,
  "districtId": 9102030,
  "districtName": "KAIMANA",
  "name": "KAIMANA KOTA",
  "postalCode": "98654"
 },
 {
  "id": 9102030011,
  "districtId": 9102030,
  "districtName": "KAIMANA",
  "name": "K R O Y",
  "postalCode": ""
 },
 {
  "id": 9102030012,
  "districtId": 9102030,
  "districtName": "KAIMANA",
  "name": "TRIKORA",
  "postalCode": "86414"
 },
 {
  "id": 9102030013,
  "districtId": 9102030,
  "districtName": "KAIMANA",
  "name": "C O A",
  "postalCode": ""
 },
 {
  "id": 9102030014,
  "districtId": 9102030,
  "districtName": "KAIMANA",
  "name": "TANGGAROMI",
  "postalCode": "98654"
 },
 {
  "id": 9102030021,
  "districtId": 9102030,
  "districtName": "KAIMANA",
  "name": "KAMAKA",
  "postalCode": "98654"
 },
 {
  "id": 9102030024,
  "districtId": 9102030,
  "districtName": "KAIMANA",
  "name": "SARA",
  "postalCode": "98654"
 },
 {
  "id": 9102030025,
  "districtId": 9102030,
  "districtName": "KAIMANA",
  "name": "WERUA",
  "postalCode": "98654"
 },
 {
  "id": 9102030026,
  "districtId": 9102030,
  "districtName": "KAIMANA",
  "name": "JARATI",
  "postalCode": "98654"
 },
 {
  "id": 9102030027,
  "districtId": 9102030,
  "districtName": "KAIMANA",
  "name": "ORAY",
  "postalCode": "98654"
 }
]