[
 {
  "id": 9105143001,
  "districtId": 9105143,
  "districtName": "MANOKWARI UTARA",
  "name": "INODUAS",
  "postalCode": ""
 },
 {
  "id": 9105143002,
  "districtId": 9105143,
  "districtName": "MANOKWARI UTARA",
  "name": "CABANG DUA",
  "postalCode": ""
 },
 {
  "id": 9105143003,
  "districtId": 9105143,
  "districtName": "MANOKWARI UTARA",
  "name": "PAMI",
  "postalCode": "99585"
 },
 {
  "id": 9105143004,
  "districtId": 9105143,
  "districtName": "MANOKWARI UTARA",
  "name": "SAYRO",
  "postalCode": "98315"
 },
 {
  "id": 9105143005,
  "districtId": 9105143,
  "districtName": "MANOKWARI UTARA",
  "name": "BREMI",
  "postalCode": "98315"
 },
 {
  "id": 9105143006,
  "districtId": 9105143,
  "districtName": "MANOKWARI UTARA",
  "name": "YOOM I",
  "postalCode": "98315"
 },
 {
  "id": 9105143007,
  "districtId": 9105143,
  "districtName": "MANOKWARI UTARA",
  "name": "MEINYUMFOKA",
  "postalCode": ""
 },
 {
  "id": 9105143008,
  "districtId": 9105143,
  "districtName": "MANOKWARI UTARA",
  "name": "LEBAU",
  "postalCode": "98315"
 },
 {
  "id": 9105143009,
  "districtId": 9105143,
  "districtName": "MANOKWARI UTARA",
  "name": "SAUBEBA",
  "postalCode": "98473"
 },
 {
  "id": 9105143010,
  "districtId": 9105143,
  "districtName": "MANOKWARI UTARA",
  "name": "YOOM II",
  "postalCode": "98315"
 },
 {
  "id": 9105143011,
  "districtId": 9105143,
  "districtName": "MANOKWARI UTARA",
  "name": "TANAH RUBU",
  "postalCode": "98315"
 },
 {
  "id": 9105143012,
  "districtId": 9105143,
  "districtName": "MANOKWARI UTARA",
  "name": "ASAY",
  "postalCode": ""
 },
 {
  "id": 9105143013,
  "districtId": 9105143,
  "districtName": "MANOKWARI UTARA",
  "name": "MENAITO / MUBRAIDIBA",
  "postalCode": ""
 },
 {
  "id": 9105143014,
  "districtId": 9105143,
  "districtName": "MANOKWARI UTARA",
  "name": "MANDOPI",
  "postalCode": "98315"
 },
 {
  "id": 9105143015,
  "districtId": 9105143,
  "districtName": "MANOKWARI UTARA",
  "name": "MUBRI",
  "postalCode": "98315"
 },
 {
  "id": 9105143016,
  "districtId": 9105143,
  "districtName": "MANOKWARI UTARA",
  "name": "TELUK MUBRI",
  "postalCode": "98315"
 },
 {
  "id": 9105143018,
  "districtId": 9105143,
  "districtName": "MANOKWARI UTARA",
  "name": "INYA",
  "postalCode": "98315"
 },
 {
  "id": 9105143019,
  "districtId": 9105143,
  "districtName": "MANOKWARI UTARA",
  "name": "WARBEPOR",
  "postalCode": ""
 },
 {
  "id": 9105143020,
  "districtId": 9105143,
  "districtName": "MANOKWARI UTARA",
  "name": "YONGGAM",
  "postalCode": "98315"
 },
 {
  "id": 9105143021,
  "districtId": 9105143,
  "districtName": "MANOKWARI UTARA",
  "name": "SINGGIMEBA",
  "postalCode": "98315"
 },
 {
  "id": 9105143024,
  "districtId": 9105143,
  "districtName": "MANOKWARI UTARA",
  "name": "INYEI",
  "postalCode": "98357"
 },
 {
  "id": 9105143025,
  "districtId": 9105143,
  "districtName": "MANOKWARI UTARA",
  "name": "INDOSUFA . INDO OUFA",
  "postalCode": ""
 }
]