[
 {
  "id": 9105141001,
  "districtId": 9105141,
  "districtName": "MANOKWARI BARAT",
  "name": "TANAH MERAH INDAH",
  "postalCode": ""
 },
 {
  "id": 9105141002,
  "districtId": 9105141,
  "districtName": "MANOKWARI BARAT",
  "name": "SORIBO",
  "postalCode": "98312"
 },
 {
  "id": 9105141003,
  "districtId": 9105141,
  "districtName": "MANOKWARI BARAT",
  "name": "WOSI",
  "postalCode": "97783"
 },
 {
  "id": 9105141004,
  "districtId": 9105141,
  "districtName": "MANOKWARI BARAT",
  "name": "SANGGENG",
  "postalCode": "98312"
 },
 {
  "id": 9105141005,
  "districtId": 9105141,
  "districtName": "MANOKWARI BARAT",
  "name": "MANOKWARI BARAT",
  "postalCode": "98312"
 },
 {
  "id": 9105141006,
  "districtId": 9105141,
  "districtName": "MANOKWARI BARAT",
  "name": "PADARNI",
  "postalCode": "98312"
 },
 {
  "id": 9105141007,
  "districtId": 9105141,
  "districtName": "MANOKWARI BARAT",
  "name": "MANOKWARI TIMUR",
  "postalCode": "98311"
 },
 {
  "id": 9105141008,
  "districtId": 9105141,
  "districtName": "MANOKWARI BARAT",
  "name": "AMBAN",
  "postalCode": "98314"
 },
 {
  "id": 9105141009,
  "districtId": 9105141,
  "districtName": "MANOKWARI BARAT",
  "name": "INGGRAMUI",
  "postalCode": "98312"
 },
 {
  "id": 9105141010,
  "districtId": 9105141,
  "districtName": "MANOKWARI BARAT",
  "name": "UDOPI",
  "postalCode": "98312"
 }
]