[
 {
  "id": 9106020001,
  "districtId": 9106020,
  "districtName": "KOKODA",
  "name": "MIGORI",
  "postalCode": "98455"
 },
 {
  "id": 9106020002,
  "districtId": 9106020,
  "districtName": "KOKODA",
  "name": "SIWATORI",
  "postalCode": "98455"
 },
 {
  "id": 9106020003,
  "districtId": 9106020,
  "districtName": "KOKODA",
  "name": "TAROF",
  "postalCode": "98455"
 },
 {
  "id": 9106020004,
  "districtId": 9106020,
  "districtName": "KOKODA",
  "name": "TAMBANI",
  "postalCode": "98455"
 },
 {
  "id": 9106020005,
  "districtId": 9106020,
  "districtName": "KOKODA",
  "name": "NEGERI BESAR",
  "postalCode": "34769"
 },
 {
  "id": 9106020006,
  "districtId": 9106020,
  "districtName": "KOKODA",
  "name": "KASUWERI",
  "postalCode": "98455"
 },
 {
  "id": 9106020010,
  "districtId": 9106020,
  "districtName": "KOKODA",
  "name": "KOREWATARA",
  "postalCode": "98455"
 },
 {
  "id": 9106020011,
  "districtId": 9106020,
  "districtName": "KOKODA",
  "name": "TAPAS",
  "postalCode": "98455"
 },
 {
  "id": 9106020012,
  "districtId": 9106020,
  "districtName": "KOKODA",
  "name": "TOTONA",
  "postalCode": "98455"
 },
 {
  "id": 9106020013,
  "districtId": 9106020,
  "districtName": "KOKODA",
  "name": "DAUBAK",
  "postalCode": "98455"
 },
 {
  "id": 9106020014,
  "districtId": 9106020,
  "districtName": "KOKODA",
  "name": "TOPDAN",
  "postalCode": "98455"
 },
 {
  "id": 9106020015,
  "districtId": 9106020,
  "districtName": "KOKODA",
  "name": "NAYAKORE",
  "postalCode": "98455"
 },
 {
  "id": 9106020016,
  "districtId": 9106020,
  "districtName": "KOKODA",
  "name": "MIGIRITO",
  "postalCode": ""
 },
 {
  "id": 9106020017,
  "districtId": 9106020,
  "districtName": "KOKODA",
  "name": "ARBASINA",
  "postalCode": "98455"
 },
 {
  "id": 9106020018,
  "districtId": 9106020,
  "districtName": "KOKODA",
  "name": "BIRAWAKU",
  "postalCode": "98455"
 },
 {
  "id": 9106020021,
  "districtId": 9106020,
  "districtName": "KOKODA",
  "name": "DAIMAR",
  "postalCode": "98455"
 }
]