[
 {
  "id": 9106010001,
  "districtId": 9106010,
  "districtName": "INANWATAN",
  "name": "MATE",
  "postalCode": "98455"
 },
 {
  "id": 9106010002,
  "districtId": 9106010,
  "districtName": "INANWATAN",
  "name": "WADOI",
  "postalCode": "98455"
 },
 {
  "id": 9106010003,
  "districtId": 9106010,
  "districtName": "INANWATAN",
  "name": "SIBAE",
  "postalCode": "98455"
 },
 {
  "id": 9106010004,
  "districtId": 9106010,
  "districtName": "INANWATAN",
  "name": "ISOGO",
  "postalCode": "98455"
 },
 {
  "id": 9106010017,
  "districtId": 9106010,
  "districtName": "INANWATAN",
  "name": "SERKOS",
  "postalCode": "98455"
 },
 {
  "id": 9106010019,
  "districtId": 9106010,
  "districtName": "INANWATAN",
  "name": "SOLTA BARU",
  "postalCode": "98455"
 },
 {
  "id": 9106010021,
  "districtId": 9106010,
  "districtName": "INANWATAN",
  "name": "NOGIBI",
  "postalCode": ""
 },
 {
  "id": 9106010022,
  "districtId": 9106010,
  "districtName": "INANWATAN",
  "name": "ODEARE",
  "postalCode": "98455"
 },
 {
  "id": 9106010023,
  "districtId": 9106010,
  "districtName": "INANWATAN",
  "name": "SIRI-SIRI",
  "postalCode": "98455"
 }
]