[
 {
  "id": 9106074001,
  "districtId": 9106074,
  "districtName": "SAIFI",
  "name": "KAYABO",
  "postalCode": "98454"
 },
 {
  "id": 9106074002,
  "districtId": 9106074,
  "districtName": "SAIFI",
  "name": "SAYAL / SEREMUK",
  "postalCode": ""
 },
 {
  "id": 9106074003,
  "districtId": 9106074,
  "districtName": "SAIFI",
  "name": "KOMANGGARET",
  "postalCode": "98454"
 },
 {
  "id": 9106074004,
  "districtId": 9106074,
  "districtName": "SAIFI",
  "name": "MANGGROHOLO",
  "postalCode": "98454"
 },
 {
  "id": 9106074005,
  "districtId": 9106074,
  "districtName": "SAIFI",
  "name": "SIRA",
  "postalCode": "99584"
 },
 {
  "id": 9106074006,
  "districtId": 9106074,
  "districtName": "SAIFI",
  "name": "MLASWAT",
  "postalCode": "98454"
 },
 {
  "id": 9106074007,
  "districtId": 9106074,
  "districtName": "SAIFI",
  "name": "KWOWOK",
  "postalCode": "98454"
 },
 {
  "id": 9106074008,
  "districtId": 9106074,
  "districtName": "SAIFI",
  "name": "SISIR",
  "postalCode": "65314"
 },
 {
  "id": 9106074009,
  "districtId": 9106074,
  "districtName": "SAIFI",
  "name": "KENAYA",
  "postalCode": "98454"
 },
 {
  "id": 9106074010,
  "districtId": 9106074,
  "districtName": "SAIFI",
  "name": "BOTAIN",
  "postalCode": "98454"
 }
]