[
 {
  "id": 9112020001,
  "districtId": 9112020,
  "districtName": "SURUREY",
  "name": "INYAUB",
  "postalCode": "98359"
 },
 {
  "id": 9112020002,
  "districtId": 9112020,
  "districtName": "SURUREY",
  "name": "DUGUHANI",
  "postalCode": ""
 },
 {
  "id": 9112020003,
  "districtId": 9112020,
  "districtName": "SURUREY",
  "name": "KOPO",
  "postalCode": "40233"
 },
 {
  "id": 9112020004,
  "districtId": 9112020,
  "districtName": "SURUREY",
  "name": "KOBREY",
  "postalCode": "98355"
 },
 {
  "id": 9112020005,
  "districtId": 9112020,
  "districtName": "SURUREY",
  "name": "KOSTERA",
  "postalCode": "98359"
 },
 {
  "id": 9112020007,
  "districtId": 9112020,
  "districtName": "SURUREY",
  "name": "SAUGEMEBA",
  "postalCode": "98359"
 },
 {
  "id": 9112020008,
  "districtId": 9112020,
  "districtName": "SURUREY",
  "name": "MENESRIJ",
  "postalCode": "98359"
 },
 {
  "id": 9112020009,
  "districtId": 9112020,
  "districtName": "SURUREY",
  "name": "TUHUBEA",
  "postalCode": ""
 },
 {
  "id": 9112020011,
  "districtId": 9112020,
  "districtName": "SURUREY",
  "name": "ANUK",
  "postalCode": "98359"
 },
 {
  "id": 9112020012,
  "districtId": 9112020,
  "districtName": "SURUREY",
  "name": "TOMSTERA",
  "postalCode": "98359"
 }
]