[
 {
  "id": 9112010001,
  "districtId": 9112010,
  "districtName": "DIDOHU",
  "name": "KUSMENAU",
  "postalCode": "98359"
 },
 {
  "id": 9112010002,
  "districtId": 9112010,
  "districtName": "DIDOHU",
  "name": "SNERANER",
  "postalCode": ""
 },
 {
  "id": 9112010003,
  "districtId": 9112010,
  "districtName": "DIDOHU",
  "name": "CIRNOHU",
  "postalCode": "98359"
 },
 {
  "id": 9112010004,
  "districtId": 9112010,
  "districtName": "DIDOHU",
  "name": "DISRA",
  "postalCode": ""
 },
 {
  "id": 9112010005,
  "districtId": 9112010,
  "districtName": "DIDOHU",
  "name": "DIBETIK",
  "postalCode": ""
 },
 {
  "id": 9112010006,
  "districtId": 9112010,
  "districtName": "DIDOHU",
  "name": "DANMOU",
  "postalCode": "98359"
 },
 {
  "id": 9112010007,
  "districtId": 9112010,
  "districtName": "DIDOHU",
  "name": "SIRGEMEIH",
  "postalCode": ""
 },
 {
  "id": 9112010008,
  "districtId": 9112010,
  "districtName": "DIDOHU",
  "name": "DEMDANEI",
  "postalCode": ""
 },
 {
  "id": 9112010009,
  "districtId": 9112010,
  "districtName": "DIDOHU",
  "name": "IRANMEBA",
  "postalCode": "98359"
 },
 {
  "id": 9112010010,
  "districtId": 9112010,
  "districtName": "DIDOHU",
  "name": "GEDEIRA",
  "postalCode": "98359"
 },
 {
  "id": 9112010011,
  "districtId": 9112010,
  "districtName": "DIDOHU",
  "name": "DUGRIMOG",
  "postalCode": "98359"
 },
 {
  "id": 9112010012,
  "districtId": 9112010,
  "districtName": "DIDOHU",
  "name": "CIGERA",
  "postalCode": "98359"
 },
 {
  "id": 9112010013,
  "districtId": 9112010,
  "districtName": "DIDOHU",
  "name": "TOMSIR",
  "postalCode": "98359"
 },
 {
  "id": 9112010014,
  "districtId": 9112010,
  "districtName": "DIDOHU",
  "name": "MISEDA",
  "postalCode": "98359"
 }
]