[
 {
  "id": 9112090001,
  "districtId": 9112090,
  "districtName": "CATUBOUW",
  "name": "SOUDIN",
  "postalCode": "98358"
 },
 {
  "id": 9112090002,
  "districtId": 9112090,
  "districtName": "CATUBOUW",
  "name": "UNTI",
  "postalCode": "98358"
 },
 {
  "id": 9112090003,
  "districtId": 9112090,
  "districtName": "CATUBOUW",
  "name": "MIEY COMTY",
  "postalCode": ""
 },
 {
  "id": 9112090004,
  "districtId": 9112090,
  "districtName": "CATUBOUW",
  "name": "COIJUD",
  "postalCode": ""
 },
 {
  "id": 9112090005,
  "districtId": 9112090,
  "districtName": "CATUBOUW",
  "name": "BINGWAIMOD",
  "postalCode": ""
 },
 {
  "id": 9112090006,
  "districtId": 9112090,
  "districtName": "CATUBOUW",
  "name": "MINMO",
  "postalCode": "98358"
 },
 {
  "id": 9112090007,
  "districtId": 9112090,
  "districtName": "CATUBOUW",
  "name": "IJIGREK",
  "postalCode": ""
 },
 {
  "id": 9112090008,
  "districtId": 9112090,
  "districtName": "CATUBOUW",
  "name": "TIMTOU",
  "postalCode": ""
 },
 {
  "id": 9112090009,
  "districtId": 9112090,
  "districtName": "CATUBOUW",
  "name": "MINHOU",
  "postalCode": ""
 },
 {
  "id": 9112090010,
  "districtId": 9112090,
  "districtName": "CATUBOUW",
  "name": "CATUBOU",
  "postalCode": ""
 },
 {
  "id": 9112090011,
  "districtId": 9112090,
  "districtName": "CATUBOUW",
  "name": "AIGA",
  "postalCode": "98358"
 },
 {
  "id": 9112090012,
  "districtId": 9112090,
  "districtName": "CATUBOUW",
  "name": "KAUNGWAM",
  "postalCode": "98358"
 },
 {
  "id": 9112090013,
  "districtId": 9112090,
  "districtName": "CATUBOUW",
  "name": "BINGRAYUD",
  "postalCode": ""
 },
 {
  "id": 9112090014,
  "districtId": 9112090,
  "districtName": "CATUBOUW",
  "name": "IDEMAI",
  "postalCode": "98358"
 },
 {
  "id": 9112090015,
  "districtId": 9112090,
  "districtName": "CATUBOUW",
  "name": "MIHIJI",
  "postalCode": ""
 },
 {
  "id": 9112090016,
  "districtId": 9112090,
  "districtName": "CATUBOUW",
  "name": "IMANDRIGO",
  "postalCode": "98358"
 },
 {
  "id": 9112090017,
  "districtId": 9112090,
  "districtName": "CATUBOUW",
  "name": "NDABOU",
  "postalCode": ""
 },
 {
  "id": 9112090018,
  "districtId": 9112090,
  "districtName": "CATUBOUW",
  "name": "SLOMIOU",
  "postalCode": "98358"
 },
 {
  "id": 9112090019,
  "districtId": 9112090,
  "districtName": "CATUBOUW",
  "name": "SUGEMAH",
  "postalCode": ""
 },
 {
  "id": 9112090020,
  "districtId": 9112090,
  "districtName": "CATUBOUW",
  "name": "JIM",
  "postalCode": "24172"
 },
 {
  "id": 9112090021,
  "districtId": 9112090,
  "districtName": "CATUBOUW",
  "name": "MANGGESUK",
  "postalCode": "98358"
 }
]