[
 {
  "id": 9401043001,
  "districtId": 9401043,
  "districtName": "JAGEBOB",
  "name": "KAMNO SARI",
  "postalCode": "99656"
 },
 {
  "id": 9401043002,
  "districtId": 9401043,
  "districtName": "JAGEBOB",
  "name": "GURINDA JAYA",
  "postalCode": "99656"
 },
 {
  "id": 9401043003,
  "districtId": 9401043,
  "districtName": "JAGEBOB",
  "name": "JAGEBOB RAYA",
  "postalCode": "99656"
 },
 {
  "id": 9401043004,
  "districtId": 9401043,
  "districtName": "JAGEBOB",
  "name": "MIMI BARU",
  "postalCode": "99656"
 },
 {
  "id": 9401043005,
  "districtId": 9401043,
  "districtName": "JAGEBOB",
  "name": "WENDA ASRI",
  "postalCode": "99656"
 },
 {
  "id": 9401043006,
  "districtId": 9401043,
  "districtName": "JAGEBOB",
  "name": "ANGGER PARMEGI",
  "postalCode": ""
 },
 {
  "id": 9401043007,
  "districtId": 9401043,
  "districtName": "JAGEBOB",
  "name": "KARTINI",
  "postalCode": "20713"
 },
 {
  "id": 9401043008,
  "districtId": 9401043,
  "districtName": "JAGEBOB",
  "name": "MAKARTI JAYA",
  "postalCode": "23662"
 },
 {
  "id": 9401043009,
  "districtId": 9401043,
  "districtName": "JAGEBOB",
  "name": "NALKIN",
  "postalCode": "99656"
 },
 {
  "id": 9401043010,
  "districtId": 9401043,
  "districtName": "JAGEBOB",
  "name": "POO",
  "postalCode": "99656"
 },
 {
  "id": 9401043011,
  "districtId": 9401043,
  "districtName": "JAGEBOB",
  "name": "BLANDIN KAKAYO",
  "postalCode": "99656"
 },
 {
  "id": 9401043012,
  "districtId": 9401043,
  "districtName": "JAGEBOB",
  "name": "JEMUNAEN JAYA",
  "postalCode": ""
 },
 {
  "id": 9401043013,
  "districtId": 9401043,
  "districtName": "JAGEBOB",
  "name": "MELIN MEGIKAR",
  "postalCode": "99656"
 },
 {
  "id": 9401043014,
  "districtId": 9401043,
  "districtName": "JAGEBOB",
  "name": "OBATHROW",
  "postalCode": ""
 }
]