[
 {
  "id": 9401042001,
  "districtId": 9401042,
  "districtName": "TANAH MIRING",
  "name": "SOA",
  "postalCode": "97725"
 },
 {
  "id": 9401042002,
  "districtId": 9401042,
  "districtName": "TANAH MIRING",
  "name": "TAMBAT",
  "postalCode": "99651"
 },
 {
  "id": 9401042003,
  "districtId": 9401042,
  "districtName": "TANAH MIRING",
  "name": "SUMBER HARAPAN",
  "postalCode": "21261"
 },
 {
  "id": 9401042004,
  "districtId": 9401042,
  "districtName": "TANAH MIRING",
  "name": "YASA MULYA",
  "postalCode": ""
 },
 {
  "id": 9401042005,
  "districtId": 9401042,
  "districtName": "TANAH MIRING",
  "name": "WANINGGAP SAY",
  "postalCode": "99651"
 },
 {
  "id": 9401042006,
  "districtId": 9401042,
  "districtName": "TANAH MIRING",
  "name": "WANINGGAP MIRAF",
  "postalCode": "99651"
 },
 {
  "id": 9401042007,
  "districtId": 9401042,
  "districtName": "TANAH MIRING",
  "name": "ISANOMBIAS",
  "postalCode": "99651"
 },
 {
  "id": 9401042008,
  "districtId": 9401042,
  "districtName": "TANAH MIRING",
  "name": "YABA MARU",
  "postalCode": ""
 },
 {
  "id": 9401042009,
  "districtId": 9401042,
  "districtName": "TANAH MIRING",
  "name": "AMUNKAI",
  "postalCode": ""
 },
 {
  "id": 9401042010,
  "districtId": 9401042,
  "districtName": "TANAH MIRING",
  "name": "HIDUP BARU",
  "postalCode": "28471"
 },
 {
  "id": 9401042011,
  "districtId": 9401042,
  "districtName": "TANAH MIRING",
  "name": "SERMAYAM INDAH",
  "postalCode": ""
 },
 {
  "id": 9401042012,
  "districtId": 9401042,
  "districtName": "TANAH MIRING",
  "name": "NGGUTI BOB",
  "postalCode": ""
 },
 {
  "id": 9401042013,
  "districtId": 9401042,
  "districtName": "TANAH MIRING",
  "name": "BERSEHATI",
  "postalCode": "99651"
 },
 {
  "id": 9401042014,
  "districtId": 9401042,
  "districtName": "TANAH MIRING",
  "name": "KAMANGI",
  "postalCode": ""
 }
]