[
 {
  "id": 9401010006,
  "districtId": 9401010,
  "districtName": "KIMAAM",
  "name": "KOMOLOM",
  "postalCode": "99655"
 },
 {
  "id": 9401010007,
  "districtId": 9401010,
  "districtName": "KIMAAM",
  "name": "KUMBIS",
  "postalCode": "99655"
 },
 {
  "id": 9401010008,
  "districtId": 9401010,
  "districtName": "KIMAAM",
  "name": "KALILAM",
  "postalCode": "99655"
 },
 {
  "id": 9401010011,
  "districtId": 9401010,
  "districtName": "KIMAAM",
  "name": "TURIRAM",
  "postalCode": "99655"
 },
 {
  "id": 9401010012,
  "districtId": 9401010,
  "districtName": "KIMAAM",
  "name": "MAMBUM",
  "postalCode": ""
 },
 {
  "id": 9401010013,
  "districtId": 9401010,
  "districtName": "KIMAAM",
  "name": "DEKA",
  "postalCode": "99655"
 },
 {
  "id": 9401010014,
  "districtId": 9401010,
  "districtName": "KIMAAM",
  "name": "WONER",
  "postalCode": "99655"
 },
 {
  "id": 9401010015,
  "districtId": 9401010,
  "districtName": "KIMAAM",
  "name": "KIWORO",
  "postalCode": "99655"
 },
 {
  "id": 9401010016,
  "districtId": 9401010,
  "districtName": "KIMAAM",
  "name": "KIMAAM",
  "postalCode": ""
 },
 {
  "id": 9401010022,
  "districtId": 9401010,
  "districtName": "KIMAAM",
  "name": "TERI",
  "postalCode": "99655"
 },
 {
  "id": 9401010023,
  "districtId": 9401010,
  "districtName": "KIMAAM",
  "name": "SABUDOM",
  "postalCode": ""
 }
]