[
 {
  "id": 9402122001,
  "districtId": 9402122,
  "districtName": "IBELE",
  "name": "HABEMA",
  "postalCode": "99566"
 },
 {
  "id": 9402122003,
  "districtId": 9402122,
  "districtName": "IBELE",
  "name": "TIPALOK",
  "postalCode": "99566"
 },
 {
  "id": 9402122004,
  "districtId": 9402122,
  "districtName": "IBELE",
  "name": "YAGAROBAK",
  "postalCode": ""
 },
 {
  "id": 9402122005,
  "districtId": 9402122,
  "districtName": "IBELE",
  "name": "IBELE",
  "postalCode": "99566"
 },
 {
  "id": 9402122006,
  "districtId": 9402122,
  "districtName": "IBELE",
  "name": "ZAPMA",
  "postalCode": "99566"
 },
 {
  "id": 9402122012,
  "districtId": 9402122,
  "districtName": "IBELE",
  "name": "AYUBAIBUR",
  "postalCode": ""
 },
 {
  "id": 9402122017,
  "districtId": 9402122,
  "districtName": "IBELE",
  "name": "HOLALIBA",
  "postalCode": "99566"
 },
 {
  "id": 9402122018,
  "districtId": 9402122,
  "districtName": "IBELE",
  "name": "ZINAI",
  "postalCode": "99566"
 },
 {
  "id": 9402122019,
  "districtId": 9402122,
  "districtName": "IBELE",
  "name": "YOKALPALEK",
  "postalCode": "99566"
 },
 {
  "id": 9402122020,
  "districtId": 9402122,
  "districtName": "IBELE",
  "name": "YELEBAREK",
  "postalCode": "99566"
 }
]