[
 {
  "id": 9402110010,
  "districtId": 9402110,
  "districtName": "WAMENA",
  "name": "HONELAMA",
  "postalCode": "99511"
 },
 {
  "id": 9402110011,
  "districtId": 9402110,
  "districtName": "WAMENA",
  "name": "HUREKAMA",
  "postalCode": ""
 },
 {
  "id": 9402110012,
  "districtId": 9402110,
  "districtName": "WAMENA",
  "name": "WAMENA KOTA",
  "postalCode": "99511"
 },
 {
  "id": 9402110013,
  "districtId": 9402110,
  "districtName": "WAMENA",
  "name": "HITUMA",
  "postalCode": ""
 },
 {
  "id": 9402110014,
  "districtId": 9402110,
  "districtName": "WAMENA",
  "name": "KAMA",
  "postalCode": "98861"
 },
 {
  "id": 9402110015,
  "districtId": 9402110,
  "districtName": "WAMENA",
  "name": "WESAGANYA",
  "postalCode": "99511"
 },
 {
  "id": 9402110029,
  "districtId": 9402110,
  "districtName": "WAMENA",
  "name": "MAWAMPI",
  "postalCode": "99511"
 },
 {
  "id": 9402110043,
  "districtId": 9402110,
  "districtName": "WAMENA",
  "name": "AUTAKMA",
  "postalCode": "99511"
 },
 {
  "id": 9402110044,
  "districtId": 9402110,
  "districtName": "WAMENA",
  "name": "SINAPUK",
  "postalCode": "99511"
 },
 {
  "id": 9402110045,
  "districtId": 9402110,
  "districtName": "WAMENA",
  "name": "SINAKMA",
  "postalCode": "99511"
 },
 {
  "id": 9402110046,
  "districtId": 9402110,
  "districtName": "WAMENA",
  "name": "SILUMAREK",
  "postalCode": "99511"
 },
 {
  "id": 9402110047,
  "districtId": 9402110,
  "districtName": "WAMENA",
  "name": "YALOAPUT",
  "postalCode": "99511"
 },
 {
  "id": 9402110048,
  "districtId": 9402110,
  "districtName": "WAMENA",
  "name": "PAREMA",
  "postalCode": "99511"
 },
 {
  "id": 9402110054,
  "districtId": 9402110,
  "districtName": "WAMENA",
  "name": "AGAMOA",
  "postalCode": "99511"
 },
 {
  "id": 9402110055,
  "districtId": 9402110,
  "districtName": "WAMENA",
  "name": "BATU MERAH",
  "postalCode": "29452"
 },
 {
  "id": 9402110056,
  "districtId": 9402110,
  "districtName": "WAMENA",
  "name": "HONELAMA II",
  "postalCode": ""
 },
 {
  "id": 9402110057,
  "districtId": 9402110,
  "districtName": "WAMENA",
  "name": "ONAIMA",
  "postalCode": ""
 },
 {
  "id": 9402110058,
  "districtId": 9402110,
  "districtName": "WAMENA",
  "name": "LANTIPO",
  "postalCode": "99511"
 },
 {
  "id": 9402110059,
  "districtId": 9402110,
  "districtName": "WAMENA",
  "name": "WAMAROMA",
  "postalCode": "99511"
 }
]