[
 {
  "id": 9402220006,
  "districtId": 9402220,
  "districtName": "BOLAKME",
  "name": "BOLAKME",
  "postalCode": "99557"
 },
 {
  "id": 9402220007,
  "districtId": 9402220,
  "districtName": "BOLAKME",
  "name": "LANITIMUR",
  "postalCode": ""
 },
 {
  "id": 9402220008,
  "districtId": 9402220,
  "districtName": "BOLAKME",
  "name": "MUNAK",
  "postalCode": "99557"
 },
 {
  "id": 9402220026,
  "districtId": 9402220,
  "districtName": "BOLAKME",
  "name": "BANDUA",
  "postalCode": "99557"
 },
 {
  "id": 9402220028,
  "districtId": 9402220,
  "districtName": "BOLAKME",
  "name": "TENONGGAME",
  "postalCode": ""
 },
 {
  "id": 9402220032,
  "districtId": 9402220,
  "districtName": "BOLAKME",
  "name": "MOLAGALOME",
  "postalCode": "99557"
 },
 {
  "id": 9402220033,
  "districtId": 9402220,
  "districtName": "BOLAKME",
  "name": "KWIGILUK",
  "postalCode": "99557"
 },
 {
  "id": 9402220035,
  "districtId": 9402220,
  "districtName": "BOLAKME",
  "name": "NUNGGARUGUM",
  "postalCode": "99557"
 },
 {
  "id": 9402220036,
  "districtId": 9402220,
  "districtName": "BOLAKME",
  "name": "PAITMOS",
  "postalCode": ""
 },
 {
  "id": 9402220037,
  "districtId": 9402220,
  "districtName": "BOLAKME",
  "name": "WENAMELA",
  "postalCode": "99557"
 },
 {
  "id": 9402220039,
  "districtId": 9402220,
  "districtName": "BOLAKME",
  "name": "PAGALUK",
  "postalCode": "99557"
 },
 {
  "id": 9402220040,
  "districtId": 9402220,
  "districtName": "BOLAKME",
  "name": "BIMU",
  "postalCode": "99557"
 },
 {
  "id": 9402220041,
  "districtId": 9402220,
  "districtName": "BOLAKME",
  "name": "TEKANI",
  "postalCode": "99557"
 },
 {
  "id": 9402220042,
  "districtId": 9402220,
  "districtName": "BOLAKME",
  "name": "KUGITERO",
  "postalCode": "99557"
 }
]