[
 {
  "id": 9402223027,
  "districtId": 9402223,
  "districtName": "TAGIME",
  "name": "LAKWAME",
  "postalCode": "99557"
 },
 {
  "id": 9402223029,
  "districtId": 9402223,
  "districtName": "TAGIME",
  "name": "TAGIME",
  "postalCode": "99557"
 },
 {
  "id": 9402223030,
  "districtId": 9402223,
  "districtName": "TAGIME",
  "name": "POROME",
  "postalCode": "99557"
 },
 {
  "id": 9402223034,
  "districtId": 9402223,
  "districtName": "TAGIME",
  "name": "ONGGOBALO",
  "postalCode": "99557"
 },
 {
  "id": 9402223038,
  "districtId": 9402223,
  "districtName": "TAGIME",
  "name": "LAPEYO",
  "postalCode": "99557"
 },
 {
  "id": 9402223039,
  "districtId": 9402223,
  "districtName": "TAGIME",
  "name": "YORDANIA TULAK",
  "postalCode": "99557"
 },
 {
  "id": 9402223040,
  "districtId": 9402223,
  "districtName": "TAGIME",
  "name": "WANDINGGUNIE",
  "postalCode": "99557"
 },
 {
  "id": 9402223041,
  "districtId": 9402223,
  "districtName": "TAGIME",
  "name": "GUME KUPARI",
  "postalCode": "99557"
 },
 {
  "id": 9402223042,
  "districtId": 9402223,
  "districtName": "TAGIME",
  "name": "MULUGAME",
  "postalCode": "99557"
 },
 {
  "id": 9402223043,
  "districtId": 9402223,
  "districtName": "TAGIME",
  "name": "YOGOBUR",
  "postalCode": "99557"
 },
 {
  "id": 9402223044,
  "districtId": 9402223,
  "districtName": "TAGIME",
  "name": "YONGGAPURA",
  "postalCode": ""
 }
]