[
 {
  "id": 9402182010,
  "districtId": 9402182,
  "districtName": "SILO KARNO DOGA",
  "name": "WOGI",
  "postalCode": "99554"
 },
 {
  "id": 9402182011,
  "districtId": 9402182,
  "districtName": "SILO KARNO DOGA",
  "name": "HOLASILI",
  "postalCode": "99554"
 },
 {
  "id": 9402182014,
  "districtId": 9402182,
  "districtName": "SILO KARNO DOGA",
  "name": "WAME",
  "postalCode": "99567"
 },
 {
  "id": 9402182024,
  "districtId": 9402182,
  "districtName": "SILO KARNO DOGA",
  "name": "ELABOGE",
  "postalCode": ""
 },
 {
  "id": 9402182030,
  "districtId": 9402182,
  "districtName": "SILO KARNO DOGA",
  "name": "YEREGA",
  "postalCode": "99554"
 },
 {
  "id": 9402182031,
  "districtId": 9402182,
  "districtName": "SILO KARNO DOGA",
  "name": "APNAE",
  "postalCode": "99554"
 },
 {
  "id": 9402182035,
  "districtId": 9402182,
  "districtName": "SILO KARNO DOGA",
  "name": "TIKAWO",
  "postalCode": "99554"
 },
 {
  "id": 9402182041,
  "districtId": 9402182,
  "districtName": "SILO KARNO DOGA",
  "name": "OLAGI",
  "postalCode": "99554"
 },
 {
  "id": 9402182042,
  "districtId": 9402182,
  "districtName": "SILO KARNO DOGA",
  "name": "GIGILOBO",
  "postalCode": "99554"
 },
 {
  "id": 9402182043,
  "districtId": 9402182,
  "districtName": "SILO KARNO DOGA",
  "name": "WENENGGULIK",
  "postalCode": ""
 }
]