[
 {
  "id": 9402184001,
  "districtId": 9402184,
  "districtName": "MULIAMA",
  "name": "KEWIN",
  "postalCode": "99554"
 },
 {
  "id": 9402184002,
  "districtId": 9402184,
  "districtName": "MULIAMA",
  "name": "HOLKIMA",
  "postalCode": "99554"
 },
 {
  "id": 9402184007,
  "districtId": 9402184,
  "districtName": "MULIAMA",
  "name": "ASOLOGAIMA",
  "postalCode": "99554"
 },
 {
  "id": 9402184008,
  "districtId": 9402184,
  "districtName": "MULIAMA",
  "name": "MULIAMA",
  "postalCode": "99552"
 },
 {
  "id": 9402184023,
  "districtId": 9402184,
  "districtName": "MULIAMA",
  "name": "HALEFA",
  "postalCode": ""
 },
 {
  "id": 9402184025,
  "districtId": 9402184,
  "districtName": "MULIAMA",
  "name": "KONAM",
  "postalCode": ""
 },
 {
  "id": 9402184026,
  "districtId": 9402184,
  "districtName": "MULIAMA",
  "name": "DELEKAMA",
  "postalCode": "99554"
 },
 {
  "id": 9402184027,
  "districtId": 9402184,
  "districtName": "MULIAMA",
  "name": "SILAMIK",
  "postalCode": "99554"
 },
 {
  "id": 9402184028,
  "districtId": 9402184,
  "districtName": "MULIAMA",
  "name": "MOLEBAGA",
  "postalCode": "99554"
 },
 {
  "id": 9402184040,
  "districtId": 9402184,
  "districtName": "MULIAMA",
  "name": "SEKOM",
  "postalCode": "99554"
 },
 {
  "id": 9402184041,
  "districtId": 9402184,
  "districtName": "MULIAMA",
  "name": "PILABAGA",
  "postalCode": ""
 },
 {
  "id": 9402184042,
  "districtId": 9402184,
  "districtName": "MULIAMA",
  "name": "HUKULAGI",
  "postalCode": ""
 }
]