[
 {
  "id": 9402118001,
  "districtId": 9402118,
  "districtName": "ASOTIPO",
  "name": "PUTAGAIMA",
  "postalCode": ""
 },
 {
  "id": 9402118002,
  "districtId": 9402118,
  "districtName": "ASOTIPO",
  "name": "SOGOKMO",
  "postalCode": ""
 },
 {
  "id": 9402118003,
  "districtId": 9402118,
  "districtName": "ASOTIPO",
  "name": "ASOTIPO",
  "postalCode": "99511"
 },
 {
  "id": 9402118013,
  "districtId": 9402118,
  "districtName": "ASOTIPO",
  "name": "HEBERIMA",
  "postalCode": "99511"
 },
 {
  "id": 9402118014,
  "districtId": 9402118,
  "districtName": "ASOTIPO",
  "name": "IWIGIMA",
  "postalCode": "99511"
 },
 {
  "id": 9402118015,
  "districtId": 9402118,
  "districtName": "ASOTIPO",
  "name": "POBIATMA",
  "postalCode": "99511"
 },
 {
  "id": 9402118016,
  "districtId": 9402118,
  "districtName": "ASOTIPO",
  "name": "HITIGIMA",
  "postalCode": "99511"
 },
 {
  "id": 9402118017,
  "districtId": 9402118,
  "districtName": "ASOTIPO",
  "name": "KUANTAPO",
  "postalCode": "99511"
 },
 {
  "id": 9402118018,
  "districtId": 9402118,
  "districtName": "ASOTIPO",
  "name": "AIR GARAM",
  "postalCode": "99511"
 },
 {
  "id": 9402118019,
  "districtId": 9402118,
  "districtName": "ASOTIPO",
  "name": "HUKULIMO",
  "postalCode": "99511"
 }
]