[
 {
  "id": 9403150002,
  "districtId": 9403150,
  "districtName": "KEMTUK GRESI",
  "name": "NEMBUGRESI",
  "postalCode": ""
 },
 {
  "id": 9403150003,
  "districtId": 9403150,
  "districtName": "KEMTUK GRESI",
  "name": "IBUB",
  "postalCode": "99357"
 },
 {
  "id": 9403150004,
  "districtId": 9403150,
  "districtName": "KEMTUK GRESI",
  "name": "HATIB",
  "postalCode": "99357"
 },
 {
  "id": 9403150005,
  "districtId": 9403150,
  "districtName": "KEMTUK GRESI",
  "name": "BRING",
  "postalCode": "99357"
 },
 {
  "id": 9403150006,
  "districtId": 9403150,
  "districtName": "KEMTUK GRESI",
  "name": "PUPEHABU",
  "postalCode": "99357"
 },
 {
  "id": 9403150007,
  "districtId": 9403150,
  "districtName": "KEMTUK GRESI",
  "name": "DAMOI KATI",
  "postalCode": "99357"
 },
 {
  "id": 9403150008,
  "districtId": 9403150,
  "districtName": "KEMTUK GRESI",
  "name": "DEMETIM",
  "postalCode": ""
 },
 {
  "id": 9403150009,
  "districtId": 9403150,
  "districtName": "KEMTUK GRESI",
  "name": "YANBRA",
  "postalCode": ""
 },
 {
  "id": 9403150010,
  "districtId": 9403150,
  "districtName": "KEMTUK GRESI",
  "name": "BRASO",
  "postalCode": "99357"
 },
 {
  "id": 9403150012,
  "districtId": 9403150,
  "districtName": "KEMTUK GRESI",
  "name": "HYANSIP",
  "postalCode": ""
 },
 {
  "id": 9403150013,
  "districtId": 9403150,
  "districtName": "KEMTUK GRESI",
  "name": "JAGRANG",
  "postalCode": "99357"
 },
 {
  "id": 9403150015,
  "districtId": 9403150,
  "districtName": "KEMTUK GRESI",
  "name": "SWENTAB",
  "postalCode": "99357"
 }
]