[
 {
  "id": 9409011001,
  "districtId": 9409011,
  "districtName": "ORKERI",
  "name": "WANSRA",
  "postalCode": "98172"
 },
 {
  "id": 9409011002,
  "districtId": 9409011,
  "districtName": "ORKERI",
  "name": "MASYARA",
  "postalCode": "98172"
 },
 {
  "id": 9409011003,
  "districtId": 9409011,
  "districtName": "ORKERI",
  "name": "PAKREKI",
  "postalCode": "98172"
 },
 {
  "id": 9409011004,
  "districtId": 9409011,
  "districtName": "ORKERI",
  "name": "RAWAR",
  "postalCode": "98172"
 },
 {
  "id": 9409011005,
  "districtId": 9409011,
  "districtName": "ORKERI",
  "name": "SUPMANDER",
  "postalCode": "98172"
 },
 {
  "id": 9409011006,
  "districtId": 9409011,
  "districtName": "ORKERI",
  "name": "SARIBI",
  "postalCode": "98172"
 },
 {
  "id": 9409011007,
  "districtId": 9409011,
  "districtName": "ORKERI",
  "name": "YENBEPON",
  "postalCode": ""
 },
 {
  "id": 9409011008,
  "districtId": 9409011,
  "districtName": "ORKERI",
  "name": "YENBEBA",
  "postalCode": "98172"
 },
 {
  "id": 9409011009,
  "districtId": 9409011,
  "districtName": "ORKERI",
  "name": "MANWOR INDAH",
  "postalCode": "98172"
 }
]