[
 {
  "id": 9409030001,
  "districtId": 9409030,
  "districtName": "PADAIDO",
  "name": "AUKI",
  "postalCode": "98158"
 },
 {
  "id": 9409030002,
  "districtId": 9409030,
  "districtName": "PADAIDO",
  "name": "WUNDI",
  "postalCode": "98158"
 },
 {
  "id": 9409030003,
  "districtId": 9409030,
  "districtName": "PADAIDO",
  "name": "NUSI BABARUK",
  "postalCode": "98158"
 },
 {
  "id": 9409030004,
  "districtId": 9409030,
  "districtName": "PADAIDO",
  "name": "NUSI",
  "postalCode": "98158"
 },
 {
  "id": 9409030005,
  "districtId": 9409030,
  "districtName": "PADAIDO",
  "name": "PAI",
  "postalCode": "84152"
 },
 {
  "id": 9409030014,
  "districtId": 9409030,
  "districtName": "PADAIDO",
  "name": "SANDIDORI",
  "postalCode": ""
 },
 {
  "id": 9409030015,
  "districtId": 9409030,
  "districtName": "PADAIDO",
  "name": "SORINA",
  "postalCode": "98158"
 },
 {
  "id": 9409030016,
  "districtId": 9409030,
  "districtName": "PADAIDO",
  "name": "INBEYOMI",
  "postalCode": ""
 },
 {
  "id": 9409030017,
  "districtId": 9409030,
  "districtName": "PADAIDO",
  "name": "KANAI",
  "postalCode": "98158"
 },
 {
  "id": 9409030018,
  "districtId": 9409030,
  "districtName": "PADAIDO",
  "name": "SOKANI",
  "postalCode": "98158"
 },
 {
  "id": 9409030019,
  "districtId": 9409030,
  "districtName": "PADAIDO",
  "name": "PAIDORI",
  "postalCode": "98158"
 }
]