[
 {
  "id": 9409100001,
  "districtId": 9409100,
  "districtName": "BIAK BARAT",
  "name": "WASYAI",
  "postalCode": "98154"
 },
 {
  "id": 9409100002,
  "districtId": 9409100,
  "districtName": "BIAK BARAT",
  "name": "ANDEI",
  "postalCode": "98154"
 },
 {
  "id": 9409100003,
  "districtId": 9409100,
  "districtName": "BIAK BARAT",
  "name": "KABABUR",
  "postalCode": "98154"
 },
 {
  "id": 9409100004,
  "districtId": 9409100,
  "districtName": "BIAK BARAT",
  "name": "WARBERIK",
  "postalCode": ""
 },
 {
  "id": 9409100005,
  "districtId": 9409100,
  "districtName": "BIAK BARAT",
  "name": "SOSMAY",
  "postalCode": ""
 },
 {
  "id": 9409100006,
  "districtId": 9409100,
  "districtName": "BIAK BARAT",
  "name": "YOMDORI",
  "postalCode": "98154"
 },
 {
  "id": 9409100007,
  "districtId": 9409100,
  "districtName": "BIAK BARAT",
  "name": "KANAAN",
  "postalCode": "75383"
 },
 {
  "id": 9409100008,
  "districtId": 9409100,
  "districtName": "BIAK BARAT",
  "name": "ASARYENDI",
  "postalCode": "98154"
 },
 {
  "id": 9409100009,
  "districtId": 9409100,
  "districtName": "BIAK BARAT",
  "name": "OPURI",
  "postalCode": "98154"
 },
 {
  "id": 9409100010,
  "districtId": 9409100,
  "districtName": "BIAK BARAT",
  "name": "SOPENDO",
  "postalCode": "98154"
 },
 {
  "id": 9409100011,
  "districtId": 9409100,
  "districtName": "BIAK BARAT",
  "name": "MAMORIBO",
  "postalCode": "98154"
 },
 {
  "id": 9409100021,
  "districtId": 9409100,
  "districtName": "BIAK BARAT",
  "name": "ASARKIR",
  "postalCode": "98154"
 },
 {
  "id": 9409100022,
  "districtId": 9409100,
  "districtName": "BIAK BARAT",
  "name": "DOUSI",
  "postalCode": "98154"
 },
 {
  "id": 9409100023,
  "districtId": 9409100,
  "districtName": "BIAK BARAT",
  "name": "MARISEN",
  "postalCode": "98154"
 },
 {
  "id": 9409100024,
  "districtId": 9409100,
  "districtName": "BIAK BARAT",
  "name": "SUMBINYA",
  "postalCode": ""
 },
 {
  "id": 9409100025,
  "districtId": 9409100,
  "districtName": "BIAK BARAT",
  "name": "INSIRI",
  "postalCode": "98154"
 },
 {
  "id": 9409100026,
  "districtId": 9409100,
  "districtName": "BIAK BARAT",
  "name": "KARNINDI",
  "postalCode": "98154"
 },
 {
  "id": 9409100027,
  "districtId": 9409100,
  "districtName": "BIAK BARAT",
  "name": "BANASRARES",
  "postalCode": "98154"
 },
 {
  "id": 9409100028,
  "districtId": 9409100,
  "districtName": "BIAK BARAT",
  "name": "DEDIFU",
  "postalCode": "98154"
 },
 {
  "id": 9409100029,
  "districtId": 9409100,
  "districtName": "BIAK BARAT",
  "name": "SOPENDO SUP KARKIR",
  "postalCode": "98154"
 },
 {
  "id": 9409100030,
  "districtId": 9409100,
  "districtName": "BIAK BARAT",
  "name": "RARSBARI",
  "postalCode": "98154"
 }
]