[
 {
  "id": 9411060005,
  "districtId": 9411060,
  "districtName": "ILU",
  "name": "LAMBO",
  "postalCode": "98916"
 },
 {
  "id": 9411060006,
  "districtId": 9411060,
  "districtName": "ILU",
  "name": "WURAK",
  "postalCode": "98916"
 },
 {
  "id": 9411060020,
  "districtId": 9411060,
  "districtName": "ILU",
  "name": "PINDEBAGA",
  "postalCode": "98916"
 },
 {
  "id": 9411060030,
  "districtId": 9411060,
  "districtName": "ILU",
  "name": "DOLINGGAME",
  "postalCode": "98916"
 },
 {
  "id": 9411060034,
  "districtId": 9411060,
  "districtName": "ILU",
  "name": "MAKA",
  "postalCode": "98916"
 },
 {
  "id": 9411060035,
  "districtId": 9411060,
  "districtName": "ILU",
  "name": "MOBIGI",
  "postalCode": "98916"
 },
 {
  "id": 9411060036,
  "districtId": 9411060,
  "districtName": "ILU",
  "name": "YAURIA I",
  "postalCode": ""
 },
 {
  "id": 9411060037,
  "districtId": 9411060,
  "districtName": "ILU",
  "name": "BELANTARA",
  "postalCode": "98916"
 },
 {
  "id": 9411060038,
  "districtId": 9411060,
  "districtName": "ILU",
  "name": "KALENGGA",
  "postalCode": "98916"
 },
 {
  "id": 9411060039,
  "districtId": 9411060,
  "districtName": "ILU",
  "name": "PULAU TIMUR",
  "postalCode": "98916"
 },
 {
  "id": 9411060040,
  "districtId": 9411060,
  "districtName": "ILU",
  "name": "GIRMOR",
  "postalCode": "98916"
 },
 {
  "id": 9411060041,
  "districtId": 9411060,
  "districtName": "ILU",
  "name": "PULOGENGGA",
  "postalCode": "98916"
 },
 {
  "id": 9411060042,
  "districtId": 9411060,
  "districtName": "ILU",
  "name": "KIRIGIMADUK",
  "postalCode": "98916"
 },
 {
  "id": 9411060043,
  "districtId": 9411060,
  "districtName": "ILU",
  "name": "PUKI PAKI",
  "postalCode": "98915"
 },
 {
  "id": 9411060044,
  "districtId": 9411060,
  "districtName": "ILU",
  "name": "KURIKPULOK",
  "postalCode": "98916"
 },
 {
  "id": 9411060045,
  "districtId": 9411060,
  "districtName": "ILU",
  "name": "MEGEWI MEGEWA",
  "postalCode": ""
 },
 {
  "id": 9411060046,
  "districtId": 9411060,
  "districtName": "ILU",
  "name": "KANINONGGO",
  "postalCode": ""
 },
 {
  "id": 9411060047,
  "districtId": 9411060,
  "districtName": "ILU",
  "name": "GUBULOME",
  "postalCode": "98916"
 },
 {
  "id": 9411060048,
  "districtId": 9411060,
  "districtName": "ILU",
  "name": "GINIPAGO",
  "postalCode": "98912"
 },
 {
  "id": 9411060049,
  "districtId": 9411060,
  "districtName": "ILU",
  "name": "AULAME",
  "postalCode": "98912"
 }
]