[
 {
  "id": 9411040002,
  "districtId": 9411040,
  "districtName": "FAWI",
  "name": "TURMO",
  "postalCode": ""
 },
 {
  "id": 9411040003,
  "districtId": 9411040,
  "districtName": "FAWI",
  "name": "FAWI",
  "postalCode": "98917"
 },
 {
  "id": 9411040006,
  "districtId": 9411040,
  "districtName": "FAWI",
  "name": "BAKUSI",
  "postalCode": "98917"
 },
 {
  "id": 9411040008,
  "districtId": 9411040,
  "districtName": "FAWI",
  "name": "EVO",
  "postalCode": "98917"
 },
 {
  "id": 9411040009,
  "districtId": 9411040,
  "districtName": "FAWI",
  "name": "YEREI",
  "postalCode": "98917"
 },
 {
  "id": 9411040010,
  "districtId": 9411040,
  "districtName": "FAWI",
  "name": "KAHO",
  "postalCode": "98917"
 },
 {
  "id": 9411040011,
  "districtId": 9411040,
  "districtName": "FAWI",
  "name": "BIRICARE",
  "postalCode": "98917"
 },
 {
  "id": 9411040012,
  "districtId": 9411040,
  "districtName": "FAWI",
  "name": "DOREY",
  "postalCode": "98917"
 },
 {
  "id": 9411040013,
  "districtId": 9411040,
  "districtName": "FAWI",
  "name": "FII",
  "postalCode": "98917"
 }
]