[
 {
  "id": 9412012001,
  "districtId": 9412012,
  "districtName": "MIMIKA BARAT TENGAH",
  "name": "PRONGGO",
  "postalCode": "99973"
 },
 {
  "id": 9412012002,
  "districtId": 9412012,
  "districtName": "MIMIKA BARAT TENGAH",
  "name": "KIPIA",
  "postalCode": "99973"
 },
 {
  "id": 9412012003,
  "districtId": 9412012,
  "districtName": "MIMIKA BARAT TENGAH",
  "name": "MAPAR",
  "postalCode": "99973"
 },
 {
  "id": 9412012004,
  "districtId": 9412012,
  "districtName": "MIMIKA BARAT TENGAH",
  "name": "AKAR",
  "postalCode": "99973"
 },
 {
  "id": 9412012005,
  "districtId": 9412012,
  "districtName": "MIMIKA BARAT TENGAH",
  "name": "KAPIRAYA",
  "postalCode": "99973"
 },
 {
  "id": 9412012006,
  "districtId": 9412012,
  "districtName": "MIMIKA BARAT TENGAH",
  "name": "UTA",
  "postalCode": "99973"
 },
 {
  "id": 9412012007,
  "districtId": 9412012,
  "districtName": "MIMIKA BARAT TENGAH",
  "name": "MUPURUKA",
  "postalCode": ""
 },
 {
  "id": 9412012008,
  "districtId": 9412012,
  "districtName": "MIMIKA BARAT TENGAH",
  "name": "WUMUKA",
  "postalCode": "99973"
 },
 {
  "id": 9412012009,
  "districtId": 9412012,
  "districtName": "MIMIKA BARAT TENGAH",
  "name": "WAKIA",
  "postalCode": "99973"
 }
]