[
 {
  "id": 9415040001,
  "districtId": 9415040,
  "districtName": "SUATOR",
  "name": "JINAK",
  "postalCode": "99766"
 },
 {
  "id": 9415040002,
  "districtId": 9415040,
  "districtName": "SUATOR",
  "name": "WOWI",
  "postalCode": "99766"
 },
 {
  "id": 9415040007,
  "districtId": 9415040,
  "districtName": "SUATOR",
  "name": "KARBIS",
  "postalCode": "99766"
 },
 {
  "id": 9415040008,
  "districtId": 9415040,
  "districtName": "SUATOR",
  "name": "BUBIS",
  "postalCode": "99766"
 },
 {
  "id": 9415040009,
  "districtId": 9415040,
  "districtName": "SUATOR",
  "name": "BINAM",
  "postalCode": "99766"
 },
 {
  "id": 9415040010,
  "districtId": 9415040,
  "districtName": "SUATOR",
  "name": "BURBIS",
  "postalCode": "99766"
 },
 {
  "id": 9415040011,
  "districtId": 9415040,
  "districtName": "SUATOR",
  "name": "WAGANU DUA",
  "postalCode": "99766"
 },
 {
  "id": 9415040014,
  "districtId": 9415040,
  "districtName": "SUATOR",
  "name": "SORAI",
  "postalCode": ""
 },
 {
  "id": 9415040015,
  "districtId": 9415040,
  "districtName": "SUATOR",
  "name": "WAGABUS",
  "postalCode": "99766"
 },
 {
  "id": 9415040016,
  "districtId": 9415040,
  "districtName": "SUATOR",
  "name": "EMNAM",
  "postalCode": "99766"
 }
]