[
 {
  "id": 9415071001,
  "districtId": 9415071,
  "districtName": "SURU-SURU",
  "name": "TOMOR",
  "postalCode": "99778"
 },
 {
  "id": 9415071002,
  "districtId": 9415071,
  "districtName": "SURU-SURU",
  "name": "JIFAK",
  "postalCode": "99778"
 },
 {
  "id": 9415071003,
  "districtId": 9415071,
  "districtName": "SURU-SURU",
  "name": "TII",
  "postalCode": "99778"
 },
 {
  "id": 9415071004,
  "districtId": 9415071,
  "districtName": "SURU-SURU",
  "name": "SAGAPU",
  "postalCode": "99778"
 },
 {
  "id": 9415071005,
  "districtId": 9415071,
  "districtName": "SURU-SURU",
  "name": "JESENKO",
  "postalCode": ""
 },
 {
  "id": 9415071006,
  "districtId": 9415071,
  "districtName": "SURU-SURU",
  "name": "KOBA",
  "postalCode": "33681"
 },
 {
  "id": 9415071009,
  "districtId": 9415071,
  "districtName": "SURU-SURU",
  "name": "DUMATEN",
  "postalCode": "99778"
 },
 {
  "id": 9415071010,
  "districtId": 9415071,
  "districtName": "SURU-SURU",
  "name": "HOM-HOM",
  "postalCode": "99566"
 },
 {
  "id": 9415071011,
  "districtId": 9415071,
  "districtName": "SURU-SURU",
  "name": "AJIN",
  "postalCode": "99778"
 },
 {
  "id": 9415071012,
  "districtId": 9415071,
  "districtName": "SURU-SURU",
  "name": "KOROBUK",
  "postalCode": "99778"
 },
 {
  "id": 9415071013,
  "districtId": 9415071,
  "districtName": "SURU-SURU",
  "name": "KATALINA",
  "postalCode": "99778"
 },
 {
  "id": 9415071014,
  "districtId": 9415071,
  "districtName": "SURU-SURU",
  "name": "OBIO",
  "postalCode": "99571"
 },
 {
  "id": 9415071015,
  "districtId": 9415071,
  "districtName": "SURU-SURU",
  "name": "SALBIK",
  "postalCode": "99778"
 },
 {
  "id": 9415071016,
  "districtId": 9415071,
  "districtName": "SURU-SURU",
  "name": "LINDUK",
  "postalCode": "42192"
 },
 {
  "id": 9415071017,
  "districtId": 9415071,
  "districtName": "SURU-SURU",
  "name": "BESIKA",
  "postalCode": "99778"
 },
 {
  "id": 9415071018,
  "districtId": 9415071,
  "districtName": "SURU-SURU",
  "name": "LALUK",
  "postalCode": "99778"
 },
 {
  "id": 9415071019,
  "districtId": 9415071,
  "districtName": "SURU-SURU",
  "name": "KEBIKDUK",
  "postalCode": "99778"
 },
 {
  "id": 9415071020,
  "districtId": 9415071,
  "districtName": "SURU-SURU",
  "name": "HULAM",
  "postalCode": "99778"
 },
 {
  "id": 9415071021,
  "districtId": 9415071,
  "districtName": "SURU-SURU",
  "name": "WALASE",
  "postalCode": "99778"
 },
 {
  "id": 9415071022,
  "districtId": 9415071,
  "districtName": "SURU-SURU",
  "name": "BERIMONO",
  "postalCode": "99778"
 },
 {
  "id": 9415071023,
  "districtId": 9415071,
  "districtName": "SURU-SURU",
  "name": "ASGUN",
  "postalCode": "99778"
 }
]