[
 {
  "id": 9416041001,
  "districtId": 9416041,
  "districtName": "SAMENAGE",
  "name": "SAMENAGE",
  "postalCode": "99571"
 },
 {
  "id": 9416041002,
  "districtId": 9416041,
  "districtName": "SAMENAGE",
  "name": "HALEROMA",
  "postalCode": "99571"
 },
 {
  "id": 9416041003,
  "districtId": 9416041,
  "districtName": "SAMENAGE",
  "name": "ISON",
  "postalCode": "99571"
 },
 {
  "id": 9416041004,
  "districtId": 9416041,
  "districtName": "SAMENAGE",
  "name": "ASOTAPO",
  "postalCode": "99511"
 },
 {
  "id": 9416041005,
  "districtId": 9416041,
  "districtName": "SAMENAGE",
  "name": "HIRIN",
  "postalCode": "99571"
 },
 {
  "id": 9416041006,
  "districtId": 9416041,
  "districtName": "SAMENAGE",
  "name": "NOTNAREK",
  "postalCode": "99571"
 },
 {
  "id": 9416041008,
  "districtId": 9416041,
  "districtName": "SAMENAGE",
  "name": "PONA",
  "postalCode": "99571"
 },
 {
  "id": 9416041009,
  "districtId": 9416041,
  "districtName": "SAMENAGE",
  "name": "HUGILOKON",
  "postalCode": "99571"
 }
]