[
 {
  "id": 9416020004,
  "districtId": 9416020,
  "districtName": "NINIA",
  "name": "LILIGAN",
  "postalCode": "99578"
 },
 {
  "id": 9416020005,
  "districtId": 9416020,
  "districtName": "NINIA",
  "name": "NINIA",
  "postalCode": "99578"
 },
 {
  "id": 9416020013,
  "districtId": 9416020,
  "districtName": "NINIA",
  "name": "LILIGAN 2",
  "postalCode": ""
 },
 {
  "id": 9416020022,
  "districtId": 9416020,
  "districtName": "NINIA",
  "name": "NINIAHAN",
  "postalCode": "99578"
 },
 {
  "id": 9416020023,
  "districtId": 9416020,
  "districtName": "NINIA",
  "name": "SOHWAL",
  "postalCode": "99578"
 },
 {
  "id": 9416020024,
  "districtId": 9416020,
  "districtName": "NINIA",
  "name": "WAEREK",
  "postalCode": "99578"
 },
 {
  "id": 9416020025,
  "districtId": 9416020,
  "districtName": "NINIA",
  "name": "WAHAIK",
  "postalCode": "99578"
 },
 {
  "id": 9416020026,
  "districtId": 9416020,
  "districtName": "NINIA",
  "name": "HWEALOMA",
  "postalCode": "99578"
 },
 {
  "id": 9416020027,
  "districtId": 9416020,
  "districtName": "NINIA",
  "name": "BABET",
  "postalCode": "99578"
 },
 {
  "id": 9416020028,
  "districtId": 9416020,
  "districtName": "NINIA",
  "name": "KAHUL",
  "postalCode": "99578"
 }
]