[
 {
  "id": 9416055001,
  "districtId": 9416055,
  "districtName": "KWIKMA",
  "name": "SILAKMA",
  "postalCode": "99578"
 },
 {
  "id": 9416055002,
  "districtId": 9416055,
  "districtName": "KWIKMA",
  "name": "SOMARIN",
  "postalCode": ""
 },
 {
  "id": 9416055003,
  "districtId": 9416055,
  "districtName": "KWIKMA",
  "name": "MONIN",
  "postalCode": "99578"
 },
 {
  "id": 9416055004,
  "districtId": 9416055,
  "districtName": "KWIKMA",
  "name": "ENGGELASUE",
  "postalCode": "99578"
 },
 {
  "id": 9416055005,
  "districtId": 9416055,
  "districtName": "KWIKMA",
  "name": "OAKBISIK",
  "postalCode": "99578"
 },
 {
  "id": 9416055006,
  "districtId": 9416055,
  "districtName": "KWIKMA",
  "name": "HUSMO",
  "postalCode": "99578"
 },
 {
  "id": 9416055007,
  "districtId": 9416055,
  "districtName": "KWIKMA",
  "name": "KARELMA",
  "postalCode": "99578"
 },
 {
  "id": 9416055008,
  "districtId": 9416055,
  "districtName": "KWIKMA",
  "name": "KENKENI",
  "postalCode": "99578"
 },
 {
  "id": 9416055009,
  "districtId": 9416055,
  "districtName": "KWIKMA",
  "name": "MOMENGGAMA",
  "postalCode": "99578"
 },
 {
  "id": 9416055010,
  "districtId": 9416055,
  "districtName": "KWIKMA",
  "name": "USABINI",
  "postalCode": "99578"
 }
]