[
 {
  "id": 9416013001,
  "districtId": 9416013,
  "districtName": "DEKAI",
  "name": "DEKAI",
  "postalCode": "99571"
 },
 {
  "id": 9416013002,
  "districtId": 9416013,
  "districtName": "DEKAI",
  "name": "KUASERAMA",
  "postalCode": "99571"
 },
 {
  "id": 9416013003,
  "districtId": 9416013,
  "districtName": "DEKAI",
  "name": "MORUKU",
  "postalCode": ""
 },
 {
  "id": 9416013004,
  "districtId": 9416013,
  "districtName": "DEKAI",
  "name": "MASSI",
  "postalCode": "99571"
 },
 {
  "id": 9416013005,
  "districtId": 9416013,
  "districtName": "DEKAI",
  "name": "KEIKEY",
  "postalCode": "99571"
 },
 {
  "id": 9416013006,
  "districtId": 9416013,
  "districtName": "DEKAI",
  "name": "KUARI",
  "postalCode": "99571"
 },
 {
  "id": 9416013007,
  "districtId": 9416013,
  "districtName": "DEKAI",
  "name": "MUARA",
  "postalCode": "41259"
 },
 {
  "id": 9416013008,
  "districtId": 9416013,
  "districtName": "DEKAI",
  "name": "KIRIBUN",
  "postalCode": "99571"
 },
 {
  "id": 9416013009,
  "districtId": 9416013,
  "districtName": "DEKAI",
  "name": "KOKAMU",
  "postalCode": "99571"
 },
 {
  "id": 9416013010,
  "districtId": 9416013,
  "districtName": "DEKAI",
  "name": "TOMON I",
  "postalCode": ""
 },
 {
  "id": 9416013011,
  "districtId": 9416013,
  "districtName": "DEKAI",
  "name": "SOKAMU",
  "postalCode": "99571"
 },
 {
  "id": 9416013012,
  "districtId": 9416013,
  "districtName": "DEKAI",
  "name": "TOMON II",
  "postalCode": ""
 }
]