[
 {
  "id": 9416034001,
  "districtId": 9416034,
  "districtName": "UBAHAK",
  "name": "SARUK",
  "postalCode": "99582"
 },
 {
  "id": 9416034002,
  "districtId": 9416034,
  "districtName": "UBAHAK",
  "name": "UBAHAK",
  "postalCode": "99582"
 },
 {
  "id": 9416034003,
  "districtId": 9416034,
  "districtName": "UBAHAK",
  "name": "SOSOMIKMA",
  "postalCode": ""
 },
 {
  "id": 9416034004,
  "districtId": 9416034,
  "districtName": "UBAHAK",
  "name": "PINI",
  "postalCode": "99582"
 },
 {
  "id": 9416034006,
  "districtId": 9416034,
  "districtName": "UBAHAK",
  "name": "MABIEN",
  "postalCode": "99582"
 },
 {
  "id": 9416034008,
  "districtId": 9416034,
  "districtName": "UBAHAK",
  "name": "SILONG",
  "postalCode": "99582"
 },
 {
  "id": 9416034009,
  "districtId": 9416034,
  "districtName": "UBAHAK",
  "name": "NURAP",
  "postalCode": "99582"
 },
 {
  "id": 9416034010,
  "districtId": 9416034,
  "districtName": "UBAHAK",
  "name": "WAMUHUK",
  "postalCode": ""
 },
 {
  "id": 9416034011,
  "districtId": 9416034,
  "districtName": "UBAHAK",
  "name": "WELILE",
  "postalCode": "99582"
 },
 {
  "id": 9416034012,
  "districtId": 9416034,
  "districtName": "UBAHAK",
  "name": "KIBIANGGEN",
  "postalCode": "99582"
 },
 {
  "id": 9416034014,
  "districtId": 9416034,
  "districtName": "UBAHAK",
  "name": "TOLOMPING",
  "postalCode": ""
 },
 {
  "id": 9416034015,
  "districtId": 9416034,
  "districtName": "UBAHAK",
  "name": "OBLIN",
  "postalCode": "99582"
 },
 {
  "id": 9416034016,
  "districtId": 9416034,
  "districtName": "UBAHAK",
  "name": "KOLUONG",
  "postalCode": ""
 },
 {
  "id": 9416034018,
  "districtId": 9416034,
  "districtName": "UBAHAK",
  "name": "BISIFAK",
  "postalCode": "99582"
 }
]