[
 {
  "id": 9417056001,
  "districtId": 9417056,
  "districtName": "OKBEMTA",
  "name": "OKTAU",
  "postalCode": "99574"
 },
 {
  "id": 9417056002,
  "districtId": 9417056,
  "districtName": "OKBEMTA",
  "name": "OKNGAN",
  "postalCode": ""
 },
 {
  "id": 9417056003,
  "districtId": 9417056,
  "districtName": "OKBEMTA",
  "name": "OKBEM",
  "postalCode": "99574"
 },
 {
  "id": 9417056004,
  "districtId": 9417056,
  "districtName": "OKBEMTA",
  "name": "OKTARU",
  "postalCode": "99574"
 },
 {
  "id": 9417056006,
  "districtId": 9417056,
  "districtName": "OKBEMTA",
  "name": "KAEP",
  "postalCode": "99574"
 },
 {
  "id": 9417056007,
  "districtId": 9417056,
  "districtName": "OKBEMTA",
  "name": "BEMHIMIKU",
  "postalCode": "99574"
 },
 {
  "id": 9417056008,
  "districtId": 9417056,
  "districtName": "OKBEMTA",
  "name": "ATANG DOKI",
  "postalCode": "99574"
 },
 {
  "id": 9417056009,
  "districtId": 9417056,
  "districtName": "OKBEMTA",
  "name": "OKALUT KUMAL",
  "postalCode": "99574"
 },
 {
  "id": 9417056010,
  "districtId": 9417056,
  "districtName": "OKBEMTA",
  "name": "BILIP BAYO",
  "postalCode": "99574"
 }
]