[
 {
  "id": 9417050008,
  "districtId": 9417050,
  "districtName": "KIWIROK",
  "name": "BERUSAHA",
  "postalCode": "99574"
 },
 {
  "id": 9417050009,
  "districtId": 9417050,
  "districtName": "KIWIROK",
  "name": "OKNANGGUL",
  "postalCode": "99574"
 },
 {
  "id": 9417050015,
  "districtId": 9417050,
  "districtName": "KIWIROK",
  "name": "PELEBIB",
  "postalCode": "99574"
 },
 {
  "id": 9417050016,
  "districtId": 9417050,
  "districtName": "KIWIROK",
  "name": "KIWI",
  "postalCode": "99574"
 },
 {
  "id": 9417050017,
  "districtId": 9417050,
  "districtName": "KIWIROK",
  "name": "KUKIHIL",
  "postalCode": "99574"
 },
 {
  "id": 9417050020,
  "districtId": 9417050,
  "districtName": "KIWIROK",
  "name": "SOPAMIKMA",
  "postalCode": "99574"
 },
 {
  "id": 9417050021,
  "districtId": 9417050,
  "districtName": "KIWIROK",
  "name": "LOLIM",
  "postalCode": "99574"
 },
 {
  "id": 9417050022,
  "districtId": 9417050,
  "districtName": "KIWIROK",
  "name": "ASUA",
  "postalCode": "99574"
 },
 {
  "id": 9417050023,
  "districtId": 9417050,
  "districtName": "KIWIROK",
  "name": "MANGOLDOKI",
  "postalCode": "99574"
 },
 {
  "id": 9417050025,
  "districtId": 9417050,
  "districtName": "KIWIROK",
  "name": "POMDING",
  "postalCode": "99574"
 },
 {
  "id": 9417050026,
  "districtId": 9417050,
  "districtName": "KIWIROK",
  "name": "DIIP",
  "postalCode": "99574"
 }
]