[
 {
  "id": 9417055001,
  "districtId": 9417055,
  "districtName": "OKSAMOL",
  "name": "OKMA",
  "postalCode": "99574"
 },
 {
  "id": 9417055002,
  "districtId": 9417055,
  "districtName": "OKSAMOL",
  "name": "PAUNE",
  "postalCode": "99574"
 },
 {
  "id": 9417055003,
  "districtId": 9417055,
  "districtName": "OKSAMOL",
  "name": "TINIBIL",
  "postalCode": "99574"
 },
 {
  "id": 9417055004,
  "districtId": 9417055,
  "districtName": "OKSAMOL",
  "name": "OKTAE",
  "postalCode": "99574"
 },
 {
  "id": 9417055005,
  "districtId": 9417055,
  "districtName": "OKSAMOL",
  "name": "OKDILAN",
  "postalCode": ""
 },
 {
  "id": 9417055006,
  "districtId": 9417055,
  "districtName": "OKSAMOL",
  "name": "AUTPAHIT",
  "postalCode": ""
 },
 {
  "id": 9417055007,
  "districtId": 9417055,
  "districtName": "OKSAMOL",
  "name": "TOMKA",
  "postalCode": "99574"
 },
 {
  "id": 9417055008,
  "districtId": 9417055,
  "districtName": "OKSAMOL",
  "name": "OKPA",
  "postalCode": "99574"
 },
 {
  "id": 9417055009,
  "districtId": 9417055,
  "districtName": "OKSAMOL",
  "name": "OKHAHA",
  "postalCode": ""
 },
 {
  "id": 9417055010,
  "districtId": 9417055,
  "districtName": "OKSAMOL",
  "name": "HONKUDING",
  "postalCode": "99574"
 },
 {
  "id": 9417055011,
  "districtId": 9417055,
  "districtName": "OKSAMOL",
  "name": "BOMDING",
  "postalCode": "99574"
 },
 {
  "id": 9417055012,
  "districtId": 9417055,
  "districtName": "OKSAMOL",
  "name": "OKDUNAN",
  "postalCode": ""
 }
]