[
 {
  "id": 9417030001,
  "districtId": 9417030,
  "districtName": "BORME",
  "name": "ONYA",
  "postalCode": "99577"
 },
 {
  "id": 9417030006,
  "districtId": 9417030,
  "districtName": "BORME",
  "name": "OMBAN",
  "postalCode": "99577"
 },
 {
  "id": 9417030007,
  "districtId": 9417030,
  "districtName": "BORME",
  "name": "BORME",
  "postalCode": "99577"
 },
 {
  "id": 9417030008,
  "districtId": 9417030,
  "districtName": "BORME",
  "name": "ARINA",
  "postalCode": "99577"
 },
 {
  "id": 9417030013,
  "districtId": 9417030,
  "districtName": "BORME",
  "name": "SIKIBUR",
  "postalCode": "99577"
 },
 {
  "id": 9417030014,
  "districtId": 9417030,
  "districtName": "BORME",
  "name": "BORDAMBAN",
  "postalCode": "99577"
 },
 {
  "id": 9417030016,
  "districtId": 9417030,
  "districtName": "BORME",
  "name": "KWIME",
  "postalCode": "99577"
 },
 {
  "id": 9417030017,
  "districtId": 9417030,
  "districtName": "BORME",
  "name": "LAYDAMBAN",
  "postalCode": "99577"
 },
 {
  "id": 9417030018,
  "districtId": 9417030,
  "districtName": "BORME",
  "name": "KOLGIR",
  "postalCode": "99577"
 },
 {
  "id": 9417030019,
  "districtId": 9417030,
  "districtName": "BORME",
  "name": "CANGDAMBAN",
  "postalCode": "99577"
 },
 {
  "id": 9417030020,
  "districtId": 9417030,
  "districtName": "BORME",
  "name": "SEMBAN",
  "postalCode": ""
 },
 {
  "id": 9417030021,
  "districtId": 9417030,
  "districtName": "BORME",
  "name": "BUKAP",
  "postalCode": ""
 },
 {
  "id": 9417030030,
  "districtId": 9417030,
  "districtName": "BORME",
  "name": "ARINGGON",
  "postalCode": "99577"
 }
]