[
 {
  "id": 9417042001,
  "districtId": 9417042,
  "districtName": "OKBAB",
  "name": "TUPOPLYON",
  "postalCode": ""
 },
 {
  "id": 9417042002,
  "districtId": 9417042,
  "districtName": "OKBAB",
  "name": "SABIN",
  "postalCode": "99572"
 },
 {
  "id": 9417042003,
  "districtId": 9417042,
  "districtName": "OKBAB",
  "name": "BORBAN",
  "postalCode": "99572"
 },
 {
  "id": 9417042004,
  "districtId": 9417042,
  "districtName": "OKBAB",
  "name": "MAKSUM",
  "postalCode": "99572"
 },
 {
  "id": 9417042005,
  "districtId": 9417042,
  "districtName": "OKBAB",
  "name": "YAPIL",
  "postalCode": "99572"
 },
 {
  "id": 9417042006,
  "districtId": 9417042,
  "districtName": "OKBAB",
  "name": "KIRIMU",
  "postalCode": "99572"
 },
 {
  "id": 9417042007,
  "districtId": 9417042,
  "districtName": "OKBAB",
  "name": "DUMPASIK",
  "postalCode": ""
 },
 {
  "id": 9417042008,
  "districtId": 9417042,
  "districtName": "OKBAB",
  "name": "PEDAM",
  "postalCode": "99572"
 },
 {
  "id": 9417042009,
  "districtId": 9417042,
  "districtName": "OKBAB",
  "name": "ATEMBAPOL",
  "postalCode": ""
 },
 {
  "id": 9417042010,
  "districtId": 9417042,
  "districtName": "OKBAB",
  "name": "MARKOM",
  "postalCode": "99572"
 },
 {
  "id": 9417042011,
  "districtId": 9417042,
  "districtName": "OKBAB",
  "name": "PENELI",
  "postalCode": "99572"
 },
 {
  "id": 9417042012,
  "districtId": 9417042,
  "districtName": "OKBAB",
  "name": "OMLIOM",
  "postalCode": "99572"
 }
]