[
 {
  "id": 9418061001,
  "districtId": 9418061,
  "districtName": "ANAWI",
  "name": "YALIPURA",
  "postalCode": "99562"
 },
 {
  "id": 9418061002,
  "districtId": 9418061,
  "districtName": "ANAWI",
  "name": "ANAWI",
  "postalCode": "99562"
 },
 {
  "id": 9418061003,
  "districtId": 9418061,
  "districtName": "ANAWI",
  "name": "KOTORI",
  "postalCode": "99562"
 },
 {
  "id": 9418061004,
  "districtId": 9418061,
  "districtName": "ANAWI",
  "name": "LINGGIR",
  "postalCode": ""
 },
 {
  "id": 9418061005,
  "districtId": 9418061,
  "districtName": "ANAWI",
  "name": "IMURIK",
  "postalCode": "99562"
 },
 {
  "id": 9418061006,
  "districtId": 9418061,
  "districtName": "ANAWI",
  "name": "TALIKOBAK",
  "postalCode": ""
 },
 {
  "id": 9418061007,
  "districtId": 9418061,
  "districtName": "ANAWI",
  "name": "GINERI",
  "postalCode": "99562"
 },
 {
  "id": 9418061008,
  "districtId": 9418061,
  "districtName": "ANAWI",
  "name": "LOGUK",
  "postalCode": "99562"
 },
 {
  "id": 9418061009,
  "districtId": 9418061,
  "districtName": "ANAWI",
  "name": "BIELEME",
  "postalCode": "99562"
 },
 {
  "id": 9418061010,
  "districtId": 9418061,
  "districtName": "ANAWI",
  "name": "ARIDUNDA",
  "postalCode": "99562"
 }
]