[
 {
  "id": 9418016001,
  "districtId": 9418016,
  "districtName": "BOGONUK",
  "name": "BOGONUK",
  "postalCode": "99568"
 },
 {
  "id": 9418016002,
  "districtId": 9418016,
  "districtName": "BOGONUK",
  "name": "ANDOMAK",
  "postalCode": "99568"
 },
 {
  "id": 9418016003,
  "districtId": 9418016,
  "districtName": "BOGONUK",
  "name": "WISMAN",
  "postalCode": "99568"
 },
 {
  "id": 9418016004,
  "districtId": 9418016,
  "districtName": "BOGONUK",
  "name": "PABA",
  "postalCode": "99568"
 },
 {
  "id": 9418016005,
  "districtId": 9418016,
  "districtName": "BOGONUK",
  "name": "EWAN",
  "postalCode": "99568"
 },
 {
  "id": 9418016006,
  "districtId": 9418016,
  "districtName": "BOGONUK",
  "name": "WUMELAK",
  "postalCode": "99568"
 },
 {
  "id": 9418016007,
  "districtId": 9418016,
  "districtName": "BOGONUK",
  "name": "WALELO",
  "postalCode": "99568"
 },
 {
  "id": 9418016008,
  "districtId": 9418016,
  "districtName": "BOGONUK",
  "name": "LAURA",
  "postalCode": "99568"
 },
 {
  "id": 9418016009,
  "districtId": 9418016,
  "districtName": "BOGONUK",
  "name": "TALINAMBER",
  "postalCode": "99568"
 },
 {
  "id": 9418016010,
  "districtId": 9418016,
  "districtName": "BOGONUK",
  "name": "ALINDUDA",
  "postalCode": ""
 }
]