[
 {
  "id": 9418081001,
  "districtId": 9418081,
  "districtName": "KAI",
  "name": "KAIGA",
  "postalCode": "99562"
 },
 {
  "id": 9418081002,
  "districtId": 9418081,
  "districtName": "KAI",
  "name": "BAWI",
  "postalCode": "99562"
 },
 {
  "id": 9418081003,
  "districtId": 9418081,
  "districtName": "KAI",
  "name": "TINA",
  "postalCode": "99562"
 },
 {
  "id": 9418081004,
  "districtId": 9418081,
  "districtName": "KAI",
  "name": "KURBAYA",
  "postalCode": "99562"
 },
 {
  "id": 9418081005,
  "districtId": 9418081,
  "districtName": "KAI",
  "name": "WIYANGGER",
  "postalCode": "99562"
 },
 {
  "id": 9418081006,
  "districtId": 9418081,
  "districtName": "KAI",
  "name": "PIRALOME",
  "postalCode": ""
 },
 {
  "id": 9418081007,
  "districtId": 9418081,
  "districtName": "KAI",
  "name": "WOLU",
  "postalCode": "97553"
 },
 {
  "id": 9418081008,
  "districtId": 9418081,
  "districtName": "KAI",
  "name": "KOTORAMBUR",
  "postalCode": "99562"
 },
 {
  "id": 9418081009,
  "districtId": 9418081,
  "districtName": "KAI",
  "name": "TUNGGUNALE",
  "postalCode": "99562"
 },
 {
  "id": 9418081010,
  "districtId": 9418081,
  "districtName": "KAI",
  "name": "AGIAN",
  "postalCode": ""
 }
]