[
 {
  "id": 9418542001,
  "districtId": 9418542,
  "districtName": "GIKA",
  "name": "GELOK",
  "postalCode": "99569"
 },
 {
  "id": 9418542002,
  "districtId": 9418542,
  "districtName": "GIKA",
  "name": "YINUWANU",
  "postalCode": "99569"
 },
 {
  "id": 9418542003,
  "districtId": 9418542,
  "districtName": "GIKA",
  "name": "MAKIDO",
  "postalCode": "99569"
 },
 {
  "id": 9418542004,
  "districtId": 9418542,
  "districtName": "GIKA",
  "name": "KWA",
  "postalCode": "99569"
 },
 {
  "id": 9418542005,
  "districtId": 9418542,
  "districtName": "GIKA",
  "name": "GEKA",
  "postalCode": "99569"
 },
 {
  "id": 9418542006,
  "districtId": 9418542,
  "districtName": "GIKA",
  "name": "DIMBARA",
  "postalCode": "99562"
 },
 {
  "id": 9418542007,
  "districtId": 9418542,
  "districtName": "GIKA",
  "name": "WANUWI",
  "postalCode": "99569"
 },
 {
  "id": 9418542009,
  "districtId": 9418542,
  "districtName": "GIKA",
  "name": "TABUNAKME",
  "postalCode": "99569"
 },
 {
  "id": 9418542010,
  "districtId": 9418542,
  "districtName": "GIKA",
  "name": "MAMBERAMONGEN",
  "postalCode": ""
 }
]