[
 {
  "id": 9418040001,
  "districtId": 9418040,
  "districtName": "KEMBU",
  "name": "NUGARI",
  "postalCode": "99569"
 },
 {
  "id": 9418040006,
  "districtId": 9418040,
  "districtName": "KEMBU",
  "name": "MAMIT",
  "postalCode": "99569"
 },
 {
  "id": 9418040012,
  "districtId": 9418040,
  "districtName": "KEMBU",
  "name": "YOWO",
  "postalCode": "99569"
 },
 {
  "id": 9418040013,
  "districtId": 9418040,
  "districtName": "KEMBU",
  "name": "TIOGA",
  "postalCode": "99569"
 },
 {
  "id": 9418040030,
  "districtId": 9418040,
  "districtName": "KEMBU",
  "name": "KOBON",
  "postalCode": "99569"
 },
 {
  "id": 9418040034,
  "districtId": 9418040,
  "districtName": "KEMBU",
  "name": "KABORI",
  "postalCode": "99569"
 },
 {
  "id": 9418040035,
  "districtId": 9418040,
  "districtName": "KEMBU",
  "name": "GENANI",
  "postalCode": "99569"
 },
 {
  "id": 9418040036,
  "districtId": 9418040,
  "districtName": "KEMBU",
  "name": "WULINAGA",
  "postalCode": "99569"
 },
 {
  "id": 9418040038,
  "districtId": 9418040,
  "districtName": "KEMBU",
  "name": "AWORERA",
  "postalCode": "99569"
 },
 {
  "id": 9418040040,
  "districtId": 9418040,
  "districtName": "KEMBU",
  "name": "AGIMDEK",
  "postalCode": "99569"
 }
]