[
 {
  "id": 9418080001,
  "districtId": 9418080,
  "districtName": "NUMBA",
  "name": "NUMBA",
  "postalCode": "86353"
 },
 {
  "id": 9418080005,
  "districtId": 9418080,
  "districtName": "NUMBA",
  "name": "BALIMINGGI",
  "postalCode": "99562"
 },
 {
  "id": 9418080006,
  "districtId": 9418080,
  "districtName": "NUMBA",
  "name": "KUMA",
  "postalCode": "95883"
 },
 {
  "id": 9418080007,
  "districtId": 9418080,
  "districtName": "NUMBA",
  "name": "YUGUMENA",
  "postalCode": "99562"
 },
 {
  "id": 9418080009,
  "districtId": 9418080,
  "districtName": "NUMBA",
  "name": "YALOGO",
  "postalCode": "99562"
 },
 {
  "id": 9418080011,
  "districtId": 9418080,
  "districtName": "NUMBA",
  "name": "YIRAGAME",
  "postalCode": "99562"
 },
 {
  "id": 9418080012,
  "districtId": 9418080,
  "districtName": "NUMBA",
  "name": "TINGWINERI",
  "postalCode": "99562"
 },
 {
  "id": 9418080013,
  "districtId": 9418080,
  "districtName": "NUMBA",
  "name": "GUNIKI",
  "postalCode": "99562"
 },
 {
  "id": 9418080014,
  "districtId": 9418080,
  "districtName": "NUMBA",
  "name": "KARAGIGELOK",
  "postalCode": ""
 },
 {
  "id": 9418080015,
  "districtId": 9418080,
  "districtName": "NUMBA",
  "name": "JINUWANU",
  "postalCode": "99562"
 }
]