[
 {
  "id": 9418026001,
  "districtId": 9418026,
  "districtName": "LIANOGOMA",
  "name": "ABURAGE",
  "postalCode": "99562"
 },
 {
  "id": 9418026002,
  "districtId": 9418026,
  "districtName": "LIANOGOMA",
  "name": "WIYALUK",
  "postalCode": "99562"
 },
 {
  "id": 9418026003,
  "districtId": 9418026,
  "districtName": "LIANOGOMA",
  "name": "KOGOYAPURA",
  "postalCode": "99562"
 },
 {
  "id": 9418026004,
  "districtId": 9418026,
  "districtName": "LIANOGOMA",
  "name": "TINGWI",
  "postalCode": "99562"
 },
 {
  "id": 9418026005,
  "districtId": 9418026,
  "districtName": "LIANOGOMA",
  "name": "LONGGOBOMA",
  "postalCode": "99562"
 },
 {
  "id": 9418026006,
  "districtId": 9418026,
  "districtName": "LIANOGOMA",
  "name": "GUBURA",
  "postalCode": "99562"
 },
 {
  "id": 9418026007,
  "districtId": 9418026,
  "districtName": "LIANOGOMA",
  "name": "BOGOME",
  "postalCode": "99562"
 },
 {
  "id": 9418026009,
  "districtId": 9418026,
  "districtName": "LIANOGOMA",
  "name": "ERIMBUR",
  "postalCode": "99562"
 },
 {
  "id": 9418026010,
  "districtId": 9418026,
  "districtName": "LIANOGOMA",
  "name": "MEGAGIRAKUK",
  "postalCode": ""
 }
]