[
 {
  "id": 9418011005,
  "districtId": 9418011,
  "districtName": "WONIKI",
  "name": "YALIWAK",
  "postalCode": "99568"
 },
 {
  "id": 9418011006,
  "districtId": 9418011,
  "districtName": "WONIKI",
  "name": "LUGWI",
  "postalCode": "99568"
 },
 {
  "id": 9418011007,
  "districtId": 9418011,
  "districtName": "WONIKI",
  "name": "TEROPME",
  "postalCode": "99568"
 },
 {
  "id": 9418011015,
  "districtId": 9418011,
  "districtName": "WONIKI",
  "name": "JIGONIME",
  "postalCode": ""
 },
 {
  "id": 9418011018,
  "districtId": 9418011,
  "districtName": "WONIKI",
  "name": "PAGONA",
  "postalCode": "99568"
 },
 {
  "id": 9418011019,
  "districtId": 9418011,
  "districtName": "WONIKI",
  "name": "MOME",
  "postalCode": "95763"
 },
 {
  "id": 9418011020,
  "districtId": 9418011,
  "districtName": "WONIKI",
  "name": "BOGUM",
  "postalCode": ""
 },
 {
  "id": 9418011021,
  "districtId": 9418011,
  "districtName": "WONIKI",
  "name": "PINDANGGUN",
  "postalCode": "99569"
 },
 {
  "id": 9418011022,
  "districtId": 9418011,
  "districtName": "WONIKI",
  "name": "WONABU",
  "postalCode": "99562"
 },
 {
  "id": 9418011025,
  "districtId": 9418011,
  "districtName": "WONIKI",
  "name": "WILILEME",
  "postalCode": "99568"
 },
 {
  "id": 9418011027,
  "districtId": 9418011,
  "districtName": "WONIKI",
  "name": "YANGGUNI",
  "postalCode": "99568"
 }
]