[
 {
  "id": 9418030003,
  "districtId": 9418030,
  "districtName": "BOKONDINI",
  "name": "MINGGANGGO",
  "postalCode": "99561"
 },
 {
  "id": 9418030004,
  "districtId": 9418030,
  "districtName": "BOKONDINI",
  "name": "APIAM",
  "postalCode": "99561"
 },
 {
  "id": 9418030005,
  "districtId": 9418030,
  "districtName": "BOKONDINI",
  "name": "UMAGE",
  "postalCode": ""
 },
 {
  "id": 9418030006,
  "districtId": 9418030,
  "districtName": "BOKONDINI",
  "name": "BOKONDINI",
  "postalCode": "99561"
 },
 {
  "id": 9418030007,
  "districtId": 9418030,
  "districtName": "BOKONDINI",
  "name": "GALALA",
  "postalCode": "97128"
 },
 {
  "id": 9418030008,
  "districtId": 9418030,
  "districtName": "BOKONDINI",
  "name": "MAIRINI",
  "postalCode": "99561"
 },
 {
  "id": 9418030022,
  "districtId": 9418030,
  "districtName": "BOKONDINI",
  "name": "TENGGAMA",
  "postalCode": ""
 },
 {
  "id": 9418030023,
  "districtId": 9418030,
  "districtName": "BOKONDINI",
  "name": "KOLOGUME",
  "postalCode": "99561"
 },
 {
  "id": 9418030024,
  "districtId": 9418030,
  "districtName": "BOKONDINI",
  "name": "LAMBOGO",
  "postalCode": "99561"
 },
 {
  "id": 9418030025,
  "districtId": 9418030,
  "districtName": "BOKONDINI",
  "name": "DUNDUMA",
  "postalCode": "99561"
 },
 {
  "id": 9418030026,
  "districtId": 9418030,
  "districtName": "BOKONDINI",
  "name": "JAWALENE",
  "postalCode": ""
 }
]