[
 {
  "id": 9418048001,
  "districtId": 9418048,
  "districtName": "WARI / TAIYEVE",
  "name": "WARI",
  "postalCode": "97762"
 },
 {
  "id": 9418048002,
  "districtId": 9418048,
  "districtName": "WARI / TAIYEVE",
  "name": "PAPEDARI",
  "postalCode": "99569"
 },
 {
  "id": 9418048003,
  "districtId": 9418048,
  "districtName": "WARI / TAIYEVE",
  "name": "DOTORI",
  "postalCode": "99569"
 },
 {
  "id": 9418048004,
  "districtId": 9418048,
  "districtName": "WARI / TAIYEVE",
  "name": "TIMOGA",
  "postalCode": ""
 },
 {
  "id": 9418048005,
  "districtId": 9418048,
  "districtName": "WARI / TAIYEVE",
  "name": "KOWARI",
  "postalCode": "99569"
 },
 {
  "id": 9418048006,
  "districtId": 9418048,
  "districtName": "WARI / TAIYEVE",
  "name": "WIKI",
  "postalCode": "99569"
 },
 {
  "id": 9418048008,
  "districtId": 9418048,
  "districtName": "WARI / TAIYEVE",
  "name": "FRIJI",
  "postalCode": "99569"
 },
 {
  "id": 9418048009,
  "districtId": 9418048,
  "districtName": "WARI / TAIYEVE",
  "name": "DORERA",
  "postalCode": "99569"
 },
 {
  "id": 9418048010,
  "districtId": 9418048,
  "districtName": "WARI / TAIYEVE",
  "name": "YANORA",
  "postalCode": "99569"
 },
 {
  "id": 9418048011,
  "districtId": 9418048,
  "districtName": "WARI / TAIYEVE",
  "name": "MUNA",
  "postalCode": "85574"
 },
 {
  "id": 9418048012,
  "districtId": 9418048,
  "districtName": "WARI / TAIYEVE",
  "name": "BELEISE",
  "postalCode": "99569"
 },
 {
  "id": 9418048013,
  "districtId": 9418048,
  "districtName": "WARI / TAIYEVE",
  "name": "KALIBU",
  "postalCode": "93672"
 },
 {
  "id": 9418048014,
  "districtId": 9418048,
  "districtName": "WARI / TAIYEVE",
  "name": "YAMIRIKO",
  "postalCode": ""
 },
 {
  "id": 9418048015,
  "districtId": 9418048,
  "districtName": "WARI / TAIYEVE",
  "name": "NINGGAME",
  "postalCode": ""
 },
 {
  "id": 9418048016,
  "districtId": 9418048,
  "districtName": "WARI / TAIYEVE",
  "name": "LANILOMA",
  "postalCode": "99569"
 },
 {
  "id": 9418048017,
  "districtId": 9418048,
  "districtName": "WARI / TAIYEVE",
  "name": "WAKUMEDER",
  "postalCode": ""
 }
]