[
 {
  "id": 9418024001,
  "districtId": 9418024,
  "districtName": "NELAWI",
  "name": "TIMOJINO",
  "postalCode": ""
 },
 {
  "id": 9418024002,
  "districtId": 9418024,
  "districtName": "NELAWI",
  "name": "MONDAGUL",
  "postalCode": "99562"
 },
 {
  "id": 9418024005,
  "districtId": 9418024,
  "districtName": "NELAWI",
  "name": "TABOWANIMBO",
  "postalCode": "99562"
 },
 {
  "id": 9418024006,
  "districtId": 9418024,
  "districtName": "NELAWI",
  "name": "NELAWI",
  "postalCode": "99562"
 },
 {
  "id": 9418024007,
  "districtId": 9418024,
  "districtName": "NELAWI",
  "name": "WOROMOLOME",
  "postalCode": "99562"
 },
 {
  "id": 9418024008,
  "districtId": 9418024,
  "districtName": "NELAWI",
  "name": "KENDEMEYA",
  "postalCode": ""
 },
 {
  "id": 9418024009,
  "districtId": 9418024,
  "districtName": "NELAWI",
  "name": "PALAGI",
  "postalCode": "99562"
 },
 {
  "id": 9418024010,
  "districtId": 9418024,
  "districtName": "NELAWI",
  "name": "MEGAPURA",
  "postalCode": "99562"
 },
 {
  "id": 9418024015,
  "districtId": 9418024,
  "districtName": "NELAWI",
  "name": "WABUNA",
  "postalCode": "99562"
 },
 {
  "id": 9418024016,
  "districtId": 9418024,
  "districtName": "NELAWI",
  "name": "MINAGAME",
  "postalCode": "99562"
 },
 {
  "id": 9418024017,
  "districtId": 9418024,
  "districtName": "NELAWI",
  "name": "BERENAME",
  "postalCode": ""
 },
 {
  "id": 9418024018,
  "districtId": 9418024,
  "districtName": "NELAWI",
  "name": "YILOGONIME",
  "postalCode": ""
 }
]