[
 {
  "id": 9418051002,
  "districtId": 9418051,
  "districtName": "NUNGGAWI",
  "name": "NUNGGAWI",
  "postalCode": "99568"
 },
 {
  "id": 9418051003,
  "districtId": 9418051,
  "districtName": "NUNGGAWI",
  "name": "KOKONDAO",
  "postalCode": ""
 },
 {
  "id": 9418051004,
  "districtId": 9418051,
  "districtName": "NUNGGAWI",
  "name": "WONDAME",
  "postalCode": "99568"
 },
 {
  "id": 9418051005,
  "districtId": 9418051,
  "districtName": "NUNGGAWI",
  "name": "KURIPA",
  "postalCode": ""
 },
 {
  "id": 9418051006,
  "districtId": 9418051,
  "districtName": "NUNGGAWI",
  "name": "KIMOBUR",
  "postalCode": "99562"
 },
 {
  "id": 9418051007,
  "districtId": 9418051,
  "districtName": "NUNGGAWI",
  "name": "TIMOBUR",
  "postalCode": ""
 },
 {
  "id": 9418051008,
  "districtId": 9418051,
  "districtName": "NUNGGAWI",
  "name": "KILUNGGA",
  "postalCode": "99568"
 },
 {
  "id": 9418051009,
  "districtId": 9418051,
  "districtName": "NUNGGAWI",
  "name": "NOMBORI",
  "postalCode": "99568"
 },
 {
  "id": 9418051010,
  "districtId": 9418051,
  "districtName": "NUNGGAWI",
  "name": "DELELAH",
  "postalCode": ""
 },
 {
  "id": 9418051011,
  "districtId": 9418051,
  "districtName": "NUNGGAWI",
  "name": "GILO",
  "postalCode": "99568"
 },
 {
  "id": 9418051012,
  "districtId": 9418051,
  "districtName": "NUNGGAWI",
  "name": "UNDI",
  "postalCode": "99568"
 },
 {
  "id": 9418051015,
  "districtId": 9418051,
  "districtName": "NUNGGAWI",
  "name": "KANGGINERI",
  "postalCode": "99568"
 },
 {
  "id": 9418051016,
  "districtId": 9418051,
  "districtName": "NUNGGAWI",
  "name": "WONOLUK",
  "postalCode": "99568"
 },
 {
  "id": 9418051017,
  "districtId": 9418051,
  "districtName": "NUNGGAWI",
  "name": "BERENGGO",
  "postalCode": ""
 },
 {
  "id": 9418051018,
  "districtId": 9418051,
  "districtName": "NUNGGAWI",
  "name": "TUNIBUR",
  "postalCode": "99568"
 },
 {
  "id": 9418051019,
  "districtId": 9418051,
  "districtName": "NUNGGAWI",
  "name": "WOYI",
  "postalCode": "99568"
 },
 {
  "id": 9418051020,
  "districtId": 9418051,
  "districtName": "NUNGGAWI",
  "name": "KUBALO",
  "postalCode": "99568"
 },
 {
  "id": 9418051021,
  "districtId": 9418051,
  "districtName": "NUNGGAWI",
  "name": "TINOWENE",
  "postalCode": ""
 },
 {
  "id": 9418051022,
  "districtId": 9418051,
  "districtName": "NUNGGAWI",
  "name": "MOLOLOWA",
  "postalCode": "99568"
 },
 {
  "id": 9418051023,
  "districtId": 9418051,
  "districtName": "NUNGGAWI",
  "name": "KONIPAGA",
  "postalCode": "99568"
 },
 {
  "id": 9418051024,
  "districtId": 9418051,
  "districtName": "NUNGGAWI",
  "name": "KABOMANGEN",
  "postalCode": ""
 },
 {
  "id": 9418051025,
  "districtId": 9418051,
  "districtName": "NUNGGAWI",
  "name": "KONDANGWI",
  "postalCode": "99568"
 },
 {
  "id": 9418051026,
  "districtId": 9418051,
  "districtName": "NUNGGAWI",
  "name": "KIPINO",
  "postalCode": "99568"
 }
]