[
 {
  "id": 9426040001,
  "districtId": 9426040,
  "districtName": "KIRIHI",
  "name": "DAIRI",
  "postalCode": "98263"
 },
 {
  "id": 9426040002,
  "districtId": 9426040,
  "districtName": "KIRIHI",
  "name": "SPOIRI",
  "postalCode": "98263"
 },
 {
  "id": 9426040003,
  "districtId": 9426040,
  "districtName": "KIRIHI",
  "name": "SOOH",
  "postalCode": "98263"
 },
 {
  "id": 9426040004,
  "districtId": 9426040,
  "districtName": "KIRIHI",
  "name": "DIWA",
  "postalCode": "98263"
 },
 {
  "id": 9426040005,
  "districtId": 9426040,
  "districtName": "KIRIHI",
  "name": "KAWARI",
  "postalCode": "98263"
 },
 {
  "id": 9426040006,
  "districtId": 9426040,
  "districtName": "KIRIHI",
  "name": "KUAISA",
  "postalCode": "98263"
 },
 {
  "id": 9426040007,
  "districtId": 9426040,
  "districtName": "KIRIHI",
  "name": "FOIDA",
  "postalCode": ""
 },
 {
  "id": 9426040008,
  "districtId": 9426040,
  "districtName": "KIRIHI",
  "name": "DIROU",
  "postalCode": "98263"
 },
 {
  "id": 9426040009,
  "districtId": 9426040,
  "districtName": "KIRIHI",
  "name": "ANTU ARU",
  "postalCode": "98263"
 },
 {
  "id": 9426040010,
  "districtId": 9426040,
  "districtName": "KIRIHI",
  "name": "WAUKA",
  "postalCode": ""
 }
]