[
 {
  "id": 9429051001,
  "districtId": 9429051,
  "districtName": "YAL",
  "name": "YAL",
  "postalCode": "99571"
 },
 {
  "id": 9429051002,
  "districtId": 9429051,
  "districtName": "YAL",
  "name": "PALPAM",
  "postalCode": "99571"
 },
 {
  "id": 9429051003,
  "districtId": 9429051,
  "districtName": "YAL",
  "name": "SITBODO",
  "postalCode": ""
 },
 {
  "id": 9429051004,
  "districtId": 9429051,
  "districtName": "YAL",
  "name": "DIRINGGAMA",
  "postalCode": "99571"
 },
 {
  "id": 9429051007,
  "districtId": 9429051,
  "districtName": "YAL",
  "name": "YABA",
  "postalCode": "97791"
 },
 {
  "id": 9429051008,
  "districtId": 9429051,
  "districtName": "YAL",
  "name": "DENGPA",
  "postalCode": "99571"
 },
 {
  "id": 9429051009,
  "districtId": 9429051,
  "districtName": "YAL",
  "name": "GIRIMNAK",
  "postalCode": "99571"
 },
 {
  "id": 9429051010,
  "districtId": 9429051,
  "districtName": "YAL",
  "name": "LAMBULE",
  "postalCode": "99571"
 },
 {
  "id": 9429051011,
  "districtId": 9429051,
  "districtName": "YAL",
  "name": "SUJUMBODO",
  "postalCode": ""
 },
 {
  "id": 9429051012,
  "districtId": 9429051,
  "districtName": "YAL",
  "name": "SUWELAMA",
  "postalCode": ""
 },
 {
  "id": 9429051013,
  "districtId": 9429051,
  "districtName": "YAL",
  "name": "GULAREM",
  "postalCode": "99571"
 },
 {
  "id": 9429051015,
  "districtId": 9429051,
  "districtName": "YAL",
  "name": "YIMOGI",
  "postalCode": "99571"
 },
 {
  "id": 9429051016,
  "districtId": 9429051,
  "districtName": "YAL",
  "name": "SAMBA",
  "postalCode": "99571"
 },
 {
  "id": 9429051017,
  "districtId": 9429051,
  "districtName": "YAL",
  "name": "MUGIAREM",
  "postalCode": "99571"
 },
 {
  "id": 9429051018,
  "districtId": 9429051,
  "districtName": "YAL",
  "name": "DANGENPEM",
  "postalCode": "99571"
 },
 {
  "id": 9429051020,
  "districtId": 9429051,
  "districtName": "YAL",
  "name": "UNDO",
  "postalCode": "99571"
 }
]