[
 {
  "id": 9431010001,
  "districtId": 9431010,
  "districtName": "KOBAKMA",
  "name": "NINUGAGAS",
  "postalCode": ""
 },
 {
  "id": 9431010002,
  "districtId": 9431010,
  "districtName": "KOBAKMA",
  "name": "ANDUANG",
  "postalCode": "99558"
 },
 {
  "id": 9431010003,
  "districtId": 9431010,
  "districtName": "KOBAKMA",
  "name": "SERALEMA",
  "postalCode": "99558"
 },
 {
  "id": 9431010004,
  "districtId": 9431010,
  "districtName": "KOBAKMA",
  "name": "BOROGES",
  "postalCode": "99558"
 },
 {
  "id": 9431010005,
  "districtId": 9431010,
  "districtName": "KOBAKMA",
  "name": "KOBAKMA",
  "postalCode": "99558"
 },
 {
  "id": 9431010007,
  "districtId": 9431010,
  "districtName": "KOBAKMA",
  "name": "GUAWAGE",
  "postalCode": "99558"
 },
 {
  "id": 9431010008,
  "districtId": 9431010,
  "districtName": "KOBAKMA",
  "name": "LUARIMA",
  "postalCode": "99558"
 },
 {
  "id": 9431010009,
  "districtId": 9431010,
  "districtName": "KOBAKMA",
  "name": "KENIWA",
  "postalCode": "99558"
 },
 {
  "id": 9431010010,
  "districtId": 9431010,
  "districtName": "KOBAKMA",
  "name": "BALIKLABUR",
  "postalCode": ""
 },
 {
  "id": 9431010011,
  "districtId": 9431010,
  "districtName": "KOBAKMA",
  "name": "YAGALIM",
  "postalCode": "99558"
 },
 {
  "id": 9431010012,
  "districtId": 9431010,
  "districtName": "KOBAKMA",
  "name": "SAMABEGULIK",
  "postalCode": ""
 },
 {
  "id": 9431010013,
  "districtId": 9431010,
  "districtName": "KOBAKMA",
  "name": "WIYUGOBAK",
  "postalCode": "99558"
 },
 {
  "id": 9431010014,
  "districtId": 9431010,
  "districtName": "KOBAKMA",
  "name": "MOGA",
  "postalCode": "52354"
 },
 {
  "id": 9431010015,
  "districtId": 9431010,
  "districtName": "KOBAKMA",
  "name": "DOKLE",
  "postalCode": "99558"
 }
]